{
  "lastUpdated": "2026-04-13T19:08:27.613864+00:00",
  "kcps": {
    "metar": "KCPS 131853Z 20011G21KT 10SM SCT044 28/17 A2995 RMK AO2 SLP136 T02830172 $",
    "windDirection": 200,
    "windSpeed": 11,
    "windGust": 21,
    "visibility": 10,
    "temperatureC": 28,
    "dewPointC": 17,
    "cloudCeiling": null,
    "altimeter": "A2995",
    "timestamp": "2026-04-13T18:53:00+00:00",
    "station": "KCPS"
  },
  "kstl": {
    "metar": "KSTL 131851Z 19013G24KT 10SM FEW044 BKN250 28/17 A2994 RMK AO2 SLP128 T02830172 $",
    "windDirection": 190,
    "windSpeed": 13,
    "windGust": 24,
    "visibility": 10,
    "temperatureC": 28,
    "dewPointC": 17,
    "cloudCeiling": 25000,
    "altimeter": "A2994",
    "timestamp": "2026-04-13T18:51:00+00:00",
    "station": "KSTL"
  }
}