{
  "lastUpdated": "2026-02-13T20:07:50.249963+00:00",
  "kcps": {
    "metar": "KCPS 131953Z 18007KT 10SM CLR 16/M02 A3011 RMK AO2 SLP197 T01561022 $",
    "windDirection": 180,
    "windSpeed": 7,
    "windGust": null,
    "visibility": 10,
    "temperatureC": 16,
    "dewPointC": -2,
    "cloudCeiling": 99999,
    "altimeter": "A3011",
    "timestamp": "2026-02-13T19:53:00+00:00",
    "station": "KCPS"
  },
  "kstl": {
    "metar": "KSTL 131951Z 20007KT 10SM FEW250 16/M02 A3011 RMK AO2 SLP199 T01611022 $",
    "windDirection": 200,
    "windSpeed": 7,
    "windGust": null,
    "visibility": 10,
    "temperatureC": 16,
    "dewPointC": -2,
    "cloudCeiling": null,
    "altimeter": "A3011",
    "timestamp": "2026-02-13T19:51:00+00:00",
    "station": "KSTL"
  }
}