{
  "lastUpdated": "2026-02-16T14:16:10.634030+00:00",
  "kcps": {
    "metar": "KCPS 161353Z 00000KT 10SM CLR 02/02 A3006 RMK AO2 SLP183 T00170017 $",
    "windDirection": 0,
    "windSpeed": 0,
    "windGust": null,
    "visibility": 10,
    "temperatureC": 2,
    "dewPointC": 2,
    "cloudCeiling": 99999,
    "altimeter": "A3006",
    "timestamp": "2026-02-16T13:53:00+00:00",
    "station": "KCPS"
  },
  "kstl": {
    "metar": "KSTL 161351Z 00000KT 10SM FEW005 FEW150 SCT250 07/04 A3006 RMK AO2 SLP183 FU FEW005 T00670039 $",
    "windDirection": 0,
    "windSpeed": 0,
    "windGust": null,
    "visibility": 10,
    "temperatureC": 7,
    "dewPointC": 4,
    "cloudCeiling": null,
    "altimeter": "A3006",
    "timestamp": "2026-02-16T13:51:00+00:00",
    "station": "KSTL"
  }
}