{
  "lastUpdated": "2025-10-26T04:47:12.086340+00:00",
  "kcps": {
    "metar": "KCPS 260353Z AUTO 08003KT 10SM -RA OVC085 11/08 A3024 RMK AO2 SLP239 P0000 T01060083 $",
    "windDirection": 80,
    "windSpeed": 3,
    "windGust": null,
    "visibility": 10,
    "temperatureC": 11,
    "dewPointC": 8,
    "cloudCeiling": 8500,
    "altimeter": "A3024",
    "timestamp": "2025-10-26T03:53:00+00:00",
    "station": "KCPS"
  },
  "kstl": {
    "metar": "KSTL 260351Z 11007KT 10SM -RA OVC090 12/07 A3023 RMK AO2 SLP237 P0000 T01220067 $",
    "windDirection": 110,
    "windSpeed": 7,
    "windGust": null,
    "visibility": 10,
    "temperatureC": 12,
    "dewPointC": 7,
    "cloudCeiling": 9000,
    "altimeter": "A3023",
    "timestamp": "2025-10-26T03:51:00+00:00",
    "station": "KSTL"
  }
}