{
  "lastUpdated": "2025-12-19T21:46:42.360526+00:00",
  "kcps": {
    "metar": "KCPS 192053Z 26003KT 10SM CLR 04/M12 A3008 RMK AO2 SLP189 T00391122 58008",
    "windDirection": 260,
    "windSpeed": 3,
    "windGust": null,
    "visibility": 10,
    "temperatureC": 4,
    "dewPointC": -12,
    "cloudCeiling": 99999,
    "altimeter": "A3008",
    "timestamp": "2025-12-19T20:53:00+00:00",
    "station": "KCPS"
  },
  "kstl": {
    "metar": "KSTL 192051Z 23007KT 10SM SCT250 03/M13 A3007 RMK AO2 SLP193 T00331133 58009 $",
    "windDirection": 230,
    "windSpeed": 7,
    "windGust": null,
    "visibility": 10,
    "temperatureC": 3,
    "dewPointC": -13,
    "cloudCeiling": null,
    "altimeter": "A3007",
    "timestamp": "2025-12-19T20:51:00+00:00",
    "station": "KSTL"
  }
}