{
  "lastUpdated": "2026-02-01T12:24:14.444024+00:00",
  "kcps": {
    "metar": "KCPS 011153Z AUTO 00000KT 10SM CLR M18/M19 A3044 RMK AO2 SLP317 I1000 I6000 T11831194 11111 21183 56007 $",
    "windDirection": 0,
    "windSpeed": 0,
    "windGust": null,
    "visibility": 10,
    "temperatureC": -18,
    "dewPointC": -19,
    "cloudCeiling": 99999,
    "altimeter": "A3044",
    "timestamp": "2026-02-01T11:53:00+00:00",
    "station": "KCPS"
  },
  "kstl": {
    "metar": "KSTL 011151Z 00000KT 10SM CLR M15/M18 A3042 RMK AO2 SLP323 4/004 T11501183 11117 21150 57011 $",
    "windDirection": 0,
    "windSpeed": 0,
    "windGust": null,
    "visibility": 10,
    "temperatureC": -15,
    "dewPointC": -18,
    "cloudCeiling": 99999,
    "altimeter": "A3042",
    "timestamp": "2026-02-01T11:51:00+00:00",
    "station": "KSTL"
  }
}