{
  "lastUpdated": "2026-01-07T19:47:16.110710+00:00",
  "kcps": {
    "metar": "KCPS 071853Z 19005KT 10SM CLR 18/02 A2994 RMK AO2 SLP137 T01780022 $",
    "windDirection": 190,
    "windSpeed": 5,
    "windGust": null,
    "visibility": 10,
    "temperatureC": 18,
    "dewPointC": 2,
    "cloudCeiling": 99999,
    "altimeter": "A2994",
    "timestamp": "2026-01-07T18:53:00+00:00",
    "station": "KCPS"
  },
  "kstl": {
    "metar": "KSTL 071851Z 19009KT 10SM FEW200 SCT250 18/02 A2993 RMK AO2 SLP137 T01780017 $",
    "windDirection": 190,
    "windSpeed": 9,
    "windGust": null,
    "visibility": 10,
    "temperatureC": 18,
    "dewPointC": 2,
    "cloudCeiling": null,
    "altimeter": "A2993",
    "timestamp": "2026-01-07T18:51:00+00:00",
    "station": "KSTL"
  }
}