{
  "lastUpdated": "2026-03-16T11:31:03.171785+00:00",
  "kcps": {
    "metar": "KCPS 161053Z AUTO 30018G28KT 10SM OVC026 M03/M08 A2983 RMK AO2 PK WND 30036/0955 SNE47 SLP104 P0000 T10331083 $",
    "windDirection": 300,
    "windSpeed": 18,
    "windGust": 28,
    "visibility": 10,
    "temperatureC": -3,
    "dewPointC": -8,
    "cloudCeiling": 2600,
    "altimeter": "A2983",
    "timestamp": "2026-03-16T10:53:00+00:00",
    "station": "KCPS"
  },
  "kstl": {
    "metar": "KSTL 161051Z 29021G35KT 9SM -SN OVC023 M04/M08 A2982 RMK AO2 PK WND 28038/1035 SLP107 P0000 T10441083 $",
    "windDirection": 290,
    "windSpeed": 21,
    "windGust": 35,
    "visibility": 9,
    "temperatureC": -4,
    "dewPointC": -8,
    "cloudCeiling": 2300,
    "altimeter": "A2982",
    "timestamp": "2026-03-16T10:51:00+00:00",
    "station": "KSTL"
  }
}