{
  "lastUpdated": "2026-04-17T16:18:13.204050+00:00",
  "kcps": {
    "metar": "KCPS 171553Z 19011G22KT 10SM CLR 26/18 A2989 RMK AO2 SLP119 T02560183 $",
    "windDirection": 190,
    "windSpeed": 11,
    "windGust": 22,
    "visibility": 10,
    "temperatureC": 26,
    "dewPointC": 18,
    "cloudCeiling": 99999,
    "altimeter": "A2989",
    "timestamp": "2026-04-17T15:53:00+00:00",
    "station": "KCPS"
  },
  "kstl": {
    "metar": "KSTL 171551Z 17011G19KT 10SM SCT250 26/18 A2989 RMK AO2 SLP110 T02560178 $",
    "windDirection": 170,
    "windSpeed": 11,
    "windGust": 19,
    "visibility": 10,
    "temperatureC": 26,
    "dewPointC": 18,
    "cloudCeiling": null,
    "altimeter": "A2989",
    "timestamp": "2026-04-17T15:51:00+00:00",
    "station": "KSTL"
  }
}