{
  "lastUpdated": "2026-05-08T09:29:51.969725+00:00",
  "kcps": {
    "metar": "KCPS 080853Z AUTO 17004KT 10SM CLR 08/06 A2991 RMK AO2 SLP128 T00830056 56010 $",
    "windDirection": 170,
    "windSpeed": 4,
    "windGust": null,
    "visibility": 10,
    "temperatureC": 8,
    "dewPointC": 6,
    "cloudCeiling": 99999,
    "altimeter": "A2991",
    "timestamp": "2026-05-08T08:53:00+00:00",
    "station": "KCPS"
  },
  "kstl": {
    "metar": "KSTL 080851Z 20005KT 10SM CLR 12/04 A2990 RMK AO2 SLP123 T01170044 56012 $",
    "windDirection": 200,
    "windSpeed": 5,
    "windGust": null,
    "visibility": 10,
    "temperatureC": 12,
    "dewPointC": 4,
    "cloudCeiling": 99999,
    "altimeter": "A2990",
    "timestamp": "2026-05-08T08:51:00+00:00",
    "station": "KSTL"
  }
}