{
  "lastUpdated": "2026-05-07T21:33:04.312181+00:00",
  "kcps": {
    "metar": "KCPS 072053Z 25009KT 10SM BKN090 BKN100 18/02 A2995 RMK AO2 SLP141 T01830017 56019 $",
    "windDirection": 250,
    "windSpeed": 9,
    "windGust": null,
    "visibility": 10,
    "temperatureC": 18,
    "dewPointC": 2,
    "cloudCeiling": 9000,
    "altimeter": "A2995",
    "timestamp": "2026-05-07T20:53:00+00:00",
    "station": "KCPS"
  },
  "kstl": {
    "metar": "KSTL 072051Z 23014G26KT 10SM SCT090 BKN120 18/02 A2995 RMK AO2 PK WND 27026/2050 SLP142 T01830022 57020 $",
    "windDirection": 230,
    "windSpeed": 14,
    "windGust": 26,
    "visibility": 10,
    "temperatureC": 18,
    "dewPointC": 2,
    "cloudCeiling": 12000,
    "altimeter": "A2995",
    "timestamp": "2026-05-07T20:51:00+00:00",
    "station": "KSTL"
  }
}