{
  "lastUpdated": "2026-05-09T23:51:24.955618+00:00",
  "kcps": {
    "metar": "KCPS 092253Z 25007KT 200V280 10SM CLR 27/11 A2976 RMK AO2 SLP073 T02670106 $",
    "windDirection": 250,
    "windSpeed": 7,
    "windGust": null,
    "visibility": 10,
    "temperatureC": 27,
    "dewPointC": 11,
    "cloudCeiling": 99999,
    "altimeter": "A2976",
    "timestamp": "2026-05-09T22:53:00+00:00",
    "station": "KCPS"
  },
  "kstl": {
    "metar": "KSTL 092251Z 29005KT 10SM FEW060 SCT250 26/09 A2977 RMK AO2 SLP074 T02610089 $",
    "windDirection": 290,
    "windSpeed": 5,
    "windGust": null,
    "visibility": 10,
    "temperatureC": 26,
    "dewPointC": 9,
    "cloudCeiling": null,
    "altimeter": "A2977",
    "timestamp": "2026-05-09T22:51:00+00:00",
    "station": "KSTL"
  }
}