{
  "lastUpdated": "2026-02-24T17:20:55.215847+00:00",
  "kcps": {
    "metar": "KCPS 241653Z 17011G20KT 10SM CLR 03/M08 A2988 RMK AO2 SLP123 T00331083 PNO $",
    "windDirection": 170,
    "windSpeed": 11,
    "windGust": 20,
    "visibility": 10,
    "temperatureC": 3,
    "dewPointC": -8,
    "cloudCeiling": 99999,
    "altimeter": "A2988",
    "timestamp": "2026-02-24T16:53:00+00:00",
    "station": "KCPS"
  },
  "kstl": {
    "metar": "KSTL 241651Z 18012KT 10SM OVC160 03/M09 A2985 RMK AO2 SLP120 T00331089 $",
    "windDirection": 180,
    "windSpeed": 12,
    "windGust": null,
    "visibility": 10,
    "temperatureC": 3,
    "dewPointC": -9,
    "cloudCeiling": 16000,
    "altimeter": "A2985",
    "timestamp": "2026-02-24T16:51:00+00:00",
    "station": "KSTL"
  }
}