{
  "lastUpdated": "2026-01-21T21:06:03.689854+00:00",
  "kcps": {
    "metar": "KCPS 212053Z 28011G19KT 10SM CLR 10/M08 A3004 RMK AO2 SLP174 T01001078 55010 $",
    "windDirection": 280,
    "windSpeed": 11,
    "windGust": 19,
    "visibility": 10,
    "temperatureC": 10,
    "dewPointC": -8,
    "cloudCeiling": 99999,
    "altimeter": "A3004",
    "timestamp": "2026-01-21T20:53:00+00:00",
    "station": "KCPS"
  },
  "kstl": {
    "metar": "KSTL 212051Z 30013KT 10SM CLR 08/M07 A3005 RMK AO2 SLP180 T00831072 55007 $",
    "windDirection": 300,
    "windSpeed": 13,
    "windGust": null,
    "visibility": 10,
    "temperatureC": 8,
    "dewPointC": -7,
    "cloudCeiling": 99999,
    "altimeter": "A3005",
    "timestamp": "2026-01-21T20:51:00+00:00",
    "station": "KSTL"
  }
}