{
  "lastUpdated": "2026-05-01T22:01:51.861331+00:00",
  "kcps": {
    "metar": "KCPS 012153Z 30007G18KT 10SM SCT090 17/M01 A3000 RMK AO2 SLP159 T01721006 $",
    "windDirection": 300,
    "windSpeed": 7,
    "windGust": 18,
    "visibility": 10,
    "temperatureC": 17,
    "dewPointC": -1,
    "cloudCeiling": null,
    "altimeter": "A3000",
    "timestamp": "2026-05-01T21:53:00+00:00",
    "station": "KCPS"
  },
  "kstl": {
    "metar": "KSTL 012151Z 30006G16KT 10SM FEW070 BKN110 17/M01 A3001 RMK AO2 SLP164 T01721006",
    "windDirection": 300,
    "windSpeed": 6,
    "windGust": 16,
    "visibility": 10,
    "temperatureC": 17,
    "dewPointC": -1,
    "cloudCeiling": 11000,
    "altimeter": "A3001",
    "timestamp": "2026-05-01T21:51:00+00:00",
    "station": "KSTL"
  }
}