{
  "lastUpdated": "2025-10-25T22:20:51.616007+00:00",
  "kcps": {
    "metar": "KCPS 252153Z 08008KT 10SM OVC110 15/07 A3020 RMK AO2 SLP225 T01500072 $",
    "windDirection": 80,
    "windSpeed": 8,
    "windGust": null,
    "visibility": 10,
    "temperatureC": 15,
    "dewPointC": 7,
    "cloudCeiling": 11000,
    "altimeter": "A3020",
    "timestamp": "2025-10-25T21:53:00+00:00",
    "station": "KCPS"
  },
  "kstl": {
    "metar": "KSTL 252151Z 11010KT 9SM -RA FEW070 OVC100 14/06 A3020 RMK AO2 RAB2059 SLP225 P0000 T01440056 $",
    "windDirection": 110,
    "windSpeed": 10,
    "windGust": null,
    "visibility": 9,
    "temperatureC": 14,
    "dewPointC": 6,
    "cloudCeiling": 10000,
    "altimeter": "A3020",
    "timestamp": "2025-10-25T21:51:00+00:00",
    "station": "KSTL"
  }
}