{
  "lastUpdated": "2026-02-06T23:51:09.082716+00:00",
  "kcps": {
    "metar": "KCPS 062253Z 34013KT 10SM FEW033 07/01 A3010 RMK AO2 SLP195 T00670006 $",
    "windDirection": 340,
    "windSpeed": 13,
    "windGust": null,
    "visibility": 10,
    "temperatureC": 7,
    "dewPointC": 1,
    "cloudCeiling": null,
    "altimeter": "A3010",
    "timestamp": "2026-02-06T22:53:00+00:00",
    "station": "KCPS"
  },
  "kstl": {
    "metar": "KSTL 062251Z 34015KT 10SM FEW031 06/00 A3010 RMK AO2 PK WND 33026/2156 SLP200 T00560000 $",
    "windDirection": 340,
    "windSpeed": 15,
    "windGust": null,
    "visibility": 10,
    "temperatureC": 6,
    "dewPointC": 0,
    "cloudCeiling": null,
    "altimeter": "A3010",
    "timestamp": "2026-02-06T22:51:00+00:00",
    "station": "KSTL"
  }
}