{
  "lastUpdated": "2025-11-26T21:02:24.974428+00:00",
  "kcps": {
    "metar": "KCPS 261953Z 31020G33KT 10SM CLR 07/M07 A3020 RMK AO2 PK WND 29033/1947 RAB23E51 SLP230 P0000 T00721072",
    "windDirection": 310,
    "windSpeed": 20,
    "windGust": 33,
    "visibility": 10,
    "temperatureC": 7,
    "dewPointC": -7,
    "cloudCeiling": 99999,
    "altimeter": "A3020",
    "timestamp": "2025-11-26T19:53:00+00:00",
    "station": "KCPS"
  },
  "kstl": {
    "metar": "KSTL 262051Z 30018G29KT 10SM FEW060 FEW250 07/M07 A3021 RMK AO2 PK WND 27038/2024 SLP236 T00671067 53005 $",
    "windDirection": 300,
    "windSpeed": 18,
    "windGust": 29,
    "visibility": 10,
    "temperatureC": 7,
    "dewPointC": -7,
    "cloudCeiling": null,
    "altimeter": "A3021",
    "timestamp": "2025-11-26T20:51:00+00:00",
    "station": "KSTL"
  }
}