{
  "lastUpdated": "2026-03-15T17:40:40.735088+00:00",
  "kcps": {
    "metar": "KCPS 151653Z 20017G36KT 10SM FEW041 SCT060 21/11 A2945 RMK AO2 PK WND 20038/1622 SLP969 T02060111 $",
    "windDirection": 200,
    "windSpeed": 17,
    "windGust": 36,
    "visibility": 10,
    "temperatureC": 21,
    "dewPointC": 11,
    "cloudCeiling": null,
    "altimeter": "A2945",
    "timestamp": "2026-03-15T16:53:00+00:00",
    "station": "KCPS"
  },
  "kstl": {
    "metar": "KSTL 151651Z 21020G30KT 10SM SCT055 BKN120 OVC250 20/11 A2943 RMK AO2 PK WND 20039/1608 SLP960 T02000111 $",
    "windDirection": 210,
    "windSpeed": 20,
    "windGust": 30,
    "visibility": 10,
    "temperatureC": 20,
    "dewPointC": 11,
    "cloudCeiling": 12000,
    "altimeter": "A2943",
    "timestamp": "2026-03-15T16:51:00+00:00",
    "station": "KSTL"
  }
}