{
  "lastUpdated": "2026-01-25T10:37:18.008205+00:00",
  "kcps": {
    "metar": "KCPS 251031Z AUTO 36011KT 2 1/2SM BR OVC028 M13/M15 A3014 RMK AO2 T11281150 PWINO FZRANO $",
    "windDirection": 360,
    "windSpeed": 11,
    "windGust": null,
    "visibility": 0.5,
    "temperatureC": -13,
    "dewPointC": -15,
    "cloudCeiling": 2800,
    "altimeter": "A3014",
    "timestamp": "2026-01-25T10:31:00+00:00",
    "station": "KCPS"
  },
  "kstl": {
    "metar": "KSTL 251032Z 36011KT 1/2SM R30R/5500VP6000FT SN FZFG VV017 M13/M16 A3014 RMK AO2 P0002 T11331156 $",
    "windDirection": 360,
    "windSpeed": 11,
    "windGust": null,
    "visibility": 0.5,
    "temperatureC": -13,
    "dewPointC": -16,
    "cloudCeiling": 1700,
    "altimeter": "A3014",
    "timestamp": "2026-01-25T10:32:00+00:00",
    "station": "KSTL"
  }
}