{
  "lastUpdated": "2026-01-14T20:36:20.717510+00:00",
  "kcps": {
    "metar": "KCPS 141953Z 33023G34KT 10SM -RA FEW048 04/M08 A2997 RMK AO2 PK WND 34036/1925 SLP150 P0000 T00391078",
    "windDirection": 330,
    "windSpeed": 23,
    "windGust": 34,
    "visibility": 10,
    "temperatureC": 4,
    "dewPointC": -8,
    "cloudCeiling": null,
    "altimeter": "A2997",
    "timestamp": "2026-01-14T19:53:00+00:00",
    "station": "KCPS"
  },
  "kstl": {
    "metar": "KSTL 141951Z 32020G34KT 10SM FEW044 03/M08 A2997 RMK AO2 PK WND 34034/1902 SLP152 T00331078 $",
    "windDirection": 320,
    "windSpeed": 20,
    "windGust": 34,
    "visibility": 10,
    "temperatureC": 3,
    "dewPointC": -8,
    "cloudCeiling": null,
    "altimeter": "A2997",
    "timestamp": "2026-01-14T19:51:00+00:00",
    "station": "KSTL"
  }
}