{
  "lastUpdated": "2025-12-02T08:22:56.693738+00:00",
  "kcps": {
    "metar": "KCPS 020818Z AUTO 33013KT 10SM OVC015 M04/M07 A3008 RMK AO2 T10391067 $",
    "windDirection": 330,
    "windSpeed": 13,
    "windGust": null,
    "visibility": 10,
    "temperatureC": -4,
    "dewPointC": -7,
    "cloudCeiling": 1500,
    "altimeter": "A3008",
    "timestamp": "2025-12-02T08:18:00+00:00",
    "station": "KCPS"
  },
  "kstl": {
    "metar": "KSTL 020815Z 31011KT 9SM -SN BKN009 OVC013 M06/M07 A3007 RMK AO2 SNB15 P0000 T10561072 $",
    "windDirection": 310,
    "windSpeed": 11,
    "windGust": null,
    "visibility": 9,
    "temperatureC": -6,
    "dewPointC": -7,
    "cloudCeiling": 900,
    "altimeter": "A3007",
    "timestamp": "2025-12-02T08:15:00+00:00",
    "station": "KSTL"
  }
}