{
  "lastUpdated": "2026-06-13T02:17:13.247627+00:00",
  "kcps": {
    "metar": "KCPS 130153Z 00000KT 10SM CLR 23/16 A2999 RMK AO2 SLP150 T02330161 $",
    "windDirection": 0,
    "windSpeed": 0,
    "windGust": null,
    "visibility": 10.0,
    "temperatureC": 23.3,
    "dewPointC": 16.1,
    "cloudCeiling": null,
    "altimeter": "A2999",
    "timestamp": "2026-06-13T02:00:00.000Z",
    "station": "KCPS"
  },
  "kstl": {
    "metar": "KSTL 130151Z 00000KT 10SM FEW005 SCT250 25/13 A2999 RMK AO2 SLP146 FU FEW005 T02500133 $",
    "windDirection": 0,
    "windSpeed": 0,
    "windGust": null,
    "visibility": 10.0,
    "temperatureC": 25,
    "dewPointC": 13.3,
    "cloudCeiling": null,
    "altimeter": "A2999",
    "timestamp": "2026-06-13T02:00:00.000Z",
    "station": "KSTL"
  }
}