{
  "lastUpdated": "2025-11-09T19:46:06.521095+00:00",
  "kcps": {
    "metar": "KCPS 091853Z 33020G31KT 10SM FEW047 04/M08 A3026 RMK AO2 PK WND 32031/1844 RAB02E11SNE02 SLP248 P0000 T00441078 $",
    "windDirection": 330,
    "windSpeed": 20,
    "windGust": 31,
    "visibility": 10,
    "temperatureC": 4,
    "dewPointC": -8,
    "cloudCeiling": null,
    "altimeter": "A3026",
    "timestamp": "2025-11-09T18:53:00+00:00",
    "station": "KCPS"
  },
  "kstl": {
    "metar": "KSTL 091851Z 34020G26KT 10SM SCT045 04/M09 A3025 RMK AO2 PK WND 31030/1806 SLP251 T00391094 $",
    "windDirection": 340,
    "windSpeed": 20,
    "windGust": 26,
    "visibility": 10,
    "temperatureC": 4,
    "dewPointC": -9,
    "cloudCeiling": null,
    "altimeter": "A3025",
    "timestamp": "2025-11-09T18:51:00+00:00",
    "station": "KSTL"
  }
}