{
  "lastUpdated": "2026-05-09T14:21:53.784578+00:00",
  "kcps": {
    "metar": "KCPS 091413Z 20005KT 10SM SCT012 16/13 A2980 RMK AO2 T01610133 $",
    "windDirection": 200,
    "windSpeed": 5,
    "windGust": null,
    "visibility": 10,
    "temperatureC": 16,
    "dewPointC": 13,
    "cloudCeiling": null,
    "altimeter": "A2980",
    "timestamp": "2026-05-09T14:13:00+00:00",
    "station": "KCPS"
  },
  "kstl": {
    "metar": "KSTL 091351Z 27008KT 10SM BKN009 16/13 A2980 RMK AO2 SLP088 T01560128 $",
    "windDirection": 270,
    "windSpeed": 8,
    "windGust": null,
    "visibility": 10,
    "temperatureC": 16,
    "dewPointC": 13,
    "cloudCeiling": 900,
    "altimeter": "A2980",
    "timestamp": "2026-05-09T13:51:00+00:00",
    "station": "KSTL"
  }
}