{
  "lastUpdated": "2026-05-02T11:59:16.997434+00:00",
  "kcps": {
    "metar": "KCPS 021053Z AUTO 34005KT 10SM FEW065 FEW095 07/06 A3004 RMK AO2 SLP171 T00720061 $",
    "windDirection": 340,
    "windSpeed": 5,
    "windGust": null,
    "visibility": 10,
    "temperatureC": 7,
    "dewPointC": 6,
    "cloudCeiling": null,
    "altimeter": "A3004",
    "timestamp": "2026-05-02T10:53:00+00:00",
    "station": "KCPS"
  },
  "kstl": {
    "metar": "KSTL 021151Z 34004KT 10SM BKN055 09/07 A3007 RMK AO2 SLP180 60000 T00890067 10117 20078 53012 $",
    "windDirection": 340,
    "windSpeed": 4,
    "windGust": null,
    "visibility": 10,
    "temperatureC": 9,
    "dewPointC": 7,
    "cloudCeiling": 5500,
    "altimeter": "A3007",
    "timestamp": "2026-05-02T11:51:00+00:00",
    "station": "KSTL"
  }
}