{
  "lastUpdated": "2026-01-14T01:55:54.206298+00:00",
  "kcps": {
    "metar": "KCPS 140153Z 30010KT 10SM SCT070 OVC080 14/01 A2980 RMK AO2 SLP091 T01440006 $",
    "windDirection": 300,
    "windSpeed": 10,
    "windGust": null,
    "visibility": 10,
    "temperatureC": 14,
    "dewPointC": 1,
    "cloudCeiling": 8000,
    "altimeter": "A2980",
    "timestamp": "2026-01-14T01:53:00+00:00",
    "station": "KCPS"
  },
  "kstl": {
    "metar": "KSTL 140151Z 30012G23KT 10SM -RA BKN055 OVC070 13/02 A2982 RMK AO2 RAB30 SLP096 P0000 T01280022 $",
    "windDirection": 300,
    "windSpeed": 12,
    "windGust": 23,
    "visibility": 10,
    "temperatureC": 13,
    "dewPointC": 2,
    "cloudCeiling": 5500,
    "altimeter": "A2982",
    "timestamp": "2026-01-14T01:51:00+00:00",
    "station": "KSTL"
  }
}