{
  "lastUpdated": "2025-11-25T22:02:29.486715+00:00",
  "kcps": {
    "metar": "KCPS 252153Z 25008KT 10SM FEW019 SCT028 SCT032 14/11 A2987 RMK AO2 RAE08 SLP113 P0000 T01390111",
    "windDirection": 250,
    "windSpeed": 8,
    "windGust": null,
    "visibility": 10,
    "temperatureC": 14,
    "dewPointC": 11,
    "cloudCeiling": null,
    "altimeter": "A2987",
    "timestamp": "2025-11-25T21:53:00+00:00",
    "station": "KCPS"
  },
  "kstl": {
    "metar": "KSTL 252151Z 26012KT 10SM BKN024 BKN060 14/10 A2986 RMK AO2 SLP112 T01390100 $",
    "windDirection": 260,
    "windSpeed": 12,
    "windGust": null,
    "visibility": 10,
    "temperatureC": 14,
    "dewPointC": 10,
    "cloudCeiling": 2400,
    "altimeter": "A2986",
    "timestamp": "2025-11-25T21:51:00+00:00",
    "station": "KSTL"
  }
}