{
  "lastUpdated": "2025-11-18T11:32:58.332482+00:00",
  "kcps": {
    "metar": "KCPS 181053Z 16005KT 10SM FEW110 13/02 A2983 RMK AO2 SLP099 T01330017",
    "windDirection": 160,
    "windSpeed": 5,
    "windGust": null,
    "visibility": 10,
    "temperatureC": 13,
    "dewPointC": 2,
    "cloudCeiling": null,
    "altimeter": "A2983",
    "timestamp": "2025-11-18T10:53:00+00:00",
    "station": "KCPS"
  },
  "kstl": {
    "metar": "KSTL 181106Z 12007KT 10SM TS SCT055CB BKN120 11/03 A2983 RMK AO2 TSB06 FRQ LTGICCG SW-W TS SW-W MOV SE T01110033 $",
    "windDirection": 120,
    "windSpeed": 7,
    "windGust": null,
    "visibility": 10,
    "temperatureC": 11,
    "dewPointC": 3,
    "cloudCeiling": 12000,
    "altimeter": "A2983",
    "timestamp": "2025-11-18T11:06:00+00:00",
    "station": "KSTL"
  }
}