{
  "lastUpdated": "2026-04-05T18:06:48.335670+00:00",
  "kcps": {
    "metar": "KCPS 051753Z 32010G19KT 10SM CLR 13/M01 A3031 RMK AO2 SLP265 T01281006 10133 20050 50003 $",
    "windDirection": 320,
    "windSpeed": 10,
    "windGust": 19,
    "visibility": 10,
    "temperatureC": 13,
    "dewPointC": -1,
    "cloudCeiling": 99999,
    "altimeter": "A3031",
    "timestamp": "2026-04-05T17:53:00+00:00",
    "station": "KCPS"
  },
  "kstl": {
    "metar": "KSTL 051751Z 30011G17KT 10SM CLR 12/00 A3032 RMK AO2 SLP270 T01220000 10128 20039 50004 $",
    "windDirection": 300,
    "windSpeed": 11,
    "windGust": 17,
    "visibility": 10,
    "temperatureC": 12,
    "dewPointC": 0,
    "cloudCeiling": 99999,
    "altimeter": "A3032",
    "timestamp": "2026-04-05T17:51:00+00:00",
    "station": "KSTL"
  }
}