{
  "lastUpdated": "2025-10-15T12:03:26.936978+00:00",
  "kcps": {
    "metar": "KCPS 151153Z 00000KT 10SM CLR 13/13 A3019 RMK AO2 SLP222 T01330128 10150 20122 53005 $",
    "windDirection": 0,
    "windSpeed": 0,
    "windGust": null,
    "visibility": 10,
    "temperatureC": 13,
    "dewPointC": 13,
    "cloudCeiling": 99999,
    "altimeter": "A3019",
    "timestamp": "2025-10-15T11:53:00+00:00",
    "station": "KCPS"
  },
  "kstl": {
    "metar": "KSTL 151151Z 00000KT 10SM FEW100 BKN190 17/13 A3020 RMK AO2 SLP218 T01720128 10194 20167 53004 $",
    "windDirection": 0,
    "windSpeed": 0,
    "windGust": null,
    "visibility": 10,
    "temperatureC": 17,
    "dewPointC": 13,
    "cloudCeiling": 19000,
    "altimeter": "A3020",
    "timestamp": "2025-10-15T11:51:00+00:00",
    "station": "KSTL"
  }
}