{
  "lastUpdated": "2025-10-22T16:38:54.746093+00:00",
  "kcps": {
    "metar": "KCPS 221553Z 28011G17KT 10SM CLR 13/M01 A3012 RMK AO2 SLP199 T01331011",
    "windDirection": 280,
    "windSpeed": 11,
    "windGust": 17,
    "visibility": 10,
    "temperatureC": 13,
    "dewPointC": -1,
    "cloudCeiling": 99999,
    "altimeter": "A3012",
    "timestamp": "2025-10-22T15:53:00+00:00",
    "station": "KCPS"
  },
  "kstl": {
    "metar": "KSTL 221551Z 29016G26KT 10SM CLR 13/M01 A3011 RMK AO2 PK WND 27026/1542 SLP198 T01281011 $",
    "windDirection": 290,
    "windSpeed": 16,
    "windGust": 26,
    "visibility": 10,
    "temperatureC": 13,
    "dewPointC": -1,
    "cloudCeiling": 99999,
    "altimeter": "A3011",
    "timestamp": "2025-10-22T15:51:00+00:00",
    "station": "KSTL"
  }
}