{
  "lastUpdated": "2025-11-10T20:22:24.392359+00:00",
  "kcps": {
    "metar": "KCPS 101953Z 32016G25KT 10SM CLR 03/M11 A3038 RMK AO2 PK WND 31026/1922 SLP289 T00281106",
    "windDirection": 320,
    "windSpeed": 16,
    "windGust": 25,
    "visibility": 10,
    "temperatureC": 3,
    "dewPointC": -11,
    "cloudCeiling": 99999,
    "altimeter": "A3038",
    "timestamp": "2025-11-10T19:53:00+00:00",
    "station": "KCPS"
  },
  "kstl": {
    "metar": "KSTL 101951Z 30011G20KT 10SM FEW050 03/M11 A3038 RMK AO2 SLP296 T00281106 $",
    "windDirection": 300,
    "windSpeed": 11,
    "windGust": 20,
    "visibility": 10,
    "temperatureC": 3,
    "dewPointC": -11,
    "cloudCeiling": null,
    "altimeter": "A3038",
    "timestamp": "2025-11-10T19:51:00+00:00",
    "station": "KSTL"
  }
}