{
  "lastUpdated": "2026-02-16T22:54:54.474120+00:00",
  "kcps": {
    "station": "KCPS",
    "metar": "Data unavailable",
    "error": "Failed to fetch METAR"
  },
  "kstl": {
    "metar": "KSTL 162251Z 17008KT 10SM FEW150 BKN220 17/03 A2997 RMK AO2 SLP149 T01720028 $",
    "windDirection": 170,
    "windSpeed": 8,
    "windGust": null,
    "visibility": 10,
    "temperatureC": 17,
    "dewPointC": 3,
    "cloudCeiling": 22000,
    "altimeter": "A2997",
    "timestamp": "2026-02-16T22:51:00+00:00",
    "station": "KSTL"
  }
}