{
  "lastUpdated": "2025-12-31T10:21:59.515149+00:00",
  "kcps": {
    "metar": "KCPS 310953Z AUTO 00000KT 10SM CLR M04/M09 A3007 RMK AO2 SLP186 T10391089 $",
    "windDirection": 0,
    "windSpeed": 0,
    "windGust": null,
    "visibility": 10,
    "temperatureC": -4,
    "dewPointC": -9,
    "cloudCeiling": 99999,
    "altimeter": "A3007",
    "timestamp": "2025-12-31T09:53:00+00:00",
    "station": "KCPS"
  },
  "kstl": {
    "metar": "KSTL 310951Z 25007KT 10SM FEW250 M01/M08 A3006 RMK AO2 SLP190 T10111078 $",
    "windDirection": 250,
    "windSpeed": 7,
    "windGust": null,
    "visibility": 10,
    "temperatureC": -1,
    "dewPointC": -8,
    "cloudCeiling": null,
    "altimeter": "A3006",
    "timestamp": "2025-12-31T09:51:00+00:00",
    "station": "KSTL"
  }
}