{
  "lastUpdated": "2026-04-26T03:00:43.537319+00:00",
  "kcps": {
    "metar": "KCPS 260253Z 07005KT 10SM CLR 19/10 A2990 RMK AO2 SLP122 T01890100 53020 $",
    "windDirection": 70,
    "windSpeed": 5,
    "windGust": null,
    "visibility": 10,
    "temperatureC": 19,
    "dewPointC": 10,
    "cloudCeiling": 99999,
    "altimeter": "A2990",
    "timestamp": "2026-04-26T02:53:00+00:00",
    "station": "KCPS"
  },
  "kstl": {
    "metar": "KSTL 260251Z 07008KT 10SM SCT250 19/09 A2991 RMK AO2 SLP121 T01890089 53017 $",
    "windDirection": 70,
    "windSpeed": 8,
    "windGust": null,
    "visibility": 10,
    "temperatureC": 19,
    "dewPointC": 9,
    "cloudCeiling": null,
    "altimeter": "A2991",
    "timestamp": "2026-04-26T02:51:00+00:00",
    "station": "KSTL"
  }
}