{
  "lastUpdated": "2026-01-25T21:46:58.616489+00:00",
  "kcps": {
    "metar": "KCPS 252144Z 32014KT 10SM SCT025 M10/M14 A3017 RMK AO2 UPB2055E03B12E24SNB03E12 P0000 T11001144 $",
    "windDirection": 320,
    "windSpeed": 14,
    "windGust": null,
    "visibility": 10,
    "temperatureC": -10,
    "dewPointC": -14,
    "cloudCeiling": null,
    "altimeter": "A3017",
    "timestamp": "2026-01-25T21:44:00+00:00",
    "station": "KCPS"
  },
  "kstl": {
    "metar": "KSTL 252108Z 32013KT 10SM FEW025 SCT035 BKN250 M11/M15 A3015 RMK AO2 SNE08 P0000 T11061150 $",
    "windDirection": 320,
    "windSpeed": 13,
    "windGust": null,
    "visibility": 10,
    "temperatureC": -11,
    "dewPointC": -15,
    "cloudCeiling": 25000,
    "altimeter": "A3015",
    "timestamp": "2026-01-25T21:08:00+00:00",
    "station": "KSTL"
  }
}