{
  "lastUpdated": "2026-01-02T23:21:22.977133+00:00",
  "kcps": {
    "metar": "KCPS 022253Z 09003KT 10SM CLR M01/M04 A2993 RMK AO2 SLP138 T10061044",
    "windDirection": 90,
    "windSpeed": 3,
    "windGust": null,
    "visibility": 10,
    "temperatureC": -1,
    "dewPointC": -4,
    "cloudCeiling": 99999,
    "altimeter": "A2993",
    "timestamp": "2026-01-02T22:53:00+00:00",
    "station": "KCPS"
  },
  "kstl": {
    "metar": "KSTL 022251Z 05008KT 10SM FEW023 SCT140 BKN250 01/M06 A2992 RMK AO2 SLP141 T00111056 $",
    "windDirection": 50,
    "windSpeed": 8,
    "windGust": null,
    "visibility": 10,
    "temperatureC": 1,
    "dewPointC": -6,
    "cloudCeiling": 25000,
    "altimeter": "A2992",
    "timestamp": "2026-01-02T22:51:00+00:00",
    "station": "KSTL"
  }
}