{
  "lastUpdated": "2025-11-07T22:46:58.316182+00:00",
  "kcps": {
    "metar": "KCPS 072153Z AUTO 29011KT 10SM CLR 22/02 A2970 RMK AO2 SLP055 T02170017 TSNO",
    "windDirection": 290,
    "windSpeed": 11,
    "windGust": null,
    "visibility": 10,
    "temperatureC": 22,
    "dewPointC": 2,
    "cloudCeiling": 99999,
    "altimeter": "A2970",
    "timestamp": "2025-11-07T21:53:00+00:00",
    "station": "KCPS"
  },
  "kstl": {
    "metar": "KSTL 072151Z 29013KT 10SM FEW070 FEW120 22/02 A2971 RMK AO2 SLP053 T02170022 $",
    "windDirection": 290,
    "windSpeed": 13,
    "windGust": null,
    "visibility": 10,
    "temperatureC": 22,
    "dewPointC": 2,
    "cloudCeiling": null,
    "altimeter": "A2971",
    "timestamp": "2025-11-07T21:51:00+00:00",
    "station": "KSTL"
  }
}