{
  "lastUpdated": "2025-12-08T15:36:12.556437+00:00",
  "kcps": {
    "metar": "KCPS 081453Z 36005KT 10SM OVC085 M03/M08 A3035 RMK AO2 SLP283 T10331078 53003 $",
    "windDirection": 360,
    "windSpeed": 5,
    "windGust": null,
    "visibility": 10,
    "temperatureC": -3,
    "dewPointC": -8,
    "cloudCeiling": 8500,
    "altimeter": "A3035",
    "timestamp": "2025-12-08T14:53:00+00:00",
    "station": "KCPS"
  },
  "kstl": {
    "metar": "KSTL 081402Z 32004KT 10SM BKN023 BKN090 M04/M08 A3034 RMK AO2 T10441078 $",
    "windDirection": 320,
    "windSpeed": 4,
    "windGust": null,
    "visibility": 10,
    "temperatureC": -4,
    "dewPointC": -8,
    "cloudCeiling": 2300,
    "altimeter": "A3034",
    "timestamp": "2025-12-08T14:02:00+00:00",
    "station": "KSTL"
  }
}