{
  "lastUpdated": "2026-01-20T05:40:49.412935+00:00",
  "kcps": {
    "metar": "KCPS 200453Z AUTO 27004KT 10SM CLR M10/M18 A3045 RMK AO2 SLP317 T11001183 $",
    "windDirection": 270,
    "windSpeed": 4,
    "windGust": null,
    "visibility": 10,
    "temperatureC": -10,
    "dewPointC": -18,
    "cloudCeiling": 99999,
    "altimeter": "A3045",
    "timestamp": "2026-01-20T04:53:00+00:00",
    "station": "KCPS"
  },
  "kstl": {
    "metar": "KSTL 200451Z 21003KT 10SM CLR M11/M18 A3043 RMK AO2 SLP323 T11061183 $",
    "windDirection": 210,
    "windSpeed": 3,
    "windGust": null,
    "visibility": 10,
    "temperatureC": -11,
    "dewPointC": -18,
    "cloudCeiling": 99999,
    "altimeter": "A3043",
    "timestamp": "2026-01-20T04:51:00+00:00",
    "station": "KSTL"
  }
}