{
  "lastUpdated": "2026-02-19T00:52:19.711581+00:00",
  "kcps": {
    "metar": "KCPS 182353Z 00000KT 10SM CLR 18/M04 A2963 RMK AO2 SLP030 T01831044 10228 20178 55002 $",
    "windDirection": 0,
    "windSpeed": 0,
    "windGust": null,
    "visibility": 10,
    "temperatureC": 18,
    "dewPointC": -4,
    "cloudCeiling": 99999,
    "altimeter": "A2963",
    "timestamp": "2026-02-18T23:53:00+00:00",
    "station": "KCPS"
  },
  "kstl": {
    "metar": "KSTL 182351Z 33003KT 10SM FEW050 SCT250 18/M03 A2964 RMK AO2 SLP033 T01781028 10228 20178 55001 $",
    "windDirection": 330,
    "windSpeed": 3,
    "windGust": null,
    "visibility": 10,
    "temperatureC": 18,
    "dewPointC": -3,
    "cloudCeiling": null,
    "altimeter": "A2964",
    "timestamp": "2026-02-18T23:51:00+00:00",
    "station": "KSTL"
  }
}