{
  "lastUpdated": "2025-12-28T12:44:09.224961+00:00",
  "kcps": {
    "metar": "KCPS 281153Z AUTO 16005KT 10SM CLR 18/16 A2967 RMK AO2 SLP047 60000 T01780161 10183 20144 56023 $",
    "windDirection": 160,
    "windSpeed": 5,
    "windGust": null,
    "visibility": 10,
    "temperatureC": 18,
    "dewPointC": 16,
    "cloudCeiling": 99999,
    "altimeter": "A2967",
    "timestamp": "2025-12-28T11:53:00+00:00",
    "station": "KCPS"
  },
  "kstl": {
    "metar": "KSTL 281151Z 17008KT 10SM BKN220 18/16 A2966 RMK AO2 SLP041 T01780161 10183 20139 56027 $",
    "windDirection": 170,
    "windSpeed": 8,
    "windGust": null,
    "visibility": 10,
    "temperatureC": 18,
    "dewPointC": 16,
    "cloudCeiling": 22000,
    "altimeter": "A2966",
    "timestamp": "2025-12-28T11:51:00+00:00",
    "station": "KSTL"
  }
}