{
  "lastUpdated": "2026-01-06T01:10:45.212044+00:00",
  "kcps": {
    "metar": "KCPS 060053Z 16009KT 10SM CLR 11/04 A2975 RMK AO2 SLP076 T01060044",
    "windDirection": 160,
    "windSpeed": 9,
    "windGust": null,
    "visibility": 10,
    "temperatureC": 11,
    "dewPointC": 4,
    "cloudCeiling": 99999,
    "altimeter": "A2975",
    "timestamp": "2026-01-06T00:53:00+00:00",
    "station": "KCPS"
  },
  "kstl": {
    "metar": "KSTL 060051Z 15013KT 10SM BKN250 12/04 A2973 RMK AO2 SLP074 T01220039 $",
    "windDirection": 150,
    "windSpeed": 13,
    "windGust": null,
    "visibility": 10,
    "temperatureC": 12,
    "dewPointC": 4,
    "cloudCeiling": 25000,
    "altimeter": "A2973",
    "timestamp": "2026-01-06T00:51:00+00:00",
    "station": "KSTL"
  }
}