{
  "lastUpdated": "2026-03-24T23:13:03.809222+00:00",
  "kcps": {
    "metar": "KCPS 242253Z 12006KT 10SM SCT110 17/M03 A3017 RMK AO2 SLP215 T01671033 $",
    "windDirection": 120,
    "windSpeed": 6,
    "windGust": null,
    "visibility": 10,
    "temperatureC": 17,
    "dewPointC": -3,
    "cloudCeiling": null,
    "altimeter": "A3017",
    "timestamp": "2026-03-24T22:53:00+00:00",
    "station": "KCPS"
  },
  "kstl": {
    "metar": "KSTL 242251Z 12010KT 10SM BKN110 BKN250 17/M06 A3016 RMK AO2 SLP215 T01671056",
    "windDirection": 120,
    "windSpeed": 10,
    "windGust": null,
    "visibility": 10,
    "temperatureC": 17,
    "dewPointC": -6,
    "cloudCeiling": 11000,
    "altimeter": "A3016",
    "timestamp": "2026-03-24T22:51:00+00:00",
    "station": "KSTL"
  }
}