{
  "lastUpdated": "2026-03-28T23:53:56.354126+00:00",
  "kcps": {
    "metar": "KCPS 282153Z 13007KT 10SM CLR 13/M05 A3044 RMK AO2 SLP309 T01281050 $",
    "windDirection": 130,
    "windSpeed": 7,
    "windGust": null,
    "visibility": 10,
    "temperatureC": 13,
    "dewPointC": -5,
    "cloudCeiling": 99999,
    "altimeter": "A3044",
    "timestamp": "2026-03-28T21:53:00+00:00",
    "station": "KCPS"
  },
  "kstl": {
    "metar": "KSTL 282351Z 14011KT 10SM FEW250 12/M06 A3038 RMK AO2 SLP293 T01171061 10133 20078 56031 $",
    "windDirection": 140,
    "windSpeed": 11,
    "windGust": null,
    "visibility": 10,
    "temperatureC": 12,
    "dewPointC": -6,
    "cloudCeiling": null,
    "altimeter": "A3038",
    "timestamp": "2026-03-28T23:51:00+00:00",
    "station": "KSTL"
  }
}