{
  "lastUpdated": "2025-11-16T11:20:08.104890+00:00",
  "kcps": {
    "metar": "KCPS 161053Z AUTO 35008KT 10SM CLR 09/M01 A2995 RMK AO2 SLP141 T00891011 $",
    "windDirection": 350,
    "windSpeed": 8,
    "windGust": null,
    "visibility": 10,
    "temperatureC": 9,
    "dewPointC": -1,
    "cloudCeiling": 99999,
    "altimeter": "A2995",
    "timestamp": "2025-11-16T10:53:00+00:00",
    "station": "KCPS"
  },
  "kstl": {
    "metar": "KSTL 161051Z 32004KT 10SM CLR 08/M01 A2996 RMK AO2 SLP141 T00781011 $",
    "windDirection": 320,
    "windSpeed": 4,
    "windGust": null,
    "visibility": 10,
    "temperatureC": 8,
    "dewPointC": -1,
    "cloudCeiling": 99999,
    "altimeter": "A2996",
    "timestamp": "2025-11-16T10:51:00+00:00",
    "station": "KSTL"
  }
}