{
  "lastUpdated": "2026-04-08T22:44:06.770717+00:00",
  "kcps": {
    "metar": "KCPS 082153Z 20011G20KT 10SM CLR 25/04 A3007 RMK AO2 PK WND 17026/2118 SLP180 T02500044 $",
    "windDirection": 200,
    "windSpeed": 11,
    "windGust": 20,
    "visibility": 10,
    "temperatureC": 25,
    "dewPointC": 4,
    "cloudCeiling": 99999,
    "altimeter": "A3007",
    "timestamp": "2026-04-08T21:53:00+00:00",
    "station": "KCPS"
  },
  "kstl": {
    "metar": "KSTL 082151Z 18015G22KT 10SM FEW200 BKN250 25/04 A3006 RMK AO2 SLP177 T02500044 $",
    "windDirection": 180,
    "windSpeed": 15,
    "windGust": 22,
    "visibility": 10,
    "temperatureC": 25,
    "dewPointC": 4,
    "cloudCeiling": 25000,
    "altimeter": "A3006",
    "timestamp": "2026-04-08T21:51:00+00:00",
    "station": "KSTL"
  }
}