{
  "lastUpdated": "2026-06-04T18:49:58.068128+00:00",
  "kcps": {
    "metar": "KCPS 041753Z VRB06G14KT 10SM FEW060 28/17 A3011 RMK AO2 SLP195 T02780167 10278 20172 58015 $",
    "windDirection": null,
    "windSpeed": null,
    "windGust": null,
    "visibility": 10,
    "temperatureC": 28,
    "dewPointC": 17,
    "cloudCeiling": null,
    "altimeter": "A3011",
    "timestamp": "2026-06-04T17:53:00+00:00",
    "station": "KCPS"
  },
  "kstl": {
    "metar": "KSTL 041751Z 20009G21KT 10SM FEW043 FEW060 BKN250 28/17 A3012 RMK AO2 SLP190 T02780172 10278 20206 58013 $",
    "windDirection": 200,
    "windSpeed": 9,
    "windGust": 21,
    "visibility": 10,
    "temperatureC": 28,
    "dewPointC": 17,
    "cloudCeiling": 25000,
    "altimeter": "A3012",
    "timestamp": "2026-06-04T17:51:00+00:00",
    "station": "KSTL"
  }
}