{
  "lastUpdated": "2025-12-23T07:47:56.329438+00:00",
  "kcps": {
    "metar": "KCPS 230653Z AUTO 16004KT 10SM CLR 03/03 A3008 RMK AO2 SLP188 T00280028 $",
    "windDirection": 160,
    "windSpeed": 4,
    "windGust": null,
    "visibility": 10,
    "temperatureC": 3,
    "dewPointC": 3,
    "cloudCeiling": 99999,
    "altimeter": "A3008",
    "timestamp": "2025-12-23T06:53:00+00:00",
    "station": "KCPS"
  },
  "kstl": {
    "metar": "KSTL 230651Z 00000KT 10SM FEW250 07/04 A3007 RMK AO2 SLP185 T00670039 $",
    "windDirection": 0,
    "windSpeed": 0,
    "windGust": null,
    "visibility": 10,
    "temperatureC": 7,
    "dewPointC": 4,
    "cloudCeiling": null,
    "altimeter": "A3007",
    "timestamp": "2025-12-23T06:51:00+00:00",
    "station": "KSTL"
  }
}