{
  "lastUpdated": "2026-04-28T05:38:49.459767+00:00",
  "kcps": {
    "metar": "KCPS 280453Z AUTO 22004KT 10SM CLR 18/17 A2980 RMK AO2 SLP089 T01830172 $",
    "windDirection": 220,
    "windSpeed": 4,
    "windGust": null,
    "visibility": 10,
    "temperatureC": 18,
    "dewPointC": 17,
    "cloudCeiling": 99999,
    "altimeter": "A2980",
    "timestamp": "2026-04-28T04:53:00+00:00",
    "station": "KCPS"
  },
  "kstl": {
    "metar": "KSTL 280451Z 27008KT 10SM FEW032 SCT250 18/17 A2981 RMK AO2 SLP087 T01830167 $",
    "windDirection": 270,
    "windSpeed": 8,
    "windGust": null,
    "visibility": 10,
    "temperatureC": 18,
    "dewPointC": 17,
    "cloudCeiling": null,
    "altimeter": "A2981",
    "timestamp": "2026-04-28T04:51:00+00:00",
    "station": "KSTL"
  }
}