{
  "lastUpdated": "2026-06-12T16:31:41.768444+00:00",
  "kcps": {
    "metar": "KCPS 121553Z 04003KT 10SM CLR 26/12 A3001 RMK AO2 SLP159 T02560117 $",
    "windDirection": 40,
    "windSpeed": 3,
    "windGust": null,
    "visibility": 10.0,
    "temperatureC": 25.6,
    "dewPointC": 11.7,
    "cloudCeiling": null,
    "altimeter": "A3001",
    "timestamp": "2026-06-12T16:00:00.000Z",
    "station": "KCPS"
  },
  "kstl": {
    "metar": "KSTL 121551Z COR 00000KT 10SM FEW250 25/10 A3003 RMK AO2 SLP159 T02500100 $",
    "windDirection": 0,
    "windSpeed": 0,
    "windGust": null,
    "visibility": 10.0,
    "temperatureC": 25,
    "dewPointC": 10,
    "cloudCeiling": null,
    "altimeter": "A3003",
    "timestamp": "2026-06-12T16:00:00.000Z",
    "station": "KSTL"
  }
}