{
  "lastUpdated": "2025-11-20T14:02:22.171629+00:00",
  "kcps": {
    "metar": "KCPS 201353Z 16005KT 4SM -RA BR OVC005 09/08 A3010 RMK AO2 RAB21 SLP192 P0001 T00940083",
    "windDirection": 160,
    "windSpeed": 5,
    "windGust": null,
    "visibility": 4,
    "temperatureC": 9,
    "dewPointC": 8,
    "cloudCeiling": 500,
    "altimeter": "A3010",
    "timestamp": "2025-11-20T13:53:00+00:00",
    "station": "KCPS"
  },
  "kstl": {
    "metar": "KSTL 201351Z 14008KT 5SM -RA BR OVC006 09/08 A3007 RMK AO2 RAB11 SLP185 P0000 T00940083 $",
    "windDirection": 140,
    "windSpeed": 8,
    "windGust": null,
    "visibility": 5,
    "temperatureC": 9,
    "dewPointC": 8,
    "cloudCeiling": 600,
    "altimeter": "A3007",
    "timestamp": "2025-11-20T13:51:00+00:00",
    "station": "KSTL"
  }
}