{
  "lastUpdated": "2026-01-09T10:39:10.346203+00:00",
  "kcps": {
    "metar": "KCPS 090953Z 29017G24KT 10SM FEW030 SCT036 14/09 A2975 RMK AO2 PK WND 25029/0939 SLP073 T01390089",
    "windDirection": 290,
    "windSpeed": 17,
    "windGust": 24,
    "visibility": 10,
    "temperatureC": 14,
    "dewPointC": 9,
    "cloudCeiling": null,
    "altimeter": "A2975",
    "timestamp": "2026-01-09T09:53:00+00:00",
    "station": "KCPS"
  },
  "kstl": {
    "metar": "KSTL 091010Z 26019G30KT 10SM BKN022 BKN029 OVC038 12/08 A2978 RMK AO2 PK WND 27030/1006 PRESRR T01170078 $",
    "windDirection": 260,
    "windSpeed": 19,
    "windGust": 30,
    "visibility": 10,
    "temperatureC": 12,
    "dewPointC": 8,
    "cloudCeiling": 2200,
    "altimeter": "A2978",
    "timestamp": "2026-01-09T10:10:00+00:00",
    "station": "KSTL"
  }
}