{
  "lastUpdated": "2026-01-06T09:04:51.149585+00:00",
  "kcps": {
    "metar": "KCPS 060853Z 21007G15KT 10SM CLR 12/08 A2966 RMK AO2 SLP043 T01170078 58012",
    "windDirection": 210,
    "windSpeed": 7,
    "windGust": 15,
    "visibility": 10,
    "temperatureC": 12,
    "dewPointC": 8,
    "cloudCeiling": 99999,
    "altimeter": "A2966",
    "timestamp": "2026-01-06T08:53:00+00:00",
    "station": "KCPS"
  },
  "kstl": {
    "metar": "KSTL 060851Z 21011KT 10SM BKN250 11/08 A2965 RMK AO2 SLP039 T01110078 58010 $",
    "windDirection": 210,
    "windSpeed": 11,
    "windGust": null,
    "visibility": 10,
    "temperatureC": 11,
    "dewPointC": 8,
    "cloudCeiling": 25000,
    "altimeter": "A2965",
    "timestamp": "2026-01-06T08:51:00+00:00",
    "station": "KSTL"
  }
}