{
  "lastUpdated": "2025-12-11T09:04:07.453409+00:00",
  "kcps": {
    "metar": "KCPS 110853Z AUTO 31004KT 10SM OVC029 00/M04 A3006 RMK AO2 SLP183 T00001039 58005 $",
    "windDirection": 310,
    "windSpeed": 4,
    "windGust": null,
    "visibility": 10,
    "temperatureC": 0,
    "dewPointC": -4,
    "cloudCeiling": 2900,
    "altimeter": "A3006",
    "timestamp": "2025-12-11T08:53:00+00:00",
    "station": "KCPS"
  },
  "kstl": {
    "metar": "KSTL 110851Z 30004KT 10SM BKN026 M01/M04 A3005 RMK AO2 SLP187 T10061039 58005 $",
    "windDirection": 300,
    "windSpeed": 4,
    "windGust": null,
    "visibility": 10,
    "temperatureC": -1,
    "dewPointC": -4,
    "cloudCeiling": 2600,
    "altimeter": "A3005",
    "timestamp": "2025-12-11T08:51:00+00:00",
    "station": "KSTL"
  }
}