{
  "lastUpdated": "2026-01-24T16:38:18.612183+00:00",
  "kcps": {
    "metar": "KCPS 241624Z 03008KT 3/4SM -SN VV013 M16/M19 A3062 RMK AO2 P0000 T11561189 $",
    "windDirection": 30,
    "windSpeed": 8,
    "windGust": null,
    "visibility": 0.75,
    "temperatureC": -16,
    "dewPointC": -19,
    "cloudCeiling": 1300,
    "altimeter": "A3062",
    "timestamp": "2026-01-24T16:24:00+00:00",
    "station": "KCPS"
  },
  "kstl": {
    "metar": "KSTL 241604Z 05009KT 1SM R30R/5500VP6000FT -SN OVC021 M17/M21 A3061 RMK AO2 P0000 T11671211 $",
    "windDirection": 50,
    "windSpeed": 9,
    "windGust": null,
    "visibility": 1,
    "temperatureC": -17,
    "dewPointC": -21,
    "cloudCeiling": 2100,
    "altimeter": "A3061",
    "timestamp": "2026-01-24T16:04:00+00:00",
    "station": "KSTL"
  }
}