{
  "lastUpdated": "2026-05-22T07:55:18.484961+00:00",
  "kcps": {
    "metar": "KCPS 220753Z AUTO 09007KT 10SM BKN055 17/14 A2997 RMK AO2 SLP148 T01720139 PNO $",
    "windDirection": 90,
    "windSpeed": 7,
    "windGust": null,
    "visibility": 10,
    "temperatureC": 17,
    "dewPointC": 14,
    "cloudCeiling": 5500,
    "altimeter": "A2997",
    "timestamp": "2026-05-22T07:53:00+00:00",
    "station": "KCPS"
  },
  "kstl": {
    "metar": "KSTL 220751Z AUTO 07005KT 10SM BKN027 OVC050 18/13 A2999 RMK AO2 SLP148 T01780133 $",
    "windDirection": 70,
    "windSpeed": 5,
    "windGust": null,
    "visibility": 10,
    "temperatureC": 18,
    "dewPointC": 13,
    "cloudCeiling": 2700,
    "altimeter": "A2999",
    "timestamp": "2026-05-22T07:51:00+00:00",
    "station": "KSTL"
  }
}