{
  "lastUpdated": "2025-11-16T03:36:40.602966+00:00",
  "kcps": {
    "metar": "KCPS 160253Z 34007KT 10SM CLR 18/08 A2978 RMK AO2 SLP082 T01780083 51022 $",
    "windDirection": 340,
    "windSpeed": 7,
    "windGust": null,
    "visibility": 10,
    "temperatureC": 18,
    "dewPointC": 8,
    "cloudCeiling": 99999,
    "altimeter": "A2978",
    "timestamp": "2025-11-16T02:53:00+00:00",
    "station": "KCPS"
  },
  "kstl": {
    "metar": "KSTL 160251Z 33006KT 10SM BKN250 17/08 A2980 RMK AO2 SLP085 T01670078 51021 $",
    "windDirection": 330,
    "windSpeed": 6,
    "windGust": null,
    "visibility": 10,
    "temperatureC": 17,
    "dewPointC": 8,
    "cloudCeiling": 25000,
    "altimeter": "A2980",
    "timestamp": "2025-11-16T02:51:00+00:00",
    "station": "KSTL"
  }
}