{
  "lastUpdated": "2026-01-25T06:23:07.180657+00:00",
  "kcps": {
    "metar": "KCPS 250616Z AUTO 01011KT 3/4SM -SN BR VV012 M13/M15 A3020 RMK AO2 P0000 T11281150 $",
    "windDirection": 10,
    "windSpeed": 11,
    "windGust": null,
    "visibility": 0.75,
    "temperatureC": -13,
    "dewPointC": -15,
    "cloudCeiling": 1200,
    "altimeter": "A3020",
    "timestamp": "2026-01-25T06:16:00+00:00",
    "station": "KCPS"
  },
  "kstl": {
    "metar": "KSTL 250617Z 02009KT 1/2SM R30R/5000VP6000FT SN FZFG VV010 M13/M15 A3020 RMK AO2 P0003 T11281150 $",
    "windDirection": 20,
    "windSpeed": 9,
    "windGust": null,
    "visibility": 0.5,
    "temperatureC": -13,
    "dewPointC": -15,
    "cloudCeiling": 1000,
    "altimeter": "A3020",
    "timestamp": "2026-01-25T06:17:00+00:00",
    "station": "KSTL"
  }
}