{
  "lastUpdated": "2026-05-04T21:36:42.316996+00:00",
  "kcps": {
    "metar": "KCPS 042053Z 17006KT 10SM CLR 23/15 A2964 RMK AO2 LTG DSNT SE SLP033 6//// T02330150 58014 $",
    "windDirection": 170,
    "windSpeed": 6,
    "windGust": null,
    "visibility": 10,
    "temperatureC": 23,
    "dewPointC": 15,
    "cloudCeiling": 99999,
    "altimeter": "A2964",
    "timestamp": "2026-05-04T20:53:00+00:00",
    "station": "KCPS"
  },
  "kstl": {
    "metar": "KSTL 042051Z 17011G20KT 10SM FEW110 SCT250 24/14 A2963 RMK AO2 SLP026 60002 T02440144 58013 $",
    "windDirection": 170,
    "windSpeed": 11,
    "windGust": 20,
    "visibility": 10,
    "temperatureC": 24,
    "dewPointC": 14,
    "cloudCeiling": null,
    "altimeter": "A2963",
    "timestamp": "2026-05-04T20:51:00+00:00",
    "station": "KSTL"
  }
}