{
  "lastUpdated": "2026-01-05T00:45:43.702344+00:00",
  "kcps": {
    "metar": "KCPS 042353Z 16005KT 10SM CLR 04/M02 A3006 RMK AO2 SLP182 T00391022 10061 20033 55017 $",
    "windDirection": 160,
    "windSpeed": 5,
    "windGust": null,
    "visibility": 10,
    "temperatureC": 4,
    "dewPointC": -2,
    "cloudCeiling": 99999,
    "altimeter": "A3006",
    "timestamp": "2026-01-04T23:53:00+00:00",
    "station": "KCPS"
  },
  "kstl": {
    "metar": "KSTL 042351Z 14007KT 10SM BKN250 05/M02 A3005 RMK AO2 SLP188 T00501022 10061 20039 55014 $",
    "windDirection": 140,
    "windSpeed": 7,
    "windGust": null,
    "visibility": 10,
    "temperatureC": 5,
    "dewPointC": -2,
    "cloudCeiling": 25000,
    "altimeter": "A3005",
    "timestamp": "2026-01-04T23:51:00+00:00",
    "station": "KSTL"
  }
}