{
  "lastUpdated": "2026-03-20T23:05:32.757315+00:00",
  "kcps": {
    "metar": "KCPS 202253Z 29009KT 10SM CLR 31/04 A2981 RMK AO2 SLP092 T03110044 $",
    "windDirection": 290,
    "windSpeed": 9,
    "windGust": null,
    "visibility": 10,
    "temperatureC": 31,
    "dewPointC": 4,
    "cloudCeiling": 99999,
    "altimeter": "A2981",
    "timestamp": "2026-03-20T22:53:00+00:00",
    "station": "KCPS"
  },
  "kstl": {
    "metar": "KSTL 202251Z 31007KT 10SM BKN250 30/06 A2983 RMK AO2 SLP093 T03000061 $",
    "windDirection": 310,
    "windSpeed": 7,
    "windGust": null,
    "visibility": 10,
    "temperatureC": 30,
    "dewPointC": 6,
    "cloudCeiling": 25000,
    "altimeter": "A2983",
    "timestamp": "2026-03-20T22:51:00+00:00",
    "station": "KSTL"
  }
}