{
  "lastUpdated": "2025-11-29T07:02:17.201870+00:00",
  "kcps": {
    "metar": "KCPS 290653Z 14008KT 10SM OVC090 02/M06 A3028 RMK AO2 SLP258 T00171056 $",
    "windDirection": 140,
    "windSpeed": 8,
    "windGust": null,
    "visibility": 10,
    "temperatureC": 2,
    "dewPointC": -6,
    "cloudCeiling": 9000,
    "altimeter": "A3028",
    "timestamp": "2025-11-29T06:53:00+00:00",
    "station": "KCPS"
  },
  "kstl": {
    "metar": "KSTL 290651Z 15009KT 10SM OVC085 02/M06 A3028 RMK AO2 SLP264 T00221061 $",
    "windDirection": 150,
    "windSpeed": 9,
    "windGust": null,
    "visibility": 10,
    "temperatureC": 2,
    "dewPointC": -6,
    "cloudCeiling": 8500,
    "altimeter": "A3028",
    "timestamp": "2025-11-29T06:51:00+00:00",
    "station": "KSTL"
  }
}