{
  "lastUpdated": "2026-03-12T10:11:59.585733+00:00",
  "kcps": {
    "metar": "KCPS 120953Z AUTO 30005KT 10SM CLR 02/M03 A3030 RMK AO2 SLP263 T00171033 $",
    "windDirection": 300,
    "windSpeed": 5,
    "windGust": null,
    "visibility": 10,
    "temperatureC": 2,
    "dewPointC": -3,
    "cloudCeiling": 99999,
    "altimeter": "A3030",
    "timestamp": "2026-03-12T09:53:00+00:00",
    "station": "KCPS"
  },
  "kstl": {
    "metar": "KSTL 120951Z 27006KT 10SM CLR 01/M03 A3030 RMK AO2 SLP268 T00061033 $",
    "windDirection": 270,
    "windSpeed": 6,
    "windGust": null,
    "visibility": 10,
    "temperatureC": 1,
    "dewPointC": -3,
    "cloudCeiling": 99999,
    "altimeter": "A3030",
    "timestamp": "2026-03-12T09:51:00+00:00",
    "station": "KSTL"
  }
}