{
  "lastUpdated": "2026-04-20T06:56:08.574326+00:00",
  "kcps": {
    "metar": "KCPS 200653Z AUTO 03004KT 10SM FEW080 FEW110 09/02 A3028 RMK AO2 SLP252 T00890017 $",
    "windDirection": 30,
    "windSpeed": 4,
    "windGust": null,
    "visibility": 10,
    "temperatureC": 9,
    "dewPointC": 2,
    "cloudCeiling": null,
    "altimeter": "A3028",
    "timestamp": "2026-04-20T06:53:00+00:00",
    "station": "KCPS"
  },
  "kstl": {
    "metar": "KSTL 200551Z 06006KT 10SM BKN090 11/01 A3028 RMK AO2 SLP251 T01060006 10178 20106 401940056 51021 $",
    "windDirection": 60,
    "windSpeed": 6,
    "windGust": null,
    "visibility": 10,
    "temperatureC": 11,
    "dewPointC": 1,
    "cloudCeiling": 9000,
    "altimeter": "A3028",
    "timestamp": "2026-04-20T05:51:00+00:00",
    "station": "KSTL"
  }
}