{
  "lastUpdated": "2026-02-20T05:36:55.823021+00:00",
  "kcps": {
    "metar": "KCPS 200453Z 27010G25KT 10SM CLR 13/M03 A2953 RMK AO2 PK WND 25029/0433 SLP997 T01281033 $",
    "windDirection": 270,
    "windSpeed": 10,
    "windGust": 25,
    "visibility": 10,
    "temperatureC": 13,
    "dewPointC": -3,
    "cloudCeiling": 99999,
    "altimeter": "A2953",
    "timestamp": "2026-02-20T04:53:00+00:00",
    "station": "KCPS"
  },
  "kstl": {
    "metar": "KSTL 200451Z 25014G26KT 10SM CLR 11/M02 A2953 RMK AO2 PK WND 27035/0420 SLP999 T01111017 $",
    "windDirection": 250,
    "windSpeed": 14,
    "windGust": 26,
    "visibility": 10,
    "temperatureC": 11,
    "dewPointC": -2,
    "cloudCeiling": 99999,
    "altimeter": "A2953",
    "timestamp": "2026-02-20T04:51:00+00:00",
    "station": "KSTL"
  }
}