{
  "lastUpdated": "2025-11-13T03:08:38.999783+00:00",
  "kcps": {
    "metar": "KCPS 130253Z 00000KT 10SM CLR 05/02 A3017 RMK AO2 SLP216 T00500017 53008",
    "windDirection": 0,
    "windSpeed": 0,
    "windGust": null,
    "visibility": 10,
    "temperatureC": 5,
    "dewPointC": 2,
    "cloudCeiling": 99999,
    "altimeter": "A3017",
    "timestamp": "2025-11-13T02:53:00+00:00",
    "station": "KCPS"
  },
  "kstl": {
    "metar": "KSTL 130251Z 00000KT 10SM BKN210 08/02 A3017 RMK AO2 SLP219 T00830017 53009",
    "windDirection": 0,
    "windSpeed": 0,
    "windGust": null,
    "visibility": 10,
    "temperatureC": 8,
    "dewPointC": 2,
    "cloudCeiling": 21000,
    "altimeter": "A3017",
    "timestamp": "2025-11-13T02:51:00+00:00",
    "station": "KSTL"
  }
}