{
  "lastUpdated": "2026-05-28T14:13:05.551010+00:00",
  "kcps": {
    "metar": "KCPS 281353Z 07007KT 10SM CLR 25/19 A3008 RMK AO2 SLP180 T02500194 $",
    "windDirection": 70,
    "windSpeed": 7,
    "windGust": null,
    "visibility": 10,
    "temperatureC": 25,
    "dewPointC": 19,
    "cloudCeiling": 99999,
    "altimeter": "A3008",
    "timestamp": "2026-05-28T13:53:00+00:00",
    "station": "KCPS"
  },
  "kstl": {
    "metar": "KSTL 281351Z 10009KT 10SM FEW150 BKN250 25/19 A3009 RMK AO2 SLP178 T02500189 $",
    "windDirection": 100,
    "windSpeed": 9,
    "windGust": null,
    "visibility": 10,
    "temperatureC": 25,
    "dewPointC": 19,
    "cloudCeiling": 25000,
    "altimeter": "A3009",
    "timestamp": "2026-05-28T13:51:00+00:00",
    "station": "KSTL"
  }
}