{
  "lastUpdated": "2025-11-17T14:21:44.928810+00:00",
  "kcps": {
    "metar": "KCPS 171353Z 00000KT 10SM CLR 05/M03 A3011 RMK AO2 SLP199 T00501033 $",
    "windDirection": 0,
    "windSpeed": 0,
    "windGust": null,
    "visibility": 10,
    "temperatureC": 5,
    "dewPointC": -3,
    "cloudCeiling": 99999,
    "altimeter": "A3011",
    "timestamp": "2025-11-17T13:53:00+00:00",
    "station": "KCPS"
  },
  "kstl": {
    "metar": "KSTL 171351Z 11006KT 10SM FEW150 06/M04 A3010 RMK AO2 SLP200 T00611039 $",
    "windDirection": 110,
    "windSpeed": 6,
    "windGust": null,
    "visibility": 10,
    "temperatureC": 6,
    "dewPointC": -4,
    "cloudCeiling": null,
    "altimeter": "A3010",
    "timestamp": "2025-11-17T13:51:00+00:00",
    "station": "KSTL"
  }
}