{
  "lastUpdated": "2026-01-28T08:02:40.777649+00:00",
  "kcps": {
    "metar": "KCPS 280753Z AUTO 00000KT 10SM CLR M16/M17 A3039 RMK AO2 SLP299 I1000 T11561172 $",
    "windDirection": 0,
    "windSpeed": 0,
    "windGust": null,
    "visibility": 10,
    "temperatureC": -16,
    "dewPointC": -17,
    "cloudCeiling": 99999,
    "altimeter": "A3039",
    "timestamp": "2026-01-28T07:53:00+00:00",
    "station": "KCPS"
  },
  "kstl": {
    "metar": "KSTL 280751Z 23003KT 10SM SCT110 M13/M17 A3038 RMK AO2 SLP306 T11281167 $",
    "windDirection": 230,
    "windSpeed": 3,
    "windGust": null,
    "visibility": 10,
    "temperatureC": -13,
    "dewPointC": -17,
    "cloudCeiling": null,
    "altimeter": "A3038",
    "timestamp": "2026-01-28T07:51:00+00:00",
    "station": "KSTL"
  }
}