{
  "lastUpdated": "2025-11-30T22:02:16.574062+00:00",
  "kcps": {
    "metar": "KCPS 302153Z 31015KT 10SM CLR M04/M09 A3045 RMK AO2 SLP315 T10441089 $",
    "windDirection": 310,
    "windSpeed": 15,
    "windGust": null,
    "visibility": 10,
    "temperatureC": -4,
    "dewPointC": -9,
    "cloudCeiling": 99999,
    "altimeter": "A3045",
    "timestamp": "2025-11-30T21:53:00+00:00",
    "station": "KCPS"
  },
  "kstl": {
    "metar": "KSTL 302151Z 31008G16KT 10SM BKN021 M04/M09 A3044 RMK AO2 SLP321 T10441089 $",
    "windDirection": 310,
    "windSpeed": 8,
    "windGust": 16,
    "visibility": 10,
    "temperatureC": -4,
    "dewPointC": -9,
    "cloudCeiling": 2100,
    "altimeter": "A3044",
    "timestamp": "2025-11-30T21:51:00+00:00",
    "station": "KSTL"
  }
}