{
  "lastUpdated": "2026-03-24T11:58:01.701105+00:00",
  "kcps": {
    "metar": "KCPS 241153Z 06005KT 10SM CLR 03/M02 A3033 RMK AO2 SLP273 60000 T00281022 10072 20028 53010 $",
    "windDirection": 60,
    "windSpeed": 5,
    "windGust": null,
    "visibility": 10,
    "temperatureC": 3,
    "dewPointC": -2,
    "cloudCeiling": 99999,
    "altimeter": "A3033",
    "timestamp": "2026-03-24T11:53:00+00:00",
    "station": "KCPS"
  },
  "kstl": {
    "metar": "KSTL 241151Z 08008KT 10SM SCT150 BKN250 04/M03 A3034 RMK AO2 SLP277 60000 T00391028 10078 20039 53014 $",
    "windDirection": 80,
    "windSpeed": 8,
    "windGust": null,
    "visibility": 10,
    "temperatureC": 4,
    "dewPointC": -3,
    "cloudCeiling": 25000,
    "altimeter": "A3034",
    "timestamp": "2026-03-24T11:51:00+00:00",
    "station": "KSTL"
  }
}