{
  "lastUpdated": "2026-04-11T18:24:20.377566+00:00",
  "kcps": {
    "metar": "KCPS 111753Z 13005KT 10SM FEW055 BKN100 19/11 A3030 RMK AO2 SLP261 T01940111 10194 20094 58017 $",
    "windDirection": 130,
    "windSpeed": 5,
    "windGust": null,
    "visibility": 10,
    "temperatureC": 19,
    "dewPointC": 11,
    "cloudCeiling": 10000,
    "altimeter": "A3030",
    "timestamp": "2026-04-11T17:53:00+00:00",
    "station": "KCPS"
  },
  "kstl": {
    "metar": "KSTL 111751Z 13010KT 10SM SCT055 BKN090 OVC250 18/10 A3031 RMK AO2 SLP260 60000 T01830100 10183 20100 58015 $",
    "windDirection": 130,
    "windSpeed": 10,
    "windGust": null,
    "visibility": 10,
    "temperatureC": 18,
    "dewPointC": 10,
    "cloudCeiling": 9000,
    "altimeter": "A3031",
    "timestamp": "2026-04-11T17:51:00+00:00",
    "station": "KSTL"
  }
}