{
  "lastUpdated": "2025-12-08T09:23:02.252258+00:00",
  "kcps": {
    "metar": "KCPS 080902Z AUTO 01009KT 10SM SCT015 OVC031 M03/M07 A3031 RMK AO2 T10331067 $",
    "windDirection": 10,
    "windSpeed": 9,
    "windGust": null,
    "visibility": 10,
    "temperatureC": -3,
    "dewPointC": -7,
    "cloudCeiling": 3100,
    "altimeter": "A3031",
    "timestamp": "2025-12-08T09:02:00+00:00",
    "station": "KCPS"
  },
  "kstl": {
    "metar": "KSTL 080851Z 02007KT 10SM OVC026 M04/M07 A3031 RMK AO2 SLP276 T10391072 53004 $",
    "windDirection": 20,
    "windSpeed": 7,
    "windGust": null,
    "visibility": 10,
    "temperatureC": -4,
    "dewPointC": -7,
    "cloudCeiling": 2600,
    "altimeter": "A3031",
    "timestamp": "2025-12-08T08:51:00+00:00",
    "station": "KSTL"
  }
}