{
  "lastUpdated": "2025-12-05T02:32:33.172552+00:00",
  "kcps": {
    "metar": "KCPS 050153Z 04004KT 10SM CLR M08/M14 A3029 RMK AO2 SLP262 T10781144",
    "windDirection": 40,
    "windSpeed": 4,
    "windGust": null,
    "visibility": 10,
    "temperatureC": -8,
    "dewPointC": -14,
    "cloudCeiling": 99999,
    "altimeter": "A3029",
    "timestamp": "2025-12-05T01:53:00+00:00",
    "station": "KCPS"
  },
  "kstl": {
    "metar": "KSTL 050151Z 03003KT 10SM CLR M07/M14 A3027 RMK AO2 SLP269 T10721139 $",
    "windDirection": 30,
    "windSpeed": 3,
    "windGust": null,
    "visibility": 10,
    "temperatureC": -7,
    "dewPointC": -14,
    "cloudCeiling": 99999,
    "altimeter": "A3027",
    "timestamp": "2025-12-05T01:51:00+00:00",
    "station": "KSTL"
  }
}