{
  "lastUpdated": "2026-01-22T23:02:43.939086+00:00",
  "kcps": {
    "metar": "KCPS 222253Z 00000KT 10SM SCT120 03/M14 A3028 RMK AO2 SLP257 T00281144 $",
    "windDirection": 0,
    "windSpeed": 0,
    "windGust": null,
    "visibility": 10,
    "temperatureC": 3,
    "dewPointC": -14,
    "cloudCeiling": null,
    "altimeter": "A3028",
    "timestamp": "2026-01-22T22:53:00+00:00",
    "station": "KCPS"
  },
  "kstl": {
    "metar": "KSTL 222251Z 00000KT 10SM SCT120 BKN200 BKN250 03/M14 A3027 RMK AO2 SLP264 T00281139 $",
    "windDirection": 0,
    "windSpeed": 0,
    "windGust": null,
    "visibility": 10,
    "temperatureC": 3,
    "dewPointC": -14,
    "cloudCeiling": 20000,
    "altimeter": "A3027",
    "timestamp": "2026-01-22T22:51:00+00:00",
    "station": "KSTL"
  }
}