{
  "lastUpdated": "2025-11-24T22:21:17.951689+00:00",
  "kcps": {
    "metar": "KCPS 242153Z AUTO 13006KT 10SM -RA BKN028 OVC055 11/09 A2995 RMK AO2 RAB36 SLP143 P0003 T01060089",
    "windDirection": 130,
    "windSpeed": 6,
    "windGust": null,
    "visibility": 10,
    "temperatureC": 11,
    "dewPointC": 9,
    "cloudCeiling": 2800,
    "altimeter": "A2995",
    "timestamp": "2025-11-24T21:53:00+00:00",
    "station": "KCPS"
  },
  "kstl": {
    "metar": "KSTL 242206Z 12011KT 10SM -RA SCT026 BKN060 OVC090 11/08 A2993 RMK AO2 RAB2157 P0000 T01110083 $",
    "windDirection": 120,
    "windSpeed": 11,
    "windGust": null,
    "visibility": 10,
    "temperatureC": 11,
    "dewPointC": 8,
    "cloudCeiling": 6000,
    "altimeter": "A2993",
    "timestamp": "2025-11-24T22:06:00+00:00",
    "station": "KSTL"
  }
}