{
  "lastUpdated": "2026-02-01T11:03:40.595036+00:00",
  "kcps": {
    "metar": "KCPS 011053Z AUTO 24003KT 10SM CLR M16/M18 A3045 RMK AO2 SLP320 T11561178 $",
    "windDirection": 240,
    "windSpeed": 3,
    "windGust": null,
    "visibility": 10,
    "temperatureC": -16,
    "dewPointC": -18,
    "cloudCeiling": 99999,
    "altimeter": "A3045",
    "timestamp": "2026-02-01T10:53:00+00:00",
    "station": "KCPS"
  },
  "kstl": {
    "metar": "KSTL 011051Z 26004KT 10SM CLR M14/M17 A3043 RMK AO2 SLP325 T11391172 $",
    "windDirection": 260,
    "windSpeed": 4,
    "windGust": null,
    "visibility": 10,
    "temperatureC": -14,
    "dewPointC": -17,
    "cloudCeiling": 99999,
    "altimeter": "A3043",
    "timestamp": "2026-02-01T10:51:00+00:00",
    "station": "KSTL"
  }
}