{
  "lastUpdated": "2026-01-15T08:23:13.005137+00:00",
  "kcps": {
    "metar": "KCPS 150753Z AUTO 34013KT 10SM CLR M06/M13 A3012 RMK AO2 PK WND 33026/0659 SLP202 T10561133",
    "windDirection": 340,
    "windSpeed": 13,
    "windGust": null,
    "visibility": 10,
    "temperatureC": -6,
    "dewPointC": -13,
    "cloudCeiling": 99999,
    "altimeter": "A3012",
    "timestamp": "2026-01-15T07:53:00+00:00",
    "station": "KCPS"
  },
  "kstl": {
    "metar": "KSTL 150751Z 33013KT 10SM CLR M06/M13 A3011 RMK AO2 SLP206 T10611128 $",
    "windDirection": 330,
    "windSpeed": 13,
    "windGust": null,
    "visibility": 10,
    "temperatureC": -6,
    "dewPointC": -13,
    "cloudCeiling": 99999,
    "altimeter": "A3011",
    "timestamp": "2026-01-15T07:51:00+00:00",
    "station": "KSTL"
  }
}