{
  "lastUpdated": "2026-03-21T07:24:06.192308+00:00",
  "kcps": {
    "metar": "KCPS 210653Z 00000KT 10SM CLR 13/08 A2989 RMK AO2 SLP118 T01330083 $",
    "windDirection": 0,
    "windSpeed": 0,
    "windGust": null,
    "visibility": 10,
    "temperatureC": 13,
    "dewPointC": 8,
    "cloudCeiling": 99999,
    "altimeter": "A2989",
    "timestamp": "2026-03-21T06:53:00+00:00",
    "station": "KCPS"
  },
  "kstl": {
    "metar": "KSTL 210651Z 00000KT 10SM SCT250 15/08 A2991 RMK AO2 SLP117 T01500078 $",
    "windDirection": 0,
    "windSpeed": 0,
    "windGust": null,
    "visibility": 10,
    "temperatureC": 15,
    "dewPointC": 8,
    "cloudCeiling": null,
    "altimeter": "A2991",
    "timestamp": "2026-03-21T06:51:00+00:00",
    "station": "KSTL"
  }
}