{
  "lastUpdated": "2025-11-11T00:07:29.847719+00:00",
  "kcps": {
    "metar": "KCPS 102353Z 29007KT 10SM CLR 01/M10 A3038 RMK AO2 SLP291 T00111100 10039 20006 53003",
    "windDirection": 290,
    "windSpeed": 7,
    "windGust": null,
    "visibility": 10,
    "temperatureC": 1,
    "dewPointC": -10,
    "cloudCeiling": 99999,
    "altimeter": "A3038",
    "timestamp": "2025-11-10T23:53:00+00:00",
    "station": "KCPS"
  },
  "kstl": {
    "metar": "KSTL 102351Z 29007KT 10SM CLR 01/M09 A3037 RMK AO2 SLP296 T00061094 10039 20006 53002 $",
    "windDirection": 290,
    "windSpeed": 7,
    "windGust": null,
    "visibility": 10,
    "temperatureC": 1,
    "dewPointC": -9,
    "cloudCeiling": 99999,
    "altimeter": "A3037",
    "timestamp": "2025-11-10T23:51:00+00:00",
    "station": "KSTL"
  }
}