{
  "lastUpdated": "2026-02-05T05:37:08.348507+00:00",
  "kcps": {
    "metar": "KCPS 050453Z AUTO 00000KT 6SM BR CLR M09/M10 A3038 RMK AO2 SLP293 I1000 T10891100 $",
    "windDirection": 0,
    "windSpeed": 0,
    "windGust": null,
    "visibility": 6,
    "temperatureC": -9,
    "dewPointC": -10,
    "cloudCeiling": 99999,
    "altimeter": "A3038",
    "timestamp": "2026-02-05T04:53:00+00:00",
    "station": "KCPS"
  },
  "kstl": {
    "metar": "KSTL 050451Z 00000KT 10SM CLR M07/M09 A3037 RMK AO2 SLP300 T10671089",
    "windDirection": 0,
    "windSpeed": 0,
    "windGust": null,
    "visibility": 10,
    "temperatureC": -7,
    "dewPointC": -9,
    "cloudCeiling": 99999,
    "altimeter": "A3037",
    "timestamp": "2026-02-05T04:51:00+00:00",
    "station": "KSTL"
  }
}