{
  "lastUpdated": "2026-05-12T20:59:20.688987+00:00",
  "kcps": {
    "metar": "KCPS 122053Z 23009G17KT 10SM CLR 28/09 A2997 RMK AO2 SLP145 T02830094 58034 $",
    "windDirection": 230,
    "windSpeed": 9,
    "windGust": 17,
    "visibility": 10,
    "temperatureC": 28,
    "dewPointC": 9,
    "cloudCeiling": 99999,
    "altimeter": "A2997",
    "timestamp": "2026-05-12T20:53:00+00:00",
    "station": "KCPS"
  },
  "kstl": {
    "metar": "KSTL 122051Z 24015G23KT 10SM FEW250 27/09 A2997 RMK AO2 SLP143 T02720094 58031 $",
    "windDirection": 240,
    "windSpeed": 15,
    "windGust": 23,
    "visibility": 10,
    "temperatureC": 27,
    "dewPointC": 9,
    "cloudCeiling": null,
    "altimeter": "A2997",
    "timestamp": "2026-05-12T20:51:00+00:00",
    "station": "KSTL"
  }
}