{
  "lastUpdated": "2026-03-27T16:15:40.558916+00:00",
  "kcps": {
    "metar": "KCPS 271601Z 36014KT 10SM SCT022 05/01 A3042 RMK AO2 T00500006 $",
    "windDirection": 360,
    "windSpeed": 14,
    "windGust": null,
    "visibility": 10,
    "temperatureC": 5,
    "dewPointC": 1,
    "cloudCeiling": null,
    "altimeter": "A3042",
    "timestamp": "2026-03-27T16:01:00+00:00",
    "station": "KCPS"
  },
  "kstl": {
    "metar": "KSTL 271551Z 02014KT 10SM SCT022 BKN130 BKN250 06/M01 A3042 RMK AO2 SLP303 T00561006 $",
    "windDirection": 20,
    "windSpeed": 14,
    "windGust": null,
    "visibility": 10,
    "temperatureC": 6,
    "dewPointC": -1,
    "cloudCeiling": 13000,
    "altimeter": "A3042",
    "timestamp": "2026-03-27T15:51:00+00:00",
    "station": "KSTL"
  }
}