{
  "lastUpdated": "2026-03-20T03:34:49.119692+00:00",
  "kcps": {
    "metar": "KCPS 200253Z 15006KT 10SM CLR 16/08 A2998 RMK AO2 SLP151 T01610078 51007 $",
    "windDirection": 150,
    "windSpeed": 6,
    "windGust": null,
    "visibility": 10,
    "temperatureC": 16,
    "dewPointC": 8,
    "cloudCeiling": 99999,
    "altimeter": "A2998",
    "timestamp": "2026-03-20T02:53:00+00:00",
    "station": "KCPS"
  },
  "kstl": {
    "metar": "KSTL 200251Z 15005KT 10SM SCT250 16/07 A2999 RMK AO2 SLP149 T01610072 50006 $",
    "windDirection": 150,
    "windSpeed": 5,
    "windGust": null,
    "visibility": 10,
    "temperatureC": 16,
    "dewPointC": 7,
    "cloudCeiling": null,
    "altimeter": "A2999",
    "timestamp": "2026-03-20T02:51:00+00:00",
    "station": "KSTL"
  }
}