{
  "lastUpdated": "2026-01-30T00:48:44.592794+00:00",
  "kcps": {
    "metar": "KCPS 292353Z 03007KT 10SM SCT075 OVC090 M06/M12 A3029 RMK AO2 SLP264 T10561122 11028 21056 53006 $",
    "windDirection": 30,
    "windSpeed": 7,
    "windGust": null,
    "visibility": 10,
    "temperatureC": -6,
    "dewPointC": -12,
    "cloudCeiling": 9000,
    "altimeter": "A3029",
    "timestamp": "2026-01-29T23:53:00+00:00",
    "station": "KCPS"
  },
  "kstl": {
    "metar": "KSTL 292351Z 04007KT 10SM FEW060 BKN075 BKN090 OVC250 M06/M13 A3029 RMK AO2 SLP272 4/004 T10611128 11039 21061 52006 $",
    "windDirection": 40,
    "windSpeed": 7,
    "windGust": null,
    "visibility": 10,
    "temperatureC": -6,
    "dewPointC": -13,
    "cloudCeiling": 7500,
    "altimeter": "A3029",
    "timestamp": "2026-01-29T23:51:00+00:00",
    "station": "KSTL"
  }
}