{
  "lastUpdated": "2025-11-27T04:22:18.305697+00:00",
  "kcps": {
    "metar": "KCPS 270353Z AUTO 30008KT 10SM CLR 03/M06 A3031 RMK AO2 SLP266 T00331061 $",
    "windDirection": 300,
    "windSpeed": 8,
    "windGust": null,
    "visibility": 10,
    "temperatureC": 3,
    "dewPointC": -6,
    "cloudCeiling": 99999,
    "altimeter": "A3031",
    "timestamp": "2025-11-27T03:53:00+00:00",
    "station": "KCPS"
  },
  "kstl": {
    "metar": "KSTL 270351Z 29008KT 10SM OVC220 02/M06 A3030 RMK AO2 SLP270 T00221056 $",
    "windDirection": 290,
    "windSpeed": 8,
    "windGust": null,
    "visibility": 10,
    "temperatureC": 2,
    "dewPointC": -6,
    "cloudCeiling": 22000,
    "altimeter": "A3030",
    "timestamp": "2025-11-27T03:51:00+00:00",
    "station": "KSTL"
  }
}