{
  "lastUpdated": "2026-03-18T14:26:24.520769+00:00",
  "kcps": {
    "metar": "KCPS 181353Z 18007KT 10SM FEW090 04/M03 A3004 RMK AO2 SLP174 T00441033 $",
    "windDirection": 180,
    "windSpeed": 7,
    "windGust": null,
    "visibility": 10,
    "temperatureC": 4,
    "dewPointC": -3,
    "cloudCeiling": null,
    "altimeter": "A3004",
    "timestamp": "2026-03-18T13:53:00+00:00",
    "station": "KCPS"
  },
  "kstl": {
    "metar": "KSTL 181351Z 17009KT 10SM FEW085 BKN130 05/M04 A3001 RMK AO2 SLP172 T00501039",
    "windDirection": 170,
    "windSpeed": 9,
    "windGust": null,
    "visibility": 10,
    "temperatureC": 5,
    "dewPointC": -4,
    "cloudCeiling": 13000,
    "altimeter": "A3001",
    "timestamp": "2026-03-18T13:51:00+00:00",
    "station": "KSTL"
  }
}