{
  "lastUpdated": "2025-11-14T07:33:58.111905+00:00",
  "kcps": {
    "metar": "KCPS 140653Z AUTO 00000KT 10SM CLR 08/05 A3009 RMK AO2 SLP187 T00830050",
    "windDirection": 0,
    "windSpeed": 0,
    "windGust": null,
    "visibility": 10,
    "temperatureC": 8,
    "dewPointC": 5,
    "cloudCeiling": 99999,
    "altimeter": "A3009",
    "timestamp": "2025-11-14T06:53:00+00:00",
    "station": "KCPS"
  },
  "kstl": {
    "metar": "KSTL 140651Z 19004KT 10SM CLR 12/06 A3008 RMK AO2 SLP181 T01220056",
    "windDirection": 190,
    "windSpeed": 4,
    "windGust": null,
    "visibility": 10,
    "temperatureC": 12,
    "dewPointC": 6,
    "cloudCeiling": 99999,
    "altimeter": "A3008",
    "timestamp": "2025-11-14T06:51:00+00:00",
    "station": "KSTL"
  }
}