{
  "lastUpdated": "2026-01-04T11:02:05.750898+00:00",
  "kcps": {
    "metar": "KCPS 041053Z AUTO 00000KT 7SM CLR M07/M08 A3016 RMK AO2 SLP219 I1000 T10671078 $",
    "windDirection": 0,
    "windSpeed": 0,
    "windGust": null,
    "visibility": 7,
    "temperatureC": -7,
    "dewPointC": -8,
    "cloudCeiling": 99999,
    "altimeter": "A3016",
    "timestamp": "2026-01-04T10:53:00+00:00",
    "station": "KCPS"
  },
  "kstl": {
    "metar": "KSTL 041051Z 00000KT 10SM CLR M04/M07 A3016 RMK AO2 SLP224 T10391067 $",
    "windDirection": 0,
    "windSpeed": 0,
    "windGust": null,
    "visibility": 10,
    "temperatureC": -4,
    "dewPointC": -7,
    "cloudCeiling": 99999,
    "altimeter": "A3016",
    "timestamp": "2026-01-04T10:51:00+00:00",
    "station": "KSTL"
  }
}