{
  "lastUpdated": "2026-01-25T00:08:45.251579+00:00",
  "kcps": {
    "metar": "KCPS 242353Z 02009KT 2 1/2SM -SN OVC036 M13/M16 A3039 RMK AO2 SLP301 P0001 60006 T11281161 11128 21150 58018 $",
    "windDirection": 20,
    "windSpeed": 9,
    "windGust": null,
    "visibility": 0.5,
    "temperatureC": -13,
    "dewPointC": -16,
    "cloudCeiling": 3600,
    "altimeter": "A3039",
    "timestamp": "2026-01-24T23:53:00+00:00",
    "station": "KCPS"
  },
  "kstl": {
    "metar": "KSTL 242351Z 04009KT 2SM -SN OVC029 M13/M16 A3038 RMK AO2 SLP314 4/002 P0002 60014 T11331161 11133 21156 58021 $",
    "windDirection": 40,
    "windSpeed": 9,
    "windGust": null,
    "visibility": 2,
    "temperatureC": -13,
    "dewPointC": -16,
    "cloudCeiling": 2900,
    "altimeter": "A3038",
    "timestamp": "2026-01-24T23:51:00+00:00",
    "station": "KSTL"
  }
}