{
  "lastUpdated": "2026-05-26T21:34:04.837274+00:00",
  "kcps": {
    "metar": "KCPS 262053Z 11007KT 10SM CLR 27/19 A2993 RMK AO2 SLP133 T02670189 56017 $",
    "windDirection": 110,
    "windSpeed": 7,
    "windGust": null,
    "visibility": 10,
    "temperatureC": 27,
    "dewPointC": 19,
    "cloudCeiling": 99999,
    "altimeter": "A2993",
    "timestamp": "2026-05-26T20:53:00+00:00",
    "station": "KCPS"
  },
  "kstl": {
    "metar": "KSTL 262051Z 11006KT 10SM FEW041 BKN110 BKN200 27/18 A2995 RMK AO2 SLP132 T02720178 56017 $",
    "windDirection": 110,
    "windSpeed": 6,
    "windGust": null,
    "visibility": 10,
    "temperatureC": 27,
    "dewPointC": 18,
    "cloudCeiling": 11000,
    "altimeter": "A2995",
    "timestamp": "2026-05-26T20:51:00+00:00",
    "station": "KSTL"
  }
}