{
  "lastUpdated": "2025-11-09T09:02:21.688881+00:00",
  "kcps": {
    "metar": "KCPS 090853Z AUTO 32023G33KT 10SM OVC027 06/01 A2999 RMK AO2 PK WND 33033/0847 RAE02B35E52 SLP155 P0000 60000 T00560006 51022 TSNO $",
    "windDirection": 320,
    "windSpeed": 23,
    "windGust": 33,
    "visibility": 10,
    "temperatureC": 6,
    "dewPointC": 1,
    "cloudCeiling": 2700,
    "altimeter": "A2999",
    "timestamp": "2025-11-09T08:53:00+00:00",
    "station": "KCPS"
  },
  "kstl": {
    "metar": "KSTL 090851Z 32022G31KT 10SM BKN024 05/00 A2999 RMK AO2 PK WND 33036/0831 SLP157 T00500000 51023 $",
    "windDirection": 320,
    "windSpeed": 22,
    "windGust": 31,
    "visibility": 10,
    "temperatureC": 5,
    "dewPointC": 0,
    "cloudCeiling": 2400,
    "altimeter": "A2999",
    "timestamp": "2025-11-09T08:51:00+00:00",
    "station": "KSTL"
  }
}