{
  "lastUpdated": "2025-10-18T09:21:16.469677+00:00",
  "kcps": {
    "metar": "KCPS 180853Z AUTO 15005KT 10SM CLR 17/14 A2975 RMK AO2 SLP072 6//// T01720144 56012 PNO $",
    "windDirection": 150,
    "windSpeed": 5,
    "windGust": null,
    "visibility": 10,
    "temperatureC": 17,
    "dewPointC": 14,
    "cloudCeiling": 99999,
    "altimeter": "A2975",
    "timestamp": "2025-10-18T08:53:00+00:00",
    "station": "KCPS"
  },
  "kstl": {
    "metar": "KSTL 180851Z 19005KT 10SM CLR 19/15 A2975 RMK AO2 SLP063 T01940150 56012 $",
    "windDirection": 190,
    "windSpeed": 5,
    "windGust": null,
    "visibility": 10,
    "temperatureC": 19,
    "dewPointC": 15,
    "cloudCeiling": 99999,
    "altimeter": "A2975",
    "timestamp": "2025-10-18T08:51:00+00:00",
    "station": "KSTL"
  }
}