{
  "lastUpdated": "2025-10-24T08:38:01.974519+00:00",
  "kcps": {
    "metar": "KCPS 240753Z AUTO 00000KT 5SM BR CLR 02/02 A3023 RMK AO2 SLP239 T00170017 $",
    "windDirection": 0,
    "windSpeed": 0,
    "windGust": null,
    "visibility": 5,
    "temperatureC": 2,
    "dewPointC": 2,
    "cloudCeiling": 99999,
    "altimeter": "A3023",
    "timestamp": "2025-10-24T07:53:00+00:00",
    "station": "KCPS"
  },
  "kstl": {
    "metar": "KSTL 240751Z 00000KT 10SM SCT250 07/02 A3023 RMK AO2 SLP237 T00670017 $",
    "windDirection": 0,
    "windSpeed": 0,
    "windGust": null,
    "visibility": 10,
    "temperatureC": 7,
    "dewPointC": 2,
    "cloudCeiling": null,
    "altimeter": "A3023",
    "timestamp": "2025-10-24T07:51:00+00:00",
    "station": "KSTL"
  }
}