{
  "lastUpdated": "2026-04-19T23:18:26.571924+00:00",
  "kcps": {
    "metar": "KCPS 192253Z 28010KT 10SM CLR 19/M01 A3016 RMK AO2 SLP212 T01941011 $",
    "windDirection": 280,
    "windSpeed": 10,
    "windGust": null,
    "visibility": 10,
    "temperatureC": 19,
    "dewPointC": -1,
    "cloudCeiling": 99999,
    "altimeter": "A3016",
    "timestamp": "2026-04-19T22:53:00+00:00",
    "station": "KCPS"
  },
  "kstl": {
    "metar": "KSTL 192251Z 32010G19KT 10SM SCT100 19/01 A3016 RMK AO2 SLP215 T01890006 $",
    "windDirection": 320,
    "windSpeed": 10,
    "windGust": 19,
    "visibility": 10,
    "temperatureC": 19,
    "dewPointC": 1,
    "cloudCeiling": null,
    "altimeter": "A3016",
    "timestamp": "2026-04-19T22:51:00+00:00",
    "station": "KSTL"
  }
}