{
  "lastUpdated": "2025-11-23T01:57:48.502214+00:00",
  "kcps": {
    "metar": "KCPS 230053Z 00000KT 9SM CLR 07/06 A3013 RMK AO2 SLP204 T00720061",
    "windDirection": 0,
    "windSpeed": 0,
    "windGust": null,
    "visibility": 9,
    "temperatureC": 7,
    "dewPointC": 6,
    "cloudCeiling": 99999,
    "altimeter": "A3013",
    "timestamp": "2025-11-23T00:53:00+00:00",
    "station": "KCPS"
  },
  "kstl": {
    "metar": "KSTL 230151Z 26005KT 10SM FEW250 09/07 A3015 RMK AO2 SLP211 T00890067 $",
    "windDirection": 260,
    "windSpeed": 5,
    "windGust": null,
    "visibility": 10,
    "temperatureC": 9,
    "dewPointC": 7,
    "cloudCeiling": null,
    "altimeter": "A3015",
    "timestamp": "2025-11-23T01:51:00+00:00",
    "station": "KSTL"
  }
}