{
  "lastUpdated": "2026-05-23T17:05:44.804903+00:00",
  "kcps": {
    "metar": "KCPS 231653Z 23004KT 10SM OVC020 21/17 A3001 RMK AO2 SLP161 T02110167 $",
    "windDirection": 230,
    "windSpeed": 4,
    "windGust": null,
    "visibility": 10,
    "temperatureC": 21,
    "dewPointC": 17,
    "cloudCeiling": 2000,
    "altimeter": "A3001",
    "timestamp": "2026-05-23T16:53:00+00:00",
    "station": "KCPS"
  },
  "kstl": {
    "metar": "KSTL 231651Z VRB03KT 10SM OVC017 21/17 A3002 RMK AO2 SLP158 T02110167 $",
    "windDirection": null,
    "windSpeed": null,
    "windGust": null,
    "visibility": 10,
    "temperatureC": 21,
    "dewPointC": 17,
    "cloudCeiling": 1700,
    "altimeter": "A3002",
    "timestamp": "2026-05-23T16:51:00+00:00",
    "station": "KSTL"
  }
}