{
  "lastUpdated": "2025-12-27T18:22:42.837787+00:00",
  "kcps": {
    "metar": "KCPS 271805Z 13006KT 1 1/2SM BR OVC003 11/11 A2990 RMK AO2 T01110106 $",
    "windDirection": 130,
    "windSpeed": 6,
    "windGust": null,
    "visibility": 0.5,
    "temperatureC": 11,
    "dewPointC": 11,
    "cloudCeiling": 300,
    "altimeter": "A2990",
    "timestamp": "2025-12-27T18:05:00+00:00",
    "station": "KCPS"
  },
  "kstl": {
    "metar": "KSTL 271751Z 11009KT 1/2SM R30R/2800FT FG OVC001 10/09 A2991 RMK AO2 SLP129 60000 T01000094 10100 20078 58017 $",
    "windDirection": 110,
    "windSpeed": 9,
    "windGust": null,
    "visibility": 0.5,
    "temperatureC": 10,
    "dewPointC": 9,
    "cloudCeiling": 100,
    "altimeter": "A2991",
    "timestamp": "2025-12-27T17:51:00+00:00",
    "station": "KSTL"
  }
}