{
  "lastUpdated": "2025-12-24T05:38:21.976263+00:00",
  "kcps": {
    "metar": "KCPS 240453Z 00000KT 1/4SM FG VV001 07/07 A3023 RMK AO2 SLP236 T00670067 $",
    "windDirection": 0,
    "windSpeed": 0,
    "windGust": null,
    "visibility": 0.25,
    "temperatureC": 7,
    "dewPointC": 7,
    "cloudCeiling": 100,
    "altimeter": "A3023",
    "timestamp": "2025-12-24T04:53:00+00:00",
    "station": "KCPS"
  },
  "kstl": {
    "metar": "KSTL 240526Z 02003KT 7SM BCFG FEW000 FEW005 SCT030 BKN250 06/06 A3023 RMK AO2 FG FEW000 T00610061 $",
    "windDirection": 20,
    "windSpeed": 3,
    "windGust": null,
    "visibility": 7,
    "temperatureC": 6,
    "dewPointC": 6,
    "cloudCeiling": 25000,
    "altimeter": "A3023",
    "timestamp": "2025-12-24T05:26:00+00:00",
    "station": "KSTL"
  }
}