{
  "lastUpdated": "2026-03-14T11:22:27.558711+00:00",
  "kcps": {
    "metar": "KCPS 141053Z AUTO 07005KT 10SM CLR 04/M03 A3011 RMK AO2 SLP197 T00441033 $",
    "windDirection": 70,
    "windSpeed": 5,
    "windGust": null,
    "visibility": 10,
    "temperatureC": 4,
    "dewPointC": -3,
    "cloudCeiling": 99999,
    "altimeter": "A3011",
    "timestamp": "2026-03-14T10:53:00+00:00",
    "station": "KCPS"
  },
  "kstl": {
    "metar": "KSTL 141051Z 11007KT 10SM SCT140 SCT250 04/M03 A3011 RMK AO2 SLP198 T00441033 $",
    "windDirection": 110,
    "windSpeed": 7,
    "windGust": null,
    "visibility": 10,
    "temperatureC": 4,
    "dewPointC": -3,
    "cloudCeiling": null,
    "altimeter": "A3011",
    "timestamp": "2026-03-14T10:51:00+00:00",
    "station": "KSTL"
  }
}