{
  "lastUpdated": "2026-04-03T22:57:34.801441+00:00",
  "kcps": {
    "metar": "KCPS 032253Z 17011G21KT 10SM CLR 26/17 A2992 RMK AO2 SLP129 T02610172 $",
    "windDirection": 170,
    "windSpeed": 11,
    "windGust": 21,
    "visibility": 10,
    "temperatureC": 26,
    "dewPointC": 17,
    "cloudCeiling": 99999,
    "altimeter": "A2992",
    "timestamp": "2026-04-03T22:53:00+00:00",
    "station": "KCPS"
  },
  "kstl": {
    "metar": "KSTL 032251Z 18015G23KT 10SM FEW065 SCT100 OVC250 27/17 A2991 RMK AO2 SLP121 T02720167 $",
    "windDirection": 180,
    "windSpeed": 15,
    "windGust": 23,
    "visibility": 10,
    "temperatureC": 27,
    "dewPointC": 17,
    "cloudCeiling": 25000,
    "altimeter": "A2991",
    "timestamp": "2026-04-03T22:51:00+00:00",
    "station": "KSTL"
  }
}