{
  "lastUpdated": "2026-05-17T17:20:01.749678+00:00",
  "kcps": {
    "metar": "KCPS 171653Z 19014G25KT 10SM CLR 28/19 A2990 RMK AO2 SLP120 T02780189 $",
    "windDirection": 190,
    "windSpeed": 14,
    "windGust": 25,
    "visibility": 10,
    "temperatureC": 28,
    "dewPointC": 19,
    "cloudCeiling": 99999,
    "altimeter": "A2990",
    "timestamp": "2026-05-17T16:53:00+00:00",
    "station": "KCPS"
  },
  "kstl": {
    "metar": "KSTL 171651Z 19014G30KT 10SM FEW050 SCT150 BKN250 27/19 A2990 RMK AO2 PK WND 20030/1643 SLP114 T02670189 $",
    "windDirection": 190,
    "windSpeed": 14,
    "windGust": 30,
    "visibility": 10,
    "temperatureC": 27,
    "dewPointC": 19,
    "cloudCeiling": 25000,
    "altimeter": "A2990",
    "timestamp": "2026-05-17T16:51:00+00:00",
    "station": "KSTL"
  }
}