{
  "lastUpdated": "2025-11-23T11:20:25.109504+00:00",
  "kcps": {
    "metar": "KCPS 231100Z 00000KT 8SM SCT009 07/07 A3018 RMK AO2 T00670067",
    "windDirection": 0,
    "windSpeed": 0,
    "windGust": null,
    "visibility": 8,
    "temperatureC": 7,
    "dewPointC": 7,
    "cloudCeiling": null,
    "altimeter": "A3018",
    "timestamp": "2025-11-23T11:00:00+00:00",
    "station": "KCPS"
  },
  "kstl": {
    "metar": "KSTL 231051Z 26005KT 8SM FEW005 07/07 A3018 RMK AO2 SLP222 T00720067 $",
    "windDirection": 260,
    "windSpeed": 5,
    "windGust": null,
    "visibility": 8,
    "temperatureC": 7,
    "dewPointC": 7,
    "cloudCeiling": null,
    "altimeter": "A3018",
    "timestamp": "2025-11-23T10:51:00+00:00",
    "station": "KSTL"
  }
}