{
  "lastUpdated": "2026-01-17T19:46:23.285563+00:00",
  "kcps": {
    "metar": "KCPS 171853Z 31012KT 7SM -SN FEW020 BKN030 OVC050 M05/M11 A3017 RMK AO2 SNE34B38 SLP222 P0000 T10501106 $",
    "windDirection": 310,
    "windSpeed": 12,
    "windGust": null,
    "visibility": 7,
    "temperatureC": -5,
    "dewPointC": -11,
    "cloudCeiling": 3000,
    "altimeter": "A3017",
    "timestamp": "2026-01-17T18:53:00+00:00",
    "station": "KCPS"
  },
  "kstl": {
    "metar": "KSTL 171851Z 31009KT 8SM -SN BKN030 OVC045 M06/M12 A3016 RMK AO2 SLP229 P0000 T10611122 $",
    "windDirection": 310,
    "windSpeed": 9,
    "windGust": null,
    "visibility": 8,
    "temperatureC": -6,
    "dewPointC": -12,
    "cloudCeiling": 3000,
    "altimeter": "A3016",
    "timestamp": "2026-01-17T18:51:00+00:00",
    "station": "KSTL"
  }
}