{
  "lastUpdated": "2026-01-10T17:34:12.974507+00:00",
  "kcps": {
    "metar": "KCPS 101702Z 31017KT 10SM BKN020 BKN060 06/01 A3015 RMK AO2 T00560006 $",
    "windDirection": 310,
    "windSpeed": 17,
    "windGust": null,
    "visibility": 10,
    "temperatureC": 6,
    "dewPointC": 1,
    "cloudCeiling": 2000,
    "altimeter": "A3015",
    "timestamp": "2026-01-10T17:02:00+00:00",
    "station": "KCPS"
  },
  "kstl": {
    "metar": "KSTL 101702Z 32014G22KT 10SM BKN021 04/00 A3015 RMK AO2 T00440000 $",
    "windDirection": 320,
    "windSpeed": 14,
    "windGust": 22,
    "visibility": 10,
    "temperatureC": 4,
    "dewPointC": 0,
    "cloudCeiling": 2100,
    "altimeter": "A3015",
    "timestamp": "2026-01-10T17:02:00+00:00",
    "station": "KSTL"
  }
}