{
  "lastUpdated": "2025-10-18T00:34:31.348996+00:00",
  "kcps": {
    "metar": "KCPS 172353Z 18004KT 10SM CLR 25/14 A2980 RMK AO2 SLP089 T02500139 10294 20239 55003",
    "windDirection": 180,
    "windSpeed": 4,
    "windGust": null,
    "visibility": 10,
    "temperatureC": 25,
    "dewPointC": 14,
    "cloudCeiling": 99999,
    "altimeter": "A2980",
    "timestamp": "2025-10-17T23:53:00+00:00",
    "station": "KCPS"
  },
  "kstl": {
    "metar": "KSTL 172351Z 19009KT 10SM BKN220 26/13 A2980 RMK AO2 SLP082 T02610128 10283 20239 55005 $",
    "windDirection": 190,
    "windSpeed": 9,
    "windGust": null,
    "visibility": 10,
    "temperatureC": 26,
    "dewPointC": 13,
    "cloudCeiling": 22000,
    "altimeter": "A2980",
    "timestamp": "2025-10-17T23:51:00+00:00",
    "station": "KSTL"
  }
}