{
  "lastUpdated": "2026-03-14T00:10:46.595285+00:00",
  "kcps": {
    "metar": "KCPS 132353Z 36010KT 10SM CLR 13/M05 A3000 RMK AO2 SLP157 T01331050 10172 20133 53019 $",
    "windDirection": 360,
    "windSpeed": 10,
    "windGust": null,
    "visibility": 10,
    "temperatureC": 13,
    "dewPointC": -5,
    "cloudCeiling": 99999,
    "altimeter": "A3000",
    "timestamp": "2026-03-13T23:53:00+00:00",
    "station": "KCPS"
  },
  "kstl": {
    "metar": "KSTL 132351Z 33009KT 10SM CLR 13/M04 A3000 RMK AO2 SLP161 T01281044 10167 20128 53017 $",
    "windDirection": 330,
    "windSpeed": 9,
    "windGust": null,
    "visibility": 10,
    "temperatureC": 13,
    "dewPointC": -4,
    "cloudCeiling": 99999,
    "altimeter": "A3000",
    "timestamp": "2026-03-13T23:51:00+00:00",
    "station": "KSTL"
  }
}