{
  "lastUpdated": "2025-11-30T09:21:11.056118+00:00",
  "kcps": {
    "metar": "KCPS 300910Z AUTO 30023G36KT 10SM -SN BKN031 BKN036 M01/M07 A3022 RMK AO2 PK WND 31036/0906 SNB10 P0000 T10111072 $",
    "windDirection": 300,
    "windSpeed": 23,
    "windGust": 36,
    "visibility": 10,
    "temperatureC": -1,
    "dewPointC": -7,
    "cloudCeiling": 3100,
    "altimeter": "A3022",
    "timestamp": "2025-11-30T09:10:00+00:00",
    "station": "KCPS"
  },
  "kstl": {
    "metar": "KSTL 300851Z 29020G32KT 10SM OVC029 M02/M07 A3020 RMK AO2 PK WND 28035/0809 SLP236 T10171072 53036 $",
    "windDirection": 290,
    "windSpeed": 20,
    "windGust": 32,
    "visibility": 10,
    "temperatureC": -2,
    "dewPointC": -7,
    "cloudCeiling": 2900,
    "altimeter": "A3020",
    "timestamp": "2025-11-30T08:51:00+00:00",
    "station": "KSTL"
  }
}