{
  "lastUpdated": "2026-03-09T18:51:52.993661+00:00",
  "kcps": {
    "metar": "KCPS 091753Z 16012KT 10SM CLR 21/15 A2981 RMK AO2 SLP094 T02110150 10217 20083 58023 $",
    "windDirection": 160,
    "windSpeed": 12,
    "windGust": null,
    "visibility": 10,
    "temperatureC": 21,
    "dewPointC": 15,
    "cloudCeiling": 99999,
    "altimeter": "A2981",
    "timestamp": "2026-03-09T17:53:00+00:00",
    "station": "KCPS"
  },
  "kstl": {
    "metar": "KSTL 091751Z 21011G19KT 10SM FEW200 23/13 A2980 RMK AO2 SLP084 T02330133 10233 20111 58023 $",
    "windDirection": 210,
    "windSpeed": 11,
    "windGust": 19,
    "visibility": 10,
    "temperatureC": 23,
    "dewPointC": 13,
    "cloudCeiling": null,
    "altimeter": "A2980",
    "timestamp": "2026-03-09T17:51:00+00:00",
    "station": "KSTL"
  }
}