{
  "lastUpdated": "2026-01-21T08:23:16.610841+00:00",
  "kcps": {
    "metar": "KCPS 210753Z AUTO 17005KT 10SM CLR 01/M12 A3013 RMK AO2 SLP205 T00061122 $",
    "windDirection": 170,
    "windSpeed": 5,
    "windGust": null,
    "visibility": 10,
    "temperatureC": 1,
    "dewPointC": -12,
    "cloudCeiling": 99999,
    "altimeter": "A3013",
    "timestamp": "2026-01-21T07:53:00+00:00",
    "station": "KCPS"
  },
  "kstl": {
    "metar": "KSTL 210751Z 20009KT 10SM OVC170 02/M12 A3011 RMK AO2 SLP203 T00171122 $",
    "windDirection": 200,
    "windSpeed": 9,
    "windGust": null,
    "visibility": 10,
    "temperatureC": 2,
    "dewPointC": -12,
    "cloudCeiling": 17000,
    "altimeter": "A3011",
    "timestamp": "2026-01-21T07:51:00+00:00",
    "station": "KSTL"
  }
}