{
  "lastUpdated": "2025-11-30T09:02:19.126102+00:00",
  "kcps": {
    "metar": "KCPS 300853Z AUTO 30016G26KT 10SM OVC031 M01/M06 A3020 RMK AO2 PK WND 29029/0819 SLP231 T10111061 53033 $",
    "windDirection": 300,
    "windSpeed": 16,
    "windGust": 26,
    "visibility": 10,
    "temperatureC": -1,
    "dewPointC": -6,
    "cloudCeiling": 3100,
    "altimeter": "A3020",
    "timestamp": "2025-11-30T08:53:00+00:00",
    "station": "KCPS"
  },
  "kstl": {
    "metar": "KSTL 300851Z 29020G32KT 10SM OVC029 M02/M07 A3020 RMK AO2 PK WND 28035/0809 SLP236 T10171072 53036 $",
    "windDirection": 290,
    "windSpeed": 20,
    "windGust": 32,
    "visibility": 10,
    "temperatureC": -2,
    "dewPointC": -7,
    "cloudCeiling": 2900,
    "altimeter": "A3020",
    "timestamp": "2025-11-30T08:51:00+00:00",
    "station": "KSTL"
  }
}