{
  "lastUpdated": "2025-10-17T23:20:45.981955+00:00",
  "kcps": {
    "metar": "KCPS 172153Z 16008KT 10SM CLR 29/14 A2979 RMK AO2 SLP085 T02890144",
    "windDirection": 160,
    "windSpeed": 8,
    "windGust": null,
    "visibility": 10,
    "temperatureC": 29,
    "dewPointC": 14,
    "cloudCeiling": 99999,
    "altimeter": "A2979",
    "timestamp": "2025-10-17T21:53:00+00:00",
    "station": "KCPS"
  },
  "kstl": {
    "metar": "KSTL 172251Z 19010G18KT 10SM FEW065 SCT200 BKN250 28/13 A2979 RMK AO2 SLP077 T02780133 $",
    "windDirection": 190,
    "windSpeed": 10,
    "windGust": 18,
    "visibility": 10,
    "temperatureC": 28,
    "dewPointC": 13,
    "cloudCeiling": 25000,
    "altimeter": "A2979",
    "timestamp": "2025-10-17T22:51:00+00:00",
    "station": "KSTL"
  }
}