{
  "lastUpdated": "2025-11-30T04:54:33.131859+00:00",
  "kcps": {
    "metar": "KCPS 300413Z AUTO 27013G31KT 10SM FEW012 OVC019 02/M01 A3005 RMK AO2 PK WND 28031/0409 RAE00 P0001 T00171011 $",
    "windDirection": 270,
    "windSpeed": 13,
    "windGust": 31,
    "visibility": 10,
    "temperatureC": 2,
    "dewPointC": -1,
    "cloudCeiling": 1900,
    "altimeter": "A3005",
    "timestamp": "2025-11-30T04:13:00+00:00",
    "station": "KCPS"
  },
  "kstl": {
    "metar": "KSTL 300451Z 27019G33KT 10SM BKN022 OVC040 01/M03 A3007 RMK AO2 PK WND 27035/0413 SLP192 T00061033 $",
    "windDirection": 270,
    "windSpeed": 19,
    "windGust": 33,
    "visibility": 10,
    "temperatureC": 1,
    "dewPointC": -3,
    "cloudCeiling": 2200,
    "altimeter": "A3007",
    "timestamp": "2025-11-30T04:51:00+00:00",
    "station": "KSTL"
  }
}