{
  "lastUpdated": "2025-12-17T08:41:40.388108+00:00",
  "kcps": {
    "metar": "KCPS 170753Z AUTO 22004KT 10SM CLR 07/M03 A2999 RMK AO2 SLP154 T00721033",
    "windDirection": 220,
    "windSpeed": 4,
    "windGust": null,
    "visibility": 10,
    "temperatureC": 7,
    "dewPointC": -3,
    "cloudCeiling": 99999,
    "altimeter": "A2999",
    "timestamp": "2025-12-17T07:53:00+00:00",
    "station": "KCPS"
  },
  "kstl": {
    "metar": "KSTL 170751Z 26004KT 10SM BKN210 06/M02 A2998 RMK AO2 SLP153 T00611017 $",
    "windDirection": 260,
    "windSpeed": 4,
    "windGust": null,
    "visibility": 10,
    "temperatureC": 6,
    "dewPointC": -2,
    "cloudCeiling": 21000,
    "altimeter": "A2998",
    "timestamp": "2025-12-17T07:51:00+00:00",
    "station": "KSTL"
  }
}