{
  "lastUpdated": "2026-01-13T00:38:11.422639+00:00",
  "kcps": {
    "metar": "KCPS 122353Z 17004KT 10SM CLR 10/M03 A3015 RMK AO2 SLP212 T01001033 10150 20089 56009 $",
    "windDirection": 170,
    "windSpeed": 4,
    "windGust": null,
    "visibility": 10,
    "temperatureC": 10,
    "dewPointC": -3,
    "cloudCeiling": 99999,
    "altimeter": "A3015",
    "timestamp": "2026-01-12T23:53:00+00:00",
    "station": "KCPS"
  },
  "kstl": {
    "metar": "KSTL 122351Z 24003KT 10SM SCT210 BKN250 09/M03 A3015 RMK AO2 SLP218 T00941028 10144 20089 58003",
    "windDirection": 240,
    "windSpeed": 3,
    "windGust": null,
    "visibility": 10,
    "temperatureC": 9,
    "dewPointC": -3,
    "cloudCeiling": 25000,
    "altimeter": "A3015",
    "timestamp": "2026-01-12T23:51:00+00:00",
    "station": "KSTL"
  }
}