{
  "lastUpdated": "2026-02-19T19:29:19.807940+00:00",
  "kcps": {
    "metar": "KCPS 191922Z 16011KT 10SM FEW014 SCT027 BKN070 18/15 A2946 RMK AO2 RAE07 P0000 T01780150 $",
    "windDirection": 160,
    "windSpeed": 11,
    "windGust": null,
    "visibility": 10,
    "temperatureC": 18,
    "dewPointC": 15,
    "cloudCeiling": 7000,
    "altimeter": "A2946",
    "timestamp": "2026-02-19T19:22:00+00:00",
    "station": "KCPS"
  },
  "kstl": {
    "metar": "KSTL 191851Z VRB04KT 9SM BKN012 BKN019 OVC050 14/12 A2949 RMK AO2 RAE12 TSE06 SLP987 P0000 T01440122 $",
    "windDirection": null,
    "windSpeed": null,
    "windGust": null,
    "visibility": 9,
    "temperatureC": 14,
    "dewPointC": 12,
    "cloudCeiling": 1200,
    "altimeter": "A2949",
    "timestamp": "2026-02-19T18:51:00+00:00",
    "station": "KSTL"
  }
}