{
  "lastUpdated": "2026-04-05T21:10:14.937591+00:00",
  "kcps": {
    "metar": "KCPS 052053Z 34012KT 10SM CLR 15/M01 A3028 RMK AO2 SLP254 T01501006 58011 $",
    "windDirection": 340,
    "windSpeed": 12,
    "windGust": null,
    "visibility": 10,
    "temperatureC": 15,
    "dewPointC": -1,
    "cloudCeiling": 99999,
    "altimeter": "A3028",
    "timestamp": "2026-04-05T20:53:00+00:00",
    "station": "KCPS"
  },
  "kstl": {
    "metar": "KSTL 052051Z 29008G20KT 10SM FEW040 14/01 A3029 RMK AO2 SLP260 T01440006 58010 $",
    "windDirection": 290,
    "windSpeed": 8,
    "windGust": 20,
    "visibility": 10,
    "temperatureC": 14,
    "dewPointC": 1,
    "cloudCeiling": null,
    "altimeter": "A3029",
    "timestamp": "2026-04-05T20:51:00+00:00",
    "station": "KSTL"
  }
}