{
  "lastUpdated": "2026-05-21T11:50:52.169144+00:00",
  "kcps": {
    "metar": "KCPS 211053Z AUTO 02004KT 10SM CLR 12/08 A3017 RMK AO2 SLP216 T01220083 PNO $",
    "windDirection": 20,
    "windSpeed": 4,
    "windGust": null,
    "visibility": 10,
    "temperatureC": 12,
    "dewPointC": 8,
    "cloudCeiling": 99999,
    "altimeter": "A3017",
    "timestamp": "2026-05-21T10:53:00+00:00",
    "station": "KCPS"
  },
  "kstl": {
    "metar": "KSTL 211051Z AUTO 04007KT 10SM FEW055 12/07 A3018 RMK AO2 SLP216 T01220072 $",
    "windDirection": 40,
    "windSpeed": 7,
    "windGust": null,
    "visibility": 10,
    "temperatureC": 12,
    "dewPointC": 7,
    "cloudCeiling": null,
    "altimeter": "A3018",
    "timestamp": "2026-05-21T10:51:00+00:00",
    "station": "KSTL"
  }
}