{
  "lastUpdated": "2025-12-28T01:30:51.763849+00:00",
  "kcps": {
    "metar": "KCPS 280053Z 17007G16KT 8SM OVC005 16/15 A2978 RMK AO2 SLP084 T01560150 $",
    "windDirection": 170,
    "windSpeed": 7,
    "windGust": 16,
    "visibility": 8,
    "temperatureC": 16,
    "dewPointC": 15,
    "cloudCeiling": 500,
    "altimeter": "A2978",
    "timestamp": "2025-12-28T00:53:00+00:00",
    "station": "KCPS"
  },
  "kstl": {
    "metar": "KSTL 280057Z 16012G18KT 4SM BR OVC005 15/14 A2976 RMK AO2 T01500139 $",
    "windDirection": 160,
    "windSpeed": 12,
    "windGust": 18,
    "visibility": 4,
    "temperatureC": 15,
    "dewPointC": 14,
    "cloudCeiling": 500,
    "altimeter": "A2976",
    "timestamp": "2025-12-28T00:57:00+00:00",
    "station": "KSTL"
  }
}