{
  "lastUpdated": "2026-04-30T23:32:08.626444+00:00",
  "kcps": {
    "metar": "KCPS 302253Z 19005KT 10SM CLR 18/02 A2996 RMK AO2 SLP144 T01830017 $",
    "windDirection": 190,
    "windSpeed": 5,
    "windGust": null,
    "visibility": 10,
    "temperatureC": 18,
    "dewPointC": 2,
    "cloudCeiling": 99999,
    "altimeter": "A2996",
    "timestamp": "2026-04-30T22:53:00+00:00",
    "station": "KCPS"
  },
  "kstl": {
    "metar": "KSTL 302251Z 26007KT 10SM FEW080 BKN170 OVC250 18/01 A2996 RMK AO2 SLP145 T01780011",
    "windDirection": 260,
    "windSpeed": 7,
    "windGust": null,
    "visibility": 10,
    "temperatureC": 18,
    "dewPointC": 1,
    "cloudCeiling": 17000,
    "altimeter": "A2996",
    "timestamp": "2026-04-30T22:51:00+00:00",
    "station": "KSTL"
  }
}