{
  "lastUpdated": "2025-12-15T19:34:08.182818+00:00",
  "kcps": {
    "metar": "KCPS 151853Z 19011G19KT 10SM CLR 03/M14 A3018 RMK AO2 PRESFR SLP226 T00331139 $",
    "windDirection": 190,
    "windSpeed": 11,
    "windGust": 19,
    "visibility": 10,
    "temperatureC": 3,
    "dewPointC": -14,
    "cloudCeiling": 99999,
    "altimeter": "A3018",
    "timestamp": "2025-12-15T18:53:00+00:00",
    "station": "KCPS"
  },
  "kstl": {
    "metar": "KSTL 151851Z 20010G17KT 10SM FEW200 04/M14 A3017 RMK AO2 SLP230 T00391144 $",
    "windDirection": 200,
    "windSpeed": 10,
    "windGust": 17,
    "visibility": 10,
    "temperatureC": 4,
    "dewPointC": -14,
    "cloudCeiling": null,
    "altimeter": "A3017",
    "timestamp": "2025-12-15T18:51:00+00:00",
    "station": "KSTL"
  }
}