{
  "lastUpdated": "2025-12-03T06:54:35.003369+00:00",
  "kcps": {
    "metar": "KCPS 030653Z AUTO 17004KT 10SM CLR M06/M07 A3009 RMK AO2 SLP194 T1056",
    "windDirection": 170,
    "windSpeed": 4,
    "windGust": null,
    "visibility": 10,
    "temperatureC": -6,
    "dewPointC": -7,
    "cloudCeiling": 99999,
    "altimeter": "A3009",
    "timestamp": "2025-12-03T06:53:00+00:00",
    "station": "KCPS"
  },
  "kstl": {
    "metar": "KSTL 030651Z 18005KT 10SM SCT250 M04/M07 A3007 RMK AO2 SLP196 T10441067 $",
    "windDirection": 180,
    "windSpeed": 5,
    "windGust": null,
    "visibility": 10,
    "temperatureC": -4,
    "dewPointC": -7,
    "cloudCeiling": null,
    "altimeter": "A3007",
    "timestamp": "2025-12-03T06:51:00+00:00",
    "station": "KSTL"
  }
}