{
  "lastUpdated": "2026-03-31T22:17:56.906296+00:00",
  "kcps": {
    "metar": "KCPS 312153Z 20009KT 10SM CLR 29/12 A2981 RMK AO2 SLP091 T02890117 $",
    "windDirection": 200,
    "windSpeed": 9,
    "windGust": null,
    "visibility": 10,
    "temperatureC": 29,
    "dewPointC": 12,
    "cloudCeiling": 99999,
    "altimeter": "A2981",
    "timestamp": "2026-03-31T21:53:00+00:00",
    "station": "KCPS"
  },
  "kstl": {
    "metar": "KSTL 312151Z 33010KT 10SM FEW065 FEW090 SCT110 OVC250 24/15 A2985 RMK AO2 SLP099 CB DSNT NW-N MOV E T02440150 $",
    "windDirection": 330,
    "windSpeed": 10,
    "windGust": null,
    "visibility": 10,
    "temperatureC": 24,
    "dewPointC": 15,
    "cloudCeiling": 25000,
    "altimeter": "A2985",
    "timestamp": "2026-03-31T21:51:00+00:00",
    "station": "KSTL"
  }
}