{
  "lastUpdated": "2026-03-13T20:23:50.540057+00:00",
  "kcps": {
    "metar": "KCPS 131953Z 31014G24KT 10SM CLR 17/M07 A2994 RMK AO2 SLP138 T01671067 $",
    "windDirection": 310,
    "windSpeed": 14,
    "windGust": 24,
    "visibility": 10,
    "temperatureC": 17,
    "dewPointC": -7,
    "cloudCeiling": 99999,
    "altimeter": "A2994",
    "timestamp": "2026-03-13T19:53:00+00:00",
    "station": "KCPS"
  },
  "kstl": {
    "metar": "KSTL 131951Z 30012G19KT 10SM BKN250 17/M03 A2995 RMK AO2 SLP142 T01671033 $",
    "windDirection": 300,
    "windSpeed": 12,
    "windGust": 19,
    "visibility": 10,
    "temperatureC": 17,
    "dewPointC": -3,
    "cloudCeiling": 25000,
    "altimeter": "A2995",
    "timestamp": "2026-03-13T19:51:00+00:00",
    "station": "KSTL"
  }
}