{
  "lastUpdated": "2025-10-09T19:30:06.226361Z",
  "kcps": {
    "metar": "KCPS 091853Z 03009G15KT 10SM CLR 23/06 A3035 RMK AO2 SLP278 T02280056",
    "windDirection": 30,
    "windSpeed": 9,
    "windGust": 15,
    "visibility": 10,
    "temperatureC": 23,
    "dewPointC": 6,
    "cloudCeiling": 99999,
    "altimeter": "A3035",
    "timestamp": "2025-10-09T18:53:00Z",
    "station": "KCPS"
  },
  "kstl": {
    "metar": "KSTL 091851Z 07006KT 10SM CLR 22/05 A3036 RMK AO2 SLP278 T02170050 $",
    "windDirection": 70,
    "windSpeed": 6,
    "windGust": null,
    "visibility": 10,
    "temperatureC": 22,
    "dewPointC": 5,
    "cloudCeiling": 99999,
    "altimeter": "A3036",
    "timestamp": "2025-10-09T18:51:00Z",
    "station": "KSTL"
  }
}