{
  "lastUpdated": "2026-03-17T19:21:47.818951+00:00",
  "kcps": {
    "metar": "KCPS 171853Z 18004KT 10SM CLR M01/M16 A3027 RMK AO2 SLP256 T10111161 $",
    "windDirection": 180,
    "windSpeed": 4,
    "windGust": null,
    "visibility": 10,
    "temperatureC": -1,
    "dewPointC": -16,
    "cloudCeiling": 99999,
    "altimeter": "A3027",
    "timestamp": "2026-03-17T18:53:00+00:00",
    "station": "KCPS"
  },
  "kstl": {
    "metar": "KSTL 171851Z 28008KT 10SM FEW100 BKN220 M02/M17 A3026 RMK AO2 SLP263 T10171172 $",
    "windDirection": 280,
    "windSpeed": 8,
    "windGust": null,
    "visibility": 10,
    "temperatureC": -2,
    "dewPointC": -17,
    "cloudCeiling": 22000,
    "altimeter": "A3026",
    "timestamp": "2026-03-17T18:51:00+00:00",
    "station": "KSTL"
  }
}