{
  "lastUpdated": "2026-02-17T13:27:12.876587+00:00",
  "kcps": {
    "metar": "KCPS 171253Z 16004KT 10SM CLR 07/05 A2992 RMK AO2 SLP133 T00670050 $",
    "windDirection": 160,
    "windSpeed": 4,
    "windGust": null,
    "visibility": 10,
    "temperatureC": 7,
    "dewPointC": 5,
    "cloudCeiling": 99999,
    "altimeter": "A2992",
    "timestamp": "2026-02-17T12:53:00+00:00",
    "station": "KCPS"
  },
  "kstl": {
    "metar": "KSTL 171251Z 12004KT 10SM BKN190 OVC250 07/05 A2992 RMK AO2 SLP132 T00720050 $",
    "windDirection": 120,
    "windSpeed": 4,
    "windGust": null,
    "visibility": 10,
    "temperatureC": 7,
    "dewPointC": 5,
    "cloudCeiling": 19000,
    "altimeter": "A2992",
    "timestamp": "2026-02-17T12:51:00+00:00",
    "station": "KSTL"
  }
}