{
  "lastUpdated": "2026-02-12T11:14:15.047117+00:00",
  "kcps": {
    "metar": "KCPS 121053Z AUTO 00000KT 10SM CLR M02/M04 A3029 RMK AO2 SLP260 T10171039 $",
    "windDirection": 0,
    "windSpeed": 0,
    "windGust": null,
    "visibility": 10,
    "temperatureC": -2,
    "dewPointC": -4,
    "cloudCeiling": 99999,
    "altimeter": "A3029",
    "timestamp": "2026-02-12T10:53:00+00:00",
    "station": "KCPS"
  },
  "kstl": {
    "metar": "KSTL 121051Z 00000KT 10SM FEW120 01/M03 A3029 RMK AO2 SLP263 T00061033 $",
    "windDirection": 0,
    "windSpeed": 0,
    "windGust": null,
    "visibility": 10,
    "temperatureC": 1,
    "dewPointC": -3,
    "cloudCeiling": null,
    "altimeter": "A3029",
    "timestamp": "2026-02-12T10:51:00+00:00",
    "station": "KSTL"
  }
}