{
  "lastUpdated": "2025-11-18T08:22:41.206366+00:00",
  "kcps": {
    "metar": "KCPS 180753Z 15006KT 10SM OVC038 13/M01 A2987 RMK AO2 LTG DSNT NW SLP115 T01331006",
    "windDirection": 150,
    "windSpeed": 6,
    "windGust": null,
    "visibility": 10,
    "temperatureC": 13,
    "dewPointC": -1,
    "cloudCeiling": 3800,
    "altimeter": "A2987",
    "timestamp": "2025-11-18T07:53:00+00:00",
    "station": "KCPS"
  },
  "kstl": {
    "metar": "KSTL 180751Z 10006KT 10SM OVC033 12/03 A2987 RMK AO2 LTG DSNT N SLP115 OCNL LTGICCG DSNT NW CB DSNT NW MOV NE T01170028 $",
    "windDirection": 100,
    "windSpeed": 6,
    "windGust": null,
    "visibility": 10,
    "temperatureC": 12,
    "dewPointC": 3,
    "cloudCeiling": 3300,
    "altimeter": "A2987",
    "timestamp": "2025-11-18T07:51:00+00:00",
    "station": "KSTL"
  }
}