{
  "lastUpdated": "2026-06-14T16:29:10.213319+00:00",
  "kcps": {
    "metar": "KCPS 141553Z 36012G21KT 10SM -RA FEW032 BKN042 OVC050 21/14 A2997 RMK AO2 SLP145 P0000 T02110144 $",
    "windDirection": 360,
    "windSpeed": 12,
    "windGust": 21,
    "visibility": 10.0,
    "temperatureC": 21.1,
    "dewPointC": 14.4,
    "cloudCeiling": 4200,
    "altimeter": "A2997",
    "timestamp": "2026-06-14T16:00:00.000Z",
    "station": "KCPS"
  },
  "kstl": {
    "metar": "KSTL 141551Z 33010G16KT 10SM FEW028 BKN045 21/14 A2998 RMK AO2 SLP144 T02110139 $",
    "windDirection": 330,
    "windSpeed": 10,
    "windGust": 16,
    "visibility": 10.0,
    "temperatureC": 21.1,
    "dewPointC": 13.9,
    "cloudCeiling": 4500,
    "altimeter": "A2998",
    "timestamp": "2026-06-14T16:00:00.000Z",
    "station": "KSTL"
  }
}