{
  "lastUpdated": "2026-03-24T10:45:22.853919+00:00",
  "kcps": {
    "metar": "KCPS 240953Z 12003KT 10SM CLR 04/M02 A3032 RMK AO2 SLP268 T00441022 $",
    "windDirection": 120,
    "windSpeed": 3,
    "windGust": null,
    "visibility": 10,
    "temperatureC": 4,
    "dewPointC": -2,
    "cloudCeiling": 99999,
    "altimeter": "A3032",
    "timestamp": "2026-03-24T09:53:00+00:00",
    "station": "KCPS"
  },
  "kstl": {
    "metar": "KSTL 240951Z 12011KT 10SM BKN160 OVC250 06/M02 A3030 RMK AO2 SLP263 T00561017 $",
    "windDirection": 120,
    "windSpeed": 11,
    "windGust": null,
    "visibility": 10,
    "temperatureC": 6,
    "dewPointC": -2,
    "cloudCeiling": 16000,
    "altimeter": "A3030",
    "timestamp": "2026-03-24T09:51:00+00:00",
    "station": "KSTL"
  }
}