{
  "lastUpdated": "2026-05-10T12:14:40.451750+00:00",
  "kcps": {
    "metar": "KCPS 101153Z 35005KT 10SM CLR 14/10 A3002 RMK AO2 SLP164 60002 70004 T01390100 10167 20133 53028 $",
    "windDirection": 350,
    "windSpeed": 5,
    "windGust": null,
    "visibility": 10,
    "temperatureC": 14,
    "dewPointC": 10,
    "cloudCeiling": 99999,
    "altimeter": "A3002",
    "timestamp": "2026-05-10T11:53:00+00:00",
    "station": "KCPS"
  },
  "kstl": {
    "metar": "KSTL 101151Z 35007KT 10SM SCT120 BKN250 13/07 A3004 RMK AO2 SLP164 70010 T01280072 10161 20128 53030 $",
    "windDirection": 350,
    "windSpeed": 7,
    "windGust": null,
    "visibility": 10,
    "temperatureC": 13,
    "dewPointC": 7,
    "cloudCeiling": 25000,
    "altimeter": "A3004",
    "timestamp": "2026-05-10T11:51:00+00:00",
    "station": "KSTL"
  }
}