{
  "lastUpdated": "2026-04-07T23:43:12.843369+00:00",
  "kcps": {
    "metar": "KCPS 072153Z 08009KT 10SM CLR 14/03 A3029 RMK AO2 SLP259 T01390028 $",
    "windDirection": 80,
    "windSpeed": 9,
    "windGust": null,
    "visibility": 10,
    "temperatureC": 14,
    "dewPointC": 3,
    "cloudCeiling": 99999,
    "altimeter": "A3029",
    "timestamp": "2026-04-07T21:53:00+00:00",
    "station": "KCPS"
  },
  "kstl": {
    "metar": "KSTL 072251Z 07008KT 10SM SCT160 BKN250 12/02 A3029 RMK AO2 SLP259 T01220022 $",
    "windDirection": 70,
    "windSpeed": 8,
    "windGust": null,
    "visibility": 10,
    "temperatureC": 12,
    "dewPointC": 2,
    "cloudCeiling": 25000,
    "altimeter": "A3029",
    "timestamp": "2026-04-07T22:51:00+00:00",
    "station": "KSTL"
  }
}