{
  "lastUpdated": "2025-11-21T16:02:35.936176+00:00",
  "kcps": {
    "metar": "KCPS 211553Z 11003KT 3SM -RA BR OVC005 13/12 A2994 RMK AO2 SLP139 P0006 T01280122 $",
    "windDirection": 110,
    "windSpeed": 3,
    "windGust": null,
    "visibility": 3,
    "temperatureC": 13,
    "dewPointC": 12,
    "cloudCeiling": 500,
    "altimeter": "A2994",
    "timestamp": "2025-11-21T15:53:00+00:00",
    "station": "KCPS"
  },
  "kstl": {
    "metar": "KSTL 211551Z 10007KT 6SM -RA BR OVC004 12/12 A2994 RMK AO2 RAB10 SLP139 P0003 T01220117 $",
    "windDirection": 100,
    "windSpeed": 7,
    "windGust": null,
    "visibility": 6,
    "temperatureC": 12,
    "dewPointC": 12,
    "cloudCeiling": 400,
    "altimeter": "A2994",
    "timestamp": "2025-11-21T15:51:00+00:00",
    "station": "KSTL"
  }
}