{
  "lastUpdated": "2026-02-23T10:45:09.206248+00:00",
  "kcps": {
    "metar": "KCPS 231024Z AUTO 33015G22KT 10SM OVC029 M08/M14 A3054 RMK AO2 T10831144 PNO $",
    "windDirection": 330,
    "windSpeed": 15,
    "windGust": 22,
    "visibility": 10,
    "temperatureC": -8,
    "dewPointC": -14,
    "cloudCeiling": 2900,
    "altimeter": "A3054",
    "timestamp": "2026-02-23T10:24:00+00:00",
    "station": "KCPS"
  },
  "kstl": {
    "metar": "KSTL 231035Z 34011G21KT 10SM BKN027 BKN034 M09/M16 A3054 RMK AO2 SNE35 P0000 T10941161 $",
    "windDirection": 340,
    "windSpeed": 11,
    "windGust": 21,
    "visibility": 10,
    "temperatureC": -9,
    "dewPointC": -16,
    "cloudCeiling": 2700,
    "altimeter": "A3054",
    "timestamp": "2026-02-23T10:35:00+00:00",
    "station": "KSTL"
  }
}