{
  "lastUpdated": "2026-01-14T21:48:44.759793+00:00",
  "kcps": {
    "metar": "KCPS 142053Z 32024G34KT 9SM -SN SCT050 03/M09 A3000 RMK AO2 PK WND 32034/2044 RAE41SNB41 SLP159 P0000 60000 T00281094 53018",
    "windDirection": 320,
    "windSpeed": 24,
    "windGust": 34,
    "visibility": 9,
    "temperatureC": 3,
    "dewPointC": -9,
    "cloudCeiling": null,
    "altimeter": "A3000",
    "timestamp": "2026-01-14T20:53:00+00:00",
    "station": "KCPS"
  },
  "kstl": {
    "metar": "KSTL 142051Z 32017G32KT 10SM FEW046 02/M08 A3000 RMK AO2 PK WND 34035/2036 SLP163 T00221083 53017 $",
    "windDirection": 320,
    "windSpeed": 17,
    "windGust": 32,
    "visibility": 10,
    "temperatureC": 2,
    "dewPointC": -8,
    "cloudCeiling": null,
    "altimeter": "A3000",
    "timestamp": "2026-01-14T20:51:00+00:00",
    "station": "KSTL"
  }
}