{
  "lastUpdated": "2025-11-09T21:31:43.184791+00:00",
  "kcps": {
    "metar": "KCPS 092053Z 30015G29KT 10SM SCT050 02/M09 A3029 RMK AO2 PK WND 34033/2004 SNB1955E08 SLP260 P0000 60000 T00221094 53014 $",
    "windDirection": 300,
    "windSpeed": 15,
    "windGust": 29,
    "visibility": 10,
    "temperatureC": 2,
    "dewPointC": -9,
    "cloudCeiling": null,
    "altimeter": "A3029",
    "timestamp": "2025-11-09T20:53:00+00:00",
    "station": "KCPS"
  },
  "kstl": {
    "metar": "KSTL 092051Z 31017G29KT 10SM BKN048 02/M09 A3030 RMK AO2 PK WND 32030/2004 SLP267 T00171094 53015 $",
    "windDirection": 310,
    "windSpeed": 17,
    "windGust": 29,
    "visibility": 10,
    "temperatureC": 2,
    "dewPointC": -9,
    "cloudCeiling": 4800,
    "altimeter": "A3030",
    "timestamp": "2025-11-09T20:51:00+00:00",
    "station": "KSTL"
  }
}