{
  "lastUpdated": "2025-12-15T11:34:27.321122+00:00",
  "kcps": {
    "metar": "KCPS 151053Z AUTO 17003KT 10SM CLR M12/M16 A3050 RMK AO2 SLP336 T11171161 $",
    "windDirection": 170,
    "windSpeed": 3,
    "windGust": null,
    "visibility": 10,
    "temperatureC": -12,
    "dewPointC": -16,
    "cloudCeiling": 99999,
    "altimeter": "A3050",
    "timestamp": "2025-12-15T10:53:00+00:00",
    "station": "KCPS"
  },
  "kstl": {
    "metar": "KSTL 151051Z 19007KT 10SM CLR M11/M17 A3047 RMK AO2 SLP340 T11061167 $",
    "windDirection": 190,
    "windSpeed": 7,
    "windGust": null,
    "visibility": 10,
    "temperatureC": -11,
    "dewPointC": -17,
    "cloudCeiling": 99999,
    "altimeter": "A3047",
    "timestamp": "2025-12-15T10:51:00+00:00",
    "station": "KSTL"
  }
}