{
  "lastUpdated": "2026-05-24T18:05:03.453538+00:00",
  "kcps": {
    "metar": "KCPS 241753Z VRB05KT 10SM FEW029 24/17 A3006 RMK AO2 SLP175 60000 T02440172 10244 20183 50001 $",
    "windDirection": null,
    "windSpeed": null,
    "windGust": null,
    "visibility": 10,
    "temperatureC": 24,
    "dewPointC": 17,
    "cloudCeiling": null,
    "altimeter": "A3006",
    "timestamp": "2026-05-24T17:53:00+00:00",
    "station": "KCPS"
  },
  "kstl": {
    "metar": "KSTL 241751Z 32004KT 10SM BKN024 BKN250 24/17 A3007 RMK AO2 SLP173 T02390172 10244 20183 50001 $",
    "windDirection": 320,
    "windSpeed": 4,
    "windGust": null,
    "visibility": 10,
    "temperatureC": 24,
    "dewPointC": 17,
    "cloudCeiling": 2400,
    "altimeter": "A3007",
    "timestamp": "2026-05-24T17:51:00+00:00",
    "station": "KSTL"
  }
}