{
  "lastUpdated": "2025-11-03T20:47:20.056931+00:00",
  "kcps": {
    "metar": "KCPS 031953Z VRB04KT 10SM CLR 17/05 A3026 RMK AO2 SLP246 T01720050",
    "windDirection": null,
    "windSpeed": null,
    "windGust": null,
    "visibility": 10,
    "temperatureC": 17,
    "dewPointC": 5,
    "cloudCeiling": 99999,
    "altimeter": "A3026",
    "timestamp": "2025-11-03T19:53:00+00:00",
    "station": "KCPS"
  },
  "kstl": {
    "metar": "KSTL 031951Z 31008KT 10SM CLR 18/04 A3026 RMK AO2 SLP248 T01780039 $",
    "windDirection": 310,
    "windSpeed": 8,
    "windGust": null,
    "visibility": 10,
    "temperatureC": 18,
    "dewPointC": 4,
    "cloudCeiling": 99999,
    "altimeter": "A3026",
    "timestamp": "2025-11-03T19:51:00+00:00",
    "station": "KSTL"
  }
}