{
  "lastUpdated": "2025-11-05T01:08:16.108443+00:00",
  "kcps": {
    "metar": "KCPS 050053Z 17006KT 10SM CLR 17/08 A3004 RMK AO2 SLP172 T01720078",
    "windDirection": 170,
    "windSpeed": 6,
    "windGust": null,
    "visibility": 10,
    "temperatureC": 17,
    "dewPointC": 8,
    "cloudCeiling": 99999,
    "altimeter": "A3004",
    "timestamp": "2025-11-05T00:53:00+00:00",
    "station": "KCPS"
  },
  "kstl": {
    "metar": "KSTL 050051Z 18007KT 10SM SCT250 18/06 A3003 RMK AO2 SLP169 T01830061 $",
    "windDirection": 180,
    "windSpeed": 7,
    "windGust": null,
    "visibility": 10,
    "temperatureC": 18,
    "dewPointC": 6,
    "cloudCeiling": null,
    "altimeter": "A3003",
    "timestamp": "2025-11-05T00:51:00+00:00",
    "station": "KSTL"
  }
}