{
  "lastUpdated": "2025-10-18T15:46:33.871671+00:00",
  "kcps": {
    "metar": "KCPS 181453Z 18005KT 10SM CLR 22/17 A2977 RMK AO2 RAB21E33 SLP077 6//// T02220172 58001 PNO $",
    "windDirection": 180,
    "windSpeed": 5,
    "windGust": null,
    "visibility": 10,
    "temperatureC": 22,
    "dewPointC": 17,
    "cloudCeiling": 99999,
    "altimeter": "A2977",
    "timestamp": "2025-10-18T14:53:00+00:00",
    "station": "KCPS"
  },
  "kstl": {
    "metar": "KSTL 181528Z 19006KT 10SM TS BKN070CB BKN085 OVC200 23/17 A2977 RMK AO2 TSB27 OCNL LTGICCG SW-W TS SW-W MOV NE T02280172 $",
    "windDirection": 190,
    "windSpeed": 6,
    "windGust": null,
    "visibility": 10,
    "temperatureC": 23,
    "dewPointC": 17,
    "cloudCeiling": 7000,
    "altimeter": "A2977",
    "timestamp": "2025-10-18T15:28:00+00:00",
    "station": "KSTL"
  }
}