{
  "lastUpdated": "2026-05-09T06:28:29.477284+00:00",
  "kcps": {
    "metar": "KCPS 090553Z AUTO 17003KT 10SM BKN060 OVC075 14/13 A2977 RMK AO2 RAE15 SLP080 P0000 60049 T01440133 10200 20139 402500083 58016 $",
    "windDirection": 170,
    "windSpeed": 3,
    "windGust": null,
    "visibility": 10,
    "temperatureC": 14,
    "dewPointC": 13,
    "cloudCeiling": 6000,
    "altimeter": "A2977",
    "timestamp": "2026-05-09T05:53:00+00:00",
    "station": "KCPS"
  },
  "kstl": {
    "metar": "KSTL 090551Z 16003KT 10SM FEW095 SCT150 OVC240 14/13 A2977 RMK AO2 SLP077 60026 T01390133 10189 20139 402280106 56016 $",
    "windDirection": 160,
    "windSpeed": 3,
    "windGust": null,
    "visibility": 10,
    "temperatureC": 14,
    "dewPointC": 13,
    "cloudCeiling": 24000,
    "altimeter": "A2977",
    "timestamp": "2026-05-09T05:51:00+00:00",
    "station": "KSTL"
  }
}