{
  "lastUpdated": "2026-02-03T10:10:49.185480+00:00",
  "kcps": {
    "metar": "KCPS 030953Z AUTO 08003KT 9SM CLR M01/M04 A3008 RMK AO2 SLP188 T10111039 $",
    "windDirection": 80,
    "windSpeed": 3,
    "windGust": null,
    "visibility": 9,
    "temperatureC": -1,
    "dewPointC": -4,
    "cloudCeiling": 99999,
    "altimeter": "A3008",
    "timestamp": "2026-02-03T09:53:00+00:00",
    "station": "KCPS"
  },
  "kstl": {
    "metar": "KSTL 030951Z 07007KT 10SM BKN130 OVC250 M01/M04 A3008 RMK AO2 SLP194 T10061039 $",
    "windDirection": 70,
    "windSpeed": 7,
    "windGust": null,
    "visibility": 10,
    "temperatureC": -1,
    "dewPointC": -4,
    "cloudCeiling": 13000,
    "altimeter": "A3008",
    "timestamp": "2026-02-03T09:51:00+00:00",
    "station": "KSTL"
  }
}