{
  "lastUpdated": "2025-12-07T00:44:05.160899+00:00",
  "kcps": {
    "metar": "KCPS 062353Z 15006KT 10SM CLR 06/01 A2990 RMK AO2 SLP129 T00610011 10100 20061 55001 $",
    "windDirection": 150,
    "windSpeed": 6,
    "windGust": null,
    "visibility": 10,
    "temperatureC": 6,
    "dewPointC": 1,
    "cloudCeiling": 99999,
    "altimeter": "A2990",
    "timestamp": "2025-12-06T23:53:00+00:00",
    "station": "KCPS"
  },
  "kstl": {
    "metar": "KSTL 062351Z 12007KT 10SM BKN160 BKN220 06/01 A2990 RMK AO2 SLP133 4/001 T00560011 10083 20050 55003 $",
    "windDirection": 120,
    "windSpeed": 7,
    "windGust": null,
    "visibility": 10,
    "temperatureC": 6,
    "dewPointC": 1,
    "cloudCeiling": 16000,
    "altimeter": "A2990",
    "timestamp": "2025-12-06T23:51:00+00:00",
    "station": "KSTL"
  }
}