{
  "lastUpdated": "2025-11-21T10:21:55.602549+00:00",
  "kcps": {
    "metar": "KCPS 210953Z AUTO 03003KT 6SM -RA BR SCT005 OVC016 12/12 A3000 RMK AO2 SLP159 P0007 T01170117",
    "windDirection": 30,
    "windSpeed": 3,
    "windGust": null,
    "visibility": 6,
    "temperatureC": 12,
    "dewPointC": 12,
    "cloudCeiling": 1600,
    "altimeter": "A3000",
    "timestamp": "2025-11-21T09:53:00+00:00",
    "station": "KCPS"
  },
  "kstl": {
    "metar": "KSTL 210951Z 09004KT 4SM -RA BR BKN004 OVC011 12/11 A3000 RMK AO2 SLP159 P0007 T01170111 $",
    "windDirection": 90,
    "windSpeed": 4,
    "windGust": null,
    "visibility": 4,
    "temperatureC": 12,
    "dewPointC": 11,
    "cloudCeiling": 400,
    "altimeter": "A3000",
    "timestamp": "2025-11-21T09:51:00+00:00",
    "station": "KSTL"
  }
}