{
  "lastUpdated": "2026-02-24T18:16:41.181795+00:00",
  "kcps": {
    "metar": "KCPS 241753Z 19011G25KT 10SM CLR 06/M08 A2981 RMK AO2 PRESFR SLP097 6//// T00611078 10061 21050 58051 $",
    "windDirection": 190,
    "windSpeed": 11,
    "windGust": 25,
    "visibility": 10,
    "temperatureC": 6,
    "dewPointC": -8,
    "cloudCeiling": 99999,
    "altimeter": "A2981",
    "timestamp": "2026-02-24T17:53:00+00:00",
    "station": "KCPS"
  },
  "kstl": {
    "metar": "KSTL 241751Z 17012KT 10SM OVC170 06/M08 A2978 RMK AO2 PRESFR SLP095 T00561083 10056 21039 58046 $",
    "windDirection": 170,
    "windSpeed": 12,
    "windGust": null,
    "visibility": 10,
    "temperatureC": 6,
    "dewPointC": -8,
    "cloudCeiling": 17000,
    "altimeter": "A2978",
    "timestamp": "2026-02-24T17:51:00+00:00",
    "station": "KSTL"
  }
}