{
  "lastUpdated": "2025-12-25T09:36:22.242240+00:00",
  "kcps": {
    "metar": "KCPS 250924Z AUTO 00000KT 1/4SM BR FEW028 12/12 A3004 RMK AO2 T01170117 $",
    "windDirection": 0,
    "windSpeed": 0,
    "windGust": null,
    "visibility": 0.25,
    "temperatureC": 12,
    "dewPointC": 12,
    "cloudCeiling": null,
    "altimeter": "A3004",
    "timestamp": "2025-12-25T09:24:00+00:00",
    "station": "KCPS"
  },
  "kstl": {
    "metar": "KSTL 250851Z 30005KT 10SM BKN025 15/14 A3005 RMK AO2 SLP172 T01500139 53005 $",
    "windDirection": 300,
    "windSpeed": 5,
    "windGust": null,
    "visibility": 10,
    "temperatureC": 15,
    "dewPointC": 14,
    "cloudCeiling": 2500,
    "altimeter": "A3005",
    "timestamp": "2025-12-25T08:51:00+00:00",
    "station": "KSTL"
  }
}