{
  "lastUpdated": "2026-04-17T05:17:28.142443+00:00",
  "kcps": {
    "metar": "KCPS 170453Z AUTO 16003KT 10SM CLR 17/16 A2995 RMK AO2 SLP138 T01720156 $",
    "windDirection": 160,
    "windSpeed": 3,
    "windGust": null,
    "visibility": 10,
    "temperatureC": 17,
    "dewPointC": 16,
    "cloudCeiling": 99999,
    "altimeter": "A2995",
    "timestamp": "2026-04-17T04:53:00+00:00",
    "station": "KCPS"
  },
  "kstl": {
    "metar": "KSTL 170451Z 20007KT 10SM CLR 21/17 A2995 RMK AO2 SLP132 T02060167 $",
    "windDirection": 200,
    "windSpeed": 7,
    "windGust": null,
    "visibility": 10,
    "temperatureC": 21,
    "dewPointC": 17,
    "cloudCeiling": 99999,
    "altimeter": "A2995",
    "timestamp": "2026-04-17T04:51:00+00:00",
    "station": "KSTL"
  }
}