{
  "lastUpdated": "2026-01-29T16:19:09.982906+00:00",
  "kcps": {
    "metar": "KCPS 291553Z 04006KT 10SM FEW120 M04/M13 A3033 RMK AO2 SLP275 T10441133 $",
    "windDirection": 40,
    "windSpeed": 6,
    "windGust": null,
    "visibility": 10,
    "temperatureC": -4,
    "dewPointC": -13,
    "cloudCeiling": null,
    "altimeter": "A3033",
    "timestamp": "2026-01-29T15:53:00+00:00",
    "station": "KCPS"
  },
  "kstl": {
    "metar": "KSTL 291551Z 05007KT 10SM BKN070 BKN250 M06/M13 A3032 RMK AO2 SLP283 T10561133 $",
    "windDirection": 50,
    "windSpeed": 7,
    "windGust": null,
    "visibility": 10,
    "temperatureC": -6,
    "dewPointC": -13,
    "cloudCeiling": 7000,
    "altimeter": "A3032",
    "timestamp": "2026-01-29T15:51:00+00:00",
    "station": "KSTL"
  }
}