{
  "lastUpdated": "2025-12-23T05:49:47.174174+00:00",
  "kcps": {
    "metar": "KCPS 230453Z AUTO 15004KT 10SM CLR 04/03 A3007 RMK AO2 SLP186 T00440028 $",
    "windDirection": 150,
    "windSpeed": 4,
    "windGust": null,
    "visibility": 10,
    "temperatureC": 4,
    "dewPointC": 3,
    "cloudCeiling": 99999,
    "altimeter": "A3007",
    "timestamp": "2025-12-23T04:53:00+00:00",
    "station": "KCPS"
  },
  "kstl": {
    "metar": "KSTL 230451Z 18003KT 10SM FEW250 07/02 A3007 RMK AO2 SLP186 T00670017 $",
    "windDirection": 180,
    "windSpeed": 3,
    "windGust": null,
    "visibility": 10,
    "temperatureC": 7,
    "dewPointC": 2,
    "cloudCeiling": null,
    "altimeter": "A3007",
    "timestamp": "2025-12-23T04:51:00+00:00",
    "station": "KSTL"
  }
}