{
  "lastUpdated": "2026-01-22T05:08:07.528187+00:00",
  "kcps": {
    "metar": "KCPS 220453Z AUTO 31013KT 10SM CLR 03/M09 A3022 RMK AO2 PK WND 30027/0400 SLP236 T00281094 $",
    "windDirection": 310,
    "windSpeed": 13,
    "windGust": null,
    "visibility": 10,
    "temperatureC": 3,
    "dewPointC": -9,
    "cloudCeiling": 99999,
    "altimeter": "A3022",
    "timestamp": "2026-01-22T04:53:00+00:00",
    "station": "KCPS"
  },
  "kstl": {
    "metar": "KSTL 220451Z 30012KT 10SM SCT250 02/M11 A3022 RMK AO2 SLP241 T00221111 $",
    "windDirection": 300,
    "windSpeed": 12,
    "windGust": null,
    "visibility": 10,
    "temperatureC": 2,
    "dewPointC": -11,
    "cloudCeiling": null,
    "altimeter": "A3022",
    "timestamp": "2026-01-22T04:51:00+00:00",
    "station": "KSTL"
  }
}