{
  "lastUpdated": "2026-01-23T09:40:44.496155+00:00",
  "kcps": {
    "metar": "KCPS 230853Z AUTO 35013KT 10SM CLR M05/M14 A3046 RMK AO2 SLP319 T10501144 53028 $",
    "windDirection": 350,
    "windSpeed": 13,
    "windGust": null,
    "visibility": 10,
    "temperatureC": -5,
    "dewPointC": -14,
    "cloudCeiling": 99999,
    "altimeter": "A3046",
    "timestamp": "2026-01-23T08:53:00+00:00",
    "station": "KCPS"
  },
  "kstl": {
    "metar": "KSTL 230851Z 36011G19KT 10SM FEW190 BKN250 M06/M16 A3046 RMK AO2 SLP324 T10611161 53025 $",
    "windDirection": 360,
    "windSpeed": 11,
    "windGust": 19,
    "visibility": 10,
    "temperatureC": -6,
    "dewPointC": -16,
    "cloudCeiling": 25000,
    "altimeter": "A3046",
    "timestamp": "2026-01-23T08:51:00+00:00",
    "station": "KSTL"
  }
}