{
  "lastUpdated": "2026-05-14T11:03:46.027117+00:00",
  "kcps": {
    "metar": "KCPS 141053Z AUTO 00000KT 10SM CLR 08/07 A3011 RMK AO2 SLP194 T00780067 $",
    "windDirection": 0,
    "windSpeed": 0,
    "windGust": null,
    "visibility": 10,
    "temperatureC": 8,
    "dewPointC": 7,
    "cloudCeiling": 99999,
    "altimeter": "A3011",
    "timestamp": "2026-05-14T10:53:00+00:00",
    "station": "KCPS"
  },
  "kstl": {
    "metar": "KSTL 141051Z 12003KT 10SM FEW250 11/06 A3011 RMK AO2 SLP191 T01060056 $",
    "windDirection": 120,
    "windSpeed": 3,
    "windGust": null,
    "visibility": 10,
    "temperatureC": 11,
    "dewPointC": 6,
    "cloudCeiling": null,
    "altimeter": "A3011",
    "timestamp": "2026-05-14T10:51:00+00:00",
    "station": "KSTL"
  }
}