{
  "lastUpdated": "2026-05-23T11:48:55.254880+00:00",
  "kcps": {
    "metar": "KCPS 231053Z AUTO 00000KT 9SM OVC021 18/16 A2996 RMK AO2 SLP142 T01780161 $",
    "windDirection": 0,
    "windSpeed": 0,
    "windGust": null,
    "visibility": 9,
    "temperatureC": 18,
    "dewPointC": 16,
    "cloudCeiling": 2100,
    "altimeter": "A2996",
    "timestamp": "2026-05-23T10:53:00+00:00",
    "station": "KCPS"
  },
  "kstl": {
    "metar": "KSTL 231051Z 23003KT 10SM OVC020 18/15 A2996 RMK AO2 SLP139 T01830150 $",
    "windDirection": 230,
    "windSpeed": 3,
    "windGust": null,
    "visibility": 10,
    "temperatureC": 18,
    "dewPointC": 15,
    "cloudCeiling": 2000,
    "altimeter": "A2996",
    "timestamp": "2026-05-23T10:51:00+00:00",
    "station": "KSTL"
  }
}