{
  "lastUpdated": "2026-02-27T16:08:07.531855+00:00",
  "kcps": {
    "metar": "KCPS 271553Z 22007KT 10SM CLR 13/06 A2998 RMK AO2 SLP154 T01280061 $",
    "windDirection": 220,
    "windSpeed": 7,
    "windGust": null,
    "visibility": 10,
    "temperatureC": 13,
    "dewPointC": 6,
    "cloudCeiling": 99999,
    "altimeter": "A2998",
    "timestamp": "2026-02-27T15:53:00+00:00",
    "station": "KCPS"
  },
  "kstl": {
    "metar": "KSTL 271551Z 23011KT 10SM FEW250 14/03 A2998 RMK AO2 SLP153 T01440028 $",
    "windDirection": 230,
    "windSpeed": 11,
    "windGust": null,
    "visibility": 10,
    "temperatureC": 14,
    "dewPointC": 3,
    "cloudCeiling": null,
    "altimeter": "A2998",
    "timestamp": "2026-02-27T15:51:00+00:00",
    "station": "KSTL"
  }
}