{
  "lastUpdated": "2026-03-30T08:28:32.699273+00:00",
  "kcps": {
    "metar": "KCPS 300753Z AUTO 16003KT 10SM CLR 13/07 A3004 RMK AO2 SLP169 T01330072 $",
    "windDirection": 160,
    "windSpeed": 3,
    "windGust": null,
    "visibility": 10,
    "temperatureC": 13,
    "dewPointC": 7,
    "cloudCeiling": 99999,
    "altimeter": "A3004",
    "timestamp": "2026-03-30T07:53:00+00:00",
    "station": "KCPS"
  },
  "kstl": {
    "metar": "KSTL 300751Z 20013KT 10SM FEW075 18/07 A3002 RMK AO2 SLP160 T01830072 $",
    "windDirection": 200,
    "windSpeed": 13,
    "windGust": null,
    "visibility": 10,
    "temperatureC": 18,
    "dewPointC": 7,
    "cloudCeiling": null,
    "altimeter": "A3002",
    "timestamp": "2026-03-30T07:51:00+00:00",
    "station": "KSTL"
  }
}