{
  "lastUpdated": "2026-02-27T10:25:02.966998+00:00",
  "kcps": {
    "metar": "KCPS 270953Z AUTO 16003KT 6SM BR CLR M01/M01 A2994 RMK AO2 SLP140 T10061006 $",
    "windDirection": 160,
    "windSpeed": 3,
    "windGust": null,
    "visibility": 6,
    "temperatureC": -1,
    "dewPointC": -1,
    "cloudCeiling": 99999,
    "altimeter": "A2994",
    "timestamp": "2026-02-27T09:53:00+00:00",
    "station": "KCPS"
  },
  "kstl": {
    "metar": "KSTL 270951Z 00000KT 10SM CLR 03/01 A2994 RMK AO2 SLP140 T00280006 $",
    "windDirection": 0,
    "windSpeed": 0,
    "windGust": null,
    "visibility": 10,
    "temperatureC": 3,
    "dewPointC": 1,
    "cloudCeiling": 99999,
    "altimeter": "A2994",
    "timestamp": "2026-02-27T09:51:00+00:00",
    "station": "KSTL"
  }
}