{
  "lastUpdated": "2025-11-06T01:08:09.564899+00:00",
  "kcps": {
    "metar": "KCPS 060053Z 00000KT 10SM CLR 13/04 A3022 RMK AO2 SLP232 T01330044 $",
    "windDirection": 0,
    "windSpeed": 0,
    "windGust": null,
    "visibility": 10,
    "temperatureC": 13,
    "dewPointC": 4,
    "cloudCeiling": 99999,
    "altimeter": "A3022",
    "timestamp": "2025-11-06T00:53:00+00:00",
    "station": "KCPS"
  },
  "kstl": {
    "metar": "KSTL 060051Z 32003KT 10SM CLR 13/04 A3023 RMK AO2 SLP235 T01330039 $",
    "windDirection": 320,
    "windSpeed": 3,
    "windGust": null,
    "visibility": 10,
    "temperatureC": 13,
    "dewPointC": 4,
    "cloudCeiling": 99999,
    "altimeter": "A3023",
    "timestamp": "2025-11-06T00:51:00+00:00",
    "station": "KSTL"
  }
}