{
  "lastUpdated": "2026-01-14T01:12:55.192130+00:00",
  "kcps": {
    "metar": "KCPS 140053Z 27007KT 10SM OVC095 15/M01 A2977 RMK AO2 SLP082 T01501006 $",
    "windDirection": 270,
    "windSpeed": 7,
    "windGust": null,
    "visibility": 10,
    "temperatureC": 15,
    "dewPointC": -1,
    "cloudCeiling": 9500,
    "altimeter": "A2977",
    "timestamp": "2026-01-14T00:53:00+00:00",
    "station": "KCPS"
  },
  "kstl": {
    "metar": "KSTL 140051Z 29008KT 10SM OVC095 14/01 A2978 RMK AO2 SLP086 T01390006 $",
    "windDirection": 290,
    "windSpeed": 8,
    "windGust": null,
    "visibility": 10,
    "temperatureC": 14,
    "dewPointC": 1,
    "cloudCeiling": 9500,
    "altimeter": "A2978",
    "timestamp": "2026-01-14T00:51:00+00:00",
    "station": "KSTL"
  }
}