{
  "lastUpdated": "2026-02-23T11:55:38.432210+00:00",
  "kcps": {
    "metar": "KCPS 231102Z AUTO 33016G22KT 10SM OVC031 M09/M16 A3055 RMK AO2 T10891161 PNO $",
    "windDirection": 330,
    "windSpeed": 16,
    "windGust": 22,
    "visibility": 10,
    "temperatureC": -9,
    "dewPointC": -16,
    "cloudCeiling": 3100,
    "altimeter": "A3055",
    "timestamp": "2026-02-23T11:02:00+00:00",
    "station": "KCPS"
  },
  "kstl": {
    "metar": "KSTL 231151Z 32014KT 9SM -SN OVC032 M09/M15 A3055 RMK AO2 SNB51 SLP361 P0000 60000 T10891150 11056 21094 51013 $",
    "windDirection": 320,
    "windSpeed": 14,
    "windGust": null,
    "visibility": 9,
    "temperatureC": -9,
    "dewPointC": -15,
    "cloudCeiling": 3200,
    "altimeter": "A3055",
    "timestamp": "2026-02-23T11:51:00+00:00",
    "station": "KSTL"
  }
}