{
  "lastUpdated": "2026-04-09T10:23:21.332417+00:00",
  "kcps": {
    "metar": "KCPS 090953Z AUTO 18003KT 10SM CLR 15/05 A3016 RMK AO2 SLP210 T01500050 $",
    "windDirection": 180,
    "windSpeed": 3,
    "windGust": null,
    "visibility": 10,
    "temperatureC": 15,
    "dewPointC": 5,
    "cloudCeiling": 99999,
    "altimeter": "A3016",
    "timestamp": "2026-04-09T09:53:00+00:00",
    "station": "KCPS"
  },
  "kstl": {
    "metar": "KSTL 090951Z 22012KT 10SM FEW250 18/04 A3015 RMK AO2 SLP201 T01780044 $",
    "windDirection": 220,
    "windSpeed": 12,
    "windGust": null,
    "visibility": 10,
    "temperatureC": 18,
    "dewPointC": 4,
    "cloudCeiling": null,
    "altimeter": "A3015",
    "timestamp": "2026-04-09T09:51:00+00:00",
    "station": "KSTL"
  }
}