{
  "lastUpdated": "2026-02-08T09:52:56.551343+00:00",
  "kcps": {
    "metar": "KCPS 080853Z 14007KT 10SM CLR M03/M09 A3024 RMK AO2 SLP245 T10331089 56019 $",
    "windDirection": 140,
    "windSpeed": 7,
    "windGust": null,
    "visibility": 10,
    "temperatureC": -3,
    "dewPointC": -9,
    "cloudCeiling": 99999,
    "altimeter": "A3024",
    "timestamp": "2026-02-08T08:53:00+00:00",
    "station": "KCPS"
  },
  "kstl": {
    "metar": "KSTL 080851Z 14011KT 10SM SCT250 M03/M09 A3021 RMK AO2 SLP241 T10281089 58019 $",
    "windDirection": 140,
    "windSpeed": 11,
    "windGust": null,
    "visibility": 10,
    "temperatureC": -3,
    "dewPointC": -9,
    "cloudCeiling": null,
    "altimeter": "A3021",
    "timestamp": "2026-02-08T08:51:00+00:00",
    "station": "KSTL"
  }
}