{
  "lastUpdated": "2025-12-09T23:46:40.079218+00:00",
  "kcps": {
    "metar": "KCPS 092253Z AUTO 18009KT 10SM CLR 09/01 A2970 RMK AO2 SLP060 T00940011",
    "windDirection": 180,
    "windSpeed": 9,
    "windGust": null,
    "visibility": 10,
    "temperatureC": 9,
    "dewPointC": 1,
    "cloudCeiling": 99999,
    "altimeter": "A2970",
    "timestamp": "2025-12-09T22:53:00+00:00",
    "station": "KCPS"
  },
  "kstl": {
    "metar": "KSTL 092251Z 17011KT 10SM FEW170 BKN250 11/01 A2968 RMK AO2 SLP054 T01110011 $",
    "windDirection": 170,
    "windSpeed": 11,
    "windGust": null,
    "visibility": 10,
    "temperatureC": 11,
    "dewPointC": 1,
    "cloudCeiling": 25000,
    "altimeter": "A2968",
    "timestamp": "2025-12-09T22:51:00+00:00",
    "station": "KSTL"
  }
}