{
  "lastUpdated": "2025-10-09T00:00:00Z",
  "kcps": {
    "station": "KCPS",
    "metar": "KCPS 090000Z AUTO 00000KT 10SM CLR 20/15 A3000 RMK AO2",
    "timestamp": "2025-10-09T00:00:00Z",
    "windDirection": 0,
    "windSpeed": 0,
    "windGust": null,
    "visibility": 10,
    "temperatureC": 20,
    "dewPointC": 15,
    "cloudCeiling": 99999,
    "altimeter": "A3000"
  },
  "kstl": {
    "station": "KSTL",
    "metar": "KSTL 090000Z AUTO 00000KT 10SM CLR 20/15 A3000 RMK AO2",
    "timestamp": "2025-10-09T00:00:00Z",
    "windDirection": 0,
    "windSpeed": 0,
    "windGust": null,
    "visibility": 10,
    "temperatureC": 20,
    "dewPointC": 15,
    "cloudCeiling": 99999,
    "altimeter": "A3000"
  }
}
