{
  "lastUpdated": "2026-04-13T23:14:10.222824+00:00",
  "kcps": {
    "metar": "KCPS 132253Z 19011G23KT 10SM BKN050 28/17 A2989 RMK AO2 SLP117 T02830167 $",
    "windDirection": 190,
    "windSpeed": 11,
    "windGust": 23,
    "visibility": 10,
    "temperatureC": 28,
    "dewPointC": 17,
    "cloudCeiling": 5000,
    "altimeter": "A2989",
    "timestamp": "2026-04-13T22:53:00+00:00",
    "station": "KCPS"
  },
  "kstl": {
    "metar": "KSTL 132251Z 21014G23KT 10SM BKN055 BKN250 28/16 A2989 RMK AO2 PK WND 22027/2154 SLP111 T02780161 $",
    "windDirection": 210,
    "windSpeed": 14,
    "windGust": 23,
    "visibility": 10,
    "temperatureC": 28,
    "dewPointC": 16,
    "cloudCeiling": 5500,
    "altimeter": "A2989",
    "timestamp": "2026-04-13T22:51:00+00:00",
    "station": "KSTL"
  }
}