{
  "lastUpdated": "2026-05-24T09:26:17.251309+00:00",
  "kcps": {
    "metar": "KCPS 240853Z AUTO 00000KT 8SM BKN120 18/17 A2999 RMK AO2 SLP153 T01780172 53001 $",
    "windDirection": 0,
    "windSpeed": 0,
    "windGust": null,
    "visibility": 8,
    "temperatureC": 18,
    "dewPointC": 17,
    "cloudCeiling": 12000,
    "altimeter": "A2999",
    "timestamp": "2026-05-24T08:53:00+00:00",
    "station": "KCPS"
  },
  "kstl": {
    "metar": "KSTL 240851Z 00000KT 10SM -RA OVC110 19/18 A3000 RMK AO2 SLP150 P0001 60001 T01890178 55000 $",
    "windDirection": 0,
    "windSpeed": 0,
    "windGust": null,
    "visibility": 10,
    "temperatureC": 19,
    "dewPointC": 18,
    "cloudCeiling": 11000,
    "altimeter": "A3000",
    "timestamp": "2026-05-24T08:51:00+00:00",
    "station": "KSTL"
  }
}