{
  "lastUpdated": "2026-03-09T22:53:56.512138+00:00",
  "kcps": {
    "metar": "KCPS 092153Z 18012G23KT 10SM CLR 22/16 A2975 RMK AO2 PK WND 20026/2056 SLP073 T02220161 $",
    "windDirection": 180,
    "windSpeed": 12,
    "windGust": 23,
    "visibility": 10,
    "temperatureC": 22,
    "dewPointC": 16,
    "cloudCeiling": 99999,
    "altimeter": "A2975",
    "timestamp": "2026-03-09T21:53:00+00:00",
    "station": "KCPS"
  },
  "kstl": {
    "metar": "KSTL 092251Z 16014G25KT 10SM FEW035 FEW250 24/16 A2973 RMK AO2 SLP062 T02390161 $",
    "windDirection": 160,
    "windSpeed": 14,
    "windGust": 25,
    "visibility": 10,
    "temperatureC": 24,
    "dewPointC": 16,
    "cloudCeiling": null,
    "altimeter": "A2973",
    "timestamp": "2026-03-09T22:51:00+00:00",
    "station": "KSTL"
  }
}