{
  "lastUpdated": "2026-05-15T19:30:18.269242+00:00",
  "kcps": {
    "metar": "KCPS 151853Z 20012G19KT 10SM CLR 27/13 A2986 RMK AO2 SLP107 T02720133 $",
    "windDirection": 200,
    "windSpeed": 12,
    "windGust": 19,
    "visibility": 10,
    "temperatureC": 27,
    "dewPointC": 13,
    "cloudCeiling": 99999,
    "altimeter": "A2986",
    "timestamp": "2026-05-15T18:53:00+00:00",
    "station": "KCPS"
  },
  "kstl": {
    "metar": "KSTL 151851Z 20012G20KT 10SM FEW100 SCT250 27/14 A2985 RMK AO2 SLP100 T02720139 $",
    "windDirection": 200,
    "windSpeed": 12,
    "windGust": 20,
    "visibility": 10,
    "temperatureC": 27,
    "dewPointC": 14,
    "cloudCeiling": null,
    "altimeter": "A2985",
    "timestamp": "2026-05-15T18:51:00+00:00",
    "station": "KSTL"
  }
}