{
  "lastUpdated": "2026-01-30T23:22:37.143773+00:00",
  "kcps": {
    "metar": "KCPS 302253Z 35009KT 10SM CLR M08/M17 A3041 RMK AO2 SLP306 T10831167 $",
    "windDirection": 350,
    "windSpeed": 9,
    "windGust": null,
    "visibility": 10,
    "temperatureC": -8,
    "dewPointC": -17,
    "cloudCeiling": 99999,
    "altimeter": "A3041",
    "timestamp": "2026-01-30T22:53:00+00:00",
    "station": "KCPS"
  },
  "kstl": {
    "metar": "KSTL 302251Z 01009KT 10SM SCT150 M09/M17 A3040 RMK AO2 SLP318 T10891172 $",
    "windDirection": 10,
    "windSpeed": 9,
    "windGust": null,
    "visibility": 10,
    "temperatureC": -9,
    "dewPointC": -17,
    "cloudCeiling": null,
    "altimeter": "A3040",
    "timestamp": "2026-01-30T22:51:00+00:00",
    "station": "KSTL"
  }
}