{
  "lastUpdated": "2025-11-22T05:02:16.161358+00:00",
  "kcps": {
    "metar": "KCPS 220453Z AUTO 36011KT 5SM BR BKN005 OVC013 11/11 A2996 RMK AO2 CIG 003V009 SLP146 T01110106",
    "windDirection": 360,
    "windSpeed": 11,
    "windGust": null,
    "visibility": 5,
    "temperatureC": 11,
    "dewPointC": 11,
    "cloudCeiling": 500,
    "altimeter": "A2996",
    "timestamp": "2025-11-22T04:53:00+00:00",
    "station": "KCPS"
  },
  "kstl": {
    "metar": "KSTL 220451Z 36009KT 3SM -DZ BR OVC006 10/09 A2997 RMK AO2 SLP149 P0000 T01000094 $",
    "windDirection": 360,
    "windSpeed": 9,
    "windGust": null,
    "visibility": 3,
    "temperatureC": 10,
    "dewPointC": 9,
    "cloudCeiling": 600,
    "altimeter": "A2997",
    "timestamp": "2025-11-22T04:51:00+00:00",
    "station": "KSTL"
  }
}