{
  "lastUpdated": "2026-02-24T15:46:30.055663+00:00",
  "kcps": {
    "metar": "KCPS 241453Z 17010G17KT 10SM CLR M01/M09 A2996 RMK AO2 PRESFR SLP150 6//// T10111094 58051 PNO $",
    "windDirection": 170,
    "windSpeed": 10,
    "windGust": 17,
    "visibility": 10,
    "temperatureC": -1,
    "dewPointC": -9,
    "cloudCeiling": 99999,
    "altimeter": "A2996",
    "timestamp": "2026-02-24T14:53:00+00:00",
    "station": "KCPS"
  },
  "kstl": {
    "metar": "KSTL 241451Z 17014G24KT 10SM BKN070 BKN180 M01/M10 A2993 RMK AO2 PRESFR SLP146 T10111100 58051 $",
    "windDirection": 170,
    "windSpeed": 14,
    "windGust": 24,
    "visibility": 10,
    "temperatureC": -1,
    "dewPointC": -10,
    "cloudCeiling": 7000,
    "altimeter": "A2993",
    "timestamp": "2026-02-24T14:51:00+00:00",
    "station": "KSTL"
  }
}