{
  "lastUpdated": "2026-03-14T22:52:36.954831+00:00",
  "kcps": {
    "metar": "KCPS 142153Z 14013KT 10SM CLR 18/03 A2987 RMK AO2 SLP114 T01830028 $",
    "windDirection": 140,
    "windSpeed": 13,
    "windGust": null,
    "visibility": 10,
    "temperatureC": 18,
    "dewPointC": 3,
    "cloudCeiling": 99999,
    "altimeter": "A2987",
    "timestamp": "2026-03-14T21:53:00+00:00",
    "station": "KCPS"
  },
  "kstl": {
    "metar": "KSTL 142151Z 13014KT 10SM SCT250 18/02 A2987 RMK AO2 SLP115 T01780022 $",
    "windDirection": 130,
    "windSpeed": 14,
    "windGust": null,
    "visibility": 10,
    "temperatureC": 18,
    "dewPointC": 2,
    "cloudCeiling": null,
    "altimeter": "A2987",
    "timestamp": "2026-03-14T21:51:00+00:00",
    "station": "KSTL"
  }
}