{
  "lastUpdated": "2026-02-22T12:03:15.505861+00:00",
  "kcps": {
    "metar": "KCPS 221153Z 31018G27KT 10SM FEW032 M04/M11 A3037 RMK AO2 PK WND 30027/1148 SLP289 6//// 7//// T10441111 11011 21044 53002 PNO $",
    "windDirection": 310,
    "windSpeed": 18,
    "windGust": 27,
    "visibility": 10,
    "temperatureC": -4,
    "dewPointC": -11,
    "cloudCeiling": null,
    "altimeter": "A3037",
    "timestamp": "2026-02-22T11:53:00+00:00",
    "station": "KCPS"
  },
  "kstl": {
    "metar": "KSTL 221151Z 31019G26KT 10SM FEW025 M05/M12 A3036 RMK AO2 PK WND 31026/1149 SLP293 T10501117 11022 21050 53002 $",
    "windDirection": 310,
    "windSpeed": 19,
    "windGust": 26,
    "visibility": 10,
    "temperatureC": -5,
    "dewPointC": -12,
    "cloudCeiling": null,
    "altimeter": "A3036",
    "timestamp": "2026-02-22T11:51:00+00:00",
    "station": "KSTL"
  }
}