{
  "lastUpdated": "2026-05-02T09:48:24.467298+00:00",
  "kcps": {
    "metar": "KCPS 020853Z AUTO 06004KT 10SM FEW075 09/07 A3002 RMK AO2 RAE12 SLP167 P0000 60001 T00890067 58003 $",
    "windDirection": 60,
    "windSpeed": 4,
    "windGust": null,
    "visibility": 10,
    "temperatureC": 9,
    "dewPointC": 7,
    "cloudCeiling": null,
    "altimeter": "A3002",
    "timestamp": "2026-05-02T08:53:00+00:00",
    "station": "KCPS"
  },
  "kstl": {
    "metar": "KSTL 020851Z 05005KT 10SM FEW065 SCT095 10/05 A3003 RMK AO2 RAE0758 SLP168 P0000 60000 T01000050 55003 $",
    "windDirection": 50,
    "windSpeed": 5,
    "windGust": null,
    "visibility": 10,
    "temperatureC": 10,
    "dewPointC": 5,
    "cloudCeiling": null,
    "altimeter": "A3003",
    "timestamp": "2026-05-02T08:51:00+00:00",
    "station": "KSTL"
  }
}