{
  "lastUpdated": "2026-01-01T05:07:32.235747+00:00",
  "kcps": {
    "metar": "KCPS 010453Z AUTO 00000KT 9SM CLR M04/M04 A2997 RMK AO2 SLP154 T10391044 $",
    "windDirection": 0,
    "windSpeed": 0,
    "windGust": null,
    "visibility": 9,
    "temperatureC": -4,
    "dewPointC": -4,
    "cloudCeiling": 99999,
    "altimeter": "A2997",
    "timestamp": "2026-01-01T04:53:00+00:00",
    "station": "KCPS"
  },
  "kstl": {
    "metar": "KSTL 010451Z 26003KT 10SM CLR 02/M01 A2997 RMK AO2 SLP156 T00171011 $",
    "windDirection": 260,
    "windSpeed": 3,
    "windGust": null,
    "visibility": 10,
    "temperatureC": 2,
    "dewPointC": -1,
    "cloudCeiling": 99999,
    "altimeter": "A2997",
    "timestamp": "2026-01-01T04:51:00+00:00",
    "station": "KSTL"
  }
}