{
  "lastUpdated": "2026-05-26T18:16:23.400233+00:00",
  "kcps": {
    "metar": "KCPS 261753Z 05010KT 10SM FEW032 SCT050 27/19 A2998 RMK AO2 SLP150 T02720194 10278 20183 58013 $",
    "windDirection": 50,
    "windSpeed": 10,
    "windGust": null,
    "visibility": 10,
    "temperatureC": 27,
    "dewPointC": 19,
    "cloudCeiling": null,
    "altimeter": "A2998",
    "timestamp": "2026-05-26T17:53:00+00:00",
    "station": "KCPS"
  },
  "kstl": {
    "metar": "KSTL 261751Z 08011KT 10SM SCT034 BKN150 BKN250 27/19 A3000 RMK AO2 SLP147 T02720189 10278 20189 58012 $",
    "windDirection": 80,
    "windSpeed": 11,
    "windGust": null,
    "visibility": 10,
    "temperatureC": 27,
    "dewPointC": 19,
    "cloudCeiling": 15000,
    "altimeter": "A3000",
    "timestamp": "2026-05-26T17:51:00+00:00",
    "station": "KSTL"
  }
}