{
  "lastUpdated": "2025-12-21T22:35:22.482213+00:00",
  "kcps": {
    "metar": "KCPS 212153Z 13006KT 10SM CLR 07/M08 A3043 RMK AO2 SLP307 T00671078 $",
    "windDirection": 130,
    "windSpeed": 6,
    "windGust": null,
    "visibility": 10,
    "temperatureC": 7,
    "dewPointC": -8,
    "cloudCeiling": 99999,
    "altimeter": "A3043",
    "timestamp": "2025-12-21T21:53:00+00:00",
    "station": "KCPS"
  },
  "kstl": {
    "metar": "KSTL 212151Z 11008KT 10SM FEW150 BKN250 06/M10 A3042 RMK AO2 SLP311 T00611100 $",
    "windDirection": 110,
    "windSpeed": 8,
    "windGust": null,
    "visibility": 10,
    "temperatureC": 6,
    "dewPointC": -10,
    "cloudCeiling": 25000,
    "altimeter": "A3042",
    "timestamp": "2025-12-21T21:51:00+00:00",
    "station": "KSTL"
  }
}