{
  "lastUpdated": "2026-02-16T10:16:44.717425+00:00",
  "kcps": {
    "metar": "KCPS 160946Z AUTO 00000KT 8SM CLR 01/01 A3003 RMK AO2 T00060006 $",
    "windDirection": 0,
    "windSpeed": 0,
    "windGust": null,
    "visibility": 8,
    "temperatureC": 1,
    "dewPointC": 1,
    "cloudCeiling": 99999,
    "altimeter": "A3003",
    "timestamp": "2026-02-16T09:46:00+00:00",
    "station": "KCPS"
  },
  "kstl": {
    "metar": "KSTL 160951Z 00000KT 10SM CLR 07/04 A3002 RMK AO2 SLP167 T00720039 $",
    "windDirection": 0,
    "windSpeed": 0,
    "windGust": null,
    "visibility": 10,
    "temperatureC": 7,
    "dewPointC": 4,
    "cloudCeiling": 99999,
    "altimeter": "A3002",
    "timestamp": "2026-02-16T09:51:00+00:00",
    "station": "KSTL"
  }
}