{
  "lastUpdated": "2025-10-21T20:22:13.905836+00:00",
  "kcps": {
    "metar": "KCPS 211953Z 30016G26KT 10SM CLR 19/M01 A2991 RMK AO2 PK WND 27031/1934 SLP128 T01891006",
    "windDirection": 300,
    "windSpeed": 16,
    "windGust": 26,
    "visibility": 10,
    "temperatureC": 19,
    "dewPointC": -1,
    "cloudCeiling": 99999,
    "altimeter": "A2991",
    "timestamp": "2025-10-21T19:53:00+00:00",
    "station": "KCPS"
  },
  "kstl": {
    "metar": "KSTL 211951Z 30018G31KT 10SM FEW050 18/00 A2992 RMK AO2 PK WND 27039/1912 SLP127 T01780000 $",
    "windDirection": 300,
    "windSpeed": 18,
    "windGust": 31,
    "visibility": 10,
    "temperatureC": 18,
    "dewPointC": 0,
    "cloudCeiling": null,
    "altimeter": "A2992",
    "timestamp": "2025-10-21T19:51:00+00:00",
    "station": "KSTL"
  }
}