{
  "lastUpdated": "2026-01-10T11:46:28.964513+00:00",
  "kcps": {
    "metar": "KCPS 100953Z AUTO 00000KT 10SM SCT110 03/03 A3005 RMK AO2 SLP175 T00330028 $",
    "windDirection": 0,
    "windSpeed": 0,
    "windGust": null,
    "visibility": 10,
    "temperatureC": 3,
    "dewPointC": 3,
    "cloudCeiling": null,
    "altimeter": "A3005",
    "timestamp": "2026-01-10T09:53:00+00:00",
    "station": "KCPS"
  },
  "kstl": {
    "metar": "KSTL 101051Z 02003KT 10SM FEW100 SCT120 04/03 A3001 RMK AO2 SLP167 T00390028 $",
    "windDirection": 20,
    "windSpeed": 3,
    "windGust": null,
    "visibility": 10,
    "temperatureC": 4,
    "dewPointC": 3,
    "cloudCeiling": null,
    "altimeter": "A3001",
    "timestamp": "2026-01-10T10:51:00+00:00",
    "station": "KSTL"
  }
}