{
  "lastUpdated": "2025-10-21T00:37:24.743167+00:00",
  "kcps": {
    "metar": "KCPS 202353Z 17008KT 10SM BKN085 19/07 A2978 RMK AO2 SLP084 T01940072 10233 20194 53006",
    "windDirection": 170,
    "windSpeed": 8,
    "windGust": null,
    "visibility": 10,
    "temperatureC": 19,
    "dewPointC": 7,
    "cloudCeiling": 8500,
    "altimeter": "A2978",
    "timestamp": "2025-10-20T23:53:00+00:00",
    "station": "KCPS"
  },
  "kstl": {
    "metar": "KSTL 202351Z 18012G20KT 10SM OVC085 21/07 A2977 RMK AO2 SLP078 60000 T02110067 10233 20206 53003 $",
    "windDirection": 180,
    "windSpeed": 12,
    "windGust": 20,
    "visibility": 10,
    "temperatureC": 21,
    "dewPointC": 7,
    "cloudCeiling": 8500,
    "altimeter": "A2977",
    "timestamp": "2025-10-20T23:51:00+00:00",
    "station": "KSTL"
  }
}