{
  "lastUpdated": "2026-03-18T09:15:58.259862+00:00",
  "kcps": {
    "metar": "KCPS 180853Z AUTO 17007KT 10SM OVC065 02/M08 A3005 RMK AO2 SLP178 T00171078 58019 $",
    "windDirection": 170,
    "windSpeed": 7,
    "windGust": null,
    "visibility": 10,
    "temperatureC": 2,
    "dewPointC": -8,
    "cloudCeiling": 6500,
    "altimeter": "A3005",
    "timestamp": "2026-03-18T08:53:00+00:00",
    "station": "KCPS"
  },
  "kstl": {
    "metar": "KSTL 180851Z 15012KT 10SM BKN065 BKN080 OVC095 02/M08 A3003 RMK AO2 SLP178 T00171083 58018 $",
    "windDirection": 150,
    "windSpeed": 12,
    "windGust": null,
    "visibility": 10,
    "temperatureC": 2,
    "dewPointC": -8,
    "cloudCeiling": 6500,
    "altimeter": "A3003",
    "timestamp": "2026-03-18T08:51:00+00:00",
    "station": "KSTL"
  }
}