{
  "lastUpdated": "2026-01-17T17:02:00.653021+00:00",
  "kcps": {
    "metar": "KCPS 171657Z 34010KT 1/4SM +SN FZFG BKN013 OVC017 M07/M09 A3017 RMK AO2 P0000 T10721089 $",
    "windDirection": 340,
    "windSpeed": 10,
    "windGust": null,
    "visibility": 0.25,
    "temperatureC": -7,
    "dewPointC": -9,
    "cloudCeiling": 1300,
    "altimeter": "A3017",
    "timestamp": "2026-01-17T16:57:00+00:00",
    "station": "KCPS"
  },
  "kstl": {
    "metar": "KSTL 171651Z 30010KT 9SM -SN BKN030 OVC055 M07/M12 A3016 RMK AO2 SLP227 P0000 T10671122 $",
    "windDirection": 300,
    "windSpeed": 10,
    "windGust": null,
    "visibility": 9,
    "temperatureC": -7,
    "dewPointC": -12,
    "cloudCeiling": 3000,
    "altimeter": "A3016",
    "timestamp": "2026-01-17T16:51:00+00:00",
    "station": "KSTL"
  }
}