{
  "lastUpdated": "2026-05-18T20:04:18.256618+00:00",
  "kcps": {
    "metar": "KCPS 182000Z 16006KT 10SM OVC055 19/18 A3001 RMK AO2 LTG DSNT ALQDS RAE00 P0000 T01940183 $",
    "windDirection": 160,
    "windSpeed": 6,
    "windGust": null,
    "visibility": 10,
    "temperatureC": 19,
    "dewPointC": 18,
    "cloudCeiling": 5500,
    "altimeter": "A3001",
    "timestamp": "2026-05-18T20:00:00+00:00",
    "station": "KCPS"
  },
  "kstl": {
    "station": "KSTL",
    "metar": null,
    "error": "Failed to fetch METAR"
  }
}