{
  "lastUpdated": "2026-05-12T22:07:50.724429+00:00",
  "kcps": {
    "metar": "KCPS 122153Z 19009G20KT 10SM CLR 28/09 A2995 RMK AO2 SLP139 T02830094 $",
    "windDirection": 190,
    "windSpeed": 9,
    "windGust": 20,
    "visibility": 10,
    "temperatureC": 28,
    "dewPointC": 9,
    "cloudCeiling": 99999,
    "altimeter": "A2995",
    "timestamp": "2026-05-12T21:53:00+00:00",
    "station": "KCPS"
  },
  "kstl": {
    "metar": "KSTL 122151Z 23015G22KT 10SM FEW150 FEW250 27/08 A2996 RMK AO2 PK WND 23027/2100 SLP137 T02720083 $",
    "windDirection": 230,
    "windSpeed": 15,
    "windGust": 22,
    "visibility": 10,
    "temperatureC": 27,
    "dewPointC": 8,
    "cloudCeiling": null,
    "altimeter": "A2996",
    "timestamp": "2026-05-12T21:51:00+00:00",
    "station": "KSTL"
  }
}