{
  "lastUpdated": "2025-11-21T10:48:05.527241+00:00",
  "kcps": {
    "metar": "KCPS 211045Z AUTO 05003KT 5SM -RA BR SCT005 BKN075 OVC090 12/11 A2998 RMK AO2 P0006 T01170111",
    "windDirection": 50,
    "windSpeed": 3,
    "windGust": null,
    "visibility": 5,
    "temperatureC": 12,
    "dewPointC": 11,
    "cloudCeiling": 7500,
    "altimeter": "A2998",
    "timestamp": "2025-11-21T10:45:00+00:00",
    "station": "KCPS"
  },
  "kstl": {
    "metar": "KSTL 211036Z 07005KT 4SM -RA BR SCT003 BKN015 OVC045 12/11 A2999 RMK AO2 P0006 T01170111 $",
    "windDirection": 70,
    "windSpeed": 5,
    "windGust": null,
    "visibility": 4,
    "temperatureC": 12,
    "dewPointC": 11,
    "cloudCeiling": 1500,
    "altimeter": "A2999",
    "timestamp": "2025-11-21T10:36:00+00:00",
    "station": "KSTL"
  }
}