{
  "lastUpdated": "2026-01-08T15:51:11.197578+00:00",
  "kcps": {
    "metar": "KCPS 081453Z 16011KT 5SM BR BKN006 OVC013 12/10 A2980 RMK AO2 SLP091 T01170100 53001",
    "windDirection": 160,
    "windSpeed": 11,
    "windGust": null,
    "visibility": 5,
    "temperatureC": 12,
    "dewPointC": 10,
    "cloudCeiling": 600,
    "altimeter": "A2980",
    "timestamp": "2026-01-08T14:53:00+00:00",
    "station": "KCPS"
  },
  "kstl": {
    "metar": "KSTL 081451Z 16010KT 7SM FEW012 FEW070 OVC100 12/10 A2978 RMK AO2 SLP082 T01220100 57009 $",
    "windDirection": 160,
    "windSpeed": 10,
    "windGust": null,
    "visibility": 7,
    "temperatureC": 12,
    "dewPointC": 10,
    "cloudCeiling": 10000,
    "altimeter": "A2978",
    "timestamp": "2026-01-08T14:51:00+00:00",
    "station": "KSTL"
  }
}