{
  "lastUpdated": "2026-03-30T00:13:39.232158+00:00",
  "kcps": {
    "metar": "KCPS 292353Z 17008KT 10SM CLR 21/05 A3003 RMK AO2 SLP167 T02110050 10222 20189 56014 $",
    "windDirection": 170,
    "windSpeed": 8,
    "windGust": null,
    "visibility": 10,
    "temperatureC": 21,
    "dewPointC": 5,
    "cloudCeiling": 99999,
    "altimeter": "A3003",
    "timestamp": "2026-03-29T23:53:00+00:00",
    "station": "KCPS"
  },
  "kstl": {
    "metar": "KSTL 292351Z 19008KT 10SM BKN220 22/05 A3003 RMK AO2 SLP167 T02170050 10228 20178 56012 $",
    "windDirection": 190,
    "windSpeed": 8,
    "windGust": null,
    "visibility": 10,
    "temperatureC": 22,
    "dewPointC": 5,
    "cloudCeiling": 22000,
    "altimeter": "A3003",
    "timestamp": "2026-03-29T23:51:00+00:00",
    "station": "KSTL"
  }
}