{
  "lastUpdated": "2025-11-24T06:53:13.638127+00:00",
  "kcps": {
    "metar": "KCPS 240629Z AUTO 15005KT 3SM BR OVC002 08/08 A3015 RMK AO2 T00830078 $",
    "windDirection": 150,
    "windSpeed": 5,
    "windGust": null,
    "visibility": 3,
    "temperatureC": 8,
    "dewPointC": 8,
    "cloudCeiling": 200,
    "altimeter": "A3015",
    "timestamp": "2025-11-24T06:29:00+00:00",
    "station": "KCPS"
  },
  "kstl": {
    "metar": "KSTL 240640Z 15006KT 1/2SM R30R/4000V5500FT FG OVC001 08/08 A3015 RMK AO2 T00780078 $",
    "windDirection": 150,
    "windSpeed": 6,
    "windGust": null,
    "visibility": 0.5,
    "temperatureC": 8,
    "dewPointC": 8,
    "cloudCeiling": 100,
    "altimeter": "A3015",
    "timestamp": "2025-11-24T06:40:00+00:00",
    "station": "KSTL"
  }
}