{
  "lastUpdated": "2026-01-08T20:37:23.461238+00:00",
  "kcps": {
    "metar": "KCPS 082011Z 17008KT 8SM -RA OVC016 17/14 A2962 RMK AO2 RAB09 P0000 T01670144",
    "windDirection": 170,
    "windSpeed": 8,
    "windGust": null,
    "visibility": 8,
    "temperatureC": 17,
    "dewPointC": 14,
    "cloudCeiling": 1600,
    "altimeter": "A2962",
    "timestamp": "2026-01-08T20:11:00+00:00",
    "station": "KCPS"
  },
  "kstl": {
    "metar": "KSTL 081951Z 15011KT 4SM -RA BR BKN016 OVC021 16/14 A2962 RMK AO2 RAB43 SLP029 P0000 T01610139 $",
    "windDirection": 150,
    "windSpeed": 11,
    "windGust": null,
    "visibility": 4,
    "temperatureC": 16,
    "dewPointC": 14,
    "cloudCeiling": 1600,
    "altimeter": "A2962",
    "timestamp": "2026-01-08T19:51:00+00:00",
    "station": "KSTL"
  }
}