{
  "lastUpdated": "2025-12-09T08:53:10.589180+00:00",
  "kcps": {
    "metar": "KCPS 090753Z AUTO 17005KT 10SM OVC100 00/M05 A3008 RMK AO2 SLP191 T00001050 $",
    "windDirection": 170,
    "windSpeed": 5,
    "windGust": null,
    "visibility": 10,
    "temperatureC": 0,
    "dewPointC": -5,
    "cloudCeiling": 10000,
    "altimeter": "A3008",
    "timestamp": "2025-12-09T07:53:00+00:00",
    "station": "KCPS"
  },
  "kstl": {
    "metar": "KSTL 090851Z 20011KT 10SM FEW100 SCT250 01/M04 A3005 RMK AO2 SLP184 T00111044 56",
    "windDirection": 200,
    "windSpeed": 11,
    "windGust": null,
    "visibility": 10,
    "temperatureC": 1,
    "dewPointC": -4,
    "cloudCeiling": null,
    "altimeter": "A3005",
    "timestamp": "2025-12-09T08:51:00+00:00",
    "station": "KSTL"
  }
}