{
  "lastUpdated": "2025-11-27T17:46:33.659038+00:00",
  "kcps": {
    "metar": "KCPS 271653Z 34012KT 10SM CLR 02/M06 A3043 RMK AO2 SLP307 T00171061 $",
    "windDirection": 340,
    "windSpeed": 12,
    "windGust": null,
    "visibility": 10,
    "temperatureC": 2,
    "dewPointC": -6,
    "cloudCeiling": 99999,
    "altimeter": "A3043",
    "timestamp": "2025-11-27T16:53:00+00:00",
    "station": "KCPS"
  },
  "kstl": {
    "metar": "KSTL 271651Z 28009KT 10SM SCT026 BKN200 02/M06 A3043 RMK AO2 SLP313 T00171061 $",
    "windDirection": 280,
    "windSpeed": 9,
    "windGust": null,
    "visibility": 10,
    "temperatureC": 2,
    "dewPointC": -6,
    "cloudCeiling": 20000,
    "altimeter": "A3043",
    "timestamp": "2025-11-27T16:51:00+00:00",
    "station": "KSTL"
  }
}