{
  "lastUpdated": "2026-02-21T19:49:00.826155+00:00",
  "kcps": {
    "metar": "KCPS 211853Z 33013G18KT 10SM SCT095 04/M07 A3021 RMK AO2 SLP233 T00441067 PNO $",
    "windDirection": 330,
    "windSpeed": 13,
    "windGust": 18,
    "visibility": 10,
    "temperatureC": 4,
    "dewPointC": -7,
    "cloudCeiling": null,
    "altimeter": "A3021",
    "timestamp": "2026-02-21T18:53:00+00:00",
    "station": "KCPS"
  },
  "kstl": {
    "metar": "KSTL 211851Z 31014G20KT 10SM SCT095 03/M07 A3021 RMK AO2 SLP240 T00331072 $",
    "windDirection": 310,
    "windSpeed": 14,
    "windGust": 20,
    "visibility": 10,
    "temperatureC": 3,
    "dewPointC": -7,
    "cloudCeiling": null,
    "altimeter": "A3021",
    "timestamp": "2026-02-21T18:51:00+00:00",
    "station": "KSTL"
  }
}