{
  "lastUpdated": "2026-01-11T23:33:55.195349+00:00",
  "kcps": {
    "metar": "KCPS 112253Z 27005KT 10SM CLR 02/M08 A3050 RMK AO2 SLP334 T00221083 $",
    "windDirection": 270,
    "windSpeed": 5,
    "windGust": null,
    "visibility": 10,
    "temperatureC": 2,
    "dewPointC": -8,
    "cloudCeiling": 99999,
    "altimeter": "A3050",
    "timestamp": "2026-01-11T22:53:00+00:00",
    "station": "KCPS"
  },
  "kstl": {
    "metar": "KSTL 112251Z 24008KT 10SM BKN250 02/M08 A3050 RMK AO2 SLP341 T00221078 $",
    "windDirection": 240,
    "windSpeed": 8,
    "windGust": null,
    "visibility": 10,
    "temperatureC": 2,
    "dewPointC": -8,
    "cloudCeiling": 25000,
    "altimeter": "A3050",
    "timestamp": "2026-01-11T22:51:00+00:00",
    "station": "KSTL"
  }
}