{
  "lastUpdated": "2026-06-09T18:17:53.954303+00:00",
  "kcps": {
    "metar": "KCPS 091753Z 26004KT 10SM OVC041 29/23 A2998 RMK AO2 SLP147 T02940228 10311 20250 58009 $",
    "windDirection": 260,
    "windSpeed": 4,
    "windGust": null,
    "visibility": 10,
    "temperatureC": 29,
    "dewPointC": 23,
    "cloudCeiling": 4100,
    "altimeter": "A2998",
    "timestamp": "2026-06-09T17:53:00+00:00",
    "station": "KCPS"
  },
  "kstl": {
    "metar": "KSTL 091751Z 22013KT 10SM FEW033 FEW100 BKN250 30/23 A2998 RMK AO2 SLP138 T03000228 10300 20250 58013 $",
    "windDirection": 220,
    "windSpeed": 13,
    "windGust": null,
    "visibility": 10,
    "temperatureC": 30,
    "dewPointC": 23,
    "cloudCeiling": 25000,
    "altimeter": "A2998",
    "timestamp": "2026-06-09T17:51:00+00:00",
    "station": "KSTL"
  }
}