{
  "lastUpdated": "2026-04-16T02:40:03.661730+00:00",
  "kcps": {
    "metar": "KCPS 160153Z 15004KT 10SM VCTS -RA SCT060 OVC080 20/18 A2984 RMK AO2 LTG DSNT W-N RAB34 SLP103 P0000 T02000178 $",
    "windDirection": 150,
    "windSpeed": 4,
    "windGust": null,
    "visibility": 10,
    "temperatureC": 20,
    "dewPointC": 18,
    "cloudCeiling": 8000,
    "altimeter": "A2984",
    "timestamp": "2026-04-16T01:53:00+00:00",
    "station": "KCPS"
  },
  "kstl": {
    "metar": "KSTL 160236Z 34007KT 1SM R30R/P6000FT +TSRA BR FEW033 BKN041 OVC050CB 19/18 A2986 RMK AO2 FRQ LTGCCICCG ALQDS TS ALQDS MOV NE P0040 T01940183",
    "windDirection": 340,
    "windSpeed": 7,
    "windGust": null,
    "visibility": 1,
    "temperatureC": 19,
    "dewPointC": 18,
    "cloudCeiling": 4100,
    "altimeter": "A2986",
    "timestamp": "2026-04-16T02:36:00+00:00",
    "station": "KSTL"
  }
}