{
  "lastUpdated": "2026-03-17T18:46:20.568719+00:00",
  "kcps": {
    "metar": "KCPS 171753Z 25005KT 10SM CLR M03/M15 A3029 RMK AO2 SLP262 T10281150 11028 21083 58008 $",
    "windDirection": 250,
    "windSpeed": 5,
    "windGust": null,
    "visibility": 10,
    "temperatureC": -3,
    "dewPointC": -15,
    "cloudCeiling": 99999,
    "altimeter": "A3029",
    "timestamp": "2026-03-17T17:53:00+00:00",
    "station": "KCPS"
  },
  "kstl": {
    "metar": "KSTL 171751Z 21005KT 10SM FEW035 FEW200 BKN250 M03/M17 A3028 RMK AO2 SLP268 T10331167 11028 21094 58006 $",
    "windDirection": 210,
    "windSpeed": 5,
    "windGust": null,
    "visibility": 10,
    "temperatureC": -3,
    "dewPointC": -17,
    "cloudCeiling": 25000,
    "altimeter": "A3028",
    "timestamp": "2026-03-17T17:51:00+00:00",
    "station": "KSTL"
  }
}