{
  "lastUpdated": "2026-03-30T15:53:35.482531+00:00",
  "kcps": {
    "metar": "KCPS 301453Z 21011G21KT 10SM FEW090 22/12 A3001 RMK AO2 SLP161 T02170117 58003 $",
    "windDirection": 210,
    "windSpeed": 11,
    "windGust": 21,
    "visibility": 10,
    "temperatureC": 22,
    "dewPointC": 12,
    "cloudCeiling": null,
    "altimeter": "A3001",
    "timestamp": "2026-03-30T14:53:00+00:00",
    "station": "KCPS"
  },
  "kstl": {
    "metar": "KSTL 301551Z 21018G28KT 10SM FEW080 FEW250 24/12 A3000 RMK AO2 PK WND 20032/1520 SLP151 T02390117 $",
    "windDirection": 210,
    "windSpeed": 18,
    "windGust": 28,
    "visibility": 10,
    "temperatureC": 24,
    "dewPointC": 12,
    "cloudCeiling": null,
    "altimeter": "A3000",
    "timestamp": "2026-03-30T15:51:00+00:00",
    "station": "KSTL"
  }
}