{
  "lastUpdated": "2026-01-06T07:37:33.503994+00:00",
  "kcps": {
    "metar": "KCPS 060653Z 20009G16KT 10SM CLR 12/08 A2968 RMK AO2 SLP048 T01220078",
    "windDirection": 200,
    "windSpeed": 9,
    "windGust": 16,
    "visibility": 10,
    "temperatureC": 12,
    "dewPointC": 8,
    "cloudCeiling": 99999,
    "altimeter": "A2968",
    "timestamp": "2026-01-06T06:53:00+00:00",
    "station": "KCPS"
  },
  "kstl": {
    "metar": "KSTL 060651Z 21012KT 10SM SCT250 11/07 A2967 RMK AO2 SLP044 T01110072 $",
    "windDirection": 210,
    "windSpeed": 12,
    "windGust": null,
    "visibility": 10,
    "temperatureC": 11,
    "dewPointC": 7,
    "cloudCeiling": null,
    "altimeter": "A2967",
    "timestamp": "2026-01-06T06:51:00+00:00",
    "station": "KSTL"
  }
}