{
  "lastUpdated": "2025-12-01T10:39:24.525782+00:00",
  "kcps": {
    "metar": "KCPS 010953Z AUTO 00000KT 10SM OVC024 M04/M08 A3047 RMK AO2 SLP323 T10441078 $",
    "windDirection": 0,
    "windSpeed": 0,
    "windGust": null,
    "visibility": 10,
    "temperatureC": -4,
    "dewPointC": -8,
    "cloudCeiling": 2400,
    "altimeter": "A3047",
    "timestamp": "2025-12-01T09:53:00+00:00",
    "station": "KCPS"
  },
  "kstl": {
    "metar": "KSTL 010951Z 00000KT 10SM FEW016 OVC025 M05/M08 A3046 RMK AO2 SLP330 T10501078 $",
    "windDirection": 0,
    "windSpeed": 0,
    "windGust": null,
    "visibility": 10,
    "temperatureC": -5,
    "dewPointC": -8,
    "cloudCeiling": 2500,
    "altimeter": "A3046",
    "timestamp": "2025-12-01T09:51:00+00:00",
    "station": "KSTL"
  }
}