{
  "lastUpdated": "2025-11-16T00:07:24.691382+00:00",
  "kcps": {
    "metar": "KCPS 152353Z 33008KT 10SM CLR 20/12 A2972 RMK AO2 SLP060 T02000117 10267 20200 53024 $",
    "windDirection": 330,
    "windSpeed": 8,
    "windGust": null,
    "visibility": 10,
    "temperatureC": 20,
    "dewPointC": 12,
    "cloudCeiling": 99999,
    "altimeter": "A2972",
    "timestamp": "2025-11-15T23:53:00+00:00",
    "station": "KCPS"
  },
  "kstl": {
    "metar": "KSTL 152351Z 32008KT 10SM SCT250 21/11 A2973 RMK AO2 SLP062 T02060111 10261 20206 53024 $",
    "windDirection": 320,
    "windSpeed": 8,
    "windGust": null,
    "visibility": 10,
    "temperatureC": 21,
    "dewPointC": 11,
    "cloudCeiling": null,
    "altimeter": "A2973",
    "timestamp": "2025-11-15T23:51:00+00:00",
    "station": "KSTL"
  }
}