{
  "lastUpdated": "2026-01-12T04:36:17.281911+00:00",
  "kcps": {
    "metar": "KCPS 120353Z 00000KT 10SM CLR M05/M07 A3046 RMK AO2 SLP319 T10501072 $",
    "windDirection": 0,
    "windSpeed": 0,
    "windGust": null,
    "visibility": 10,
    "temperatureC": -5,
    "dewPointC": -7,
    "cloudCeiling": 99999,
    "altimeter": "A3046",
    "timestamp": "2026-01-12T03:53:00+00:00",
    "station": "KCPS"
  },
  "kstl": {
    "metar": "KSTL 120351Z 00000KT 10SM CLR M01/M09 A3045 RMK AO2 SLP323 T10111089 $",
    "windDirection": 0,
    "windSpeed": 0,
    "windGust": null,
    "visibility": 10,
    "temperatureC": -1,
    "dewPointC": -9,
    "cloudCeiling": 99999,
    "altimeter": "A3045",
    "timestamp": "2026-01-12T03:51:00+00:00",
    "station": "KSTL"
  }
}