{
  "lastUpdated": "2026-01-25T03:23:47.236829+00:00",
  "kcps": {
    "metar": "KCPS 250318Z 03009KT 1 1/4SM -SN BR OVC022 M13/M15 A3031 RMK AO2 P0001 T11281150 $",
    "windDirection": 30,
    "windSpeed": 9,
    "windGust": null,
    "visibility": 0.25,
    "temperatureC": -13,
    "dewPointC": -15,
    "cloudCeiling": 2200,
    "altimeter": "A3031",
    "timestamp": "2026-01-25T03:18:00+00:00",
    "station": "KCPS"
  },
  "kstl": {
    "metar": "KSTL 250251Z 04007KT 3/4SM R30R/P6000FT -SN VV014 M13/M16 A3031 RMK AO2 SLP289 P0004 60011 T11281156 56024 $",
    "windDirection": 40,
    "windSpeed": 7,
    "windGust": null,
    "visibility": 0.75,
    "temperatureC": -13,
    "dewPointC": -16,
    "cloudCeiling": 1400,
    "altimeter": "A3031",
    "timestamp": "2026-01-25T02:51:00+00:00",
    "station": "KSTL"
  }
}