{
  "lastUpdated": "2026-04-27T01:53:32.092870+00:00",
  "kcps": {
    "metar": "KCPS 270053Z 13008KT 10SM CLR 23/11 A2983 RMK AO2 SLP098 T02280111 $",
    "windDirection": 130,
    "windSpeed": 8,
    "windGust": null,
    "visibility": 10,
    "temperatureC": 23,
    "dewPointC": 11,
    "cloudCeiling": 99999,
    "altimeter": "A2983",
    "timestamp": "2026-04-27T00:53:00+00:00",
    "station": "KCPS"
  },
  "kstl": {
    "metar": "KSTL 270051Z 12008KT 10SM FEW120 OVC250 23/11 A2984 RMK AO2 SLP098 T02330106 $",
    "windDirection": 120,
    "windSpeed": 8,
    "windGust": null,
    "visibility": 10,
    "temperatureC": 23,
    "dewPointC": 11,
    "cloudCeiling": 25000,
    "altimeter": "A2984",
    "timestamp": "2026-04-27T00:51:00+00:00",
    "station": "KSTL"
  }
}