{
  "lastUpdated": "2026-05-30T00:28:27.305674+00:00",
  "kcps": {
    "metar": "KCPS 292353Z 13008KT 10SM CLR 26/18 A2989 RMK AO2 SLP117 T02560183 10289 20256 56015 $",
    "windDirection": 130,
    "windSpeed": 8,
    "windGust": null,
    "visibility": 10,
    "temperatureC": 26,
    "dewPointC": 18,
    "cloudCeiling": 99999,
    "altimeter": "A2989",
    "timestamp": "2026-05-29T23:53:00+00:00",
    "station": "KCPS"
  },
  "kstl": {
    "metar": "KSTL 292351Z 11010KT 10SM FEW050 BKN180 OVC250 26/16 A2989 RMK AO2 SLP112 T02560161 10278 20256 56018 $",
    "windDirection": 110,
    "windSpeed": 10,
    "windGust": null,
    "visibility": 10,
    "temperatureC": 26,
    "dewPointC": 16,
    "cloudCeiling": 18000,
    "altimeter": "A2989",
    "timestamp": "2026-05-29T23:51:00+00:00",
    "station": "KSTL"
  }
}