{
  "lastUpdated": "2026-02-22T11:35:51.346210+00:00",
  "kcps": {
    "metar": "KCPS 221053Z 30017G25KT 10SM CLR M04/M11 A3037 RMK AO2 PK WND 33026/1027 SLP286 T10391111 PNO $",
    "windDirection": 300,
    "windSpeed": 17,
    "windGust": 25,
    "visibility": 10,
    "temperatureC": -4,
    "dewPointC": -11,
    "cloudCeiling": 99999,
    "altimeter": "A3037",
    "timestamp": "2026-02-22T10:53:00+00:00",
    "station": "KCPS"
  },
  "kstl": {
    "metar": "KSTL 221051Z 30013G23KT 10SM CLR M04/M11 A3036 RMK AO2 PK WND 31026/1041 SLP291 T10441111 $",
    "windDirection": 300,
    "windSpeed": 13,
    "windGust": 23,
    "visibility": 10,
    "temperatureC": -4,
    "dewPointC": -11,
    "cloudCeiling": 99999,
    "altimeter": "A3036",
    "timestamp": "2026-02-22T10:51:00+00:00",
    "station": "KSTL"
  }
}