{
  "lastUpdated": "2025-12-24T22:21:43.719901+00:00",
  "kcps": {
    "metar": "KCPS 242153Z 15004KT 10SM BR CLR 18/15 A3006 RMK AO2 SLP178 T01780150 $",
    "windDirection": 150,
    "windSpeed": 4,
    "windGust": null,
    "visibility": 10,
    "temperatureC": 18,
    "dewPointC": 15,
    "cloudCeiling": 99999,
    "altimeter": "A3006",
    "timestamp": "2025-12-24T21:53:00+00:00",
    "station": "KCPS"
  },
  "kstl": {
    "metar": "KSTL 242151Z 11006KT 8SM FEW150 SCT200 BKN250 16/14 A3006 RMK AO2 SLP180 T01610139 $",
    "windDirection": 110,
    "windSpeed": 6,
    "windGust": null,
    "visibility": 8,
    "temperatureC": 16,
    "dewPointC": 14,
    "cloudCeiling": 25000,
    "altimeter": "A3006",
    "timestamp": "2025-12-24T21:51:00+00:00",
    "station": "KSTL"
  }
}