{
  "lastUpdated": "2025-12-18T18:03:03.355921+00:00",
  "kcps": {
    "metar": "KCPS 181753Z 19012G24KT 10SM SCT018 BKN025 OVC031 14/12 A2946 RMK AO2 RAE05B30E41 SLP974 P0000 60005 T01440122 10144 20122 58038",
    "windDirection": 190,
    "windSpeed": 12,
    "windGust": 24,
    "visibility": 10,
    "temperatureC": 14,
    "dewPointC": 12,
    "cloudCeiling": 2500,
    "altimeter": "A2946",
    "timestamp": "2025-12-18T17:53:00+00:00",
    "station": "KCPS"
  },
  "kstl": {
    "metar": "KSTL 181755Z 28014G20KT 3SM RA BR BKN008 BKN021 OVC026 09/08 A2954 RMK AO2 PRESRR P0001 T00890083 $",
    "windDirection": 280,
    "windSpeed": 14,
    "windGust": 20,
    "visibility": 3,
    "temperatureC": 9,
    "dewPointC": 8,
    "cloudCeiling": 800,
    "altimeter": "A2954",
    "timestamp": "2025-12-18T17:55:00+00:00",
    "station": "KSTL"
  }
}