{
  "lastUpdated": "2026-01-25T11:32:55.133034+00:00",
  "kcps": {
    "metar": "KCPS 251111Z AUTO 01014KT 2SM -SN OVC030 M13/M16 A3012 RMK AO2 SNB01 P0000 T11281156 $",
    "windDirection": 10,
    "windSpeed": 14,
    "windGust": null,
    "visibility": 2,
    "temperatureC": -13,
    "dewPointC": -16,
    "cloudCeiling": 3000,
    "altimeter": "A3012",
    "timestamp": "2026-01-25T11:11:00+00:00",
    "station": "KCPS"
  },
  "kstl": {
    "metar": "KSTL 251051Z 01011KT 1/2SM R30R/P6000FT SN FZFG OVC021 M13/M16 A3011 RMK AO2 SLP219 P0003 T11331156 $",
    "windDirection": 10,
    "windSpeed": 11,
    "windGust": null,
    "visibility": 0.5,
    "temperatureC": -13,
    "dewPointC": -16,
    "cloudCeiling": 2100,
    "altimeter": "A3011",
    "timestamp": "2026-01-25T10:51:00+00:00",
    "station": "KSTL"
  }
}