{
  "lastUpdated": "2025-12-23T13:05:16.430308+00:00",
  "kcps": {
    "metar": "KCPS 231301Z 00000KT 3/4SM BR VV003 02/02 A3013 RMK AO2 T00170017 $",
    "windDirection": 0,
    "windSpeed": 0,
    "windGust": null,
    "visibility": 0.75,
    "temperatureC": 2,
    "dewPointC": 2,
    "cloudCeiling": 300,
    "altimeter": "A3013",
    "timestamp": "2025-12-23T13:01:00+00:00",
    "station": "KCPS"
  },
  "kstl": {
    "metar": "KSTL 231251Z 11003KT 8SM FEW250 06/06 A3012 RMK AO2 SLP203 T00610061 $",
    "windDirection": 110,
    "windSpeed": 3,
    "windGust": null,
    "visibility": 8,
    "temperatureC": 6,
    "dewPointC": 6,
    "cloudCeiling": null,
    "altimeter": "A3012",
    "timestamp": "2025-12-23T12:51:00+00:00",
    "station": "KSTL"
  }
}