{
  "lastUpdated": "2025-11-21T23:02:21.368814+00:00",
  "kcps": {
    "metar": "KCPS 212253Z 01005KT 2 1/2SM BR OVC002 13/13 A2986 RMK AO2 SLP110 T01330128",
    "windDirection": 10,
    "windSpeed": 5,
    "windGust": null,
    "visibility": 0.5,
    "temperatureC": 13,
    "dewPointC": 13,
    "cloudCeiling": 200,
    "altimeter": "A2986",
    "timestamp": "2025-11-21T22:53:00+00:00",
    "station": "KCPS"
  },
  "kstl": {
    "metar": "KSTL 212251Z 05008KT 4SM -RA BR OVC004 13/12 A2985 RMK AO2 RAB36 SLP109 P0001 T01280122 $",
    "windDirection": 50,
    "windSpeed": 8,
    "windGust": null,
    "visibility": 4,
    "temperatureC": 13,
    "dewPointC": 12,
    "cloudCeiling": 400,
    "altimeter": "A2985",
    "timestamp": "2025-11-21T22:51:00+00:00",
    "station": "KSTL"
  }
}