{
  "lastUpdated": "2026-05-20T18:43:20.224664+00:00",
  "kcps": {
    "metar": "KCPS 201753Z 01006KT 10SM OVC041 18/11 A3019 RMK AO2 SLP220 6//// T01780111 10183 20128 56008 PNO $",
    "windDirection": 10,
    "windSpeed": 6,
    "windGust": null,
    "visibility": 10,
    "temperatureC": 18,
    "dewPointC": 11,
    "cloudCeiling": 4100,
    "altimeter": "A3019",
    "timestamp": "2026-05-20T17:53:00+00:00",
    "station": "KCPS"
  },
  "kstl": {
    "metar": "KSTL 201751Z 36009KT 10SM FEW024 OVC048 16/11 A3020 RMK AO2 SLP224 T01610106 10167 20133 55006 $",
    "windDirection": 360,
    "windSpeed": 9,
    "windGust": null,
    "visibility": 10,
    "temperatureC": 16,
    "dewPointC": 11,
    "cloudCeiling": 4800,
    "altimeter": "A3020",
    "timestamp": "2026-05-20T17:51:00+00:00",
    "station": "KSTL"
  }
}