{
  "lastUpdated": "2026-01-16T02:38:04.942454+00:00",
  "kcps": {
    "metar": "KCPS 160153Z 17008KT 10SM CLR M02/M13 A2985 RMK AO2 SLP114 T10171133 $",
    "windDirection": 170,
    "windSpeed": 8,
    "windGust": null,
    "visibility": 10,
    "temperatureC": -2,
    "dewPointC": -13,
    "cloudCeiling": 99999,
    "altimeter": "A2985",
    "timestamp": "2026-01-16T01:53:00+00:00",
    "station": "KCPS"
  },
  "kstl": {
    "metar": "KSTL 160151Z 15005KT 10SM SCT150 00/M14 A2985 RMK AO2 SLP121 T00001144 $",
    "windDirection": 150,
    "windSpeed": 5,
    "windGust": null,
    "visibility": 10,
    "temperatureC": 0,
    "dewPointC": -14,
    "cloudCeiling": null,
    "altimeter": "A2985",
    "timestamp": "2026-01-16T01:51:00+00:00",
    "station": "KSTL"
  }
}