{
  "lastUpdated": "2025-12-24T00:40:55.597350+00:00",
  "kcps": {
    "metar": "KCPS 240035Z 01005KT 2 1/2SM BR CLR 11/11 A3020 RMK AO2 T01060106 $",
    "windDirection": 10,
    "windSpeed": 5,
    "windGust": null,
    "visibility": 0.5,
    "temperatureC": 11,
    "dewPointC": 11,
    "cloudCeiling": 99999,
    "altimeter": "A3020",
    "timestamp": "2025-12-24T00:35:00+00:00",
    "station": "KCPS"
  },
  "kstl": {
    "metar": "KSTL 232351Z 00000KT 9SM FEW032 SCT250 11/11 A3019 RMK AO2 SLP227 T01110106 10200 20111 53020 $",
    "windDirection": 0,
    "windSpeed": 0,
    "windGust": null,
    "visibility": 9,
    "temperatureC": 11,
    "dewPointC": 11,
    "cloudCeiling": null,
    "altimeter": "A3019",
    "timestamp": "2025-12-23T23:51:00+00:00",
    "station": "KSTL"
  }
}