{
  "lastUpdated": "2025-12-21T14:02:08.787485+00:00",
  "kcps": {
    "metar": "KCPS 211353Z 00000KT 10SM CLR M03/M06 A3045 RMK AO2 SLP314 T10331056 $",
    "windDirection": 0,
    "windSpeed": 0,
    "windGust": null,
    "visibility": 10,
    "temperatureC": -3,
    "dewPointC": -6,
    "cloudCeiling": 99999,
    "altimeter": "A3045",
    "timestamp": "2025-12-21T13:53:00+00:00",
    "station": "KCPS"
  },
  "kstl": {
    "metar": "KSTL 211351Z 00000KT 10SM BKN150 BKN250 M01/M08 A3044 RMK AO2 SLP318 VIRGA SE T10111078 $",
    "windDirection": 0,
    "windSpeed": 0,
    "windGust": null,
    "visibility": 10,
    "temperatureC": -1,
    "dewPointC": -8,
    "cloudCeiling": 15000,
    "altimeter": "A3044",
    "timestamp": "2025-12-21T13:51:00+00:00",
    "station": "KSTL"
  }
}