{
  "lastUpdated": "2026-02-07T16:23:16.748499+00:00",
  "kcps": {
    "metar": "KCPS 071453Z 07007KT 10SM CLR M01/M07 A3043 RMK AO2 SLP309 T10061072 53030 $",
    "windDirection": 70,
    "windSpeed": 7,
    "windGust": null,
    "visibility": 10,
    "temperatureC": -1,
    "dewPointC": -7,
    "cloudCeiling": 99999,
    "altimeter": "A3043",
    "timestamp": "2026-02-07T14:53:00+00:00",
    "station": "KCPS"
  },
  "kstl": {
    "metar": "KSTL 071551Z 11005KT 10SM FEW020 FEW250 M01/M07 A3046 RMK AO2 SLP323 T10061072 $",
    "windDirection": 110,
    "windSpeed": 5,
    "windGust": null,
    "visibility": 10,
    "temperatureC": -1,
    "dewPointC": -7,
    "cloudCeiling": null,
    "altimeter": "A3046",
    "timestamp": "2026-02-07T15:51:00+00:00",
    "station": "KSTL"
  }
}