{
  "lastUpdated": "2026-01-03T05:36:48.249806+00:00",
  "kcps": {
    "metar": "KCPS 030453Z 04005KT 10SM OVC120 M01/M05 A3000 RMK AO2 SLP161 T10061050",
    "windDirection": 40,
    "windSpeed": 5,
    "windGust": null,
    "visibility": 10,
    "temperatureC": -1,
    "dewPointC": -5,
    "cloudCeiling": 12000,
    "altimeter": "A3000",
    "timestamp": "2026-01-03T04:53:00+00:00",
    "station": "KCPS"
  },
  "kstl": {
    "metar": "KSTL 030534Z 02004KT 10SM BKN019 OVC110 M01/M05 A3001 RMK AO2 T10111050 $",
    "windDirection": 20,
    "windSpeed": 4,
    "windGust": null,
    "visibility": 10,
    "temperatureC": -1,
    "dewPointC": -5,
    "cloudCeiling": 1900,
    "altimeter": "A3001",
    "timestamp": "2026-01-03T05:34:00+00:00",
    "station": "KSTL"
  }
}