{
  "lastUpdated": "2026-01-05T14:04:06.160716+00:00",
  "kcps": {
    "metar": "KCPS 051353Z 00000KT 10SM CLR 00/M03 A2991 RMK AO2 SLP132 T00001028 $",
    "windDirection": 0,
    "windSpeed": 0,
    "windGust": null,
    "visibility": 10,
    "temperatureC": 0,
    "dewPointC": -3,
    "cloudCeiling": 99999,
    "altimeter": "A2991",
    "timestamp": "2026-01-05T13:53:00+00:00",
    "station": "KCPS"
  },
  "kstl": {
    "metar": "KSTL 051351Z 13003KT 10SM BKN250 00/M02 A2990 RMK AO2 SLP134 T00001022 $",
    "windDirection": 130,
    "windSpeed": 3,
    "windGust": null,
    "visibility": 10,
    "temperatureC": 0,
    "dewPointC": -2,
    "cloudCeiling": 25000,
    "altimeter": "A2990",
    "timestamp": "2026-01-05T13:51:00+00:00",
    "station": "KSTL"
  }
}