{
  "lastUpdated": "2025-11-06T21:02:27.767158+00:00",
  "kcps": {
    "metar": "KCPS 062053Z 16012KT 10SM CLR 19/03 A2997 RMK AO2 SLP150 T01940028 56048",
    "windDirection": 160,
    "windSpeed": 12,
    "windGust": null,
    "visibility": 10,
    "temperatureC": 19,
    "dewPointC": 3,
    "cloudCeiling": 99999,
    "altimeter": "A2997",
    "timestamp": "2025-11-06T20:53:00+00:00",
    "station": "KCPS"
  },
  "kstl": {
    "metar": "KSTL 062051Z 13013KT 10SM BKN250 19/02 A2996 RMK AO2 SLP147 T01890022 56048 $",
    "windDirection": 130,
    "windSpeed": 13,
    "windGust": null,
    "visibility": 10,
    "temperatureC": 19,
    "dewPointC": 2,
    "cloudCeiling": 25000,
    "altimeter": "A2996",
    "timestamp": "2025-11-06T20:51:00+00:00",
    "station": "KSTL"
  }
}