{
  "lastUpdated": "2026-02-27T23:22:21.697829+00:00",
  "kcps": {
    "metar": "KCPS 272253Z 24010G17KT 10SM CLR 24/M02 A2983 RMK AO2 SLP101 T02391022 $",
    "windDirection": 240,
    "windSpeed": 10,
    "windGust": 17,
    "visibility": 10,
    "temperatureC": 24,
    "dewPointC": -2,
    "cloudCeiling": 99999,
    "altimeter": "A2983",
    "timestamp": "2026-02-27T22:53:00+00:00",
    "station": "KCPS"
  },
  "kstl": {
    "metar": "KSTL 272251Z 25013G20KT 10SM FEW250 23/M02 A2984 RMK AO2 SLP103 T02331017 $",
    "windDirection": 250,
    "windSpeed": 13,
    "windGust": 20,
    "visibility": 10,
    "temperatureC": 23,
    "dewPointC": -2,
    "cloudCeiling": null,
    "altimeter": "A2984",
    "timestamp": "2026-02-27T22:51:00+00:00",
    "station": "KSTL"
  }
}