{
  "lastUpdated": "2026-02-03T19:05:47.460086+00:00",
  "kcps": {
    "metar": "KCPS 031853Z 36013KT 10SM OVC070 02/M03 A3015 RMK AO2 SLP211 T00171028 $",
    "windDirection": 360,
    "windSpeed": 13,
    "windGust": null,
    "visibility": 10,
    "temperatureC": 2,
    "dewPointC": -3,
    "cloudCeiling": 7000,
    "altimeter": "A3015",
    "timestamp": "2026-02-03T18:53:00+00:00",
    "station": "KCPS"
  },
  "kstl": {
    "metar": "KSTL 031851Z 35009KT 10SM OVC075 02/M03 A3016 RMK AO2 SLP222 T00171033",
    "windDirection": 350,
    "windSpeed": 9,
    "windGust": null,
    "visibility": 10,
    "temperatureC": 2,
    "dewPointC": -3,
    "cloudCeiling": 7500,
    "altimeter": "A3016",
    "timestamp": "2026-02-03T18:51:00+00:00",
    "station": "KSTL"
  }
}