{
  "lastUpdated": "2026-03-21T23:37:46.781315+00:00",
  "kcps": {
    "metar": "KCPS 212253Z 15008KT 10SM CLR 29/11 A2976 RMK AO2 SLP075 T02890111 $",
    "windDirection": 150,
    "windSpeed": 8,
    "windGust": null,
    "visibility": 10,
    "temperatureC": 29,
    "dewPointC": 11,
    "cloudCeiling": 99999,
    "altimeter": "A2976",
    "timestamp": "2026-03-21T22:53:00+00:00",
    "station": "KCPS"
  },
  "kstl": {
    "metar": "KSTL 212251Z 15007KT 10SM FEW250 29/09 A2976 RMK AO2 SLP071 T02940094 $",
    "windDirection": 150,
    "windSpeed": 7,
    "windGust": null,
    "visibility": 10,
    "temperatureC": 29,
    "dewPointC": 9,
    "cloudCeiling": null,
    "altimeter": "A2976",
    "timestamp": "2026-03-21T22:51:00+00:00",
    "station": "KSTL"
  }
}