{
  "lastUpdated": "2026-02-14T02:36:10.381553+00:00",
  "kcps": {
    "metar": "KCPS 140153Z 16006KT 10SM CLR 09/M02 A3008 RMK AO2 SLP189 T00941022 $",
    "windDirection": 160,
    "windSpeed": 6,
    "windGust": null,
    "visibility": 10,
    "temperatureC": 9,
    "dewPointC": -2,
    "cloudCeiling": 99999,
    "altimeter": "A3008",
    "timestamp": "2026-02-14T01:53:00+00:00",
    "station": "KCPS"
  },
  "kstl": {
    "metar": "KSTL 140151Z 15007KT 10SM SCT250 11/M02 A3008 RMK AO2 SLP189 T01111022 $",
    "windDirection": 150,
    "windSpeed": 7,
    "windGust": null,
    "visibility": 10,
    "temperatureC": 11,
    "dewPointC": -2,
    "cloudCeiling": null,
    "altimeter": "A3008",
    "timestamp": "2026-02-14T01:51:00+00:00",
    "station": "KSTL"
  }
}