{
  "lastUpdated": "2025-12-17T03:11:19.946716+00:00",
  "kcps": {
    "metar": "KCPS 170253Z 16005KT 10SM CLR 03/M04 A2994 RMK AO2 SLP140 T00281044 50012",
    "windDirection": 160,
    "windSpeed": 5,
    "windGust": null,
    "visibility": 10,
    "temperatureC": 3,
    "dewPointC": -4,
    "cloudCeiling": 99999,
    "altimeter": "A2994",
    "timestamp": "2025-12-17T02:53:00+00:00",
    "station": "KCPS"
  },
  "kstl": {
    "metar": "KSTL 170251Z 19007KT 10SM BKN250 07/M03 A2992 RMK AO2 SLP136 T00671033 51012 $",
    "windDirection": 190,
    "windSpeed": 7,
    "windGust": null,
    "visibility": 10,
    "temperatureC": 7,
    "dewPointC": -3,
    "cloudCeiling": 25000,
    "altimeter": "A2992",
    "timestamp": "2025-12-17T02:51:00+00:00",
    "station": "KSTL"
  }
}