{
  "lastUpdated": "2026-02-06T08:18:43.997111+00:00",
  "kcps": {
    "metar": "KCPS 060753Z 00000KT 6SM BR CLR M06/M07 A2985 RMK AO2 SLP113 I1000 T10611067 $",
    "windDirection": 0,
    "windSpeed": 0,
    "windGust": null,
    "visibility": 6,
    "temperatureC": -6,
    "dewPointC": -7,
    "cloudCeiling": 99999,
    "altimeter": "A2985",
    "timestamp": "2026-02-06T07:53:00+00:00",
    "station": "KCPS"
  },
  "kstl": {
    "metar": "KSTL 060751Z 23004KT 10SM CLR M01/M03 A2985 RMK AO2 SLP117 T10061028 $",
    "windDirection": 230,
    "windSpeed": 4,
    "windGust": null,
    "visibility": 10,
    "temperatureC": -1,
    "dewPointC": -3,
    "cloudCeiling": 99999,
    "altimeter": "A2985",
    "timestamp": "2026-02-06T07:51:00+00:00",
    "station": "KSTL"
  }
}