{
  "lastUpdated": "2026-05-01T17:05:24.212730+00:00",
  "kcps": {
    "metar": "KCPS 011653Z 33008G14KT 300V360 10SM CLR 14/00 A3009 RMK AO2 SLP187 T01440000 $",
    "windDirection": 330,
    "windSpeed": 8,
    "windGust": 14,
    "visibility": 10,
    "temperatureC": 14,
    "dewPointC": 0,
    "cloudCeiling": 99999,
    "altimeter": "A3009",
    "timestamp": "2026-05-01T16:53:00+00:00",
    "station": "KCPS"
  },
  "kstl": {
    "metar": "KSTL 011651Z 36007KT 10SM FEW050 SCT250 14/00 A3009 RMK AO2 SLP188 T01440000",
    "windDirection": 360,
    "windSpeed": 7,
    "windGust": null,
    "visibility": 10,
    "temperatureC": 14,
    "dewPointC": 0,
    "cloudCeiling": null,
    "altimeter": "A3009",
    "timestamp": "2026-05-01T16:51:00+00:00",
    "station": "KSTL"
  }
}