{
  "lastUpdated": "2025-12-23T11:02:28.665327+00:00",
  "kcps": {
    "metar": "KCPS 231053Z AUTO 00000KT 1/4SM FG CLR 02/02 A3009 RMK AO2 SLP192 T00220022 $",
    "windDirection": 0,
    "windSpeed": 0,
    "windGust": null,
    "visibility": 0.25,
    "temperatureC": 2,
    "dewPointC": 2,
    "cloudCeiling": 99999,
    "altimeter": "A3009",
    "timestamp": "2025-12-23T10:53:00+00:00",
    "station": "KCPS"
  },
  "kstl": {
    "metar": "KSTL 231051Z 13004KT 8SM SCT250 04/04 A3009 RMK AO2 SLP192 T00390039 $",
    "windDirection": 130,
    "windSpeed": 4,
    "windGust": null,
    "visibility": 8,
    "temperatureC": 4,
    "dewPointC": 4,
    "cloudCeiling": null,
    "altimeter": "A3009",
    "timestamp": "2025-12-23T10:51:00+00:00",
    "station": "KSTL"
  }
}