{
  "lastUpdated": "2025-11-24T04:04:25.418320+00:00",
  "kcps": {
    "metar": "KCPS 240353Z 20005KT 2 1/2SM BR OVC003 09/08 A3018 RMK AO2 SLP221 T00890083 $",
    "windDirection": 200,
    "windSpeed": 5,
    "windGust": null,
    "visibility": 0.5,
    "temperatureC": 9,
    "dewPointC": 8,
    "cloudCeiling": 300,
    "altimeter": "A3018",
    "timestamp": "2025-11-24T03:53:00+00:00",
    "station": "KCPS"
  },
  "kstl": {
    "metar": "KSTL 240351Z 16006KT 1SM R30R/6000VP6000FT BR OVC002 08/08 A3017 RMK AO2 SLP221 T00830078 $",
    "windDirection": 160,
    "windSpeed": 6,
    "windGust": null,
    "visibility": 1,
    "temperatureC": 8,
    "dewPointC": 8,
    "cloudCeiling": 200,
    "altimeter": "A3017",
    "timestamp": "2025-11-24T03:51:00+00:00",
    "station": "KSTL"
  }
}