{
  "lastUpdated": "2025-10-17T18:48:59.119980+00:00",
  "kcps": {
    "metar": "KCPS 171753Z 16005KT 10SM CLR 24/14 A2992 RMK AO2 SLP127 T02390144 10239 20133 58025",
    "windDirection": 160,
    "windSpeed": 5,
    "windGust": null,
    "visibility": 10,
    "temperatureC": 24,
    "dewPointC": 14,
    "cloudCeiling": 99999,
    "altimeter": "A2992",
    "timestamp": "2025-10-17T17:53:00+00:00",
    "station": "KCPS"
  },
  "kstl": {
    "metar": "KSTL 171751Z 17008KT 10SM BKN230 24/14 A2991 RMK AO2 SLP121 T02390144 10239 20172 58024 $",
    "windDirection": 170,
    "windSpeed": 8,
    "windGust": null,
    "visibility": 10,
    "temperatureC": 24,
    "dewPointC": 14,
    "cloudCeiling": 23000,
    "altimeter": "A2991",
    "timestamp": "2025-10-17T17:51:00+00:00",
    "station": "KSTL"
  }
}