{
  "lastUpdated": "2025-11-24T17:47:35.771677+00:00",
  "kcps": {
    "metar": "KCPS 241738Z 17006KT 10SM SCT010 OVC060 11/08 A3004 RMK AO2 T01110083",
    "windDirection": 170,
    "windSpeed": 6,
    "windGust": null,
    "visibility": 10,
    "temperatureC": 11,
    "dewPointC": 8,
    "cloudCeiling": 6000,
    "altimeter": "A3004",
    "timestamp": "2025-11-24T17:38:00+00:00",
    "station": "KCPS"
  },
  "kstl": {
    "metar": "KSTL 241651Z 13010KT 10SM SCT009 BKN120 OVC250 11/08 A3004 RMK AO2 SLP176 T01060078 $",
    "windDirection": 130,
    "windSpeed": 10,
    "windGust": null,
    "visibility": 10,
    "temperatureC": 11,
    "dewPointC": 8,
    "cloudCeiling": 12000,
    "altimeter": "A3004",
    "timestamp": "2025-11-24T16:51:00+00:00",
    "station": "KSTL"
  }
}