{
  "lastUpdated": "2026-05-22T17:13:13.074843+00:00",
  "kcps": {
    "metar": "KCPS 221653Z 04007KT 10SM OVC021 19/14 A2994 RMK AO2 SLP137 T01940144 $",
    "windDirection": 40,
    "windSpeed": 7,
    "windGust": null,
    "visibility": 10,
    "temperatureC": 19,
    "dewPointC": 14,
    "cloudCeiling": 2100,
    "altimeter": "A2994",
    "timestamp": "2026-05-22T16:53:00+00:00",
    "station": "KCPS"
  },
  "kstl": {
    "metar": "KSTL 221651Z 09008KT 10SM OVC021 19/14 A2996 RMK AO2 SLP139 T01890139 $",
    "windDirection": 90,
    "windSpeed": 8,
    "windGust": null,
    "visibility": 10,
    "temperatureC": 19,
    "dewPointC": 14,
    "cloudCeiling": 2100,
    "altimeter": "A2996",
    "timestamp": "2026-05-22T16:51:00+00:00",
    "station": "KSTL"
  }
}