{
  "lastUpdated": "2026-02-08T07:03:31.004566+00:00",
  "kcps": {
    "metar": "KCPS 080653Z 13007KT 10SM CLR M03/M08 A3027 RMK AO2 SLP256 T10331083 $",
    "windDirection": 130,
    "windSpeed": 7,
    "windGust": null,
    "visibility": 10,
    "temperatureC": -3,
    "dewPointC": -8,
    "cloudCeiling": 99999,
    "altimeter": "A3027",
    "timestamp": "2026-02-08T06:53:00+00:00",
    "station": "KCPS"
  },
  "kstl": {
    "metar": "KSTL 080651Z 12010KT 10SM SCT250 M03/M08 A3025 RMK AO2 SLP256 T10281083 $",
    "windDirection": 120,
    "windSpeed": 10,
    "windGust": null,
    "visibility": 10,
    "temperatureC": -3,
    "dewPointC": -8,
    "cloudCeiling": null,
    "altimeter": "A3025",
    "timestamp": "2026-02-08T06:51:00+00:00",
    "station": "KSTL"
  }
}