{
  "lastUpdated": "2026-01-19T07:39:26.841136+00:00",
  "kcps": {
    "metar": "KCPS 190653Z AUTO 32010KT 10SM BKN050 M01/M09 A3009 RMK AO2 SLP196 T10111089 $",
    "windDirection": 320,
    "windSpeed": 10,
    "windGust": null,
    "visibility": 10,
    "temperatureC": -1,
    "dewPointC": -9,
    "cloudCeiling": 5000,
    "altimeter": "A3009",
    "timestamp": "2026-01-19T06:53:00+00:00",
    "station": "KCPS"
  },
  "kstl": {
    "metar": "KSTL 190651Z 32009KT 10SM FEW039 BKN050 M02/M10 A3008 RMK AO2 SLP202 T10221100 $",
    "windDirection": 320,
    "windSpeed": 9,
    "windGust": null,
    "visibility": 10,
    "temperatureC": -2,
    "dewPointC": -10,
    "cloudCeiling": 5000,
    "altimeter": "A3008",
    "timestamp": "2026-01-19T06:51:00+00:00",
    "station": "KSTL"
  }
}