{
  "lastUpdated": "2025-11-13T14:21:32.554097+00:00",
  "kcps": {
    "metar": "KCPS 131353Z 00000KT 10SM CLR 05/03 A3025 RMK AO2 SLP246 T00500028",
    "windDirection": 0,
    "windSpeed": 0,
    "windGust": null,
    "visibility": 10,
    "temperatureC": 5,
    "dewPointC": 3,
    "cloudCeiling": 99999,
    "altimeter": "A3025",
    "timestamp": "2025-11-13T13:53:00+00:00",
    "station": "KCPS"
  },
  "kstl": {
    "metar": "KSTL 131351Z 00000KT 10SM BKN190 BKN250 07/03 A3025 RMK AO2 SLP246 T00720033",
    "windDirection": 0,
    "windSpeed": 0,
    "windGust": null,
    "visibility": 10,
    "temperatureC": 7,
    "dewPointC": 3,
    "cloudCeiling": 19000,
    "altimeter": "A3025",
    "timestamp": "2025-11-13T13:51:00+00:00",
    "station": "KSTL"
  }
}