{
  "lastUpdated": "2025-10-13T21:46:37.434034+00:00",
  "kcps": {
    "metar": "KCPS 132053Z 00000KT 10SM CLR 27/16 A3004 RMK AO2 SLP169 T02670156 55005 $",
    "windDirection": 0,
    "windSpeed": 0,
    "windGust": null,
    "visibility": 10,
    "temperatureC": 27,
    "dewPointC": 16,
    "cloudCeiling": 99999,
    "altimeter": "A3004",
    "timestamp": "2025-10-13T20:53:00+00:00",
    "station": "KCPS"
  },
  "kstl": {
    "metar": "KSTL 132051Z 09006KT 10SM FEW150 BKN200 27/15 A3005 RMK AO2 SLP165 T02670150 56003 $",
    "windDirection": 90,
    "windSpeed": 6,
    "windGust": null,
    "visibility": 10,
    "temperatureC": 27,
    "dewPointC": 15,
    "cloudCeiling": 20000,
    "altimeter": "A3005",
    "timestamp": "2025-10-13T20:51:00+00:00",
    "station": "KSTL"
  }
}