{
  "lastUpdated": "2026-05-05T09:38:06.013097+00:00",
  "kcps": {
    "metar": "KCPS 050853Z AUTO 15003KT 10SM OVC050 17/12 A2969 RMK AO2 LTG DSNT N AND NW RAB05E29 SLP051 P0000 60000 T01720122 50009 $",
    "windDirection": 150,
    "windSpeed": 3,
    "windGust": null,
    "visibility": 10,
    "temperatureC": 17,
    "dewPointC": 12,
    "cloudCeiling": 5000,
    "altimeter": "A2969",
    "timestamp": "2026-05-05T08:53:00+00:00",
    "station": "KCPS"
  },
  "kstl": {
    "metar": "KSTL 050926Z 34009KT 10SM -TSRA OVC044CB 16/13 A2973 RMK AO2 RAB24 TSB26 OCNL LTGCG N TS N MOV NE P0000 T01610128 $",
    "windDirection": 340,
    "windSpeed": 9,
    "windGust": null,
    "visibility": 10,
    "temperatureC": 16,
    "dewPointC": 13,
    "cloudCeiling": 4400,
    "altimeter": "A2973",
    "timestamp": "2026-05-05T09:26:00+00:00",
    "station": "KSTL"
  }
}