{
  "lastUpdated": "2026-05-07T06:36:34.238130+00:00",
  "kcps": {
    "metar": "KCPS 070553Z AUTO 00000KT 10SM CLR 06/06 A3005 RMK AO2 SLP175 T00610056 10150 20061 401720061 53005 $",
    "windDirection": 0,
    "windSpeed": 0,
    "windGust": null,
    "visibility": 10,
    "temperatureC": 6,
    "dewPointC": 6,
    "cloudCeiling": 99999,
    "altimeter": "A3005",
    "timestamp": "2026-05-07T05:53:00+00:00",
    "station": "KCPS"
  },
  "kstl": {
    "metar": "KSTL 070551Z 24003KT 10SM CLR 08/04 A3005 RMK AO2 SLP177 T00780039 10144 20072 401670072 53003 $",
    "windDirection": 240,
    "windSpeed": 3,
    "windGust": null,
    "visibility": 10,
    "temperatureC": 8,
    "dewPointC": 4,
    "cloudCeiling": 99999,
    "altimeter": "A3005",
    "timestamp": "2026-05-07T05:51:00+00:00",
    "station": "KSTL"
  }
}