{
  "lastUpdated": "2026-01-09T19:46:41.926132+00:00",
  "kcps": {
    "metar": "KCPS 091922Z 36007KT 10SM FEW027 10/03 A3009 RMK AO2 T01000033",
    "windDirection": 360,
    "windSpeed": 7,
    "windGust": null,
    "visibility": 10,
    "temperatureC": 10,
    "dewPointC": 3,
    "cloudCeiling": null,
    "altimeter": "A3009",
    "timestamp": "2026-01-09T19:22:00+00:00",
    "station": "KCPS"
  },
  "kstl": {
    "metar": "KSTL 091851Z 34006KT 10SM BKN022 09/03 A3011 RMK AO2 SLP192 T00890033 $",
    "windDirection": 340,
    "windSpeed": 6,
    "windGust": null,
    "visibility": 10,
    "temperatureC": 9,
    "dewPointC": 3,
    "cloudCeiling": 2200,
    "altimeter": "A3011",
    "timestamp": "2026-01-09T18:51:00+00:00",
    "station": "KSTL"
  }
}