{
  "lastUpdated": "2026-05-05T16:03:16.514742+00:00",
  "kcps": {
    "metar": "KCPS 051553Z 02009KT 10SM FEW017 OVC046 13/07 A2983 RMK AO2 SLP097 T01280067 $",
    "windDirection": 20,
    "windSpeed": 9,
    "windGust": null,
    "visibility": 10,
    "temperatureC": 13,
    "dewPointC": 7,
    "cloudCeiling": 4600,
    "altimeter": "A2983",
    "timestamp": "2026-05-05T15:53:00+00:00",
    "station": "KCPS"
  },
  "kstl": {
    "metar": "KSTL 051551Z 06005KT 10SM BKN050 OVC200 13/07 A2982 RMK AO2 SLP093 T01280067 $",
    "windDirection": 60,
    "windSpeed": 5,
    "windGust": null,
    "visibility": 10,
    "temperatureC": 13,
    "dewPointC": 7,
    "cloudCeiling": 5000,
    "altimeter": "A2982",
    "timestamp": "2026-05-05T15:51:00+00:00",
    "station": "KSTL"
  }
}