{
  "lastUpdated": "2025-11-15T09:21:06.472244+00:00",
  "kcps": {
    "metar": "KCPS 150853Z AUTO 20005KT 10SM CLR 18/14 A2981 RMK AO2 SLP090 T01830139 56017 $",
    "windDirection": 200,
    "windSpeed": 5,
    "windGust": null,
    "visibility": 10,
    "temperatureC": 18,
    "dewPointC": 14,
    "cloudCeiling": 99999,
    "altimeter": "A2981",
    "timestamp": "2025-11-15T08:53:00+00:00",
    "station": "KCPS"
  },
  "kstl": {
    "metar": "KSTL 150851Z 18004KT 10SM SCT042 16/13 A2981 RMK AO2 SLP084 T01610133 57017 $",
    "windDirection": 180,
    "windSpeed": 4,
    "windGust": null,
    "visibility": 10,
    "temperatureC": 16,
    "dewPointC": 13,
    "cloudCeiling": null,
    "altimeter": "A2981",
    "timestamp": "2025-11-15T08:51:00+00:00",
    "station": "KSTL"
  }
}