{
  "lastUpdated": "2026-04-27T15:22:28.004536+00:00",
  "kcps": {
    "metar": "KCPS 271506Z 16012G21KT 10SM BKN030 20/17 A2971 RMK AO2 T02000167 $",
    "windDirection": 160,
    "windSpeed": 12,
    "windGust": 21,
    "visibility": 10,
    "temperatureC": 20,
    "dewPointC": 17,
    "cloudCeiling": 3000,
    "altimeter": "A2971",
    "timestamp": "2026-04-27T15:06:00+00:00",
    "station": "KCPS"
  },
  "kstl": {
    "metar": "KSTL 271501Z 17010G20KT 10SM SCT027 BKN045 OVC110 19/16 A2972 RMK AO2 LTG DSNT N PRESRR T01940161 $",
    "windDirection": 170,
    "windSpeed": 10,
    "windGust": 20,
    "visibility": 10,
    "temperatureC": 19,
    "dewPointC": 16,
    "cloudCeiling": 4500,
    "altimeter": "A2972",
    "timestamp": "2026-04-27T15:01:00+00:00",
    "station": "KSTL"
  }
}