{
  "lastUpdated": "2026-04-17T06:10:33.699014+00:00",
  "kcps": {
    "metar": "KCPS 170553Z AUTO 15003KT 10SM CLR 18/17 A2994 RMK AO2 SLP135 T01830167 10261 20167 402830144 50002 $",
    "windDirection": 150,
    "windSpeed": 3,
    "windGust": null,
    "visibility": 10,
    "temperatureC": 18,
    "dewPointC": 17,
    "cloudCeiling": 99999,
    "altimeter": "A2994",
    "timestamp": "2026-04-17T05:53:00+00:00",
    "station": "KCPS"
  },
  "kstl": {
    "metar": "KSTL 170551Z 20005KT 10SM FEW250 20/17 A2994 RMK AO2 SLP129 T02000167 10261 20200 402830150 50003 $",
    "windDirection": 200,
    "windSpeed": 5,
    "windGust": null,
    "visibility": 10,
    "temperatureC": 20,
    "dewPointC": 17,
    "cloudCeiling": null,
    "altimeter": "A2994",
    "timestamp": "2026-04-17T05:51:00+00:00",
    "station": "KSTL"
  }
}