{
  "lastUpdated": "2026-05-17T20:14:46.699173+00:00",
  "kcps": {
    "metar": "KCPS 171953Z 20015G27KT 10SM FEW050 31/17 A2985 RMK AO2 PK WND 20030/1904 SLP105 T03060172 $",
    "windDirection": 200,
    "windSpeed": 15,
    "windGust": 27,
    "visibility": 10,
    "temperatureC": 31,
    "dewPointC": 17,
    "cloudCeiling": null,
    "altimeter": "A2985",
    "timestamp": "2026-05-17T19:53:00+00:00",
    "station": "KCPS"
  },
  "kstl": {
    "metar": "KSTL 171951Z 19013G26KT 10SM FEW047 SCT250 29/18 A2985 RMK AO2 PK WND 17028/1939 SLP095 T02940178 $",
    "windDirection": 190,
    "windSpeed": 13,
    "windGust": 26,
    "visibility": 10,
    "temperatureC": 29,
    "dewPointC": 18,
    "cloudCeiling": null,
    "altimeter": "A2985",
    "timestamp": "2026-05-17T19:51:00+00:00",
    "station": "KSTL"
  }
}