{
  "lastUpdated": "2025-12-29T02:59:36.626384+00:00",
  "kcps": {
    "metar": "KCPS 290253Z 30021G28KT 10SM OVC023 01/M04 A2996 RMK AO2 PK WND 29039/0212 SNE43 SLP146 P0000 60000 T00061044 51060 $",
    "windDirection": 300,
    "windSpeed": 21,
    "windGust": 28,
    "visibility": 10,
    "temperatureC": 1,
    "dewPointC": -4,
    "cloudCeiling": 2300,
    "altimeter": "A2996",
    "timestamp": "2025-12-29T02:53:00+00:00",
    "station": "KCPS"
  },
  "kstl": {
    "metar": "KSTL 290251Z 28025G44KT 10SM BKN023 BKN090 M02/M08 A2995 RMK AO2 PK WND 28044/0246 SLP144 T10221078 51050 $",
    "windDirection": 280,
    "windSpeed": 25,
    "windGust": 44,
    "visibility": 10,
    "temperatureC": -2,
    "dewPointC": -8,
    "cloudCeiling": 2300,
    "altimeter": "A2995",
    "timestamp": "2025-12-29T02:51:00+00:00",
    "station": "KSTL"
  }
}