{
  "lastUpdated": "2025-12-14T06:02:36.938729+00:00",
  "kcps": {
    "metar": "KCPS 140553Z 33013KT 10SM CLR M12/M17 A3053 RMK AO2 SLP346 T11221172 11089 21122 400111122 51021 $",
    "windDirection": 330,
    "windSpeed": 13,
    "windGust": null,
    "visibility": 10,
    "temperatureC": -12,
    "dewPointC": -17,
    "cloudCeiling": 99999,
    "altimeter": "A3053",
    "timestamp": "2025-12-14T05:53:00+00:00",
    "station": "KCPS"
  },
  "kstl": {
    "metar": "KSTL 140551Z 33009G16KT 10SM FEW019 M13/M17 A3052 RMK AO2 SLP354 60000 T11281167 11094 21128 400111128 51019 $",
    "windDirection": 330,
    "windSpeed": 9,
    "windGust": 16,
    "visibility": 10,
    "temperatureC": -13,
    "dewPointC": -17,
    "cloudCeiling": null,
    "altimeter": "A3052",
    "timestamp": "2025-12-14T05:51:00+00:00",
    "station": "KSTL"
  }
}