{
  "lastUpdated": "2026-05-13T10:15:52.428851+00:00",
  "kcps": {
    "metar": "KCPS 130953Z AUTO 33005KT 10SM CLR 17/06 A3000 RMK AO2 SLP155 T01720061 $",
    "windDirection": 330,
    "windSpeed": 5,
    "windGust": null,
    "visibility": 10,
    "temperatureC": 17,
    "dewPointC": 6,
    "cloudCeiling": 99999,
    "altimeter": "A3000",
    "timestamp": "2026-05-13T09:53:00+00:00",
    "station": "KCPS"
  },
  "kstl": {
    "metar": "KSTL 130951Z 31005KT 10SM CLR 17/06 A3001 RMK AO2 SLP152 T01720061 $",
    "windDirection": 310,
    "windSpeed": 5,
    "windGust": null,
    "visibility": 10,
    "temperatureC": 17,
    "dewPointC": 6,
    "cloudCeiling": 99999,
    "altimeter": "A3001",
    "timestamp": "2026-05-13T09:51:00+00:00",
    "station": "KSTL"
  }
}