{
  "lastUpdated": "2026-05-09T01:53:47.278851+00:00",
  "kcps": {
    "metar": "KCPS 090053Z 01012KT 10SM -RA OVC085 18/12 A2977 RMK AO2 LTG DSNT S RAB32 SLP078 P0000 T01780122 $",
    "windDirection": 10,
    "windSpeed": 12,
    "windGust": null,
    "visibility": 10,
    "temperatureC": 18,
    "dewPointC": 12,
    "cloudCeiling": 8500,
    "altimeter": "A2977",
    "timestamp": "2026-05-09T00:53:00+00:00",
    "station": "KCPS"
  },
  "kstl": {
    "metar": "KSTL 090151Z 31004KT 10SM -RA FEW046 BKN065 OVC080 15/13 A2980 RMK AO2 SLP087 P0000 T01500133 $",
    "windDirection": 310,
    "windSpeed": 4,
    "windGust": null,
    "visibility": 10,
    "temperatureC": 15,
    "dewPointC": 13,
    "cloudCeiling": 6500,
    "altimeter": "A2980",
    "timestamp": "2026-05-09T01:51:00+00:00",
    "station": "KSTL"
  }
}