{
  "lastUpdated": "2025-11-10T21:46:09.881569+00:00",
  "kcps": {
    "metar": "KCPS 102053Z 29013G18KT 10SM SCT055 04/M10 A3037 RMK AO2 SLP287 T00391100 56010",
    "windDirection": 290,
    "windSpeed": 13,
    "windGust": 18,
    "visibility": 10,
    "temperatureC": 4,
    "dewPointC": -10,
    "cloudCeiling": null,
    "altimeter": "A3037",
    "timestamp": "2025-11-10T20:53:00+00:00",
    "station": "KCPS"
  },
  "kstl": {
    "metar": "KSTL 102051Z 31011G24KT 10SM FEW055 03/M10 A3036 RMK AO2 SLP293 T00331100 56011 $",
    "windDirection": 310,
    "windSpeed": 11,
    "windGust": 24,
    "visibility": 10,
    "temperatureC": 3,
    "dewPointC": -10,
    "cloudCeiling": null,
    "altimeter": "A3036",
    "timestamp": "2025-11-10T20:51:00+00:00",
    "station": "KSTL"
  }
}