{
  "lastUpdated": "2025-11-10T19:31:45.582596+00:00",
  "kcps": {
    "metar": "KCPS 101853Z 31016G23KT 10SM CLR 03/M09 A3039 RMK AO2 SLP293 T00331094",
    "windDirection": 310,
    "windSpeed": 16,
    "windGust": 23,
    "visibility": 10,
    "temperatureC": 3,
    "dewPointC": -9,
    "cloudCeiling": 99999,
    "altimeter": "A3039",
    "timestamp": "2025-11-10T18:53:00+00:00",
    "station": "KCPS"
  },
  "kstl": {
    "metar": "KSTL 101851Z 33012G23KT 10SM FEW046 03/M10 A3038 RMK AO2 PK WND 31026/1837 SLP299 T00331100 $",
    "windDirection": 330,
    "windSpeed": 12,
    "windGust": 23,
    "visibility": 10,
    "temperatureC": 3,
    "dewPointC": -10,
    "cloudCeiling": null,
    "altimeter": "A3038",
    "timestamp": "2025-11-10T18:51:00+00:00",
    "station": "KSTL"
  }
}