{
  "lastUpdated": "2026-03-10T05:24:01.340473+00:00",
  "kcps": {
    "metar": "KCPS 100453Z AUTO 20008G15KT 10SM CLR 20/16 A2985 RMK AO2 SLP104 T02000156 $",
    "windDirection": 200,
    "windSpeed": 8,
    "windGust": 15,
    "visibility": 10,
    "temperatureC": 20,
    "dewPointC": 16,
    "cloudCeiling": 99999,
    "altimeter": "A2985",
    "timestamp": "2026-03-10T04:53:00+00:00",
    "station": "KCPS"
  },
  "kstl": {
    "metar": "KSTL 100451Z 22011G21KT 10SM CLR 20/15 A2984 RMK AO2 SLP096 T02000150 $",
    "windDirection": 220,
    "windSpeed": 11,
    "windGust": 21,
    "visibility": 10,
    "temperatureC": 20,
    "dewPointC": 15,
    "cloudCeiling": 99999,
    "altimeter": "A2984",
    "timestamp": "2026-03-10T04:51:00+00:00",
    "station": "KSTL"
  }
}