{
  "lastUpdated": "2026-04-05T09:27:39.578736+00:00",
  "kcps": {
    "metar": "KCPS 050853Z AUTO 29009KT 10SM CLR 07/00 A3021 RMK AO2 SLP229 T00670000 55003 $",
    "windDirection": 290,
    "windSpeed": 9,
    "windGust": null,
    "visibility": 10,
    "temperatureC": 7,
    "dewPointC": 0,
    "cloudCeiling": 99999,
    "altimeter": "A3021",
    "timestamp": "2026-04-05T08:53:00+00:00",
    "station": "KCPS"
  },
  "kstl": {
    "metar": "KSTL 050851Z 29009KT 10SM CLR 06/00 A3020 RMK AO2 SLP231 T00560000 55002 $",
    "windDirection": 290,
    "windSpeed": 9,
    "windGust": null,
    "visibility": 10,
    "temperatureC": 6,
    "dewPointC": 0,
    "cloudCeiling": 99999,
    "altimeter": "A3020",
    "timestamp": "2026-04-05T08:51:00+00:00",
    "station": "KSTL"
  }
}