{
  "lastUpdated": "2025-12-01T19:07:08.348817+00:00",
  "kcps": {
    "metar": "KCPS 011853Z 00000KT 2 1/2SM SN BR OVC015 M03/M06 A3027 RMK AO2 SNB1757 SLP255 P0000 T10331056 $",
    "windDirection": 0,
    "windSpeed": 0,
    "windGust": null,
    "visibility": 0.5,
    "temperatureC": -3,
    "dewPointC": -6,
    "cloudCeiling": 1500,
    "altimeter": "A3027",
    "timestamp": "2025-12-01T18:53:00+00:00",
    "station": "KCPS"
  },
  "kstl": {
    "metar": "KSTL 011852Z 19005KT 1/4SM R30R/1600V3500FT +SN FZFG VV005 M04/M06 A3025 RMK AO2 SNINCR 2/4 P0000 T10441056 $",
    "windDirection": 190,
    "windSpeed": 5,
    "windGust": null,
    "visibility": 0.25,
    "temperatureC": -4,
    "dewPointC": -6,
    "cloudCeiling": 500,
    "altimeter": "A3025",
    "timestamp": "2025-12-01T18:52:00+00:00",
    "station": "KSTL"
  }
}