{
  "lastUpdated": "2026-02-14T12:44:53.446049+00:00",
  "kcps": {
    "metar": "KCPS 141153Z 18004KT 10SM CLR 04/00 A3006 RMK AO2 SLP181 T00440000 10072 20028 53000 $",
    "windDirection": 180,
    "windSpeed": 4,
    "windGust": null,
    "visibility": 10,
    "temperatureC": 4,
    "dewPointC": 0,
    "cloudCeiling": 99999,
    "altimeter": "A3006",
    "timestamp": "2026-02-14T11:53:00+00:00",
    "station": "KCPS"
  },
  "kstl": {
    "metar": "KSTL 141151Z 00000KT 10SM OVC170 07/M01 A3006 RMK AO2 SLP179 T00671011 10100 20056 55002 $",
    "windDirection": 0,
    "windSpeed": 0,
    "windGust": null,
    "visibility": 10,
    "temperatureC": 7,
    "dewPointC": -1,
    "cloudCeiling": 17000,
    "altimeter": "A3006",
    "timestamp": "2026-02-14T11:51:00+00:00",
    "station": "KSTL"
  }
}