{
  "lastUpdated": "2026-04-29T06:33:20.715202+00:00",
  "kcps": {
    "metar": "KCPS 290553Z AUTO 35012KT 6SM -RA BR FEW006 SCT017 OVC036 14/13 A2994 RMK AO2 SLP137 P0003 60037 T01390128 10150 20139 401890128 58001 $",
    "windDirection": 350,
    "windSpeed": 12,
    "windGust": null,
    "visibility": 6,
    "temperatureC": 14,
    "dewPointC": 13,
    "cloudCeiling": 3600,
    "altimeter": "A2994",
    "timestamp": "2026-04-29T05:53:00+00:00",
    "station": "KCPS"
  },
  "kstl": {
    "metar": "KSTL 290556Z 36007KT 7SM -RA FEW006 BKN015 OVC021 13/12 A2996 RMK AO2 P0001 T01330122 $",
    "windDirection": 360,
    "windSpeed": 7,
    "windGust": null,
    "visibility": 7,
    "temperatureC": 13,
    "dewPointC": 12,
    "cloudCeiling": 1500,
    "altimeter": "A2996",
    "timestamp": "2026-04-29T05:56:00+00:00",
    "station": "KSTL"
  }
}