{
  "lastUpdated": "2026-04-08T20:46:14.827414+00:00",
  "kcps": {
    "metar": "KCPS 081953Z 17018G26KT 10SM CLR 25/04 A3010 RMK AO2 PK WND 15026/1953 SLP193 T02500039 $",
    "windDirection": 170,
    "windSpeed": 18,
    "windGust": 26,
    "visibility": 10,
    "temperatureC": 25,
    "dewPointC": 4,
    "cloudCeiling": 99999,
    "altimeter": "A3010",
    "timestamp": "2026-04-08T19:53:00+00:00",
    "station": "KCPS"
  },
  "kstl": {
    "metar": "KSTL 081951Z 17015G22KT 10SM SCT200 BKN250 24/04 A3010 RMK AO2 SLP190 T02390044 $",
    "windDirection": 170,
    "windSpeed": 15,
    "windGust": 22,
    "visibility": 10,
    "temperatureC": 24,
    "dewPointC": 4,
    "cloudCeiling": 25000,
    "altimeter": "A3010",
    "timestamp": "2026-04-08T19:51:00+00:00",
    "station": "KSTL"
  }
}