{
  "lastUpdated": "2026-03-22T13:11:07.932932+00:00",
  "kcps": {
    "metar": "KCPS 221253Z 19005KT 10SM CLR 21/14 A2967 RMK AO2 SLP042 T02110139 $",
    "windDirection": 190,
    "windSpeed": 5,
    "windGust": null,
    "visibility": 10,
    "temperatureC": 21,
    "dewPointC": 14,
    "cloudCeiling": 99999,
    "altimeter": "A2967",
    "timestamp": "2026-03-22T12:53:00+00:00",
    "station": "KCPS"
  },
  "kstl": {
    "metar": "KSTL 221251Z 22009KT 10SM FEW250 21/13 A2967 RMK AO2 SLP037 T02110128 $",
    "windDirection": 220,
    "windSpeed": 9,
    "windGust": null,
    "visibility": 10,
    "temperatureC": 21,
    "dewPointC": 13,
    "cloudCeiling": null,
    "altimeter": "A2967",
    "timestamp": "2026-03-22T12:51:00+00:00",
    "station": "KSTL"
  }
}