{
  "lastUpdated": "2026-06-12T13:07:55.336295+00:00",
  "kcps": {
    "metar": "KCPS 121253Z 34004KT 10SM CLR 23/17 A3000 RMK AO2 SLP156 T02280167 $",
    "windDirection": 340,
    "windSpeed": 4,
    "windGust": null,
    "visibility": 10.0,
    "temperatureC": 22.8,
    "dewPointC": 16.7,
    "cloudCeiling": null,
    "altimeter": "A3000",
    "timestamp": "2026-06-12T13:00:00.000Z",
    "station": "KCPS"
  },
  "kstl": {
    "metar": "KSTL 121251Z 27003KT 10SM FEW100 FEW250 22/16 A3001 RMK AO2 SLP150 T02220156 $",
    "windDirection": 270,
    "windSpeed": 3,
    "windGust": null,
    "visibility": 10.0,
    "temperatureC": 22.2,
    "dewPointC": 15.6,
    "cloudCeiling": null,
    "altimeter": "A3001",
    "timestamp": "2026-06-12T13:00:00.000Z",
    "station": "KSTL"
  }
}