{
  "lastUpdated": "2025-10-22T15:02:40.815140+00:00",
  "kcps": {
    "metar": "KCPS 221453Z 29011G18KT 10SM CLR 11/00 A3011 RMK AO2 SLP196 T01110000 51018",
    "windDirection": 290,
    "windSpeed": 11,
    "windGust": 18,
    "visibility": 10,
    "temperatureC": 11,
    "dewPointC": 0,
    "cloudCeiling": 99999,
    "altimeter": "A3011",
    "timestamp": "2025-10-22T14:53:00+00:00",
    "station": "KCPS"
  },
  "kstl": {
    "metar": "KSTL 221451Z 28014G24KT 10SM CLR 11/M01 A3010 RMK AO2 SLP194 T01111006 51019 $",
    "windDirection": 280,
    "windSpeed": 14,
    "windGust": 24,
    "visibility": 10,
    "temperatureC": 11,
    "dewPointC": -1,
    "cloudCeiling": 99999,
    "altimeter": "A3010",
    "timestamp": "2025-10-22T14:51:00+00:00",
    "station": "KSTL"
  }
}