{
  "lastUpdated": "2025-11-14T09:02:35.175703+00:00",
  "kcps": {
    "metar": "KCPS 140853Z AUTO 16003KT 10SM CLR 09/07 A3007 RMK AO2 SLP183 T00940067 57006",
    "windDirection": 160,
    "windSpeed": 3,
    "windGust": null,
    "visibility": 10,
    "temperatureC": 9,
    "dewPointC": 7,
    "cloudCeiling": 99999,
    "altimeter": "A3007",
    "timestamp": "2025-11-14T08:53:00+00:00",
    "station": "KCPS"
  },
  "kstl": {
    "metar": "KSTL 140851Z 17004KT 10SM CLR 12/07 A3006 RMK AO2 SLP177 T01170072 58007",
    "windDirection": 170,
    "windSpeed": 4,
    "windGust": null,
    "visibility": 10,
    "temperatureC": 12,
    "dewPointC": 7,
    "cloudCeiling": 99999,
    "altimeter": "A3006",
    "timestamp": "2025-11-14T08:51:00+00:00",
    "station": "KSTL"
  }
}