{
  "lastUpdated": "2025-10-31T14:48:08.221472+00:00",
  "kcps": {
    "metar": "KCPS 311353Z 24005KT 10SM CLR 07/04 A3003 RMK AO2 SLP169 T00670039",
    "windDirection": 240,
    "windSpeed": 5,
    "windGust": null,
    "visibility": 10,
    "temperatureC": 7,
    "dewPointC": 4,
    "cloudCeiling": 99999,
    "altimeter": "A3003",
    "timestamp": "2025-10-31T13:53:00+00:00",
    "station": "KCPS"
  },
  "kstl": {
    "metar": "KSTL 311351Z 25006KT 10SM FEW250 07/04 A3002 RMK AO2 SLP168 T00670039 $",
    "windDirection": 250,
    "windSpeed": 6,
    "windGust": null,
    "visibility": 10,
    "temperatureC": 7,
    "dewPointC": 4,
    "cloudCeiling": null,
    "altimeter": "A3002",
    "timestamp": "2025-10-31T13:51:00+00:00",
    "station": "KSTL"
  }
}