{
  "lastUpdated": "2026-02-05T23:22:05.316545+00:00",
  "kcps": {
    "metar": "KCPS 052253Z 16006KT 10SM CLR 02/M04 A2991 RMK AO2 SLP135 T00221044 $",
    "windDirection": 160,
    "windSpeed": 6,
    "windGust": null,
    "visibility": 10,
    "temperatureC": 2,
    "dewPointC": -4,
    "cloudCeiling": 99999,
    "altimeter": "A2991",
    "timestamp": "2026-02-05T22:53:00+00:00",
    "station": "KCPS"
  },
  "kstl": {
    "metar": "KSTL 052251Z 15007KT 10SM BKN250 03/M04 A2991 RMK AO2 SLP139 T00331039 $",
    "windDirection": 150,
    "windSpeed": 7,
    "windGust": null,
    "visibility": 10,
    "temperatureC": 3,
    "dewPointC": -4,
    "cloudCeiling": 25000,
    "altimeter": "A2991",
    "timestamp": "2026-02-05T22:51:00+00:00",
    "station": "KSTL"
  }
}