{
  "lastUpdated": "2026-03-22T14:07:25.334502+00:00",
  "kcps": {
    "metar": "KCPS 221353Z 21007KT 10SM CLR 24/14 A2967 RMK AO2 SLP043 T02390139 $",
    "windDirection": 210,
    "windSpeed": 7,
    "windGust": null,
    "visibility": 10,
    "temperatureC": 24,
    "dewPointC": 14,
    "cloudCeiling": 99999,
    "altimeter": "A2967",
    "timestamp": "2026-03-22T13:53:00+00:00",
    "station": "KCPS"
  },
  "kstl": {
    "metar": "KSTL 221351Z 23006KT 10SM FEW250 23/13 A2967 RMK AO2 SLP038 T02330133 $",
    "windDirection": 230,
    "windSpeed": 6,
    "windGust": null,
    "visibility": 10,
    "temperatureC": 23,
    "dewPointC": 13,
    "cloudCeiling": null,
    "altimeter": "A2967",
    "timestamp": "2026-03-22T13:51:00+00:00",
    "station": "KSTL"
  }
}