{
  "lastUpdated": "2025-11-28T21:02:10.609429+00:00",
  "kcps": {
    "metar": "KCPS 282053Z 00000KT 10SM CLR 02/M09 A3040 RMK AO2 SLP300 T00221089 56023",
    "windDirection": 0,
    "windSpeed": 0,
    "windGust": null,
    "visibility": 10,
    "temperatureC": 2,
    "dewPointC": -9,
    "cloudCeiling": 99999,
    "altimeter": "A3040",
    "timestamp": "2025-11-28T20:53:00+00:00",
    "station": "KCPS"
  },
  "kstl": {
    "metar": "KSTL 282051Z 36003KT 10SM BKN110 BKN250 02/M08 A3040 RMK AO2 SLP306 T00171083 56023 $",
    "windDirection": 360,
    "windSpeed": 3,
    "windGust": null,
    "visibility": 10,
    "temperatureC": 2,
    "dewPointC": -8,
    "cloudCeiling": 11000,
    "altimeter": "A3040",
    "timestamp": "2025-11-28T20:51:00+00:00",
    "station": "KSTL"
  }
}