{
  "lastUpdated": "2026-06-05T10:57:36.536214+00:00",
  "kcps": {
    "metar": "KCPS 051053Z AUTO 16005KT 10SM OVC090 19/15 A2999 RMK AO2 SLP152 T01940150 $",
    "windDirection": 160,
    "windSpeed": 5,
    "windGust": null,
    "visibility": 10,
    "temperatureC": 19,
    "dewPointC": 15,
    "cloudCeiling": 9000,
    "altimeter": "A2999",
    "timestamp": "2026-06-05T10:53:00+00:00",
    "station": "KCPS"
  },
  "kstl": {
    "metar": "KSTL 051051Z 18007KT 10SM BKN095 BKN250 21/15 A2999 RMK AO2 SLP143 T02110150 $",
    "windDirection": 180,
    "windSpeed": 7,
    "windGust": null,
    "visibility": 10,
    "temperatureC": 21,
    "dewPointC": 15,
    "cloudCeiling": 9500,
    "altimeter": "A2999",
    "timestamp": "2026-06-05T10:51:00+00:00",
    "station": "KSTL"
  }
}