{
  "lastUpdated": "2026-04-03T16:44:34.922777+00:00",
  "kcps": {
    "metar": "KCPS 031553Z 19010G20KT 10SM FEW026 25/18 A3000 RMK AO2 SLP155 T02500183 $",
    "windDirection": 190,
    "windSpeed": 10,
    "windGust": 20,
    "visibility": 10,
    "temperatureC": 25,
    "dewPointC": 18,
    "cloudCeiling": null,
    "altimeter": "A3000",
    "timestamp": "2026-04-03T15:53:00+00:00",
    "station": "KCPS"
  },
  "kstl": {
    "metar": "KSTL 031551Z 20009KT 10SM FEW028 SCT046 OVC250 24/18 A3000 RMK AO2 SLP149 T02440178 $",
    "windDirection": 200,
    "windSpeed": 9,
    "windGust": null,
    "visibility": 10,
    "temperatureC": 24,
    "dewPointC": 18,
    "cloudCeiling": 25000,
    "altimeter": "A3000",
    "timestamp": "2026-04-03T15:51:00+00:00",
    "station": "KSTL"
  }
}