{
  "lastUpdated": "2025-11-21T04:22:06.494372+00:00",
  "kcps": {
    "metar": "KCPS 210411Z AUTO 00000KT 2SM BR OVC003 12/12 A3003 RMK AO2 T01170117",
    "windDirection": 0,
    "windSpeed": 0,
    "windGust": null,
    "visibility": 2,
    "temperatureC": 12,
    "dewPointC": 12,
    "cloudCeiling": 300,
    "altimeter": "A3003",
    "timestamp": "2025-11-21T04:11:00+00:00",
    "station": "KCPS"
  },
  "kstl": {
    "metar": "KSTL 210351Z 12003KT 1SM R30R/P6000FT BR OVC003 12/11 A3004 RMK AO2 SLP172 T01170111 $",
    "windDirection": 120,
    "windSpeed": 3,
    "windGust": null,
    "visibility": 1,
    "temperatureC": 12,
    "dewPointC": 11,
    "cloudCeiling": 300,
    "altimeter": "A3004",
    "timestamp": "2025-11-21T03:51:00+00:00",
    "station": "KSTL"
  }
}