{
  "lastUpdated": "2025-11-25T08:51:41.722137+00:00",
  "kcps": {
    "metar": "KCPS 250848Z AUTO 19003KT 8SM OVC009 11/11 A2980 RMK AO2 RAE24 CIG 006V013 P0001 $",
    "windDirection": 190,
    "windSpeed": 3,
    "windGust": null,
    "visibility": 8,
    "temperatureC": 11,
    "dewPointC": 11,
    "cloudCeiling": 900,
    "altimeter": "A2980",
    "timestamp": "2025-11-25T08:48:00+00:00",
    "station": "KCPS"
  },
  "kstl": {
    "metar": "KSTL 250837Z 18004KT 6SM BR SCT007 OVC013 11/11 A2980 RMK AO2 T01110106 $",
    "windDirection": 180,
    "windSpeed": 4,
    "windGust": null,
    "visibility": 6,
    "temperatureC": 11,
    "dewPointC": 11,
    "cloudCeiling": 1300,
    "altimeter": "A2980",
    "timestamp": "2025-11-25T08:37:00+00:00",
    "station": "KSTL"
  }
}