{
  "lastUpdated": "2026-05-28T18:01:03.079749+00:00",
  "kcps": {
    "metar": "KCPS 281753Z 09009KT 10SM FEW047 29/19 A3005 RMK AO2 SLP171 T02940189 10294 20189 58012 $",
    "windDirection": 90,
    "windSpeed": 9,
    "windGust": null,
    "visibility": 10,
    "temperatureC": 29,
    "dewPointC": 19,
    "cloudCeiling": null,
    "altimeter": "A3005",
    "timestamp": "2026-05-28T17:53:00+00:00",
    "station": "KCPS"
  },
  "kstl": {
    "metar": "KSTL 281751Z 10014KT 10SM FEW045 FEW150 BKN250 29/18 A3006 RMK AO2 SLP168 T02940183 10294 20206 58010 $",
    "windDirection": 100,
    "windSpeed": 14,
    "windGust": null,
    "visibility": 10,
    "temperatureC": 29,
    "dewPointC": 18,
    "cloudCeiling": 25000,
    "altimeter": "A3006",
    "timestamp": "2026-05-28T17:51:00+00:00",
    "station": "KSTL"
  }
}