{
  "lastUpdated": "2026-02-23T16:00:34.183664+00:00",
  "kcps": {
    "metar": "KCPS 231553Z 34013G18KT 10SM SCT027 M06/M14 A3061 RMK AO2 SLP369 T10611139 PNO $",
    "windDirection": 340,
    "windSpeed": 13,
    "windGust": 18,
    "visibility": 10,
    "temperatureC": -6,
    "dewPointC": -14,
    "cloudCeiling": null,
    "altimeter": "A3061",
    "timestamp": "2026-02-23T15:53:00+00:00",
    "station": "KCPS"
  },
  "kstl": {
    "metar": "KSTL 231551Z 31010KT 10SM BKN026 M07/M14 A3060 RMK AO2 SLP378 T10721139 $",
    "windDirection": 310,
    "windSpeed": 10,
    "windGust": null,
    "visibility": 10,
    "temperatureC": -7,
    "dewPointC": -14,
    "cloudCeiling": 2600,
    "altimeter": "A3060",
    "timestamp": "2026-02-23T15:51:00+00:00",
    "station": "KSTL"
  }
}