{
  "lastUpdated": "2025-11-27T10:48:53.787071+00:00",
  "kcps": {
    "metar": "KCPS 270953Z AUTO 31013G21KT 10SM CLR 01/M06 A3033 RMK AO2 SLP274 T00111056 $",
    "windDirection": 310,
    "windSpeed": 13,
    "windGust": 21,
    "visibility": 10,
    "temperatureC": 1,
    "dewPointC": -6,
    "cloudCeiling": 99999,
    "altimeter": "A3033",
    "timestamp": "2025-11-27T09:53:00+00:00",
    "station": "KCPS"
  },
  "kstl": {
    "metar": "KSTL 270951Z 31009KT 10SM BKN160 01/M06 A3033 RMK AO2 SLP278 T00061061 $",
    "windDirection": 310,
    "windSpeed": 9,
    "windGust": null,
    "visibility": 10,
    "temperatureC": 1,
    "dewPointC": -6,
    "cloudCeiling": 16000,
    "altimeter": "A3033",
    "timestamp": "2025-11-27T09:51:00+00:00",
    "station": "KSTL"
  }
}