{
  "lastUpdated": "2026-03-24T00:11:12.867686+00:00",
  "kcps": {
    "metar": "KCPS 232353Z 07007KT 10SM CLR 10/M04 A3037 RMK AO2 SLP285 T01001039 10122 20083 55001 $",
    "windDirection": 70,
    "windSpeed": 7,
    "windGust": null,
    "visibility": 10,
    "temperatureC": 10,
    "dewPointC": -4,
    "cloudCeiling": 99999,
    "altimeter": "A3037",
    "timestamp": "2026-03-23T23:53:00+00:00",
    "station": "KCPS"
  },
  "kstl": {
    "metar": "KSTL 232351Z 07009KT 10SM FEW120 BKN220 09/M04 A3037 RMK AO2 SLP290 T00941039 10117 20078 55004 $",
    "windDirection": 70,
    "windSpeed": 9,
    "windGust": null,
    "visibility": 10,
    "temperatureC": 9,
    "dewPointC": -4,
    "cloudCeiling": 22000,
    "altimeter": "A3037",
    "timestamp": "2026-03-23T23:51:00+00:00",
    "station": "KSTL"
  }
}