{
  "lastUpdated": "2026-03-22T11:36:21.957255+00:00",
  "kcps": {
    "metar": "KCPS 221053Z AUTO 19007KT 10SM CLR 21/14 A2966 RMK AO2 SLP039 T02110139 $",
    "windDirection": 190,
    "windSpeed": 7,
    "windGust": null,
    "visibility": 10,
    "temperatureC": 21,
    "dewPointC": 14,
    "cloudCeiling": 99999,
    "altimeter": "A2966",
    "timestamp": "2026-03-22T10:53:00+00:00",
    "station": "KCPS"
  },
  "kstl": {
    "metar": "KSTL 221051Z 23012KT 10SM CLR 21/13 A2966 RMK AO2 SLP030 T02110128 $",
    "windDirection": 230,
    "windSpeed": 12,
    "windGust": null,
    "visibility": 10,
    "temperatureC": 21,
    "dewPointC": 13,
    "cloudCeiling": 99999,
    "altimeter": "A2966",
    "timestamp": "2026-03-22T10:51:00+00:00",
    "station": "KSTL"
  }
}