{
  "lastUpdated": "2025-12-24T15:22:00.511936+00:00",
  "kcps": {
    "metar": "KCPS 241518Z 11003KT 8SM BR OVC013 12/09 A3022 RMK AO2 T01170094 $",
    "windDirection": 110,
    "windSpeed": 3,
    "windGust": null,
    "visibility": 8,
    "temperatureC": 12,
    "dewPointC": 9,
    "cloudCeiling": 1300,
    "altimeter": "A3022",
    "timestamp": "2025-12-24T15:18:00+00:00",
    "station": "KCPS"
  },
  "kstl": {
    "metar": "KSTL 241451Z 11008KT 5SM BR OVC011 09/08 A3022 RMK AO2 SLP237 T00940083 58002 $",
    "windDirection": 110,
    "windSpeed": 8,
    "windGust": null,
    "visibility": 5,
    "temperatureC": 9,
    "dewPointC": 8,
    "cloudCeiling": 1100,
    "altimeter": "A3022",
    "timestamp": "2025-12-24T14:51:00+00:00",
    "station": "KSTL"
  }
}