{
  "lastUpdated": "2026-04-11T07:45:34.968727+00:00",
  "kcps": {
    "metar": "KCPS 110653Z AUTO 08005KT 10SM CLR 12/08 A3033 RMK AO2 SLP268 T01170083 $",
    "windDirection": 80,
    "windSpeed": 5,
    "windGust": null,
    "visibility": 10,
    "temperatureC": 12,
    "dewPointC": 8,
    "cloudCeiling": 99999,
    "altimeter": "A3033",
    "timestamp": "2026-04-11T06:53:00+00:00",
    "station": "KCPS"
  },
  "kstl": {
    "metar": "KSTL 110651Z 07006KT 10SM SCT043 11/08 A3033 RMK AO2 SLP267 T01110083 $",
    "windDirection": 70,
    "windSpeed": 6,
    "windGust": null,
    "visibility": 10,
    "temperatureC": 11,
    "dewPointC": 8,
    "cloudCeiling": null,
    "altimeter": "A3033",
    "timestamp": "2026-04-11T06:51:00+00:00",
    "station": "KSTL"
  }
}