{
  "lastUpdated": "2025-11-24T21:46:36.942656+00:00",
  "kcps": {
    "metar": "KCPS 242136Z AUTO 14007KT 9SM -RA BKN028 BKN048 OVC060 11/08 A2996 RMK AO2 RAB36 P0001 T01110083",
    "windDirection": 140,
    "windSpeed": 7,
    "windGust": null,
    "visibility": 9,
    "temperatureC": 11,
    "dewPointC": 8,
    "cloudCeiling": 2800,
    "altimeter": "A2996",
    "timestamp": "2025-11-24T21:36:00+00:00",
    "station": "KCPS"
  },
  "kstl": {
    "metar": "KSTL 242118Z 11009KT 10SM FEW015 BKN029 OVC060 12/08 A2995 RMK AO2 T01170083 $",
    "windDirection": 110,
    "windSpeed": 9,
    "windGust": null,
    "visibility": 10,
    "temperatureC": 12,
    "dewPointC": 8,
    "cloudCeiling": 2900,
    "altimeter": "A2995",
    "timestamp": "2025-11-24T21:18:00+00:00",
    "station": "KSTL"
  }
}