{
  "lastUpdated": "2026-01-22T02:41:59.032556+00:00",
  "kcps": {
    "metar": "KCPS 220153Z 22005KT 10SM CLR 03/M08 A3012 RMK AO2 SLP204 T00331083 $",
    "windDirection": 220,
    "windSpeed": 5,
    "windGust": null,
    "visibility": 10,
    "temperatureC": 3,
    "dewPointC": -8,
    "cloudCeiling": 99999,
    "altimeter": "A3012",
    "timestamp": "2026-01-22T01:53:00+00:00",
    "station": "KCPS"
  },
  "kstl": {
    "metar": "KSTL 220151Z 22008KT 10SM FEW250 03/M08 A3011 RMK AO2 SLP206 T00281083 $",
    "windDirection": 220,
    "windSpeed": 8,
    "windGust": null,
    "visibility": 10,
    "temperatureC": 3,
    "dewPointC": -8,
    "cloudCeiling": null,
    "altimeter": "A3011",
    "timestamp": "2026-01-22T01:51:00+00:00",
    "station": "KSTL"
  }
}