{
  "lastUpdated": "2026-01-30T06:29:12.238791+00:00",
  "kcps": {
    "metar": "KCPS 300553Z AUTO 02007KT 10SM BKN050 M09/M14 A3037 RMK AO2 SLP289 T10941144 11056 21094 410281094 51007 $",
    "windDirection": 20,
    "windSpeed": 7,
    "windGust": null,
    "visibility": 10,
    "temperatureC": -9,
    "dewPointC": -14,
    "cloudCeiling": 5000,
    "altimeter": "A3037",
    "timestamp": "2026-01-30T05:53:00+00:00",
    "station": "KCPS"
  },
  "kstl": {
    "metar": "KSTL 300551Z 02007KT 10SM BKN043 M09/M15 A3036 RMK AO2 SLP297 4/004 60000 T10941150 11061 21094 410281094 51008 $",
    "windDirection": 20,
    "windSpeed": 7,
    "windGust": null,
    "visibility": 10,
    "temperatureC": -9,
    "dewPointC": -15,
    "cloudCeiling": 4300,
    "altimeter": "A3036",
    "timestamp": "2026-01-30T05:51:00+00:00",
    "station": "KSTL"
  }
}