{
  "lastUpdated": "2025-11-30T10:02:12.296665+00:00",
  "kcps": {
    "metar": "KCPS 300953Z AUTO 30022G30KT 9SM -SN OVC034 M02/M08 A3024 RMK AO2 PK WND 30038/0937 SNB10E24B40 SLP243 P0000 T10171078 $",
    "windDirection": 300,
    "windSpeed": 22,
    "windGust": 30,
    "visibility": 9,
    "temperatureC": -2,
    "dewPointC": -8,
    "cloudCeiling": 3400,
    "altimeter": "A3024",
    "timestamp": "2025-11-30T09:53:00+00:00",
    "station": "KCPS"
  },
  "kstl": {
    "metar": "KSTL 300951Z 29019G29KT 10SM BKN029 OVC032 M02/M08 A3023 RMK AO2 PK WND 28031/0926 SLP245 T10221078 $",
    "windDirection": 290,
    "windSpeed": 19,
    "windGust": 29,
    "visibility": 10,
    "temperatureC": -2,
    "dewPointC": -8,
    "cloudCeiling": 2900,
    "altimeter": "A3023",
    "timestamp": "2025-11-30T09:51:00+00:00",
    "station": "KSTL"
  }
}