{
  "lastUpdated": "2025-11-05T07:21:35.248990+00:00",
  "kcps": {
    "metar": "KCPS 050653Z AUTO 21007G17KT 10SM CLR 16/08 A3002 RMK AO2 SLP165 T01560083 TSNO",
    "windDirection": 210,
    "windSpeed": 7,
    "windGust": 17,
    "visibility": 10,
    "temperatureC": 16,
    "dewPointC": 8,
    "cloudCeiling": 99999,
    "altimeter": "A3002",
    "timestamp": "2025-11-05T06:53:00+00:00",
    "station": "KCPS"
  },
  "kstl": {
    "metar": "KSTL 050651Z 20008KT 10SM BKN250 14/08 A3002 RMK AO2 SLP158 T01440078 $",
    "windDirection": 200,
    "windSpeed": 8,
    "windGust": null,
    "visibility": 10,
    "temperatureC": 14,
    "dewPointC": 8,
    "cloudCeiling": 25000,
    "altimeter": "A3002",
    "timestamp": "2025-11-05T06:51:00+00:00",
    "station": "KSTL"
  }
}