{
  "lastUpdated": "2026-01-29T02:35:58.826546+00:00",
  "kcps": {
    "metar": "KCPS 290153Z 00000KT 10SM OVC085 M02/M11 A3027 RMK AO2 SLP255 T10221106 $",
    "windDirection": 0,
    "windSpeed": 0,
    "windGust": null,
    "visibility": 10,
    "temperatureC": -2,
    "dewPointC": -11,
    "cloudCeiling": 8500,
    "altimeter": "A3027",
    "timestamp": "2026-01-29T01:53:00+00:00",
    "station": "KCPS"
  },
  "kstl": {
    "metar": "KSTL 290151Z 00000KT 10SM OVC085 M03/M09 A3026 RMK AO2 SLP262 T10281089 $",
    "windDirection": 0,
    "windSpeed": 0,
    "windGust": null,
    "visibility": 10,
    "temperatureC": -3,
    "dewPointC": -9,
    "cloudCeiling": 8500,
    "altimeter": "A3026",
    "timestamp": "2026-01-29T01:51:00+00:00",
    "station": "KSTL"
  }
}