{
  "lastUpdated": "2025-12-22T20:02:26.066126+00:00",
  "kcps": {
    "metar": "KCPS 221953Z 17007KT 10SM FEW041 OVC065 12/M01 A3011 RMK AO2 SLP196 T01171011 $",
    "windDirection": 170,
    "windSpeed": 7,
    "windGust": null,
    "visibility": 10,
    "temperatureC": 12,
    "dewPointC": -1,
    "cloudCeiling": 6500,
    "altimeter": "A3011",
    "timestamp": "2025-12-22T19:53:00+00:00",
    "station": "KCPS"
  },
  "kstl": {
    "metar": "KSTL 221851Z 16007KT 10SM FEW046 BKN065 OVC250 10/M04 A3014 RMK AO2 SLP212 T01001039 $",
    "windDirection": 160,
    "windSpeed": 7,
    "windGust": null,
    "visibility": 10,
    "temperatureC": 10,
    "dewPointC": -4,
    "cloudCeiling": 6500,
    "altimeter": "A3014",
    "timestamp": "2025-12-22T18:51:00+00:00",
    "station": "KSTL"
  }
}