{
  "lastUpdated": "2025-11-24T08:52:01.372076+00:00",
  "kcps": {
    "metar": "KCPS 240840Z AUTO 17005KT 4SM BR OVC002 08/08 A3015 RMK AO2 T00780078 $",
    "windDirection": 170,
    "windSpeed": 5,
    "windGust": null,
    "visibility": 4,
    "temperatureC": 8,
    "dewPointC": 8,
    "cloudCeiling": 200,
    "altimeter": "A3015",
    "timestamp": "2025-11-24T08:40:00+00:00",
    "station": "KCPS"
  },
  "kstl": {
    "metar": "KSTL 240832Z 18006KT 1/2SM R30R/3500V5500FT FG OVC001 08/08 A3015 RMK AO2 T00830083 $",
    "windDirection": 180,
    "windSpeed": 6,
    "windGust": null,
    "visibility": 0.5,
    "temperatureC": 8,
    "dewPointC": 8,
    "cloudCeiling": 100,
    "altimeter": "A3015",
    "timestamp": "2025-11-24T08:32:00+00:00",
    "station": "KSTL"
  }
}