{
  "lastUpdated": "2026-06-05T14:16:42.459061+00:00",
  "kcps": {
    "metar": "KCPS 051353Z 19010G16KT 10SM CLR 24/16 A3000 RMK AO2 SLP154 T02440161 $",
    "windDirection": 190,
    "windSpeed": 10,
    "windGust": 16,
    "visibility": 10,
    "temperatureC": 24,
    "dewPointC": 16,
    "cloudCeiling": 99999,
    "altimeter": "A3000",
    "timestamp": "2026-06-05T13:53:00+00:00",
    "station": "KCPS"
  },
  "kstl": {
    "metar": "KSTL 051351Z 20010KT 10SM FEW050 BKN110 BKN250 24/16 A3000 RMK AO2 SLP147 T02440161 $",
    "windDirection": 200,
    "windSpeed": 10,
    "windGust": null,
    "visibility": 10,
    "temperatureC": 24,
    "dewPointC": 16,
    "cloudCeiling": 11000,
    "altimeter": "A3000",
    "timestamp": "2026-06-05T13:51:00+00:00",
    "station": "KSTL"
  }
}