{
  "lastUpdated": "2026-04-23T08:20:34.687789+00:00",
  "kcps": {
    "metar": "KCPS 230753Z AUTO 15003KT 10SM CLR 15/13 A2994 RMK AO2 SLP134 T01500133 $",
    "windDirection": 150,
    "windSpeed": 3,
    "windGust": null,
    "visibility": 10,
    "temperatureC": 15,
    "dewPointC": 13,
    "cloudCeiling": 99999,
    "altimeter": "A2994",
    "timestamp": "2026-04-23T07:53:00+00:00",
    "station": "KCPS"
  },
  "kstl": {
    "metar": "KSTL 230751Z 20004KT 10SM CLR 18/13 A2994 RMK AO2 SLP131 T01780133 $",
    "windDirection": 200,
    "windSpeed": 4,
    "windGust": null,
    "visibility": 10,
    "temperatureC": 18,
    "dewPointC": 13,
    "cloudCeiling": 99999,
    "altimeter": "A2994",
    "timestamp": "2026-04-23T07:51:00+00:00",
    "station": "KSTL"
  }
}