{
  "lastUpdated": "2026-01-14T17:39:41.198354+00:00",
  "kcps": {
    "metar": "KCPS 141653Z 33025G38KT 10SM -RA CLR 04/M07 A2994 RMK AO2 PK WND 32038/1647 RAB1557E05B34 SLP138 P0000 T00441072",
    "windDirection": 330,
    "windSpeed": 25,
    "windGust": 38,
    "visibility": 10,
    "temperatureC": 4,
    "dewPointC": -7,
    "cloudCeiling": 99999,
    "altimeter": "A2994",
    "timestamp": "2026-01-14T16:53:00+00:00",
    "station": "KCPS"
  },
  "kstl": {
    "metar": "KSTL 141651Z 32017G31KT 10SM FEW025 04/M06 A2994 RMK AO2 PK WND 32035/1612 SLP144 T00391061 $",
    "windDirection": 320,
    "windSpeed": 17,
    "windGust": 31,
    "visibility": 10,
    "temperatureC": 4,
    "dewPointC": -6,
    "cloudCeiling": null,
    "altimeter": "A2994",
    "timestamp": "2026-01-14T16:51:00+00:00",
    "station": "KSTL"
  }
}