{
  "lastUpdated": "2025-12-30T14:49:34.650959+00:00",
  "kcps": {
    "metar": "KCPS 301353Z 28006KT 10SM CLR M08/M12 A3043 RMK AO2 SLP312 T10781117 $",
    "windDirection": 280,
    "windSpeed": 6,
    "windGust": null,
    "visibility": 10,
    "temperatureC": -8,
    "dewPointC": -12,
    "cloudCeiling": 99999,
    "altimeter": "A3043",
    "timestamp": "2025-12-30T13:53:00+00:00",
    "station": "KCPS"
  },
  "kstl": {
    "metar": "KSTL 301351Z 28008KT 10SM FEW250 M08/M12 A3042 RMK AO2 SLP317 T10831117 $",
    "windDirection": 280,
    "windSpeed": 8,
    "windGust": null,
    "visibility": 10,
    "temperatureC": -8,
    "dewPointC": -12,
    "cloudCeiling": null,
    "altimeter": "A3042",
    "timestamp": "2025-12-30T13:51:00+00:00",
    "station": "KSTL"
  }
}