{
  "lastUpdated": "2026-04-28T01:07:46.607806+00:00",
  "kcps": {
    "metar": "KCPS 280053Z 30007G18KT 6SM TSRA SCT047 BKN080 OVC110 21/18 A2960 RMK AO2 PK WND 27039/0031 LTG DSNT ALQDS RAB04 TSB15 SLP023 P0015 T02060178 $",
    "windDirection": 300,
    "windSpeed": 7,
    "windGust": 18,
    "visibility": 6,
    "temperatureC": 21,
    "dewPointC": 18,
    "cloudCeiling": 8000,
    "altimeter": "A2960",
    "timestamp": "2026-04-28T00:53:00+00:00",
    "station": "KCPS"
  },
  "kstl": {
    "metar": "KSTL 280051Z 29008KT 10SM -RA FEW055 BKN090 BKN110 19/17 A2965 RMK TORNADO B11 W MOV NE TORNADO E18 AO2 PK WND 24042/0010 WSHFT 2339 SLP033 RAB2357E36B45GRB10E19 GR 1/2 CB DSNT SE-S MOV NE P0075 T01940172 $",
    "windDirection": 290,
    "windSpeed": 8,
    "windGust": null,
    "visibility": 10,
    "temperatureC": 19,
    "dewPointC": 17,
    "cloudCeiling": 9000,
    "altimeter": "A2965",
    "timestamp": "2026-04-28T00:51:00+00:00",
    "station": "KSTL"
  }
}