{
  "lastUpdated": "2025-11-05T08:39:12.668345+00:00",
  "kcps": {
    "metar": "KCPS 050753Z AUTO 20007KT 10SM CLR 15/08 A3001 RMK AO2 SLP161 T01500083 TSNO",
    "windDirection": 200,
    "windSpeed": 7,
    "windGust": null,
    "visibility": 10,
    "temperatureC": 15,
    "dewPointC": 8,
    "cloudCeiling": 99999,
    "altimeter": "A3001",
    "timestamp": "2025-11-05T07:53:00+00:00",
    "station": "KCPS"
  },
  "kstl": {
    "metar": "KSTL 050751Z 20005KT 10SM BKN250 14/08 A3001 RMK AO2 SLP156 T01440078 $",
    "windDirection": 200,
    "windSpeed": 5,
    "windGust": null,
    "visibility": 10,
    "temperatureC": 14,
    "dewPointC": 8,
    "cloudCeiling": 25000,
    "altimeter": "A3001",
    "timestamp": "2025-11-05T07:51:00+00:00",
    "station": "KSTL"
  }
}