{
  "lastUpdated": "2026-01-29T07:31:57.225700+00:00",
  "kcps": {
    "metar": "KCPS 290653Z AUTO 00000KT 10SM OVC055 M04/M09 A3027 RMK AO2 SLP254 T10441089 $",
    "windDirection": 0,
    "windSpeed": 0,
    "windGust": null,
    "visibility": 10,
    "temperatureC": -4,
    "dewPointC": -9,
    "cloudCeiling": 5500,
    "altimeter": "A3027",
    "timestamp": "2026-01-29T06:53:00+00:00",
    "station": "KCPS"
  },
  "kstl": {
    "metar": "KSTL 290651Z 06006KT 10SM OVC050 M03/M12 A3026 RMK AO2 SLP261 T10331117 $",
    "windDirection": 60,
    "windSpeed": 6,
    "windGust": null,
    "visibility": 10,
    "temperatureC": -3,
    "dewPointC": -12,
    "cloudCeiling": 5000,
    "altimeter": "A3026",
    "timestamp": "2026-01-29T06:51:00+00:00",
    "station": "KSTL"
  }
}