{
  "lastUpdated": "2025-12-08T11:33:51.994744+00:00",
  "kcps": {
    "metar": "KCPS 081053Z AUTO 34006KT 10SM OVC031 M04/M07 A3033 RMK AO2 SLP274 T10391072 $",
    "windDirection": 340,
    "windSpeed": 6,
    "windGust": null,
    "visibility": 10,
    "temperatureC": -4,
    "dewPointC": -7,
    "cloudCeiling": 3100,
    "altimeter": "A3033",
    "timestamp": "2025-12-08T10:53:00+00:00",
    "station": "KCPS"
  },
  "kstl": {
    "metar": "KSTL 081051Z 35004KT 10SM OVC027 M04/M08 A3033 RMK AO2 SLP283 T10441078 $",
    "windDirection": 350,
    "windSpeed": 4,
    "windGust": null,
    "visibility": 10,
    "temperatureC": -4,
    "dewPointC": -8,
    "cloudCeiling": 2700,
    "altimeter": "A3033",
    "timestamp": "2025-12-08T10:51:00+00:00",
    "station": "KSTL"
  }
}