{
  "lastUpdated": "2025-12-28T23:02:16.959888+00:00",
  "kcps": {
    "metar": "KCPS 282253Z 30022G39KT 10SM FEW024 SCT120 11/06 A2969 RMK AO2 PK WND 31042/2206 RAE40 PRESRR SLP053 P0000 T01060056 $",
    "windDirection": 300,
    "windSpeed": 22,
    "windGust": 39,
    "visibility": 10,
    "temperatureC": 11,
    "dewPointC": 6,
    "cloudCeiling": null,
    "altimeter": "A2969",
    "timestamp": "2025-12-28T22:53:00+00:00",
    "station": "KCPS"
  },
  "kstl": {
    "metar": "KSTL 282251Z 30023G36KT 10SM OVC019 08/04 A2972 RMK AO2 PK WND 28041/2208 SLP062 T00830039 $",
    "windDirection": 300,
    "windSpeed": 23,
    "windGust": 36,
    "visibility": 10,
    "temperatureC": 8,
    "dewPointC": 4,
    "cloudCeiling": 1900,
    "altimeter": "A2972",
    "timestamp": "2025-12-28T22:51:00+00:00",
    "station": "KSTL"
  }
}