{
  "lastUpdated": "2026-05-19T03:43:59.656371+00:00",
  "kcps": {
    "metar": "KCPS 190253Z 15010KT 10SM CLR 19/17 A2996 RMK AO2 SLP141 60008 T01890167 53012 $",
    "windDirection": 150,
    "windSpeed": 10,
    "windGust": null,
    "visibility": 10,
    "temperatureC": 19,
    "dewPointC": 17,
    "cloudCeiling": 99999,
    "altimeter": "A2996",
    "timestamp": "2026-05-19T02:53:00+00:00",
    "station": "KCPS"
  },
  "kstl": {
    "metar": "KSTL 190251Z 15013KT 10SM FEW250 19/17 A2995 RMK AO2 SLP134 60000 T01890172 51034 $",
    "windDirection": 150,
    "windSpeed": 13,
    "windGust": null,
    "visibility": 10,
    "temperatureC": 19,
    "dewPointC": 17,
    "cloudCeiling": null,
    "altimeter": "A2995",
    "timestamp": "2026-05-19T02:51:00+00:00",
    "station": "KSTL"
  }
}