{
  "lastUpdated": "2026-01-02T08:22:51.955358+00:00",
  "kcps": {
    "metar": "KCPS 020803Z AUTO 02003KT 3SM BR OVC004 01/00 A2989 RMK AO2 T00060000 $",
    "windDirection": 20,
    "windSpeed": 3,
    "windGust": null,
    "visibility": 3,
    "temperatureC": 1,
    "dewPointC": 0,
    "cloudCeiling": 400,
    "altimeter": "A2989",
    "timestamp": "2026-01-02T08:03:00+00:00",
    "station": "KCPS"
  },
  "kstl": {
    "metar": "KSTL 020751Z 36004KT 4SM BR OVC007 01/00 A2988 RMK AO2 SLP128 T00110000 $",
    "windDirection": 360,
    "windSpeed": 4,
    "windGust": null,
    "visibility": 4,
    "temperatureC": 1,
    "dewPointC": 0,
    "cloudCeiling": 700,
    "altimeter": "A2988",
    "timestamp": "2026-01-02T07:51:00+00:00",
    "station": "KSTL"
  }
}