{
  "lastUpdated": "2025-12-14T05:35:41.596893+00:00",
  "kcps": {
    "metar": "KCPS 140529Z 33015KT 10SM SCT022 M12/M16 A3052 RMK AO2 T11171161 $",
    "windDirection": 330,
    "windSpeed": 15,
    "windGust": null,
    "visibility": 10,
    "temperatureC": -12,
    "dewPointC": -16,
    "cloudCeiling": null,
    "altimeter": "A3052",
    "timestamp": "2025-12-14T05:29:00+00:00",
    "station": "KCPS"
  },
  "kstl": {
    "metar": "KSTL 140451Z 33010G19KT 10SM FEW019 M12/M17 A3051 RMK AO2 SLP352 T11221167 $",
    "windDirection": 330,
    "windSpeed": 10,
    "windGust": 19,
    "visibility": 10,
    "temperatureC": -12,
    "dewPointC": -17,
    "cloudCeiling": null,
    "altimeter": "A3051",
    "timestamp": "2025-12-14T04:51:00+00:00",
    "station": "KSTL"
  }
}