{
  "lastUpdated": "2026-01-30T15:43:04.866256+00:00",
  "kcps": {
    "metar": "KCPS 301453Z 35008KT 10SM CLR M13/M17 A3042 RMK AO2 SLP308 T11281172 52017 $",
    "windDirection": 350,
    "windSpeed": 8,
    "windGust": null,
    "visibility": 10,
    "temperatureC": -13,
    "dewPointC": -17,
    "cloudCeiling": 99999,
    "altimeter": "A3042",
    "timestamp": "2026-01-30T14:53:00+00:00",
    "station": "KCPS"
  },
  "kstl": {
    "metar": "KSTL 301451Z 35007KT 10SM FEW100 SCT250 M13/M17 A3041 RMK AO2 SLP319 T11331172 52020 $",
    "windDirection": 350,
    "windSpeed": 7,
    "windGust": null,
    "visibility": 10,
    "temperatureC": -13,
    "dewPointC": -17,
    "cloudCeiling": null,
    "altimeter": "A3041",
    "timestamp": "2026-01-30T14:51:00+00:00",
    "station": "KSTL"
  }
}