{
  "lastUpdated": "2026-04-08T11:33:47.286527+00:00",
  "kcps": {
    "metar": "KCPS 081053Z AUTO 00000KT 10SM CLR 06/01 A3024 RMK AO2 SLP241 T00560006 $",
    "windDirection": 0,
    "windSpeed": 0,
    "windGust": null,
    "visibility": 10,
    "temperatureC": 6,
    "dewPointC": 1,
    "cloudCeiling": 99999,
    "altimeter": "A3024",
    "timestamp": "2026-04-08T10:53:00+00:00",
    "station": "KCPS"
  },
  "kstl": {
    "metar": "KSTL 081051Z 13010KT 10SM BKN250 08/00 A3023 RMK AO2 SLP237 T00780000 $",
    "windDirection": 130,
    "windSpeed": 10,
    "windGust": null,
    "visibility": 10,
    "temperatureC": 8,
    "dewPointC": 0,
    "cloudCeiling": 25000,
    "altimeter": "A3023",
    "timestamp": "2026-04-08T10:51:00+00:00",
    "station": "KSTL"
  }
}