{
  "lastUpdated": "2025-11-01T07:20:51.143629+00:00",
  "kcps": {
    "metar": "KCPS 010653Z AUTO 31006KT 10SM BKN075 OVC090 09/02 A3007 RMK AO2 SLP181 T00940017 TSNO",
    "windDirection": 310,
    "windSpeed": 6,
    "windGust": null,
    "visibility": 10,
    "temperatureC": 9,
    "dewPointC": 2,
    "cloudCeiling": 7500,
    "altimeter": "A3007",
    "timestamp": "2025-11-01T06:53:00+00:00",
    "station": "KCPS"
  },
  "kstl": {
    "metar": "KSTL 010651Z 29006KT 10SM FEW065 OVC090 09/01 A3007 RMK AO2 SLP181 T00890011 $",
    "windDirection": 290,
    "windSpeed": 6,
    "windGust": null,
    "visibility": 10,
    "temperatureC": 9,
    "dewPointC": 1,
    "cloudCeiling": 9000,
    "altimeter": "A3007",
    "timestamp": "2025-11-01T06:51:00+00:00",
    "station": "KSTL"
  }
}