{
  "lastUpdated": "2026-04-11T12:46:46.926008+00:00",
  "kcps": {
    "metar": "KCPS 111153Z 07003KT 10SM CLR 09/08 A3034 RMK AO2 SLP274 T00940078 10128 20089 50005 $",
    "windDirection": 70,
    "windSpeed": 3,
    "windGust": null,
    "visibility": 10,
    "temperatureC": 9,
    "dewPointC": 8,
    "cloudCeiling": 99999,
    "altimeter": "A3034",
    "timestamp": "2026-04-11T11:53:00+00:00",
    "station": "KCPS"
  },
  "kstl": {
    "metar": "KSTL 111151Z 11007KT 10SM BKN090 BKN250 10/07 A3034 RMK AO2 SLP275 T01000072 10122 20100 50003 $",
    "windDirection": 110,
    "windSpeed": 7,
    "windGust": null,
    "visibility": 10,
    "temperatureC": 10,
    "dewPointC": 7,
    "cloudCeiling": 9000,
    "altimeter": "A3034",
    "timestamp": "2026-04-11T11:51:00+00:00",
    "station": "KSTL"
  }
}