{
  "lastUpdated": "2026-01-06T03:53:08.783412+00:00",
  "kcps": {
    "metar": "KCPS 060253Z 16007KT 10SM CLR 09/05 A2971 RMK AO2 SLP062 T00940050 58018",
    "windDirection": 160,
    "windSpeed": 7,
    "windGust": null,
    "visibility": 10,
    "temperatureC": 9,
    "dewPointC": 5,
    "cloudCeiling": 99999,
    "altimeter": "A2971",
    "timestamp": "2026-01-06T02:53:00+00:00",
    "station": "KCPS"
  },
  "kstl": {
    "metar": "KSTL 060251Z 15008KT 10SM BKN250 11/05 A2970 RMK AO2 SLP059 T01060050 58017 $",
    "windDirection": 150,
    "windSpeed": 8,
    "windGust": null,
    "visibility": 10,
    "temperatureC": 11,
    "dewPointC": 5,
    "cloudCeiling": 25000,
    "altimeter": "A2970",
    "timestamp": "2026-01-06T02:51:00+00:00",
    "station": "KSTL"
  }
}