{
  "lastUpdated": "2026-05-08T06:07:31.314334+00:00",
  "kcps": {
    "metar": "KCPS 080553Z AUTO 19003KT 10SM CLR 11/05 A2994 RMK AO2 SLP138 T01110050 10189 20100 402000039 55000 $",
    "windDirection": 190,
    "windSpeed": 3,
    "windGust": null,
    "visibility": 10,
    "temperatureC": 11,
    "dewPointC": 5,
    "cloudCeiling": 99999,
    "altimeter": "A2994",
    "timestamp": "2026-05-08T05:53:00+00:00",
    "station": "KCPS"
  },
  "kstl": {
    "metar": "KSTL 080551Z 22008KT 10SM FEW110 14/04 A2994 RMK AO2 SLP134 T01390039 10189 20139 402000056 56002 $",
    "windDirection": 220,
    "windSpeed": 8,
    "windGust": null,
    "visibility": 10,
    "temperatureC": 14,
    "dewPointC": 4,
    "cloudCeiling": null,
    "altimeter": "A2994",
    "timestamp": "2026-05-08T05:51:00+00:00",
    "station": "KSTL"
  }
}