{
  "lastUpdated": "2026-05-03T22:46:03.540835+00:00",
  "kcps": {
    "metar": "KCPS 032153Z 20009G19KT 170V250 10SM CLR 25/06 A2981 RMK AO2 PK WND 19027/2118 SLP094 T02500056 $",
    "windDirection": 200,
    "windSpeed": 9,
    "windGust": 19,
    "visibility": 10,
    "temperatureC": 25,
    "dewPointC": 6,
    "cloudCeiling": 99999,
    "altimeter": "A2981",
    "timestamp": "2026-05-03T21:53:00+00:00",
    "station": "KCPS"
  },
  "kstl": {
    "metar": "KSTL 032151Z 23017G27KT 10SM FEW060 FEW120 BKN250 25/05 A2982 RMK AO2 PK WND 21027/2146 SLP093 T02500050 $",
    "windDirection": 230,
    "windSpeed": 17,
    "windGust": 27,
    "visibility": 10,
    "temperatureC": 25,
    "dewPointC": 5,
    "cloudCeiling": 25000,
    "altimeter": "A2982",
    "timestamp": "2026-05-03T21:51:00+00:00",
    "station": "KSTL"
  }
}