{
  "lastUpdated": "2026-04-05T00:12:39.255779+00:00",
  "kcps": {
    "metar": "KCPS 042353Z 28006KT 10SM BKN043 11/03 A3011 RMK AO2 SLP194 T01060033 10133 20106 51014 $",
    "windDirection": 280,
    "windSpeed": 6,
    "windGust": null,
    "visibility": 10,
    "temperatureC": 11,
    "dewPointC": 3,
    "cloudCeiling": 4300,
    "altimeter": "A3011",
    "timestamp": "2026-04-04T23:53:00+00:00",
    "station": "KCPS"
  },
  "kstl": {
    "metar": "KSTL 042351Z 31014G22KT 10SM BKN043 BKN250 11/02 A3011 RMK AO2 SLP194 T01110022 10111 20094 53009 $",
    "windDirection": 310,
    "windSpeed": 14,
    "windGust": 22,
    "visibility": 10,
    "temperatureC": 11,
    "dewPointC": 2,
    "cloudCeiling": 4300,
    "altimeter": "A3011",
    "timestamp": "2026-04-04T23:51:00+00:00",
    "station": "KSTL"
  }
}