{
  "lastUpdated": "2025-11-03T16:02:50.888623+00:00",
  "kcps": {
    "metar": "KCPS 031553Z 30008KT 10SM CLR 13/04 A3027 RMK AO2 SLP251 T01330039",
    "windDirection": 300,
    "windSpeed": 8,
    "windGust": null,
    "visibility": 10,
    "temperatureC": 13,
    "dewPointC": 4,
    "cloudCeiling": 99999,
    "altimeter": "A3027",
    "timestamp": "2025-11-03T15:53:00+00:00",
    "station": "KCPS"
  },
  "kstl": {
    "metar": "KSTL 031551Z 31010KT 10SM FEW250 13/04 A3027 RMK AO2 SLP252 T01330039 $",
    "windDirection": 310,
    "windSpeed": 10,
    "windGust": null,
    "visibility": 10,
    "temperatureC": 13,
    "dewPointC": 4,
    "cloudCeiling": null,
    "altimeter": "A3027",
    "timestamp": "2025-11-03T15:51:00+00:00",
    "station": "KSTL"
  }
}