{
  "lastUpdated": "2026-04-19T19:47:59.368142+00:00",
  "kcps": {
    "metar": "KCPS 191853Z 30014G23KT 10SM CLR 18/M02 A3022 RMK AO2 SLP233 T01831017 $",
    "windDirection": 300,
    "windSpeed": 14,
    "windGust": 23,
    "visibility": 10,
    "temperatureC": 18,
    "dewPointC": -2,
    "cloudCeiling": 99999,
    "altimeter": "A3022",
    "timestamp": "2026-04-19T18:53:00+00:00",
    "station": "KCPS"
  },
  "kstl": {
    "metar": "KSTL 191851Z 31013G25KT 10SM FEW035 18/M02 A3022 RMK AO2 PK WND 32026/1830 SLP233 T01781022 $",
    "windDirection": 310,
    "windSpeed": 13,
    "windGust": 25,
    "visibility": 10,
    "temperatureC": 18,
    "dewPointC": -2,
    "cloudCeiling": null,
    "altimeter": "A3022",
    "timestamp": "2026-04-19T18:51:00+00:00",
    "station": "KSTL"
  }
}