{
  "lastUpdated": "2026-04-09T23:45:16.056160+00:00",
  "kcps": {
    "metar": "KCPS 092253Z 17010G18KT 10SM CLR 26/07 A3010 RMK AO2 SLP189 T02560067 $",
    "windDirection": 170,
    "windSpeed": 10,
    "windGust": 18,
    "visibility": 10,
    "temperatureC": 26,
    "dewPointC": 7,
    "cloudCeiling": 99999,
    "altimeter": "A3010",
    "timestamp": "2026-04-09T22:53:00+00:00",
    "station": "KCPS"
  },
  "kstl": {
    "metar": "KSTL 092251Z 19008G18KT 10SM SCT100 BKN250 26/06 A3010 RMK AO2 WSHFT 2213 SLP183 T02610056 $",
    "windDirection": 190,
    "windSpeed": 8,
    "windGust": 18,
    "visibility": 10,
    "temperatureC": 26,
    "dewPointC": 6,
    "cloudCeiling": 25000,
    "altimeter": "A3010",
    "timestamp": "2026-04-09T22:51:00+00:00",
    "station": "KSTL"
  }
}