{
  "lastUpdated": "2025-10-21T02:29:55.470984+00:00",
  "kcps": {
    "metar": "KCPS 210153Z 19008KT 10SM BKN075 OVC090 19/08 A2978 RMK AO2 SLP084 T01890078",
    "windDirection": 190,
    "windSpeed": 8,
    "windGust": null,
    "visibility": 10,
    "temperatureC": 19,
    "dewPointC": 8,
    "cloudCeiling": 7500,
    "altimeter": "A2978",
    "timestamp": "2025-10-21T01:53:00+00:00",
    "station": "KCPS"
  },
  "kstl": {
    "metar": "KSTL 210151Z 21012G18KT 10SM OVC090 20/07 A2977 RMK AO2 SLP079 T02000072 $",
    "windDirection": 210,
    "windSpeed": 12,
    "windGust": 18,
    "visibility": 10,
    "temperatureC": 20,
    "dewPointC": 7,
    "cloudCeiling": 9000,
    "altimeter": "A2977",
    "timestamp": "2025-10-21T01:51:00+00:00",
    "station": "KSTL"
  }
}