{
  "lastUpdated": "2026-03-22T02:36:13.987239+00:00",
  "kcps": {
    "metar": "KCPS 220153Z 16004KT 10SM CLR 23/12 A2976 RMK AO2 SLP074 T02280117 $",
    "windDirection": 160,
    "windSpeed": 4,
    "windGust": null,
    "visibility": 10,
    "temperatureC": 23,
    "dewPointC": 12,
    "cloudCeiling": 99999,
    "altimeter": "A2976",
    "timestamp": "2026-03-22T01:53:00+00:00",
    "station": "KCPS"
  },
  "kstl": {
    "metar": "KSTL 220151Z 16007KT 10SM FEW250 25/11 A2976 RMK AO2 SLP071 T02500111 $",
    "windDirection": 160,
    "windSpeed": 7,
    "windGust": null,
    "visibility": 10,
    "temperatureC": 25,
    "dewPointC": 11,
    "cloudCeiling": null,
    "altimeter": "A2976",
    "timestamp": "2026-03-22T01:51:00+00:00",
    "station": "KSTL"
  }
}