{
  "lastUpdated": "2026-03-24T08:51:40.075472+00:00",
  "kcps": {
    "metar": "KCPS 240753Z 13006KT 10SM BKN095 OVC110 06/M01 A3032 RMK AO2 RAB17E49 SLP269 P0000 T00611011 $",
    "windDirection": 130,
    "windSpeed": 6,
    "windGust": null,
    "visibility": 10,
    "temperatureC": 6,
    "dewPointC": -1,
    "cloudCeiling": 9500,
    "altimeter": "A3032",
    "timestamp": "2026-03-24T07:53:00+00:00",
    "station": "KCPS"
  },
  "kstl": {
    "metar": "KSTL 240751Z 13011KT 10SM FEW080 BKN110 07/M02 A3030 RMK AO2 RAE48 SLP264 P0000 T00671022 $",
    "windDirection": 130,
    "windSpeed": 11,
    "windGust": null,
    "visibility": 10,
    "temperatureC": 7,
    "dewPointC": -2,
    "cloudCeiling": 11000,
    "altimeter": "A3030",
    "timestamp": "2026-03-24T07:51:00+00:00",
    "station": "KSTL"
  }
}