{
  "lastUpdated": "2026-01-16T18:43:03.880013+00:00",
  "kcps": {
    "metar": "KCPS 161753Z 27011G18KT 10SM FEW033 06/M02 A2975 RMK AO2 SLP076 T00611022 10061 20006 58002 $",
    "windDirection": 270,
    "windSpeed": 11,
    "windGust": 18,
    "visibility": 10,
    "temperatureC": 6,
    "dewPointC": -2,
    "cloudCeiling": null,
    "altimeter": "A2975",
    "timestamp": "2026-01-16T17:53:00+00:00",
    "station": "KCPS"
  },
  "kstl": {
    "metar": "KSTL 161751Z 28014KT 10SM FEW032 BKN250 06/M03 A2974 RMK AO2 SLP078 T00561028 10056 20006 58001 $",
    "windDirection": 280,
    "windSpeed": 14,
    "windGust": null,
    "visibility": 10,
    "temperatureC": 6,
    "dewPointC": -3,
    "cloudCeiling": 25000,
    "altimeter": "A2974",
    "timestamp": "2026-01-16T17:51:00+00:00",
    "station": "KSTL"
  }
}