{
  "lastUpdated": "2026-01-30T10:58:57.766654+00:00",
  "kcps": {
    "metar": "KCPS 300953Z AUTO 01005KT 10SM CLR M12/M17 A3034 RMK AO2 SLP281 T11221167 $",
    "windDirection": 10,
    "windSpeed": 5,
    "windGust": null,
    "visibility": 10,
    "temperatureC": -12,
    "dewPointC": -17,
    "cloudCeiling": 99999,
    "altimeter": "A3034",
    "timestamp": "2026-01-30T09:53:00+00:00",
    "station": "KCPS"
  },
  "kstl": {
    "metar": "KSTL 301051Z 34003KT 10SM BKN150 M14/M17 A3035 RMK AO2 SLP295 T11441167 $",
    "windDirection": 340,
    "windSpeed": 3,
    "windGust": null,
    "visibility": 10,
    "temperatureC": -14,
    "dewPointC": -17,
    "cloudCeiling": 15000,
    "altimeter": "A3035",
    "timestamp": "2026-01-30T10:51:00+00:00",
    "station": "KSTL"
  }
}