{
  "lastUpdated": "2026-03-24T05:39:41.480245+00:00",
  "kcps": {
    "metar": "KCPS 240453Z 00000KT 10SM CLR 06/M01 A3039 RMK AO2 SLP292 T00611006 $",
    "windDirection": 0,
    "windSpeed": 0,
    "windGust": null,
    "visibility": 10,
    "temperatureC": 6,
    "dewPointC": -1,
    "cloudCeiling": 99999,
    "altimeter": "A3039",
    "timestamp": "2026-03-24T04:53:00+00:00",
    "station": "KCPS"
  },
  "kstl": {
    "metar": "KSTL 240451Z 18003KT 10SM SCT110 SCT220 08/M03 A3041 RMK AO2 SLP301 T00831033 $",
    "windDirection": 180,
    "windSpeed": 3,
    "windGust": null,
    "visibility": 10,
    "temperatureC": 8,
    "dewPointC": -3,
    "cloudCeiling": null,
    "altimeter": "A3041",
    "timestamp": "2026-03-24T04:51:00+00:00",
    "station": "KSTL"
  }
}