{
  "lastUpdated": "2025-11-22T03:51:50.902418+00:00",
  "kcps": {
    "metar": "KCPS 220329Z 35006KT 3SM BR OVC004 12/11 A2994 RMK AO2 T01170111",
    "windDirection": 350,
    "windSpeed": 6,
    "windGust": null,
    "visibility": 3,
    "temperatureC": 12,
    "dewPointC": 11,
    "cloudCeiling": 400,
    "altimeter": "A2994",
    "timestamp": "2025-11-22T03:29:00+00:00",
    "station": "KCPS"
  },
  "kstl": {
    "metar": "KSTL 220339Z 36009KT 2 1/2SM -DZ BR OVC005 11/10 A2996 RMK AO2 DZE14B26RAB14E26 P0001 T01060100 $",
    "windDirection": 360,
    "windSpeed": 9,
    "windGust": null,
    "visibility": 0.5,
    "temperatureC": 11,
    "dewPointC": 10,
    "cloudCeiling": 500,
    "altimeter": "A2996",
    "timestamp": "2025-11-22T03:39:00+00:00",
    "station": "KSTL"
  }
}