{
  "lastUpdated": "2026-02-10T21:30:27.931083+00:00",
  "kcps": {
    "metar": "KCPS 102053Z 35012G21KT 10SM CLR 17/02 A2991 RMK AO2 SLP131 T01670022 53014 $",
    "windDirection": 350,
    "windSpeed": 12,
    "windGust": 21,
    "visibility": 10,
    "temperatureC": 17,
    "dewPointC": 2,
    "cloudCeiling": 99999,
    "altimeter": "A2991",
    "timestamp": "2026-02-10T20:53:00+00:00",
    "station": "KCPS"
  },
  "kstl": {
    "metar": "KSTL 102051Z 35015KT 10SM SCT250 16/02 A2993 RMK AO2 SLP134 T01560017 53012 $",
    "windDirection": 350,
    "windSpeed": 15,
    "windGust": null,
    "visibility": 10,
    "temperatureC": 16,
    "dewPointC": 2,
    "cloudCeiling": null,
    "altimeter": "A2993",
    "timestamp": "2026-02-10T20:51:00+00:00",
    "station": "KSTL"
  }
}