{
  "lastUpdated": "2025-11-21T18:22:41.492934+00:00",
  "kcps": {
    "metar": "KCPS 211753Z 13003KT 10SM OVC006 14/13 A2989 RMK AO2 RAE27 SLP120 P0001 60028 T01390133 10139 20117 58025 $",
    "windDirection": 130,
    "windSpeed": 3,
    "windGust": null,
    "visibility": 10,
    "temperatureC": 14,
    "dewPointC": 13,
    "cloudCeiling": 600,
    "altimeter": "A2989",
    "timestamp": "2025-11-21T17:53:00+00:00",
    "station": "KCPS"
  },
  "kstl": {
    "metar": "KSTL 211751Z 03006KT 5SM -DZ BR OVC004 13/13 A2989 RMK AO2 RAE44DZB49 SLP121 P0004 60019 T01330128 10133 20117 58021 $",
    "windDirection": 30,
    "windSpeed": 6,
    "windGust": null,
    "visibility": 5,
    "temperatureC": 13,
    "dewPointC": 13,
    "cloudCeiling": 400,
    "altimeter": "A2989",
    "timestamp": "2025-11-21T17:51:00+00:00",
    "station": "KSTL"
  }
}