{
  "lastUpdated": "2026-02-16T19:52:30.452953+00:00",
  "kcps": {
    "metar": "KCPS 161853Z 19009KT 10SM CLR 18/04 A3003 RMK AO2 SLP168 T01830039 $",
    "windDirection": 190,
    "windSpeed": 9,
    "windGust": null,
    "visibility": 10,
    "temperatureC": 18,
    "dewPointC": 4,
    "cloudCeiling": 99999,
    "altimeter": "A3003",
    "timestamp": "2026-02-16T18:53:00+00:00",
    "station": "KCPS"
  },
  "kstl": {
    "metar": "KSTL 161851Z 19009G18KT 10SM FEW150 SCT200 BKN250 18/03 A3002 RMK AO2 SLP166 T01830028 $",
    "windDirection": 190,
    "windSpeed": 9,
    "windGust": 18,
    "visibility": 10,
    "temperatureC": 18,
    "dewPointC": 3,
    "cloudCeiling": 25000,
    "altimeter": "A3002",
    "timestamp": "2026-02-16T18:51:00+00:00",
    "station": "KSTL"
  }
}