{
  "lastUpdated": "2026-01-14T03:25:09.915134+00:00",
  "kcps": {
    "metar": "KCPS 140253Z 33017G28KT 10SM -RA OVC055 11/05 A2984 RMK AO2 PK WND 32029/0232 RAB05 SLP106 P0000 60000 T01060050 53027 $",
    "windDirection": 330,
    "windSpeed": 17,
    "windGust": 28,
    "visibility": 10,
    "temperatureC": 11,
    "dewPointC": 5,
    "cloudCeiling": 5500,
    "altimeter": "A2984",
    "timestamp": "2026-01-14T02:53:00+00:00",
    "station": "KCPS"
  },
  "kstl": {
    "metar": "KSTL 140251Z 29011KT 6SM -RA BR OVC041 09/07 A2984 RMK AO2 PK WND 31033/0212 SLP107 P0004 60004 T00890067 53022 $",
    "windDirection": 290,
    "windSpeed": 11,
    "windGust": null,
    "visibility": 6,
    "temperatureC": 9,
    "dewPointC": 7,
    "cloudCeiling": 4100,
    "altimeter": "A2984",
    "timestamp": "2026-01-14T02:51:00+00:00",
    "station": "KSTL"
  }
}