{
  "lastUpdated": "2025-11-06T02:31:42.488516+00:00",
  "kcps": {
    "metar": "KCPS 060153Z 00000KT 10SM CLR 11/04 A3022 RMK AO2 SLP234 T01110044 $",
    "windDirection": 0,
    "windSpeed": 0,
    "windGust": null,
    "visibility": 10,
    "temperatureC": 11,
    "dewPointC": 4,
    "cloudCeiling": 99999,
    "altimeter": "A3022",
    "timestamp": "2025-11-06T01:53:00+00:00",
    "station": "KCPS"
  },
  "kstl": {
    "metar": "KSTL 060151Z 00000KT 10SM CLR 11/04 A3023 RMK AO2 SLP237 T01060039 $",
    "windDirection": 0,
    "windSpeed": 0,
    "windGust": null,
    "visibility": 10,
    "temperatureC": 11,
    "dewPointC": 4,
    "cloudCeiling": 99999,
    "altimeter": "A3023",
    "timestamp": "2025-11-06T01:51:00+00:00",
    "station": "KSTL"
  }
}