{
  "lastUpdated": "2026-01-28T09:56:53.890669+00:00",
  "kcps": {
    "metar": "KCPS 280953Z AUTO 00000KT 10SM OVC100 M14/M16 A3040 RMK AO2 SLP299 T11391161 $",
    "windDirection": 0,
    "windSpeed": 0,
    "windGust": null,
    "visibility": 10,
    "temperatureC": -14,
    "dewPointC": -16,
    "cloudCeiling": 10000,
    "altimeter": "A3040",
    "timestamp": "2026-01-28T09:53:00+00:00",
    "station": "KCPS"
  },
  "kstl": {
    "metar": "KSTL 280951Z 00000KT 10SM OVC100 M10/M14 A3038 RMK AO2 SLP306 T11001139 $",
    "windDirection": 0,
    "windSpeed": 0,
    "windGust": null,
    "visibility": 10,
    "temperatureC": -10,
    "dewPointC": -14,
    "cloudCeiling": 10000,
    "altimeter": "A3038",
    "timestamp": "2026-01-28T09:51:00+00:00",
    "station": "KSTL"
  }
}