{
  "lastUpdated": "2026-01-16T10:50:50.657311+00:00",
  "kcps": {
    "metar": "KCPS 160953Z AUTO 21007G15KT 10SM OVC055 03/M11 A2970 RMK AO2 SLP059 T00281106 $",
    "windDirection": 210,
    "windSpeed": 7,
    "windGust": 15,
    "visibility": 10,
    "temperatureC": 3,
    "dewPointC": -11,
    "cloudCeiling": 5500,
    "altimeter": "A2970",
    "timestamp": "2026-01-16T09:53:00+00:00",
    "station": "KCPS"
  },
  "kstl": {
    "metar": "KSTL 160951Z 21012KT 10SM BKN050 03/M12 A2968 RMK AO2 SLP060 T00281117 $",
    "windDirection": 210,
    "windSpeed": 12,
    "windGust": null,
    "visibility": 10,
    "temperatureC": 3,
    "dewPointC": -12,
    "cloudCeiling": 5000,
    "altimeter": "A2968",
    "timestamp": "2026-01-16T09:51:00+00:00",
    "station": "KSTL"
  }
}