{
  "lastUpdated": "2026-03-14T03:33:20.698888+00:00",
  "kcps": {
    "metar": "KCPS 140253Z 00000KT 10SM CLR 08/M02 A3006 RMK AO2 SLP181 T00831017 53023 $",
    "windDirection": 0,
    "windSpeed": 0,
    "windGust": null,
    "visibility": 10,
    "temperatureC": 8,
    "dewPointC": -2,
    "cloudCeiling": 99999,
    "altimeter": "A3006",
    "timestamp": "2026-03-14T02:53:00+00:00",
    "station": "KCPS"
  },
  "kstl": {
    "metar": "KSTL 140251Z 36003KT 10SM BKN250 09/M03 A3007 RMK AO2 SLP183 T00891033 53021 $",
    "windDirection": 360,
    "windSpeed": 3,
    "windGust": null,
    "visibility": 10,
    "temperatureC": 9,
    "dewPointC": -3,
    "cloudCeiling": 25000,
    "altimeter": "A3007",
    "timestamp": "2026-03-14T02:51:00+00:00",
    "station": "KSTL"
  }
}