{
  "lastUpdated": "2026-05-07T23:31:18.004677+00:00",
  "kcps": {
    "metar": "KCPS 072253Z 25008KT 10SM FEW080 19/02 A2992 RMK AO2 SLP132 T01940022 $",
    "windDirection": 250,
    "windSpeed": 8,
    "windGust": null,
    "visibility": 10,
    "temperatureC": 19,
    "dewPointC": 2,
    "cloudCeiling": null,
    "altimeter": "A2992",
    "timestamp": "2026-05-07T22:53:00+00:00",
    "station": "KCPS"
  },
  "kstl": {
    "metar": "KSTL 072251Z 24013G22KT 10SM SCT080 19/02 A2992 RMK AO2 SLP131 T01940022 $",
    "windDirection": 240,
    "windSpeed": 13,
    "windGust": 22,
    "visibility": 10,
    "temperatureC": 19,
    "dewPointC": 2,
    "cloudCeiling": null,
    "altimeter": "A2992",
    "timestamp": "2026-05-07T22:51:00+00:00",
    "station": "KSTL"
  }
}