{
  "lastUpdated": "2026-01-15T17:42:06.842789+00:00",
  "kcps": {
    "metar": "KCPS 151553Z 30005KT 10SM CLR M06/M14 A3013 RMK AO2 SLP208 T10611139 $",
    "windDirection": 300,
    "windSpeed": 5,
    "windGust": null,
    "visibility": 10,
    "temperatureC": -6,
    "dewPointC": -14,
    "cloudCeiling": 99999,
    "altimeter": "A3013",
    "timestamp": "2026-01-15T15:53:00+00:00",
    "station": "KCPS"
  },
  "kstl": {
    "metar": "KSTL 151651Z 27006KT 10SM FEW250 M04/M14 A3011 RMK AO2 SLP210 T10441139 $",
    "windDirection": 270,
    "windSpeed": 6,
    "windGust": null,
    "visibility": 10,
    "temperatureC": -4,
    "dewPointC": -14,
    "cloudCeiling": null,
    "altimeter": "A3011",
    "timestamp": "2026-01-15T16:51:00+00:00",
    "station": "KSTL"
  }
}