{
  "lastUpdated": "2026-04-09T04:36:11.604506+00:00",
  "kcps": {
    "metar": "KCPS 090353Z AUTO 17005KT 10SM CLR 18/07 A3012 RMK AO2 SLP199 T01780067 $",
    "windDirection": 170,
    "windSpeed": 5,
    "windGust": null,
    "visibility": 10,
    "temperatureC": 18,
    "dewPointC": 7,
    "cloudCeiling": 99999,
    "altimeter": "A3012",
    "timestamp": "2026-04-09T03:53:00+00:00",
    "station": "KCPS"
  },
  "kstl": {
    "metar": "KSTL 090351Z 19008KT 10SM FEW200 BKN250 19/04 A3012 RMK AO2 SLP195 T01940044 $",
    "windDirection": 190,
    "windSpeed": 8,
    "windGust": null,
    "visibility": 10,
    "temperatureC": 19,
    "dewPointC": 4,
    "cloudCeiling": 25000,
    "altimeter": "A3012",
    "timestamp": "2026-04-09T03:51:00+00:00",
    "station": "KSTL"
  }
}