{
  "lastUpdated": "2025-12-29T04:08:19.622775+00:00",
  "kcps": {
    "metar": "KCPS 290353Z 30024G35KT 10SM -SN OVC025 M02/M08 A3001 RMK AO2 PK WND 31037/0326 SNB0256E37B53 PRESRR SLP162 P0000 T10221078 $",
    "windDirection": 300,
    "windSpeed": 24,
    "windGust": 35,
    "visibility": 10,
    "temperatureC": -2,
    "dewPointC": -8,
    "cloudCeiling": 2500,
    "altimeter": "A3001",
    "timestamp": "2025-12-29T03:53:00+00:00",
    "station": "KCPS"
  },
  "kstl": {
    "metar": "KSTL 290351Z 28026G37KT 10SM BKN019 M03/M08 A3000 RMK AO2 PK WND 28040/0256 SLP159 T10331083 $",
    "windDirection": 280,
    "windSpeed": 26,
    "windGust": 37,
    "visibility": 10,
    "temperatureC": -3,
    "dewPointC": -8,
    "cloudCeiling": 1900,
    "altimeter": "A3000",
    "timestamp": "2025-12-29T03:51:00+00:00",
    "station": "KSTL"
  }
}