{
  "lastUpdated": "2026-01-21T23:22:28.936305+00:00",
  "kcps": {
    "metar": "KCPS 212253Z 28009KT 10SM CLR 07/M09 A3006 RMK AO2 SLP182 T00671089 $",
    "windDirection": 280,
    "windSpeed": 9,
    "windGust": null,
    "visibility": 10,
    "temperatureC": 7,
    "dewPointC": -9,
    "cloudCeiling": 99999,
    "altimeter": "A3006",
    "timestamp": "2026-01-21T22:53:00+00:00",
    "station": "KCPS"
  },
  "kstl": {
    "metar": "KSTL 212251Z 23012KT 10SM FEW250 06/M08 A3005 RMK AO2 SLP183 T00611083 $",
    "windDirection": 230,
    "windSpeed": 12,
    "windGust": null,
    "visibility": 10,
    "temperatureC": 6,
    "dewPointC": -8,
    "cloudCeiling": null,
    "altimeter": "A3005",
    "timestamp": "2026-01-21T22:51:00+00:00",
    "station": "KSTL"
  }
}