{
  "lastUpdated": "2026-05-17T22:03:07.811974+00:00",
  "kcps": {
    "metar": "KCPS 172153Z 18009G25KT 10SM FEW055 31/18 A2984 RMK AO2 SLP100 T03110178 $",
    "windDirection": 180,
    "windSpeed": 9,
    "windGust": 25,
    "visibility": 10,
    "temperatureC": 31,
    "dewPointC": 18,
    "cloudCeiling": null,
    "altimeter": "A2984",
    "timestamp": "2026-05-17T21:53:00+00:00",
    "station": "KCPS"
  },
  "kstl": {
    "metar": "KSTL 172151Z 21019G26KT 10SM BKN055 29/17 A2984 RMK AO2 PK WND 20032/2103 SLP094 T02940172 $",
    "windDirection": 210,
    "windSpeed": 19,
    "windGust": 26,
    "visibility": 10,
    "temperatureC": 29,
    "dewPointC": 17,
    "cloudCeiling": 5500,
    "altimeter": "A2984",
    "timestamp": "2026-05-17T21:51:00+00:00",
    "station": "KSTL"
  }
}