{
  "lastUpdated": "2025-12-29T19:46:34.019062+00:00",
  "kcps": {
    "metar": "KCPS 291853Z 30018G24KT 10SM OVC044 M04/M13 A3031 RMK AO2 PK WND 30026/1834 SLP269 T10441133",
    "windDirection": 300,
    "windSpeed": 18,
    "windGust": 24,
    "visibility": 10,
    "temperatureC": -4,
    "dewPointC": -13,
    "cloudCeiling": 4400,
    "altimeter": "A3031",
    "timestamp": "2025-12-29T18:53:00+00:00",
    "station": "KCPS"
  },
  "kstl": {
    "metar": "KSTL 291851Z 30017G25KT 10SM FEW029 OVC042 M05/M13 A3030 RMK AO2 PK WND 28029/1821 SLP276 T10501128 $",
    "windDirection": 300,
    "windSpeed": 17,
    "windGust": 25,
    "visibility": 10,
    "temperatureC": -5,
    "dewPointC": -13,
    "cloudCeiling": 4200,
    "altimeter": "A3030",
    "timestamp": "2025-12-29T18:51:00+00:00",
    "station": "KSTL"
  }
}