{
  "lastUpdated": "2025-10-21T21:32:21.147758+00:00",
  "kcps": {
    "metar": "KCPS 212053Z 30013G28KT 10SM CLR 18/01 A2992 RMK AO2 PK WND 29028/1959 SLP130 T01830006 55003",
    "windDirection": 300,
    "windSpeed": 13,
    "windGust": 28,
    "visibility": 10,
    "temperatureC": 18,
    "dewPointC": 1,
    "cloudCeiling": 99999,
    "altimeter": "A2992",
    "timestamp": "2025-10-21T20:53:00+00:00",
    "station": "KCPS"
  },
  "kstl": {
    "metar": "KSTL 212051Z 28022G29KT 10SM FEW050 18/00 A2992 RMK AO2 PK WND 28033/1958 SLP130 T01780000 55004 $",
    "windDirection": 280,
    "windSpeed": 22,
    "windGust": 29,
    "visibility": 10,
    "temperatureC": 18,
    "dewPointC": 0,
    "cloudCeiling": null,
    "altimeter": "A2992",
    "timestamp": "2025-10-21T20:51:00+00:00",
    "station": "KSTL"
  }
}