{
  "lastUpdated": "2026-02-20T10:24:29.382023+00:00",
  "kcps": {
    "metar": "KCPS 200953Z 28013G25KT 10SM CLR 02/M06 A2971 RMK AO2 PK WND 29029/0911 SLP059 T00171061 $",
    "windDirection": 280,
    "windSpeed": 13,
    "windGust": 25,
    "visibility": 10,
    "temperatureC": 2,
    "dewPointC": -6,
    "cloudCeiling": 99999,
    "altimeter": "A2971",
    "timestamp": "2026-02-20T09:53:00+00:00",
    "station": "KCPS"
  },
  "kstl": {
    "metar": "KSTL 200951Z 27018G26KT 10SM FEW036 01/M06 A2970 RMK AO2 PK WND 27030/0857 SLP057 T00111061 $",
    "windDirection": 270,
    "windSpeed": 18,
    "windGust": 26,
    "visibility": 10,
    "temperatureC": 1,
    "dewPointC": -6,
    "cloudCeiling": null,
    "altimeter": "A2970",
    "timestamp": "2026-02-20T09:51:00+00:00",
    "station": "KSTL"
  }
}