{
  "lastUpdated": "2026-04-25T04:03:31.291627+00:00",
  "kcps": {
    "metar": "KCPS 250353Z AUTO 35003KT 10SM FEW043 SCT050 SCT060 17/16 A2983 RMK AO2 SLP100 T01720156 $",
    "windDirection": 350,
    "windSpeed": 3,
    "windGust": null,
    "visibility": 10,
    "temperatureC": 17,
    "dewPointC": 16,
    "cloudCeiling": null,
    "altimeter": "A2983",
    "timestamp": "2026-04-25T03:53:00+00:00",
    "station": "KCPS"
  },
  "kstl": {
    "metar": "KSTL 250351Z 01005KT 10SM FEW039 FEW049 19/14 A2985 RMK AO2 SLP103 T01890139 $",
    "windDirection": 10,
    "windSpeed": 5,
    "windGust": null,
    "visibility": 10,
    "temperatureC": 19,
    "dewPointC": 14,
    "cloudCeiling": null,
    "altimeter": "A2985",
    "timestamp": "2026-04-25T03:51:00+00:00",
    "station": "KSTL"
  }
}