{
  "lastUpdated": "2026-05-10T09:15:45.787871+00:00",
  "kcps": {
    "metar": "KCPS 100853Z AUTO 00000KT 10SM FEW120 14/13 A2994 RMK AO2 SLP135 60002 T01440133 53016 $",
    "windDirection": 0,
    "windSpeed": 0,
    "windGust": null,
    "visibility": 10,
    "temperatureC": 14,
    "dewPointC": 13,
    "cloudCeiling": null,
    "altimeter": "A2994",
    "timestamp": "2026-05-10T08:53:00+00:00",
    "station": "KCPS"
  },
  "kstl": {
    "metar": "KSTL 100851Z 26003KT 10SM SCT130 14/13 A2995 RMK AO2 SLP133 T01390128 53014 $",
    "windDirection": 260,
    "windSpeed": 3,
    "windGust": null,
    "visibility": 10,
    "temperatureC": 14,
    "dewPointC": 13,
    "cloudCeiling": null,
    "altimeter": "A2995",
    "timestamp": "2026-05-10T08:51:00+00:00",
    "station": "KSTL"
  }
}