{
  "lastUpdated": "2025-11-22T10:46:32.547575+00:00",
  "kcps": {
    "metar": "KCPS 221027Z AUTO 35004KT 5SM BR FEW020 OVC030 09/08 A3002 RMK AO2 T00940083",
    "windDirection": 350,
    "windSpeed": 4,
    "windGust": null,
    "visibility": 5,
    "temperatureC": 9,
    "dewPointC": 8,
    "cloudCeiling": 3000,
    "altimeter": "A3002",
    "timestamp": "2025-11-22T10:27:00+00:00",
    "station": "KCPS"
  },
  "kstl": {
    "metar": "KSTL 221030Z 36008KT 7SM FEW007 BKN042 09/08 A3003 RMK AO2 T00890078 $",
    "windDirection": 360,
    "windSpeed": 8,
    "windGust": null,
    "visibility": 7,
    "temperatureC": 9,
    "dewPointC": 8,
    "cloudCeiling": 4200,
    "altimeter": "A3003",
    "timestamp": "2025-11-22T10:30:00+00:00",
    "station": "KSTL"
  }
}