{
  "lastUpdated": "2026-05-08T19:08:19.941538+00:00",
  "kcps": {
    "metar": "KCPS 081853Z 19010G16KT 10SM CLR 21/09 A2982 RMK AO2 SLP096 T02110094 $",
    "windDirection": 190,
    "windSpeed": 10,
    "windGust": 16,
    "visibility": 10,
    "temperatureC": 21,
    "dewPointC": 9,
    "cloudCeiling": 99999,
    "altimeter": "A2982",
    "timestamp": "2026-05-08T18:53:00+00:00",
    "station": "KCPS"
  },
  "kstl": {
    "metar": "KSTL 081851Z 23008KT 10SM BKN110 BKN250 20/09 A2983 RMK AO2 SLP097 T02000094 $",
    "windDirection": 230,
    "windSpeed": 8,
    "windGust": null,
    "visibility": 10,
    "temperatureC": 20,
    "dewPointC": 9,
    "cloudCeiling": 11000,
    "altimeter": "A2983",
    "timestamp": "2026-05-08T18:51:00+00:00",
    "station": "KSTL"
  }
}