{
  "lastUpdated": "2026-02-19T10:14:02.699989+00:00",
  "kcps": {
    "metar": "KCPS 190958Z AUTO 00000KT 1/4SM FG VV002 08/08 A2957 RMK AO2 T00780078 $",
    "windDirection": 0,
    "windSpeed": 0,
    "windGust": null,
    "visibility": 0.25,
    "temperatureC": 8,
    "dewPointC": 8,
    "cloudCeiling": 200,
    "altimeter": "A2957",
    "timestamp": "2026-02-19T09:58:00+00:00",
    "station": "KCPS"
  },
  "kstl": {
    "metar": "KSTL 190951Z 11003KT 10SM BKN200 09/08 A2958 RMK AO2 SLP012 T00890078 $",
    "windDirection": 110,
    "windSpeed": 3,
    "windGust": null,
    "visibility": 10,
    "temperatureC": 9,
    "dewPointC": 8,
    "cloudCeiling": 20000,
    "altimeter": "A2958",
    "timestamp": "2026-02-19T09:51:00+00:00",
    "station": "KSTL"
  }
}