{
  "lastUpdated": "2026-04-20T23:58:53.372327+00:00",
  "kcps": {
    "metar": "KCPS 202353Z 13008KT 10SM CLR 18/06 A3017 RMK AO2 SLP216 T01780056 10194 20156 56021 $",
    "windDirection": 130,
    "windSpeed": 8,
    "windGust": null,
    "visibility": 10,
    "temperatureC": 18,
    "dewPointC": 6,
    "cloudCeiling": 99999,
    "altimeter": "A3017",
    "timestamp": "2026-04-20T23:53:00+00:00",
    "station": "KCPS"
  },
  "kstl": {
    "metar": "KSTL 202351Z 13012KT 10SM CLR 18/04 A3017 RMK AO2 SLP216 T01830039 10189 20150 56021 $",
    "windDirection": 130,
    "windSpeed": 12,
    "windGust": null,
    "visibility": 10,
    "temperatureC": 18,
    "dewPointC": 4,
    "cloudCeiling": 99999,
    "altimeter": "A3017",
    "timestamp": "2026-04-20T23:51:00+00:00",
    "station": "KSTL"
  }
}