{
  "lastUpdated": "2025-12-27T16:02:24.256443+00:00",
  "kcps": {
    "metar": "KCPS 271505Z 12009KT 1 1/2SM BR OVC003 08/08 A2997 RMK AO2 T00830083 $",
    "windDirection": 120,
    "windSpeed": 9,
    "windGust": null,
    "visibility": 0.5,
    "temperatureC": 8,
    "dewPointC": 8,
    "cloudCeiling": 300,
    "altimeter": "A2997",
    "timestamp": "2025-12-27T15:05:00+00:00",
    "station": "KCPS"
  },
  "kstl": {
    "metar": "KSTL 271558Z 15012KT 1/2SM R30R/2000V2800FT -DZ FG OVC002 09/09 A2996 RMK AO2 P0000 T00890089 $",
    "windDirection": 150,
    "windSpeed": 12,
    "windGust": null,
    "visibility": 0.5,
    "temperatureC": 9,
    "dewPointC": 9,
    "cloudCeiling": 200,
    "altimeter": "A2996",
    "timestamp": "2025-12-27T15:58:00+00:00",
    "station": "KSTL"
  }
}