{
  "lastUpdated": "2026-02-10T03:43:00.215921+00:00",
  "kcps": {
    "metar": "KCPS 100253Z 16005KT 10SM CLR 07/01 A2998 RMK AO2 SLP154 T00670011 58013 $",
    "windDirection": 160,
    "windSpeed": 5,
    "windGust": null,
    "visibility": 10,
    "temperatureC": 7,
    "dewPointC": 1,
    "cloudCeiling": 99999,
    "altimeter": "A2998",
    "timestamp": "2026-02-10T02:53:00+00:00",
    "station": "KCPS"
  },
  "kstl": {
    "metar": "KSTL 100251Z 15010KT 10SM SCT250 09/02 A2997 RMK AO2 SLP153 T00890022 58015 $",
    "windDirection": 150,
    "windSpeed": 10,
    "windGust": null,
    "visibility": 10,
    "temperatureC": 9,
    "dewPointC": 2,
    "cloudCeiling": null,
    "altimeter": "A2997",
    "timestamp": "2026-02-10T02:51:00+00:00",
    "station": "KSTL"
  }
}