{
  "lastUpdated": "2025-11-07T09:21:42.055457+00:00",
  "kcps": {
    "metar": "KCPS 070853Z AUTO 22007G16KT 10SM FEW075 17/13 A2968 RMK AO2 RAB08E20 SLP048 P0000 60000 T01670128 56033 TSNO $",
    "windDirection": 220,
    "windSpeed": 7,
    "windGust": 16,
    "visibility": 10,
    "temperatureC": 17,
    "dewPointC": 13,
    "cloudCeiling": null,
    "altimeter": "A2968",
    "timestamp": "2025-11-07T08:53:00+00:00",
    "station": "KCPS"
  },
  "kstl": {
    "metar": "KSTL 070851Z 21010KT 10SM BKN090 16/12 A2967 RMK AO2 SLP042 T01610122 56032 $",
    "windDirection": 210,
    "windSpeed": 10,
    "windGust": null,
    "visibility": 10,
    "temperatureC": 16,
    "dewPointC": 12,
    "cloudCeiling": 9000,
    "altimeter": "A2967",
    "timestamp": "2025-11-07T08:51:00+00:00",
    "station": "KSTL"
  }
}