{
  "lastUpdated": "2026-03-22T05:36:53.645120+00:00",
  "kcps": {
    "metar": "KCPS 220453Z AUTO 15004KT 10SM CLR 19/14 A2974 RMK AO2 SLP067 T01940139 $",
    "windDirection": 150,
    "windSpeed": 4,
    "windGust": null,
    "visibility": 10,
    "temperatureC": 19,
    "dewPointC": 14,
    "cloudCeiling": 99999,
    "altimeter": "A2974",
    "timestamp": "2026-03-22T04:53:00+00:00",
    "station": "KCPS"
  },
  "kstl": {
    "metar": "KSTL 220451Z 19009KT 10SM CLR 23/13 A2974 RMK AO2 SLP061 T02280133 $",
    "windDirection": 190,
    "windSpeed": 9,
    "windGust": null,
    "visibility": 10,
    "temperatureC": 23,
    "dewPointC": 13,
    "cloudCeiling": 99999,
    "altimeter": "A2974",
    "timestamp": "2026-03-22T04:51:00+00:00",
    "station": "KSTL"
  }
}