{
  "lastUpdated": "2025-12-08T01:51:24.743232+00:00",
  "kcps": {
    "metar": "KCPS 080053Z 36011KT 10SM OVC017 01/M02 A3024 RMK AO2 SLP243 T00061022 $",
    "windDirection": 360,
    "windSpeed": 11,
    "windGust": null,
    "visibility": 10,
    "temperatureC": 1,
    "dewPointC": -2,
    "cloudCeiling": 1700,
    "altimeter": "A3024",
    "timestamp": "2025-12-08T00:53:00+00:00",
    "station": "KCPS"
  },
  "kstl": {
    "metar": "KSTL 080051Z 36012KT 10SM OVC016 00/M03 A3024 RMK AO2 SLP249 T00001033 $",
    "windDirection": 360,
    "windSpeed": 12,
    "windGust": null,
    "visibility": 10,
    "temperatureC": 0,
    "dewPointC": -3,
    "cloudCeiling": 1600,
    "altimeter": "A3024",
    "timestamp": "2025-12-08T00:51:00+00:00",
    "station": "KSTL"
  }
}