{
  "lastUpdated": "2025-12-11T06:23:23.795619+00:00",
  "kcps": {
    "metar": "KCPS 110553Z AUTO 26004KT 10SM OVC032 M01/M04 A3007 RMK AO2 SLP187 T10061044 10017 21039 401111039 51006 $",
    "windDirection": 260,
    "windSpeed": 4,
    "windGust": null,
    "visibility": 10,
    "temperatureC": -1,
    "dewPointC": -4,
    "cloudCeiling": 3200,
    "altimeter": "A3007",
    "timestamp": "2025-12-11T05:53:00+00:00",
    "station": "KCPS"
  },
  "kstl": {
    "metar": "KSTL 110551Z 27005KT 10SM OVC026 M01/M04 A3007 RMK AO2 SLP192 T10061039 10011 21028 401111028 51006 $",
    "windDirection": 270,
    "windSpeed": 5,
    "windGust": null,
    "visibility": 10,
    "temperatureC": -1,
    "dewPointC": -4,
    "cloudCeiling": 2600,
    "altimeter": "A3007",
    "timestamp": "2025-12-11T05:51:00+00:00",
    "station": "KSTL"
  }
}