{
  "lastUpdated": "2025-12-24T11:02:34.407290+00:00",
  "kcps": {
    "metar": "KCPS 241053Z 00000KT 5SM BR OVC022 08/08 A3022 RMK AO2 SLP234 T00830083 $",
    "windDirection": 0,
    "windSpeed": 0,
    "windGust": null,
    "visibility": 5,
    "temperatureC": 8,
    "dewPointC": 8,
    "cloudCeiling": 2200,
    "altimeter": "A3022",
    "timestamp": "2025-12-24T10:53:00+00:00",
    "station": "KCPS"
  },
  "kstl": {
    "metar": "KSTL 241051Z 13004KT 7SM SCT028 OVC250 07/07 A3023 RMK AO2 SLP237 T00720067 $",
    "windDirection": 130,
    "windSpeed": 4,
    "windGust": null,
    "visibility": 7,
    "temperatureC": 7,
    "dewPointC": 7,
    "cloudCeiling": 25000,
    "altimeter": "A3023",
    "timestamp": "2025-12-24T10:51:00+00:00",
    "station": "KSTL"
  }
}