{
  "lastUpdated": "2025-11-29T10:02:17.224048+00:00",
  "kcps": {
    "metar": "KCPS 290953Z 10006KT 1SM -SN BR VV013 00/M02 A3029 RMK AO2 SNB22 SLP261 P0002 T00001017 $",
    "windDirection": 100,
    "windSpeed": 6,
    "windGust": null,
    "visibility": 1,
    "temperatureC": 0,
    "dewPointC": -2,
    "cloudCeiling": 1300,
    "altimeter": "A3029",
    "timestamp": "2025-11-29T09:53:00+00:00",
    "station": "KCPS"
  },
  "kstl": {
    "metar": "KSTL 290955Z 11010KT 1/4SM R30R/2000V3000FT +SN FZFG VV004 M01/M01 A3027 RMK AO2 P0001 T10061006 $",
    "windDirection": 110,
    "windSpeed": 10,
    "windGust": null,
    "visibility": 0.25,
    "temperatureC": -1,
    "dewPointC": -1,
    "cloudCeiling": 400,
    "altimeter": "A3027",
    "timestamp": "2025-11-29T09:55:00+00:00",
    "station": "KSTL"
  }
}