{
  "lastUpdated": "2026-04-24T08:27:54.452463+00:00",
  "kcps": {
    "metar": "KCPS 240803Z AUTO 15010KT 10SM FEW080 FEW095 18/16 A2971 RMK AO2 LTG DSNT W RAE0759 P0000 T01830161 $",
    "windDirection": 150,
    "windSpeed": 10,
    "windGust": null,
    "visibility": 10,
    "temperatureC": 18,
    "dewPointC": 16,
    "cloudCeiling": null,
    "altimeter": "A2971",
    "timestamp": "2026-04-24T08:03:00+00:00",
    "station": "KCPS"
  },
  "kstl": {
    "metar": "KSTL 240825Z 30013G25KT 3SM +RA BR FEW029 BKN055 OVC070 16/14 A2977 RMK AO2 PK WND 31032/0815 RAB14 TSB00E25 PRESRR P0005 T01610144 $",
    "windDirection": 300,
    "windSpeed": 13,
    "windGust": 25,
    "visibility": 3,
    "temperatureC": 16,
    "dewPointC": 14,
    "cloudCeiling": 5500,
    "altimeter": "A2977",
    "timestamp": "2026-04-24T08:25:00+00:00",
    "station": "KSTL"
  }
}