{
  "lastUpdated": "2025-11-27T16:22:22.895300+00:00",
  "kcps": {
    "metar": "KCPS 271619Z 31012KT 10SM BKN028 01/M06 A3044 RMK AO2 T00111061 $",
    "windDirection": 310,
    "windSpeed": 12,
    "windGust": null,
    "visibility": 10,
    "temperatureC": 1,
    "dewPointC": -6,
    "cloudCeiling": 2800,
    "altimeter": "A3044",
    "timestamp": "2025-11-27T16:19:00+00:00",
    "station": "KCPS"
  },
  "kstl": {
    "metar": "KSTL 271551Z 31009KT 10SM BKN024 BKN200 M01/M06 A3043 RMK AO2 SLP315 T10061061 $",
    "windDirection": 310,
    "windSpeed": 9,
    "windGust": null,
    "visibility": 10,
    "temperatureC": -1,
    "dewPointC": -6,
    "cloudCeiling": 2400,
    "altimeter": "A3043",
    "timestamp": "2025-11-27T15:51:00+00:00",
    "station": "KSTL"
  }
}