{
  "lastUpdated": "2026-05-27T08:09:12.775802+00:00",
  "kcps": {
    "metar": "KCPS 270753Z AUTO 00000KT 10SM OVC060 21/20 A2992 RMK AO2 RAE03 SLP129 P0000 T02110200 $",
    "windDirection": 0,
    "windSpeed": 0,
    "windGust": null,
    "visibility": 10,
    "temperatureC": 21,
    "dewPointC": 20,
    "cloudCeiling": 6000,
    "altimeter": "A2992",
    "timestamp": "2026-05-27T07:53:00+00:00",
    "station": "KCPS"
  },
  "kstl": {
    "metar": "KSTL 270751Z 00000KT 10SM OVC070 22/19 A2994 RMK AO2 SLP127 T02170189 $",
    "windDirection": 0,
    "windSpeed": 0,
    "windGust": null,
    "visibility": 10,
    "temperatureC": 22,
    "dewPointC": 19,
    "cloudCeiling": 7000,
    "altimeter": "A2994",
    "timestamp": "2026-05-27T07:51:00+00:00",
    "station": "KSTL"
  }
}