{
  "lastUpdated": "2026-02-10T05:19:10.463963+00:00",
  "kcps": {
    "metar": "KCPS 100453Z AUTO 17005KT 10SM CLR 06/02 A2997 RMK AO2 SLP149 T00560022 $",
    "windDirection": 170,
    "windSpeed": 5,
    "windGust": null,
    "visibility": 10,
    "temperatureC": 6,
    "dewPointC": 2,
    "cloudCeiling": 99999,
    "altimeter": "A2997",
    "timestamp": "2026-02-10T04:53:00+00:00",
    "station": "KCPS"
  },
  "kstl": {
    "metar": "KSTL 100451Z 18007KT 10SM CLR 08/02 A2995 RMK AO2 SLP148 T00830022 $",
    "windDirection": 180,
    "windSpeed": 7,
    "windGust": null,
    "visibility": 10,
    "temperatureC": 8,
    "dewPointC": 2,
    "cloudCeiling": 99999,
    "altimeter": "A2995",
    "timestamp": "2026-02-10T04:51:00+00:00",
    "station": "KSTL"
  }
}