{
  "lastUpdated": "2026-01-24T07:33:49.236141+00:00",
  "kcps": {
    "metar": "KCPS 240653Z AUTO 04009KT 10SM OVC095 M15/M27 A3070 RMK AO2 SLP404 T11501267 $",
    "windDirection": 40,
    "windSpeed": 9,
    "windGust": null,
    "visibility": 10,
    "temperatureC": -15,
    "dewPointC": -27,
    "cloudCeiling": 9500,
    "altimeter": "A3070",
    "timestamp": "2026-01-24T06:53:00+00:00",
    "station": "KCPS"
  },
  "kstl": {
    "metar": "KSTL 240651Z 03009KT 10SM OVC100 M16/M27 A3068 RMK AO2 SLP414 T11561267 $",
    "windDirection": 30,
    "windSpeed": 9,
    "windGust": null,
    "visibility": 10,
    "temperatureC": -16,
    "dewPointC": -27,
    "cloudCeiling": 10000,
    "altimeter": "A3068",
    "timestamp": "2026-01-24T06:51:00+00:00",
    "station": "KSTL"
  }
}