{
  "lastUpdated": "2025-12-22T09:50:47.752059+00:00",
  "kcps": {
    "metar": "KCPS 220853Z AUTO 16003KT 10SM CLR 00/M07 A3035 RMK AO2 SLP281 T00001072 55012 $",
    "windDirection": 160,
    "windSpeed": 3,
    "windGust": null,
    "visibility": 10,
    "temperatureC": 0,
    "dewPointC": -7,
    "cloudCeiling": 99999,
    "altimeter": "A3035",
    "timestamp": "2025-12-22T08:53:00+00:00",
    "station": "KCPS"
  },
  "kstl": {
    "metar": "KSTL 220851Z 15007KT 10SM FEW250 02/M08 A3034 RMK AO2 SLP280 T00171078 55013 $",
    "windDirection": 150,
    "windSpeed": 7,
    "windGust": null,
    "visibility": 10,
    "temperatureC": 2,
    "dewPointC": -8,
    "cloudCeiling": null,
    "altimeter": "A3034",
    "timestamp": "2025-12-22T08:51:00+00:00",
    "station": "KSTL"
  }
}