{
  "lastUpdated": "2025-12-15T17:07:27.677308+00:00",
  "kcps": {
    "metar": "KCPS 151653Z 19011G17KT 10SM CLR M02/M15 A3033 RMK AO2 SLP277 T10221150 $",
    "windDirection": 190,
    "windSpeed": 11,
    "windGust": 17,
    "visibility": 10,
    "temperatureC": -2,
    "dewPointC": -15,
    "cloudCeiling": 99999,
    "altimeter": "A3033",
    "timestamp": "2025-12-15T16:53:00+00:00",
    "station": "KCPS"
  },
  "kstl": {
    "metar": "KSTL 151651Z 20011KT 10SM FEW200 M01/M15 A3030 RMK AO2 SLP278 T10111150 $",
    "windDirection": 200,
    "windSpeed": 11,
    "windGust": null,
    "visibility": 10,
    "temperatureC": -1,
    "dewPointC": -15,
    "cloudCeiling": null,
    "altimeter": "A3030",
    "timestamp": "2025-12-15T16:51:00+00:00",
    "station": "KSTL"
  }
}