{
  "lastUpdated": "2026-03-24T06:05:06.774846+00:00",
  "kcps": {
    "metar": "KCPS 240553Z 10005KT 10SM OVC110 07/00 A3038 RMK AO2 SLP289 T00670000 10094 20050 401220033 56003 $",
    "windDirection": 100,
    "windSpeed": 5,
    "windGust": null,
    "visibility": 10,
    "temperatureC": 7,
    "dewPointC": 0,
    "cloudCeiling": 11000,
    "altimeter": "A3038",
    "timestamp": "2026-03-24T05:53:00+00:00",
    "station": "KCPS"
  },
  "kstl": {
    "metar": "KSTL 240551Z 10007KT 10SM OVC110 08/M02 A3038 RMK AO2 SLP289 T00781022 10094 20067 401170028 58003 $",
    "windDirection": 100,
    "windSpeed": 7,
    "windGust": null,
    "visibility": 10,
    "temperatureC": 8,
    "dewPointC": -2,
    "cloudCeiling": 11000,
    "altimeter": "A3038",
    "timestamp": "2026-03-24T05:51:00+00:00",
    "station": "KSTL"
  }
}