{
  "lastUpdated": "2026-05-05T19:29:36.358731+00:00",
  "kcps": {
    "metar": "KCPS 051853Z 02014KT 10SM FEW027 OVC036 12/07 A2983 RMK AO2 RAE30 SLP099 P0000 T01170067 $",
    "windDirection": 20,
    "windSpeed": 14,
    "windGust": null,
    "visibility": 10,
    "temperatureC": 12,
    "dewPointC": 7,
    "cloudCeiling": 3600,
    "altimeter": "A2983",
    "timestamp": "2026-05-05T18:53:00+00:00",
    "station": "KCPS"
  },
  "kstl": {
    "metar": "KSTL 051851Z 01008KT 7SM RA OVC048 10/08 A2984 RMK AO2 RAB18 SLP102 P0004 T01000078 $",
    "windDirection": 10,
    "windSpeed": 8,
    "windGust": null,
    "visibility": 7,
    "temperatureC": 10,
    "dewPointC": 8,
    "cloudCeiling": 4800,
    "altimeter": "A2984",
    "timestamp": "2026-05-05T18:51:00+00:00",
    "station": "KSTL"
  }
}