{
  "lastUpdated": "2026-01-29T12:24:56.588655+00:00",
  "kcps": {
    "metar": "KCPS 291153Z AUTO 06005KT 10SM BKN100 M06/M13 A3028 RMK AO2 SLP259 T10561133 11033 21061 53008 $",
    "windDirection": 60,
    "windSpeed": 5,
    "windGust": null,
    "visibility": 10,
    "temperatureC": -6,
    "dewPointC": -13,
    "cloudCeiling": 10000,
    "altimeter": "A3028",
    "timestamp": "2026-01-29T11:53:00+00:00",
    "station": "KCPS"
  },
  "kstl": {
    "metar": "KSTL 291151Z 06008KT 10SM BKN090 BKN180 M06/M13 A3028 RMK AO2 SLP265 4/004 T10561128 11028 21056 53007 $",
    "windDirection": 60,
    "windSpeed": 8,
    "windGust": null,
    "visibility": 10,
    "temperatureC": -6,
    "dewPointC": -13,
    "cloudCeiling": 9000,
    "altimeter": "A3028",
    "timestamp": "2026-01-29T11:51:00+00:00",
    "station": "KSTL"
  }
}