{
  "lastUpdated": "2026-03-24T19:57:17.020855+00:00",
  "kcps": {
    "metar": "KCPS 241953Z 15008G19KT 100V200 10SM CLR 17/M04 A3020 RMK AO2 SLP228 T01721044 $",
    "windDirection": 150,
    "windSpeed": 8,
    "windGust": 19,
    "visibility": 10,
    "temperatureC": 17,
    "dewPointC": -4,
    "cloudCeiling": 99999,
    "altimeter": "A3020",
    "timestamp": "2026-03-24T19:53:00+00:00",
    "station": "KCPS"
  },
  "kstl": {
    "metar": "KSTL 241951Z 15010G19KT 10SM FEW150 FEW200 BKN250 17/M05 A3020 RMK AO2 SLP229 T01671050",
    "windDirection": 150,
    "windSpeed": 10,
    "windGust": 19,
    "visibility": 10,
    "temperatureC": 17,
    "dewPointC": -5,
    "cloudCeiling": 25000,
    "altimeter": "A3020",
    "timestamp": "2026-03-24T19:51:00+00:00",
    "station": "KSTL"
  }
}