{
  "lastUpdated": "2026-01-05T17:22:01.272671+00:00",
  "kcps": {
    "metar": "KCPS 051653Z 20008KT 10SM CLR 11/03 A2991 RMK AO2 SLP132 T01060028 $",
    "windDirection": 200,
    "windSpeed": 8,
    "windGust": null,
    "visibility": 10,
    "temperatureC": 11,
    "dewPointC": 3,
    "cloudCeiling": 99999,
    "altimeter": "A2991",
    "timestamp": "2026-01-05T16:53:00+00:00",
    "station": "KCPS"
  },
  "kstl": {
    "metar": "KSTL 051651Z 21007KT 10SM BKN250 11/03 A2990 RMK AO2 SLP130 T01060028 $",
    "windDirection": 210,
    "windSpeed": 7,
    "windGust": null,
    "visibility": 10,
    "temperatureC": 11,
    "dewPointC": 3,
    "cloudCeiling": 25000,
    "altimeter": "A2990",
    "timestamp": "2026-01-05T16:51:00+00:00",
    "station": "KSTL"
  }
}