{
  "lastUpdated": "2026-01-23T15:50:55.620372+00:00",
  "kcps": {
    "metar": "KCPS 231353Z 35012G21KT 10SM CLR M12/M23 A3063 RMK AO2 SLP377 T11221228",
    "windDirection": 350,
    "windSpeed": 12,
    "windGust": 21,
    "visibility": 10,
    "temperatureC": -12,
    "dewPointC": -23,
    "cloudCeiling": 99999,
    "altimeter": "A3063",
    "timestamp": "2026-01-23T13:53:00+00:00",
    "station": "KCPS"
  },
  "kstl": {
    "metar": "KSTL 231451Z 35016G23KT 10SM BKN090 BKN150 OVC250 M13/M24 A3066 RMK AO2 SLP399 T11331244 53039 $",
    "windDirection": 350,
    "windSpeed": 16,
    "windGust": 23,
    "visibility": 10,
    "temperatureC": -13,
    "dewPointC": -24,
    "cloudCeiling": 9000,
    "altimeter": "A3066",
    "timestamp": "2026-01-23T14:51:00+00:00",
    "station": "KSTL"
  }
}