{
  "lastUpdated": "2026-05-06T05:37:46.397206+00:00",
  "kcps": {
    "metar": "KCPS 060453Z AUTO 35004KT 10SM -RA OVC100 08/07 A2989 RMK AO2 SLP120 P0002 T00830072 $",
    "windDirection": 350,
    "windSpeed": 4,
    "windGust": null,
    "visibility": 10,
    "temperatureC": 8,
    "dewPointC": 7,
    "cloudCeiling": 10000,
    "altimeter": "A2989",
    "timestamp": "2026-05-06T04:53:00+00:00",
    "station": "KCPS"
  },
  "kstl": {
    "metar": "KSTL 060532Z 28005KT 10SM -RA SCT005 BKN090 OVC100 08/07 A2990 RMK AO2 P0001 T00830072 $",
    "windDirection": 280,
    "windSpeed": 5,
    "windGust": null,
    "visibility": 10,
    "temperatureC": 8,
    "dewPointC": 7,
    "cloudCeiling": 9000,
    "altimeter": "A2990",
    "timestamp": "2026-05-06T05:32:00+00:00",
    "station": "KSTL"
  }
}