{
  "lastUpdated": "2025-12-11T07:06:43.755245+00:00",
  "kcps": {
    "metar": "KCPS 110653Z AUTO 26003KT 10SM OVC029 M01/M04 A3008 RMK AO2 SLP188 T10061039 $",
    "windDirection": 260,
    "windSpeed": 3,
    "windGust": null,
    "visibility": 10,
    "temperatureC": -1,
    "dewPointC": -4,
    "cloudCeiling": 2900,
    "altimeter": "A3008",
    "timestamp": "2025-12-11T06:53:00+00:00",
    "station": "KCPS"
  },
  "kstl": {
    "metar": "KSTL 110651Z 29007KT 10SM OVC027 00/M04 A3007 RMK AO2 SLP192 T00001044 $",
    "windDirection": 290,
    "windSpeed": 7,
    "windGust": null,
    "visibility": 10,
    "temperatureC": 0,
    "dewPointC": -4,
    "cloudCeiling": 2700,
    "altimeter": "A3007",
    "timestamp": "2025-12-11T06:51:00+00:00",
    "station": "KSTL"
  }
}