{
  "lastUpdated": "2026-02-23T23:11:14.807325+00:00",
  "kcps": {
    "metar": "KCPS 232153Z 33008KT 10SM CLR M01/M13 A3048 RMK AO2 SLP328 T10061128 PNO $",
    "windDirection": 330,
    "windSpeed": 8,
    "windGust": null,
    "visibility": 10,
    "temperatureC": -1,
    "dewPointC": -13,
    "cloudCeiling": 99999,
    "altimeter": "A3048",
    "timestamp": "2026-02-23T21:53:00+00:00",
    "station": "KCPS"
  },
  "kstl": {
    "metar": "KSTL 232251Z 28005KT 10SM FEW250 M01/M13 A3046 RMK AO2 SLP330 T10111128 $",
    "windDirection": 280,
    "windSpeed": 5,
    "windGust": null,
    "visibility": 10,
    "temperatureC": -1,
    "dewPointC": -13,
    "cloudCeiling": null,
    "altimeter": "A3046",
    "timestamp": "2026-02-23T22:51:00+00:00",
    "station": "KSTL"
  }
}