{
  "lastUpdated": "2025-10-16T15:02:50.176621+00:00",
  "kcps": {
    "metar": "KCPS 161453Z 03004KT 10SM OVC085 19/15 A3015 RMK AO2 SLP208 T01890150 51012",
    "windDirection": 30,
    "windSpeed": 4,
    "windGust": null,
    "visibility": 10,
    "temperatureC": 19,
    "dewPointC": 15,
    "cloudCeiling": 8500,
    "altimeter": "A3015",
    "timestamp": "2025-10-16T14:53:00+00:00",
    "station": "KCPS"
  },
  "kstl": {
    "metar": "KSTL 161451Z 09006KT 10SM BKN080 BKN250 19/14 A3015 RMK AO2 SLP203 T01940144 51011 $",
    "windDirection": 90,
    "windSpeed": 6,
    "windGust": null,
    "visibility": 10,
    "temperatureC": 19,
    "dewPointC": 14,
    "cloudCeiling": 8000,
    "altimeter": "A3015",
    "timestamp": "2025-10-16T14:51:00+00:00",
    "station": "KSTL"
  }
}