{
  "lastUpdated": "2026-02-21T13:48:56.954549+00:00",
  "kcps": {
    "metar": "KCPS 211253Z 36009KT 10SM OVC090 M02/M07 A3016 RMK AO2 SLP217 T10171067 PNO $",
    "windDirection": 360,
    "windSpeed": 9,
    "windGust": null,
    "visibility": 10,
    "temperatureC": -2,
    "dewPointC": -7,
    "cloudCeiling": 9000,
    "altimeter": "A3016",
    "timestamp": "2026-02-21T12:53:00+00:00",
    "station": "KCPS"
  },
  "kstl": {
    "metar": "KSTL 211251Z 33006KT 10SM OVC095 M02/M07 A3018 RMK AO2 SLP228 T10221072 $",
    "windDirection": 330,
    "windSpeed": 6,
    "windGust": null,
    "visibility": 10,
    "temperatureC": -2,
    "dewPointC": -7,
    "cloudCeiling": 9500,
    "altimeter": "A3018",
    "timestamp": "2026-02-21T12:51:00+00:00",
    "station": "KSTL"
  }
}