{
  "lastUpdated": "2026-03-16T07:29:33.211684+00:00",
  "kcps": {
    "metar": "KCPS 160653Z AUTO 30023G41KT 9SM -SN BKN027 OVC034 01/M04 A2970 RMK AO2 PK WND 32041/0653 SNE20B32 SLP058 P0000 T00061039 $",
    "windDirection": 300,
    "windSpeed": 23,
    "windGust": 41,
    "visibility": 9,
    "temperatureC": 1,
    "dewPointC": -4,
    "cloudCeiling": 2700,
    "altimeter": "A2970",
    "timestamp": "2026-03-16T06:53:00+00:00",
    "station": "KCPS"
  },
  "kstl": {
    "metar": "KSTL 160651Z 30021G42KT 9SM -SN BKN024 OVC034 M01/M05 A2970 RMK AO2 PK WND 29042/0644 SLP058 P0000 T10111050 $",
    "windDirection": 300,
    "windSpeed": 21,
    "windGust": 42,
    "visibility": 9,
    "temperatureC": -1,
    "dewPointC": -5,
    "cloudCeiling": 2400,
    "altimeter": "A2970",
    "timestamp": "2026-03-16T06:51:00+00:00",
    "station": "KSTL"
  }
}