{
  "lastUpdated": "2025-12-21T12:23:35.302432+00:00",
  "kcps": {
    "metar": "KCPS 211153Z AUTO 00000KT 10SM CLR M04/M08 A3038 RMK AO2 SLP292 T10391078 10006 21050 51015 $",
    "windDirection": 0,
    "windSpeed": 0,
    "windGust": null,
    "visibility": 10,
    "temperatureC": -4,
    "dewPointC": -8,
    "cloudCeiling": 99999,
    "altimeter": "A3038",
    "timestamp": "2025-12-21T11:53:00+00:00",
    "station": "KCPS"
  },
  "kstl": {
    "metar": "KSTL 211151Z 00000KT 10SM CLR M04/M07 A3038 RMK AO2 SLP296 T10391072 10017 21044 51015 $",
    "windDirection": 0,
    "windSpeed": 0,
    "windGust": null,
    "visibility": 10,
    "temperatureC": -4,
    "dewPointC": -7,
    "cloudCeiling": 99999,
    "altimeter": "A3038",
    "timestamp": "2025-12-21T11:51:00+00:00",
    "station": "KSTL"
  }
}