{
  "lastUpdated": "2025-12-19T06:23:29.592050+00:00",
  "kcps": {
    "metar": "KCPS 190553Z AUTO 29016G27KT 9SM BKN041 M03/M10 A2984 RMK AO2 PK WND 33036/0523 SNB03E48 SLP107 P0000 60002 T10281100 10056 21028 401441028 53033",
    "windDirection": 290,
    "windSpeed": 16,
    "windGust": 27,
    "visibility": 9,
    "temperatureC": -3,
    "dewPointC": -10,
    "cloudCeiling": 4100,
    "altimeter": "A2984",
    "timestamp": "2025-12-19T05:53:00+00:00",
    "station": "KCPS"
  },
  "kstl": {
    "metar": "KSTL 190551Z 29015G25KT 10SM BKN040 M03/M11 A2983 RMK AO2 PK WND 29040/0457 SNE06 SLP108 P0000 60000 T10331106 10067 21033 401391033 53029 $",
    "windDirection": 290,
    "windSpeed": 15,
    "windGust": 25,
    "visibility": 10,
    "temperatureC": -3,
    "dewPointC": -11,
    "cloudCeiling": 4000,
    "altimeter": "A2983",
    "timestamp": "2025-12-19T05:51:00+00:00",
    "station": "KSTL"
  }
}