{
  "lastUpdated": "2026-06-12T10:41:33.190557+00:00",
  "kcps": {
    "metar": "KCPS 120953Z AUTO 35006KT 10SM SCT075 21/18 A2996 RMK AO2 SLP141 T02110178 $",
    "windDirection": 350,
    "windSpeed": 6,
    "windGust": null,
    "visibility": 10.0,
    "temperatureC": 21.1,
    "dewPointC": 17.8,
    "cloudCeiling": null,
    "altimeter": "A2996",
    "timestamp": "2026-06-12T10:00:00.000Z",
    "station": "KCPS"
  },
  "kstl": {
    "metar": "KSTL 120951Z 35006KT 10SM FEW080 20/16 A2997 RMK AO2 SLP137 T02000156 $",
    "windDirection": 350,
    "windSpeed": 6,
    "windGust": null,
    "visibility": 10.0,
    "temperatureC": 20,
    "dewPointC": 15.6,
    "cloudCeiling": null,
    "altimeter": "A2997",
    "timestamp": "2026-06-12T10:00:00.000Z",
    "station": "KSTL"
  }
}