{
  "lastUpdated": "2026-02-26T19:44:20.978904+00:00",
  "kcps": {
    "metar": "KCPS 261853Z 18006KT 10SM CLR 13/03 A2987 RMK AO2 SLP113 T01330033 $",
    "windDirection": 180,
    "windSpeed": 6,
    "windGust": null,
    "visibility": 10,
    "temperatureC": 13,
    "dewPointC": 3,
    "cloudCeiling": 99999,
    "altimeter": "A2987",
    "timestamp": "2026-02-26T18:53:00+00:00",
    "station": "KCPS"
  },
  "kstl": {
    "metar": "KSTL 261851Z 18006KT 10SM CLR 13/02 A2987 RMK AO2 SLP115 T01330022 $",
    "windDirection": 180,
    "windSpeed": 6,
    "windGust": null,
    "visibility": 10,
    "temperatureC": 13,
    "dewPointC": 2,
    "cloudCeiling": 99999,
    "altimeter": "A2987",
    "timestamp": "2026-02-26T18:51:00+00:00",
    "station": "KSTL"
  }
}