{
  "lastUpdated": "2025-10-20T21:02:38.930349+00:00",
  "kcps": {
    "metar": "KCPS 202053Z 17016G24KT 10SM CLR 23/06 A2976 RMK AO2 PK WND 17026/2028 SLP077 T02330056 56046",
    "windDirection": 170,
    "windSpeed": 16,
    "windGust": 24,
    "visibility": 10,
    "temperatureC": 23,
    "dewPointC": 6,
    "cloudCeiling": 99999,
    "altimeter": "A2976",
    "timestamp": "2025-10-20T20:53:00+00:00",
    "station": "KCPS"
  },
  "kstl": {
    "metar": "KSTL 202051Z 18017G25KT 10SM CLR 23/04 A2976 RMK AO2 PK WND 17032/2003 RAB19E28 SLP073 P0000 60000 T02330044 56043 $",
    "windDirection": 180,
    "windSpeed": 17,
    "windGust": 25,
    "visibility": 10,
    "temperatureC": 23,
    "dewPointC": 4,
    "cloudCeiling": 99999,
    "altimeter": "A2976",
    "timestamp": "2025-10-20T20:51:00+00:00",
    "station": "KSTL"
  }
}