{
  "lastUpdated": "2026-03-16T10:06:34.202301+00:00",
  "kcps": {
    "metar": "KCPS 160953Z AUTO 30021G33KT 9SM -SN OVC025 M02/M07 A2978 RMK AO2 PK WND 31037/0940 SLP085 P0000 T10221072 $",
    "windDirection": 300,
    "windSpeed": 21,
    "windGust": 33,
    "visibility": 9,
    "temperatureC": -2,
    "dewPointC": -7,
    "cloudCeiling": 2500,
    "altimeter": "A2978",
    "timestamp": "2026-03-16T09:53:00+00:00",
    "station": "KCPS"
  },
  "kstl": {
    "metar": "KSTL 160951Z 29024G37KT 9SM -SN OVC025 M03/M08 A2978 RMK AO2 PK WND 31037/0913 PRESRR SLP087 P0000 T10331078 $",
    "windDirection": 290,
    "windSpeed": 24,
    "windGust": 37,
    "visibility": 9,
    "temperatureC": -3,
    "dewPointC": -8,
    "cloudCeiling": 2500,
    "altimeter": "A2978",
    "timestamp": "2026-03-16T09:51:00+00:00",
    "station": "KSTL"
  }
}