{
  "lastUpdated": "2026-05-13T07:13:52.804825+00:00",
  "kcps": {
    "metar": "KCPS 130653Z AUTO 25006KT 10SM SCT080 OVC100 20/10 A2995 RMK AO2 SLP138 T02000100 $",
    "windDirection": 250,
    "windSpeed": 6,
    "windGust": null,
    "visibility": 10,
    "temperatureC": 20,
    "dewPointC": 10,
    "cloudCeiling": 10000,
    "altimeter": "A2995",
    "timestamp": "2026-05-13T06:53:00+00:00",
    "station": "KCPS"
  },
  "kstl": {
    "metar": "KSTL 130651Z 31004KT 10SM BKN080 20/10 A2997 RMK AO2 SLP139 T02000100 $",
    "windDirection": 310,
    "windSpeed": 4,
    "windGust": null,
    "visibility": 10,
    "temperatureC": 20,
    "dewPointC": 10,
    "cloudCeiling": 8000,
    "altimeter": "A2997",
    "timestamp": "2026-05-13T06:51:00+00:00",
    "station": "KSTL"
  }
}