{
  "lastUpdated": "2026-03-23T21:43:09.651707+00:00",
  "kcps": {
    "metar": "KCPS 232053Z 02008KT 10SM CLR 11/M02 A3037 RMK AO2 SLP287 T01111022 58022 $",
    "windDirection": 20,
    "windSpeed": 8,
    "windGust": null,
    "visibility": 10,
    "temperatureC": 11,
    "dewPointC": -2,
    "cloudCeiling": 99999,
    "altimeter": "A3037",
    "timestamp": "2026-03-23T20:53:00+00:00",
    "station": "KCPS"
  },
  "kstl": {
    "metar": "KSTL 232051Z 01007G16KT 340V050 10SM FEW150 FEW200 BKN250 11/M04 A3038 RMK AO2 SLP291 T01061039 58019 $",
    "windDirection": 10,
    "windSpeed": 7,
    "windGust": 16,
    "visibility": 10,
    "temperatureC": 11,
    "dewPointC": -4,
    "cloudCeiling": 25000,
    "altimeter": "A3038",
    "timestamp": "2026-03-23T20:51:00+00:00",
    "station": "KSTL"
  }
}