{
  "lastUpdated": "2025-11-04T04:22:01.328243+00:00",
  "kcps": {
    "metar": "KCPS 040353Z 00000KT 8SM CLR 04/04 A3031 RMK AO2 SLP266 T00440044",
    "windDirection": 0,
    "windSpeed": 0,
    "windGust": null,
    "visibility": 8,
    "temperatureC": 4,
    "dewPointC": 4,
    "cloudCeiling": 99999,
    "altimeter": "A3031",
    "timestamp": "2025-11-04T03:53:00+00:00",
    "station": "KCPS"
  },
  "kstl": {
    "metar": "KSTL 040351Z 00000KT 10SM BKN250 07/04 A3031 RMK AO2 SLP266 T00720039 $",
    "windDirection": 0,
    "windSpeed": 0,
    "windGust": null,
    "visibility": 10,
    "temperatureC": 7,
    "dewPointC": 4,
    "cloudCeiling": 25000,
    "altimeter": "A3031",
    "timestamp": "2025-11-04T03:51:00+00:00",
    "station": "KSTL"
  }
}