{
  "lastUpdated": "2025-12-09T13:54:12.665364+00:00",
  "kcps": {
    "metar": "KCPS 091253Z 20007KT 10SM CLR 03/M03 A2999 RMK AO2 SLP158 T00281028 $",
    "windDirection": 200,
    "windSpeed": 7,
    "windGust": null,
    "visibility": 10,
    "temperatureC": 3,
    "dewPointC": -3,
    "cloudCeiling": 99999,
    "altimeter": "A2999",
    "timestamp": "2025-12-09T12:53:00+00:00",
    "station": "KCPS"
  },
  "kstl": {
    "metar": "KSTL 091351Z 22013G22KT 10SM FEW160 FEW200 03/M02 A2994 RMK AO2 SLP149 T00331017 $",
    "windDirection": 220,
    "windSpeed": 13,
    "windGust": 22,
    "visibility": 10,
    "temperatureC": 3,
    "dewPointC": -2,
    "cloudCeiling": null,
    "altimeter": "A2994",
    "timestamp": "2025-12-09T13:51:00+00:00",
    "station": "KSTL"
  }
}