{
  "lastUpdated": "2026-04-04T22:04:04.104258+00:00",
  "kcps": {
    "metar": "KCPS 042153Z 31013KT 10SM BKN029 OVC035 11/05 A3008 RMK AO2 SLP185 T01060050 $",
    "windDirection": 310,
    "windSpeed": 13,
    "windGust": null,
    "visibility": 10,
    "temperatureC": 11,
    "dewPointC": 5,
    "cloudCeiling": 2900,
    "altimeter": "A3008",
    "timestamp": "2026-04-04T21:53:00+00:00",
    "station": "KCPS"
  },
  "kstl": {
    "metar": "KSTL 042121Z 29012G25KT 10SM BKN030 OVC250 10/04 A3009 RMK AO2 PK WND 31028/2105 T01000044 $",
    "windDirection": 290,
    "windSpeed": 12,
    "windGust": 25,
    "visibility": 10,
    "temperatureC": 10,
    "dewPointC": 4,
    "cloudCeiling": 3000,
    "altimeter": "A3009",
    "timestamp": "2026-04-04T21:21:00+00:00",
    "station": "KSTL"
  }
}