{
  "lastUpdated": "2026-02-11T19:21:43.867489+00:00",
  "kcps": {
    "metar": "KCPS 111853Z 01009KT 10SM CLR 08/M04 A3031 RMK AO2 SLP267 T00831044 $",
    "windDirection": 10,
    "windSpeed": 9,
    "windGust": null,
    "visibility": 10,
    "temperatureC": 8,
    "dewPointC": -4,
    "cloudCeiling": 99999,
    "altimeter": "A3031",
    "timestamp": "2026-02-11T18:53:00+00:00",
    "station": "KCPS"
  },
  "kstl": {
    "metar": "KSTL 111851Z 31007KT 10SM BKN250 08/M04 A3032 RMK AO2 SLP272 T00781039 $",
    "windDirection": 310,
    "windSpeed": 7,
    "windGust": null,
    "visibility": 10,
    "temperatureC": 8,
    "dewPointC": -4,
    "cloudCeiling": 25000,
    "altimeter": "A3032",
    "timestamp": "2026-02-11T18:51:00+00:00",
    "station": "KSTL"
  }
}