{
  "lastUpdated": "2026-04-23T04:18:11.234023+00:00",
  "kcps": {
    "metar": "KCPS 230353Z AUTO 17003KT 10SM CLR 19/13 A2996 RMK AO2 SLP141 T01940133 $",
    "windDirection": 170,
    "windSpeed": 3,
    "windGust": null,
    "visibility": 10,
    "temperatureC": 19,
    "dewPointC": 13,
    "cloudCeiling": 99999,
    "altimeter": "A2996",
    "timestamp": "2026-04-23T03:53:00+00:00",
    "station": "KCPS"
  },
  "kstl": {
    "metar": "KSTL 230351Z 00000KT 10SM FEW250 19/14 A2996 RMK AO2 SLP139 T01890144 $",
    "windDirection": 0,
    "windSpeed": 0,
    "windGust": null,
    "visibility": 10,
    "temperatureC": 19,
    "dewPointC": 14,
    "cloudCeiling": null,
    "altimeter": "A2996",
    "timestamp": "2026-04-23T03:51:00+00:00",
    "station": "KSTL"
  }
}