{
  "lastUpdated": "2026-02-14T18:03:08.596247+00:00",
  "kcps": {
    "metar": "KCPS 141753Z 16006KT 4SM -RA BR SCT016 OVC032 07/06 A3002 RMK AO2 SLP165 P0008 60010 T00720061 10089 20044 58015 $",
    "windDirection": 160,
    "windSpeed": 6,
    "windGust": null,
    "visibility": 4,
    "temperatureC": 7,
    "dewPointC": 6,
    "cloudCeiling": 3200,
    "altimeter": "A3002",
    "timestamp": "2026-02-14T17:53:00+00:00",
    "station": "KCPS"
  },
  "kstl": {
    "metar": "KSTL 141751Z 14008KT 7SM -RA OVC039 08/05 A3001 RMK AO2 SLP164 P0002 60002 T00830050 10117 20061 58017 $",
    "windDirection": 140,
    "windSpeed": 8,
    "windGust": null,
    "visibility": 7,
    "temperatureC": 8,
    "dewPointC": 5,
    "cloudCeiling": 3900,
    "altimeter": "A3001",
    "timestamp": "2026-02-14T17:51:00+00:00",
    "station": "KSTL"
  }
}