{
  "lastUpdated": "2026-03-29T20:23:01.381218+00:00",
  "kcps": {
    "metar": "KCPS 291953Z 19009G21KT 10SM OVC047 21/02 A3010 RMK AO2 SLP191 T02060022 $",
    "windDirection": 190,
    "windSpeed": 9,
    "windGust": 21,
    "visibility": 10,
    "temperatureC": 21,
    "dewPointC": 2,
    "cloudCeiling": 4700,
    "altimeter": "A3010",
    "timestamp": "2026-03-29T19:53:00+00:00",
    "station": "KCPS"
  },
  "kstl": {
    "metar": "KSTL 291951Z 18013G23KT 10SM BKN045 BKN250 21/03 A3009 RMK AO2 SLP187 T02110028 $",
    "windDirection": 180,
    "windSpeed": 13,
    "windGust": 23,
    "visibility": 10,
    "temperatureC": 21,
    "dewPointC": 3,
    "cloudCeiling": 4500,
    "altimeter": "A3009",
    "timestamp": "2026-03-29T19:51:00+00:00",
    "station": "KSTL"
  }
}