{
  "lastUpdated": "2026-04-26T15:58:21.850515+00:00",
  "kcps": {
    "metar": "KCPS 261553Z 15007KT 10SM CLR 22/13 A2995 RMK AO2 SLP140 T02220128 $",
    "windDirection": 150,
    "windSpeed": 7,
    "windGust": null,
    "visibility": 10,
    "temperatureC": 22,
    "dewPointC": 13,
    "cloudCeiling": 99999,
    "altimeter": "A2995",
    "timestamp": "2026-04-26T15:53:00+00:00",
    "station": "KCPS"
  },
  "kstl": {
    "metar": "KSTL 261551Z 15009KT 100V170 10SM BKN250 22/12 A2996 RMK AO2 SLP138 T02220122 $",
    "windDirection": 150,
    "windSpeed": 9,
    "windGust": null,
    "visibility": 10,
    "temperatureC": 22,
    "dewPointC": 12,
    "cloudCeiling": 25000,
    "altimeter": "A2996",
    "timestamp": "2026-04-26T15:51:00+00:00",
    "station": "KSTL"
  }
}