{
  "lastUpdated": "2026-04-18T23:57:33.241103+00:00",
  "kcps": {
    "metar": "KCPS 182253Z 31016KT 10SM CLR 14/M01 A3009 RMK AO2 PK WND 32027/2202 SLP189 T01441006 $",
    "windDirection": 310,
    "windSpeed": 16,
    "windGust": null,
    "visibility": 10,
    "temperatureC": 14,
    "dewPointC": -1,
    "cloudCeiling": 99999,
    "altimeter": "A3009",
    "timestamp": "2026-04-18T22:53:00+00:00",
    "station": "KCPS"
  },
  "kstl": {
    "metar": "KSTL 182351Z 31017G23KT 10SM FEW035 FEW250 13/M03 A3010 RMK AO2 PK WND 31027/2318 SLP195 T01331028 10144 20117 53002 $",
    "windDirection": 310,
    "windSpeed": 17,
    "windGust": 23,
    "visibility": 10,
    "temperatureC": 13,
    "dewPointC": -3,
    "cloudCeiling": null,
    "altimeter": "A3010",
    "timestamp": "2026-04-18T23:51:00+00:00",
    "station": "KSTL"
  }
}