{
  "lastUpdated": "2025-12-18T23:02:22.965377+00:00",
  "kcps": {
    "metar": "KCPS 182253Z 21004KT 10SM CLR 07/05 A2959 RMK AO2 SLP022 T00670050",
    "windDirection": 210,
    "windSpeed": 4,
    "windGust": null,
    "visibility": 10,
    "temperatureC": 7,
    "dewPointC": 5,
    "cloudCeiling": 99999,
    "altimeter": "A2959",
    "timestamp": "2025-12-18T22:53:00+00:00",
    "station": "KCPS"
  },
  "kstl": {
    "metar": "KSTL 182251Z 23007KT 10SM FEW085 BKN180 BKN250 07/04 A2958 RMK AO2 SLP018 T00670039 $",
    "windDirection": 230,
    "windSpeed": 7,
    "windGust": null,
    "visibility": 10,
    "temperatureC": 7,
    "dewPointC": 4,
    "cloudCeiling": 18000,
    "altimeter": "A2958",
    "timestamp": "2025-12-18T22:51:00+00:00",
    "station": "KSTL"
  }
}