{
  "lastUpdated": "2026-01-20T02:39:02.608238+00:00",
  "kcps": {
    "metar": "KCPS 200153Z 00000KT 10SM CLR M11/M18 A3042 RMK AO2 SLP307 T11111178 $",
    "windDirection": 0,
    "windSpeed": 0,
    "windGust": null,
    "visibility": 10,
    "temperatureC": -11,
    "dewPointC": -18,
    "cloudCeiling": 99999,
    "altimeter": "A3042",
    "timestamp": "2026-01-20T01:53:00+00:00",
    "station": "KCPS"
  },
  "kstl": {
    "metar": "KSTL 200151Z 00000KT 10SM CLR M08/M20 A3040 RMK AO2 SLP315 T10831200 $",
    "windDirection": 0,
    "windSpeed": 0,
    "windGust": null,
    "visibility": 10,
    "temperatureC": -8,
    "dewPointC": -20,
    "cloudCeiling": 99999,
    "altimeter": "A3040",
    "timestamp": "2026-01-20T01:51:00+00:00",
    "station": "KSTL"
  }
}