{
  "lastUpdated": "2026-05-28T16:49:51.221212+00:00",
  "kcps": {
    "metar": "KCPS 281553Z 08012KT 10SM CLR 27/18 A3008 RMK AO2 SLP180 T02720183 $",
    "windDirection": 80,
    "windSpeed": 12,
    "windGust": null,
    "visibility": 10,
    "temperatureC": 27,
    "dewPointC": 18,
    "cloudCeiling": 99999,
    "altimeter": "A3008",
    "timestamp": "2026-05-28T15:53:00+00:00",
    "station": "KCPS"
  },
  "kstl": {
    "metar": "KSTL 281551Z 07011KT 10SM FEW040 FEW150 BKN250 27/18 A3009 RMK AO2 SLP177 T02720183 $",
    "windDirection": 70,
    "windSpeed": 11,
    "windGust": null,
    "visibility": 10,
    "temperatureC": 27,
    "dewPointC": 18,
    "cloudCeiling": 25000,
    "altimeter": "A3009",
    "timestamp": "2026-05-28T15:51:00+00:00",
    "station": "KSTL"
  }
}