{
  "lastUpdated": "2026-03-30T11:35:25.725696+00:00",
  "kcps": {
    "metar": "KCPS 301053Z AUTO 17007KT 10SM BKN085 16/07 A3002 RMK AO2 SLP163 T01610072 $",
    "windDirection": 170,
    "windSpeed": 7,
    "windGust": null,
    "visibility": 10,
    "temperatureC": 16,
    "dewPointC": 7,
    "cloudCeiling": 8500,
    "altimeter": "A3002",
    "timestamp": "2026-03-30T10:53:00+00:00",
    "station": "KCPS"
  },
  "kstl": {
    "metar": "KSTL 301051Z 19008KT 10SM BKN085 18/08 A3001 RMK AO2 SLP154 T01780083 $",
    "windDirection": 190,
    "windSpeed": 8,
    "windGust": null,
    "visibility": 10,
    "temperatureC": 18,
    "dewPointC": 8,
    "cloudCeiling": 8500,
    "altimeter": "A3001",
    "timestamp": "2026-03-30T10:51:00+00:00",
    "station": "KSTL"
  }
}