{
  "lastUpdated": "2026-05-04T15:16:47.976146+00:00",
  "kcps": {
    "metar": "KCPS 041453Z VRB03KT 10SM CLR 22/10 A2976 RMK AO2 SLP074 T02170100 55007 $",
    "windDirection": null,
    "windSpeed": null,
    "windGust": null,
    "visibility": 10,
    "temperatureC": 22,
    "dewPointC": 10,
    "cloudCeiling": 99999,
    "altimeter": "A2976",
    "timestamp": "2026-05-04T14:53:00+00:00",
    "station": "KCPS"
  },
  "kstl": {
    "metar": "KSTL 041451Z 23011KT 10SM FEW060 BKN140 BKN250 20/09 A2976 RMK AO2 SLP068 VCSH W-N T02000094 55005 $",
    "windDirection": 230,
    "windSpeed": 11,
    "windGust": null,
    "visibility": 10,
    "temperatureC": 20,
    "dewPointC": 9,
    "cloudCeiling": 14000,
    "altimeter": "A2976",
    "timestamp": "2026-05-04T14:51:00+00:00",
    "station": "KSTL"
  }
}