{
  "lastUpdated": "2026-04-25T20:18:58.366926+00:00",
  "kcps": {
    "metar": "KCPS 251953Z 06007KT 10SM CLR 24/09 A2986 RMK AO2 SLP109 T02440094 $",
    "windDirection": 60,
    "windSpeed": 7,
    "windGust": null,
    "visibility": 10,
    "temperatureC": 24,
    "dewPointC": 9,
    "cloudCeiling": 99999,
    "altimeter": "A2986",
    "timestamp": "2026-04-25T19:53:00+00:00",
    "station": "KCPS"
  },
  "kstl": {
    "metar": "KSTL 251951Z 10008KT 10SM FEW250 24/08 A2988 RMK AO2 SLP112 T02390078 $",
    "windDirection": 100,
    "windSpeed": 8,
    "windGust": null,
    "visibility": 10,
    "temperatureC": 24,
    "dewPointC": 8,
    "cloudCeiling": null,
    "altimeter": "A2988",
    "timestamp": "2026-04-25T19:51:00+00:00",
    "station": "KSTL"
  }
}