{
  "lastUpdated": "2026-01-09T02:37:44.201645+00:00",
  "kcps": {
    "metar": "KCPS 090153Z 20010G24KT 10SM SCT100 19/16 A2954 RMK AO2 PK WND 19027/0129 RAE35 SLP001 P0013 T01890161",
    "windDirection": 200,
    "windSpeed": 10,
    "windGust": 24,
    "visibility": 10,
    "temperatureC": 19,
    "dewPointC": 16,
    "cloudCeiling": null,
    "altimeter": "A2954",
    "timestamp": "2026-01-09T01:53:00+00:00",
    "station": "KCPS"
  },
  "kstl": {
    "metar": "KSTL 090151Z 22020G46KT 7SM -RA FEW033 SCT041 BKN060 18/16 A2954 RMK AO2 PK WND 21046/0143 SLP999 P0006 T01830156 $",
    "windDirection": 220,
    "windSpeed": 20,
    "windGust": 46,
    "visibility": 7,
    "temperatureC": 18,
    "dewPointC": 16,
    "cloudCeiling": 6000,
    "altimeter": "A2954",
    "timestamp": "2026-01-09T01:51:00+00:00",
    "station": "KSTL"
  }
}