{
  "lastUpdated": "2026-03-11T14:16:32.381060+00:00",
  "kcps": {
    "metar": "KCPS 111353Z 00000KT 10SM SCT043 OVC050 16/15 A2974 RMK AO2 RAB22E31 SLP067 P0000 T01610150 $",
    "windDirection": 0,
    "windSpeed": 0,
    "windGust": null,
    "visibility": 10,
    "temperatureC": 16,
    "dewPointC": 15,
    "cloudCeiling": 5000,
    "altimeter": "A2974",
    "timestamp": "2026-03-11T13:53:00+00:00",
    "station": "KCPS"
  },
  "kstl": {
    "metar": "KSTL 111351Z 25005KT 10SM -RA FEW029 BKN042 OVC070 16/14 A2974 RMK AO2 RAB38 SLP065 P0000 T01560144 $",
    "windDirection": 250,
    "windSpeed": 5,
    "windGust": null,
    "visibility": 10,
    "temperatureC": 16,
    "dewPointC": 14,
    "cloudCeiling": 4200,
    "altimeter": "A2974",
    "timestamp": "2026-03-11T13:51:00+00:00",
    "station": "KSTL"
  }
}