{
  "lastUpdated": "2026-06-06T17:38:43.190691+00:00",
  "kcps": {
    "metar": "KCPS 061653Z 24008KT 10SM FEW039 29/21 A2995 RMK AO2 SLP136 T02940206 $",
    "windDirection": 240,
    "windSpeed": 8,
    "windGust": null,
    "visibility": 10,
    "temperatureC": 29,
    "dewPointC": 21,
    "cloudCeiling": null,
    "altimeter": "A2995",
    "timestamp": "2026-06-06T16:53:00+00:00",
    "station": "KCPS"
  },
  "kstl": {
    "metar": "KSTL 061651Z 24007KT 10SM BKN037 BKN090 BKN250 28/21 A2996 RMK AO2 SLP132 T02830206 $",
    "windDirection": 240,
    "windSpeed": 7,
    "windGust": null,
    "visibility": 10,
    "temperatureC": 28,
    "dewPointC": 21,
    "cloudCeiling": 3700,
    "altimeter": "A2996",
    "timestamp": "2026-06-06T16:51:00+00:00",
    "station": "KSTL"
  }
}