{
  "lastUpdated": "2026-03-26T19:46:56.552359+00:00",
  "kcps": {
    "metar": "KCPS 261853Z 19014G23KT 10SM CLR 32/16 A2973 RMK AO2 SLP062 T03170161 $",
    "windDirection": 190,
    "windSpeed": 14,
    "windGust": 23,
    "visibility": 10,
    "temperatureC": 32,
    "dewPointC": 16,
    "cloudCeiling": 99999,
    "altimeter": "A2973",
    "timestamp": "2026-03-26T18:53:00+00:00",
    "station": "KCPS"
  },
  "kstl": {
    "metar": "KSTL 261851Z 20014G23KT 10SM FEW100 FEW250 32/16 A2973 RMK AO2 PK WND 22027/1829 SLP055 T03220156 $",
    "windDirection": 200,
    "windSpeed": 14,
    "windGust": 23,
    "visibility": 10,
    "temperatureC": 32,
    "dewPointC": 16,
    "cloudCeiling": null,
    "altimeter": "A2973",
    "timestamp": "2026-03-26T18:51:00+00:00",
    "station": "KSTL"
  }
}