{
  "lastUpdated": "2026-04-08T15:07:42.529595+00:00",
  "kcps": {
    "metar": "KCPS 081453Z 18008KT 10SM CLR 14/04 A3023 RMK AO2 SLP238 T01390039 58003 $",
    "windDirection": 180,
    "windSpeed": 8,
    "windGust": null,
    "visibility": 10,
    "temperatureC": 14,
    "dewPointC": 4,
    "cloudCeiling": 99999,
    "altimeter": "A3023",
    "timestamp": "2026-04-08T14:53:00+00:00",
    "station": "KCPS"
  },
  "kstl": {
    "metar": "KSTL 081451Z 17010G18KT 10SM FEW150 FEW200 SCT250 14/03 A3022 RMK AO2 SLP234 T01390028 58002 $",
    "windDirection": 170,
    "windSpeed": 10,
    "windGust": 18,
    "visibility": 10,
    "temperatureC": 14,
    "dewPointC": 3,
    "cloudCeiling": null,
    "altimeter": "A3022",
    "timestamp": "2026-04-08T14:51:00+00:00",
    "station": "KSTL"
  }
}