{
  "lastUpdated": "2026-05-18T21:42:18.663911+00:00",
  "kcps": {
    "metar": "KCPS 182134Z 02009G19KT 10SM VCTS OVC050 21/18 A3000 RMK AO2 LTG DSNT S-W T02060178 $",
    "windDirection": 20,
    "windSpeed": 9,
    "windGust": 19,
    "visibility": 10,
    "temperatureC": 21,
    "dewPointC": 18,
    "cloudCeiling": 5000,
    "altimeter": "A3000",
    "timestamp": "2026-05-18T21:34:00+00:00",
    "station": "KCPS"
  },
  "kstl": {
    "metar": "KSTL 182118Z 29004G17KT 5SM R30R/6000VP6000FT RA FEW008 BKN050 OVC070 19/17 A3002 RMK AO2 TSB2058E18 PRESFR P0009 T01940167 $",
    "windDirection": 290,
    "windSpeed": 4,
    "windGust": 17,
    "visibility": 5,
    "temperatureC": 19,
    "dewPointC": 17,
    "cloudCeiling": 5000,
    "altimeter": "A3002",
    "timestamp": "2026-05-18T21:18:00+00:00",
    "station": "KSTL"
  }
}