{
  "lastUpdated": "2026-03-20T16:46:32.501698+00:00",
  "kcps": {
    "metar": "KCPS 201553Z 27004KT 10SM CLR 23/09 A2993 RMK AO2 SLP134 T02280094 $",
    "windDirection": 270,
    "windSpeed": 4,
    "windGust": null,
    "visibility": 10,
    "temperatureC": 23,
    "dewPointC": 9,
    "cloudCeiling": 99999,
    "altimeter": "A2993",
    "timestamp": "2026-03-20T15:53:00+00:00",
    "station": "KCPS"
  },
  "kstl": {
    "metar": "KSTL 201551Z 26010KT 10SM BKN250 23/08 A2994 RMK AO2 SLP132 T02330078 $",
    "windDirection": 260,
    "windSpeed": 10,
    "windGust": null,
    "visibility": 10,
    "temperatureC": 23,
    "dewPointC": 8,
    "cloudCeiling": 25000,
    "altimeter": "A2994",
    "timestamp": "2026-03-20T15:51:00+00:00",
    "station": "KSTL"
  }
}