{
  "lastUpdated": "2026-04-22T21:32:03.880667+00:00",
  "kcps": {
    "metar": "KCPS 222053Z 25005KT 10SM FEW050 27/13 A2997 RMK AO2 SLP146 T02670133 56020 $",
    "windDirection": 250,
    "windSpeed": 5,
    "windGust": null,
    "visibility": 10,
    "temperatureC": 27,
    "dewPointC": 13,
    "cloudCeiling": null,
    "altimeter": "A2997",
    "timestamp": "2026-04-22T20:53:00+00:00",
    "station": "KCPS"
  },
  "kstl": {
    "metar": "KSTL 222051Z 27012KT 10SM FEW035 24/14 A2999 RMK AO2 SLP148 T02440144 56018 $",
    "windDirection": 270,
    "windSpeed": 12,
    "windGust": null,
    "visibility": 10,
    "temperatureC": 24,
    "dewPointC": 14,
    "cloudCeiling": null,
    "altimeter": "A2999",
    "timestamp": "2026-04-22T20:51:00+00:00",
    "station": "KSTL"
  }
}