{
  "lastUpdated": "2026-01-28T09:26:52.943455+00:00",
  "kcps": {
    "metar": "KCPS 280853Z AUTO 00000KT 10SM OVC100 M16/M17 A3039 RMK AO2 SLP297 I1000 I3000 T11561172 58005 $",
    "windDirection": 0,
    "windSpeed": 0,
    "windGust": null,
    "visibility": 10,
    "temperatureC": -16,
    "dewPointC": -17,
    "cloudCeiling": 10000,
    "altimeter": "A3039",
    "timestamp": "2026-01-28T08:53:00+00:00",
    "station": "KCPS"
  },
  "kstl": {
    "metar": "KSTL 280851Z 23003KT 10SM OVC100 M12/M16 A3037 RMK AO2 SLP303 T11171156 58007 $",
    "windDirection": 230,
    "windSpeed": 3,
    "windGust": null,
    "visibility": 10,
    "temperatureC": -12,
    "dewPointC": -16,
    "cloudCeiling": 10000,
    "altimeter": "A3037",
    "timestamp": "2026-01-28T08:51:00+00:00",
    "station": "KSTL"
  }
}