{
  "lastUpdated": "2025-12-07T07:21:09.248908+00:00",
  "kcps": {
    "metar": "KCPS 070653Z AUTO 17003KT 7SM OVC012 03/01 A2993 RMK AO2 SLP139 T00330011 $",
    "windDirection": 170,
    "windSpeed": 3,
    "windGust": null,
    "visibility": 7,
    "temperatureC": 3,
    "dewPointC": 1,
    "cloudCeiling": 1200,
    "altimeter": "A2993",
    "timestamp": "2025-12-07T06:53:00+00:00",
    "station": "KCPS"
  },
  "kstl": {
    "metar": "KSTL 070651Z 16006KT 9SM SCT120 OVC170 03/01 A2993 RMK AO2 SLP138 T00330006 $",
    "windDirection": 160,
    "windSpeed": 6,
    "windGust": null,
    "visibility": 9,
    "temperatureC": 3,
    "dewPointC": 1,
    "cloudCeiling": 17000,
    "altimeter": "A2993",
    "timestamp": "2025-12-07T06:51:00+00:00",
    "station": "KSTL"
  }
}