{
  "lastUpdated": "2026-03-27T18:05:21.868371+00:00",
  "kcps": {
    "metar": "KCPS 271753Z 34014KT 10SM FEW027 09/02 A3045 RMK AO2 SLP312 60000 T00890017 10089 20039 53013 $",
    "windDirection": 340,
    "windSpeed": 14,
    "windGust": null,
    "visibility": 10,
    "temperatureC": 9,
    "dewPointC": 2,
    "cloudCeiling": null,
    "altimeter": "A3045",
    "timestamp": "2026-03-27T17:53:00+00:00",
    "station": "KCPS"
  },
  "kstl": {
    "metar": "KSTL 271751Z 34013G21KT 10SM FEW024 BKN150 BKN250 09/02 A3045 RMK AO2 SLP313 T00890017 10089 20039 50013 $",
    "windDirection": 340,
    "windSpeed": 13,
    "windGust": 21,
    "visibility": 10,
    "temperatureC": 9,
    "dewPointC": 2,
    "cloudCeiling": 15000,
    "altimeter": "A3045",
    "timestamp": "2026-03-27T17:51:00+00:00",
    "station": "KSTL"
  }
}