{
  "lastUpdated": "2026-04-18T00:00:19.660823+00:00",
  "kcps": {
    "metar": "KCPS 172353Z 19012G21KT 10SM CLR 27/16 A2968 RMK AO2 PK WND 18027/2256 SLP047 T02720156 10300 20272 55023 $",
    "windDirection": 190,
    "windSpeed": 12,
    "windGust": 21,
    "visibility": 10,
    "temperatureC": 27,
    "dewPointC": 16,
    "cloudCeiling": 99999,
    "altimeter": "A2968",
    "timestamp": "2026-04-17T23:53:00+00:00",
    "station": "KCPS"
  },
  "kstl": {
    "metar": "KSTL 172351Z 18011G24KT 10SM SCT065 OVC240 27/16 A2967 RMK AO2 PK WND 16029/2256 SLP040 60000 T02720156 10300 20239 55029 $",
    "windDirection": 180,
    "windSpeed": 11,
    "windGust": 24,
    "visibility": 10,
    "temperatureC": 27,
    "dewPointC": 16,
    "cloudCeiling": 24000,
    "altimeter": "A2967",
    "timestamp": "2026-04-17T23:51:00+00:00",
    "station": "KSTL"
  }
}