{
  "lastUpdated": "2026-04-03T18:18:06.283969+00:00",
  "kcps": {
    "metar": "KCPS 031753Z 19011G20KT 150V220 10SM SCT042 SCT050 27/18 A2997 RMK AO2 SLP145 T02720183 10272 20194 58009 $",
    "windDirection": 190,
    "windSpeed": 11,
    "windGust": 20,
    "visibility": 10,
    "temperatureC": 27,
    "dewPointC": 18,
    "cloudCeiling": null,
    "altimeter": "A2997",
    "timestamp": "2026-04-03T17:53:00+00:00",
    "station": "KCPS"
  },
  "kstl": {
    "metar": "KSTL 031751Z 18014G21KT 10SM BKN045 BKN085 OVC250 27/17 A2997 RMK AO2 SLP140 T02720172 10272 20167 58008 $",
    "windDirection": 180,
    "windSpeed": 14,
    "windGust": 21,
    "visibility": 10,
    "temperatureC": 27,
    "dewPointC": 17,
    "cloudCeiling": 4500,
    "altimeter": "A2997",
    "timestamp": "2026-04-03T17:51:00+00:00",
    "station": "KSTL"
  }
}