{
  "lastUpdated": "2025-11-29T23:02:16.150407+00:00",
  "kcps": {
    "metar": "KCPS 292253Z 18008KT 10SM OVC017 03/02 A2991 RMK AO2 SLP132 T00330022 $",
    "windDirection": 180,
    "windSpeed": 8,
    "windGust": null,
    "visibility": 10,
    "temperatureC": 3,
    "dewPointC": 2,
    "cloudCeiling": 1700,
    "altimeter": "A2991",
    "timestamp": "2025-11-29T22:53:00+00:00",
    "station": "KCPS"
  },
  "kstl": {
    "metar": "KSTL 292251Z 17010KT 4SM -RA BR BKN008 OVC016 03/02 A2989 RMK AO2 SLP130 P0000 T00280022 $",
    "windDirection": 170,
    "windSpeed": 10,
    "windGust": null,
    "visibility": 4,
    "temperatureC": 3,
    "dewPointC": 2,
    "cloudCeiling": 800,
    "altimeter": "A2989",
    "timestamp": "2025-11-29T22:51:00+00:00",
    "station": "KSTL"
  }
}