{
  "lastUpdated": "2025-11-23T15:32:37.482867+00:00",
  "kcps": {
    "metar": "KCPS 231453Z 29005KT 7SM OVC007 09/07 A3023 RMK AO2 SLP237 T00890072 51015",
    "windDirection": 290,
    "windSpeed": 5,
    "windGust": null,
    "visibility": 7,
    "temperatureC": 9,
    "dewPointC": 7,
    "cloudCeiling": 700,
    "altimeter": "A3023",
    "timestamp": "2025-11-23T14:53:00+00:00",
    "station": "KCPS"
  },
  "kstl": {
    "metar": "KSTL 231451Z 26007KT 7SM OVC005 08/07 A3023 RMK AO2 SLP239 T00780072 52014 $",
    "windDirection": 260,
    "windSpeed": 7,
    "windGust": null,
    "visibility": 7,
    "temperatureC": 8,
    "dewPointC": 7,
    "cloudCeiling": 500,
    "altimeter": "A3023",
    "timestamp": "2025-11-23T14:51:00+00:00",
    "station": "KSTL"
  }
}