{
  "lastUpdated": "2025-12-02T06:55:27.076026+00:00",
  "kcps": {
    "metar": "KCPS 020653Z AUTO 31010KT 10SM BKN014 OVC024 M04/M06 A3006 RMK AO2 SNE09 SLP186 P0000 T10391061 $",
    "windDirection": 310,
    "windSpeed": 10,
    "windGust": null,
    "visibility": 10,
    "temperatureC": -4,
    "dewPointC": -6,
    "cloudCeiling": 1400,
    "altimeter": "A3006",
    "timestamp": "2025-12-02T06:53:00+00:00",
    "station": "KCPS"
  },
  "kstl": {
    "metar": "KSTL 020651Z 31008KT 9SM SCT011 BKN024 M04/M07 A3006 RMK AO2 SNE00 SLP193 P0000 T10441067 $",
    "windDirection": 310,
    "windSpeed": 8,
    "windGust": null,
    "visibility": 9,
    "temperatureC": -4,
    "dewPointC": -7,
    "cloudCeiling": 2400,
    "altimeter": "A3006",
    "timestamp": "2025-12-02T06:51:00+00:00",
    "station": "KSTL"
  }
}