{
  "lastUpdated": "2025-11-01T09:21:13.594921+00:00",
  "kcps": {
    "metar": "KCPS 010753Z AUTO 29005KT 10SM FEW070 OVC090 09/00 A3007 RMK AO2 SLP183 T00940000 TSNO",
    "windDirection": 290,
    "windSpeed": 5,
    "windGust": null,
    "visibility": 10,
    "temperatureC": 9,
    "dewPointC": 0,
    "cloudCeiling": 9000,
    "altimeter": "A3007",
    "timestamp": "2025-11-01T07:53:00+00:00",
    "station": "KCPS"
  },
  "kstl": {
    "metar": "KSTL 010851Z 24005KT 10SM BKN095 08/01 A3007 RMK AO2 SLP180 T00780006 50004 $",
    "windDirection": 240,
    "windSpeed": 5,
    "windGust": null,
    "visibility": 10,
    "temperatureC": 8,
    "dewPointC": 1,
    "cloudCeiling": 9500,
    "altimeter": "A3007",
    "timestamp": "2025-11-01T08:51:00+00:00",
    "station": "KSTL"
  }
}