{
  "lastUpdated": "2026-04-20T19:37:57.464565+00:00",
  "kcps": {
    "metar": "KCPS 201853Z 12007KT 10SM CLR 17/02 A3028 RMK AO2 SLP255 T01670022 $",
    "windDirection": 120,
    "windSpeed": 7,
    "windGust": null,
    "visibility": 10,
    "temperatureC": 17,
    "dewPointC": 2,
    "cloudCeiling": 99999,
    "altimeter": "A3028",
    "timestamp": "2026-04-20T18:53:00+00:00",
    "station": "KCPS"
  },
  "kstl": {
    "metar": "KSTL 201851Z 18007G16KT 140V210 10SM CLR 17/02 A3028 RMK AO2 SLP254 T01670017 $",
    "windDirection": 180,
    "windSpeed": 7,
    "windGust": 16,
    "visibility": 10,
    "temperatureC": 17,
    "dewPointC": 2,
    "cloudCeiling": 99999,
    "altimeter": "A3028",
    "timestamp": "2026-04-20T18:51:00+00:00",
    "station": "KSTL"
  }
}