{
  "lastUpdated": "2025-12-24T08:41:10.913393+00:00",
  "kcps": {
    "metar": "KCPS 240827Z 08003KT 2SM BR FEW041 BKN050 08/08 A3023 RMK AO2 T00780078 $",
    "windDirection": 80,
    "windSpeed": 3,
    "windGust": null,
    "visibility": 2,
    "temperatureC": 8,
    "dewPointC": 8,
    "cloudCeiling": 5000,
    "altimeter": "A3023",
    "timestamp": "2025-12-24T08:27:00+00:00",
    "station": "KCPS"
  },
  "kstl": {
    "metar": "KSTL 240751Z 08003KT 6SM BCFG BR FEW000 FEW003 SCT050 BKN250 06/06 A3025 RMK AO2 SLP241 VIS W-NW 2 FG FEW000 T00610061 $",
    "windDirection": 80,
    "windSpeed": 3,
    "windGust": null,
    "visibility": 6,
    "temperatureC": 6,
    "dewPointC": 6,
    "cloudCeiling": 25000,
    "altimeter": "A3025",
    "timestamp": "2025-12-24T07:51:00+00:00",
    "station": "KSTL"
  }
}