{
  "lastUpdated": "2026-04-20T10:51:09.487885+00:00",
  "kcps": {
    "metar": "KCPS 200953Z AUTO 00000KT 10SM CLR 06/01 A3028 RMK AO2 SLP254 T00610006 $",
    "windDirection": 0,
    "windSpeed": 0,
    "windGust": null,
    "visibility": 10,
    "temperatureC": 6,
    "dewPointC": 1,
    "cloudCeiling": 99999,
    "altimeter": "A3028",
    "timestamp": "2026-04-20T09:53:00+00:00",
    "station": "KCPS"
  },
  "kstl": {
    "metar": "KSTL 200951Z 06004KT 10SM CLR 07/M01 A3028 RMK AO2 SLP253 T00721006 $",
    "windDirection": 60,
    "windSpeed": 4,
    "windGust": null,
    "visibility": 10,
    "temperatureC": 7,
    "dewPointC": -1,
    "cloudCeiling": 99999,
    "altimeter": "A3028",
    "timestamp": "2026-04-20T09:51:00+00:00",
    "station": "KSTL"
  }
}