{
  "lastUpdated": "2026-02-01T00:57:59.331221+00:00",
  "kcps": {
    "metar": "KCPS 010053Z 30008KT 10SM CLR M09/M16 A3050 RMK AO2 SLP336 T10891156 $",
    "windDirection": 300,
    "windSpeed": 8,
    "windGust": null,
    "visibility": 10,
    "temperatureC": -9,
    "dewPointC": -16,
    "cloudCeiling": 99999,
    "altimeter": "A3050",
    "timestamp": "2026-02-01T00:53:00+00:00",
    "station": "KCPS"
  },
  "kstl": {
    "metar": "KSTL 010051Z 30008KT 10SM FEW250 M09/M16 A3049 RMK AO2 SLP349 T10941156 $",
    "windDirection": 300,
    "windSpeed": 8,
    "windGust": null,
    "visibility": 10,
    "temperatureC": -9,
    "dewPointC": -16,
    "cloudCeiling": null,
    "altimeter": "A3049",
    "timestamp": "2026-02-01T00:51:00+00:00",
    "station": "KSTL"
  }
}