{
  "lastUpdated": "2025-12-19T22:02:37.234970+00:00",
  "kcps": {
    "metar": "KCPS 192153Z 22003KT 10SM CLR 03/M11 A3008 RMK AO2 SLP191 T00331111",
    "windDirection": 220,
    "windSpeed": 3,
    "windGust": null,
    "visibility": 10,
    "temperatureC": 3,
    "dewPointC": -11,
    "cloudCeiling": 99999,
    "altimeter": "A3008",
    "timestamp": "2025-12-19T21:53:00+00:00",
    "station": "KCPS"
  },
  "kstl": {
    "metar": "KSTL 192151Z 20005KT 10SM BKN250 03/M12 A3007 RMK AO2 SLP194 T00331122 $",
    "windDirection": 200,
    "windSpeed": 5,
    "windGust": null,
    "visibility": 10,
    "temperatureC": 3,
    "dewPointC": -12,
    "cloudCeiling": 25000,
    "altimeter": "A3007",
    "timestamp": "2025-12-19T21:51:00+00:00",
    "station": "KSTL"
  }
}