{
  "lastUpdated": "2026-04-06T01:53:08.603718+00:00",
  "kcps": {
    "metar": "KCPS 060053Z 32008KT 10SM CLR 11/00 A3030 RMK AO2 SLP261 T01110000 $",
    "windDirection": 320,
    "windSpeed": 8,
    "windGust": null,
    "visibility": 10,
    "temperatureC": 11,
    "dewPointC": 0,
    "cloudCeiling": 99999,
    "altimeter": "A3030",
    "timestamp": "2026-04-06T00:53:00+00:00",
    "station": "KCPS"
  },
  "kstl": {
    "metar": "KSTL 060051Z 31005KT 10SM CLR 12/01 A3030 RMK AO2 SLP264 T01170006 $",
    "windDirection": 310,
    "windSpeed": 5,
    "windGust": null,
    "visibility": 10,
    "temperatureC": 12,
    "dewPointC": 1,
    "cloudCeiling": 99999,
    "altimeter": "A3030",
    "timestamp": "2026-04-06T00:51:00+00:00",
    "station": "KSTL"
  }
}