{
  "lastUpdated": "2026-02-25T15:17:49.317624+00:00",
  "kcps": {
    "metar": "KCPS 251453Z 00000KT 10SM CLR 07/M01 A2978 RMK AO2 SLP084 T00671011 51020 $",
    "windDirection": 0,
    "windSpeed": 0,
    "windGust": null,
    "visibility": 10,
    "temperatureC": 7,
    "dewPointC": -1,
    "cloudCeiling": 99999,
    "altimeter": "A2978",
    "timestamp": "2026-02-25T14:53:00+00:00",
    "station": "KCPS"
  },
  "kstl": {
    "metar": "KSTL 251451Z 00000KT 10SM BKN140 OVC250 07/M02 A2977 RMK AO2 SLP084 T00671022 51018 $",
    "windDirection": 0,
    "windSpeed": 0,
    "windGust": null,
    "visibility": 10,
    "temperatureC": 7,
    "dewPointC": -2,
    "cloudCeiling": 14000,
    "altimeter": "A2977",
    "timestamp": "2026-02-25T14:51:00+00:00",
    "station": "KSTL"
  }
}