{
  "lastUpdated": "2026-01-06T12:24:01.982741+00:00",
  "kcps": {
    "metar": "KCPS 061219Z 23005KT 10SM SCT028 11/08 A2969 RMK AO2 T01060078",
    "windDirection": 230,
    "windSpeed": 5,
    "windGust": null,
    "visibility": 10,
    "temperatureC": 11,
    "dewPointC": 8,
    "cloudCeiling": null,
    "altimeter": "A2969",
    "timestamp": "2026-01-06T12:19:00+00:00",
    "station": "KCPS"
  },
  "kstl": {
    "metar": "KSTL 061151Z 25014G21KT 10SM OVC025 12/09 A2968 RMK AO2 SLP050 T01220089 10122 20094 53011 $",
    "windDirection": 250,
    "windSpeed": 14,
    "windGust": 21,
    "visibility": 10,
    "temperatureC": 12,
    "dewPointC": 9,
    "cloudCeiling": 2500,
    "altimeter": "A2968",
    "timestamp": "2026-01-06T11:51:00+00:00",
    "station": "KSTL"
  }
}