{
  "lastUpdated": "2025-11-12T03:08:03.865825+00:00",
  "kcps": {
    "metar": "KCPS 120253Z 19006KT 10SM CLR 08/M03 A2993 RMK AO2 SLP138 T00781028 51015 $",
    "windDirection": 190,
    "windSpeed": 6,
    "windGust": null,
    "visibility": 10,
    "temperatureC": 8,
    "dewPointC": -3,
    "cloudCeiling": 99999,
    "altimeter": "A2993",
    "timestamp": "2025-11-12T02:53:00+00:00",
    "station": "KCPS"
  },
  "kstl": {
    "metar": "KSTL 120251Z 28004KT 10SM CLR 08/M02 A2994 RMK AO2 SLP143 T00831017 53017 $",
    "windDirection": 280,
    "windSpeed": 4,
    "windGust": null,
    "visibility": 10,
    "temperatureC": 8,
    "dewPointC": -2,
    "cloudCeiling": 99999,
    "altimeter": "A2994",
    "timestamp": "2025-11-12T02:51:00+00:00",
    "station": "KSTL"
  }
}