{
  "lastUpdated": "2025-10-10T17:33:03.229389+00:00",
  "kcps": {
    "metar": "KCPS 101653Z 18008KT 10SM CLR 17/08 A3020 RMK AO2 SLP227 T01720083",
    "windDirection": 180,
    "windSpeed": 8,
    "windGust": null,
    "visibility": 10,
    "temperatureC": 17,
    "dewPointC": 8,
    "cloudCeiling": 99999,
    "altimeter": "A3020",
    "timestamp": "2025-10-10T16:53:00+00:00",
    "station": "KCPS"
  },
  "kstl": {
    "metar": "KSTL 101651Z 17008KT 10SM FEW050 FEW085 SCT120 BKN250 17/08 A3019 RMK AO2 SLP223 T01670078 $",
    "windDirection": 170,
    "windSpeed": 8,
    "windGust": null,
    "visibility": 10,
    "temperatureC": 17,
    "dewPointC": 8,
    "cloudCeiling": 25000,
    "altimeter": "A3019",
    "timestamp": "2025-10-10T16:51:00+00:00",
    "station": "KSTL"
  }
}