{
  "lastUpdated": "2026-02-18T10:51:19.865262+00:00",
  "kcps": {
    "metar": "KCPS 180953Z AUTO 21008G22KT 10SM CLR 16/11 A2959 RMK AO2 SLP017 T01560111 $",
    "windDirection": 210,
    "windSpeed": 8,
    "windGust": 22,
    "visibility": 10,
    "temperatureC": 16,
    "dewPointC": 11,
    "cloudCeiling": 99999,
    "altimeter": "A2959",
    "timestamp": "2026-02-18T09:53:00+00:00",
    "station": "KCPS"
  },
  "kstl": {
    "metar": "KSTL 180951Z 22011KT 10SM FEW040 BKN150 16/11 A2958 RMK AO2 SLP012 T01560111 $",
    "windDirection": 220,
    "windSpeed": 11,
    "windGust": null,
    "visibility": 10,
    "temperatureC": 16,
    "dewPointC": 11,
    "cloudCeiling": 15000,
    "altimeter": "A2958",
    "timestamp": "2026-02-18T09:51:00+00:00",
    "station": "KSTL"
  }
}