{
  "lastUpdated": "2026-03-30T07:02:44.226601+00:00",
  "kcps": {
    "metar": "KCPS 300653Z AUTO 18005KT 10SM CLR 17/07 A3004 RMK AO2 SLP171 T01670072 $",
    "windDirection": 180,
    "windSpeed": 5,
    "windGust": null,
    "visibility": 10,
    "temperatureC": 17,
    "dewPointC": 7,
    "cloudCeiling": 99999,
    "altimeter": "A3004",
    "timestamp": "2026-03-30T06:53:00+00:00",
    "station": "KCPS"
  },
  "kstl": {
    "metar": "KSTL 300651Z 20012G20KT 10SM CLR 18/07 A3003 RMK AO2 SLP165 T01780067 $",
    "windDirection": 200,
    "windSpeed": 12,
    "windGust": 20,
    "visibility": 10,
    "temperatureC": 18,
    "dewPointC": 7,
    "cloudCeiling": 99999,
    "altimeter": "A3003",
    "timestamp": "2026-03-30T06:51:00+00:00",
    "station": "KSTL"
  }
}