{
  "lastUpdated": "2026-02-07T00:47:44.583841+00:00",
  "kcps": {
    "metar": "KCPS 062353Z 33011KT 10SM CLR 04/M01 A3014 RMK AO2 PK WND 33026/2302 SLP209 T00441006 10100 20044 51037 $",
    "windDirection": 330,
    "windSpeed": 11,
    "windGust": null,
    "visibility": 10,
    "temperatureC": 4,
    "dewPointC": -1,
    "cloudCeiling": 99999,
    "altimeter": "A3014",
    "timestamp": "2026-02-06T23:53:00+00:00",
    "station": "KCPS"
  },
  "kstl": {
    "metar": "KSTL 062351Z 32008KT 10SM FEW030 FEW250 04/M01 A3014 RMK AO2 SLP213 T00441006 10100 20039 53036 $",
    "windDirection": 320,
    "windSpeed": 8,
    "windGust": null,
    "visibility": 10,
    "temperatureC": 4,
    "dewPointC": -1,
    "cloudCeiling": null,
    "altimeter": "A3014",
    "timestamp": "2026-02-06T23:51:00+00:00",
    "station": "KSTL"
  }
}