{
  "lastUpdated": "2026-04-24T17:45:11.397219+00:00",
  "kcps": {
    "metar": "KCPS 241653Z VRB03KT 10SM CLR 19/15 A2979 RMK AO2 SLP083 T01890150 $",
    "windDirection": null,
    "windSpeed": null,
    "windGust": null,
    "visibility": 10,
    "temperatureC": 19,
    "dewPointC": 15,
    "cloudCeiling": 99999,
    "altimeter": "A2979",
    "timestamp": "2026-04-24T16:53:00+00:00",
    "station": "KCPS"
  },
  "kstl": {
    "metar": "KSTL 241651Z 26006KT 10SM FEW020 SCT100 OVC210 19/14 A2979 RMK AO2 SLP081 T01890144 $",
    "windDirection": 260,
    "windSpeed": 6,
    "windGust": null,
    "visibility": 10,
    "temperatureC": 19,
    "dewPointC": 14,
    "cloudCeiling": 21000,
    "altimeter": "A2979",
    "timestamp": "2026-04-24T16:51:00+00:00",
    "station": "KSTL"
  }
}