{
  "lastUpdated": "2025-12-05T08:02:40.199939+00:00",
  "kcps": {
    "metar": "KCPS 050753Z AUTO 00000KT 10SM CLR M11/M14 A3017 RMK AO2 SLP223 T11111139",
    "windDirection": 0,
    "windSpeed": 0,
    "windGust": null,
    "visibility": 10,
    "temperatureC": -11,
    "dewPointC": -14,
    "cloudCeiling": 99999,
    "altimeter": "A3017",
    "timestamp": "2025-12-05T07:53:00+00:00",
    "station": "KCPS"
  },
  "kstl": {
    "metar": "KSTL 050751Z 07003KT 10SM CLR M09/M14 A3016 RMK AO2 SLP230 T10941144 $",
    "windDirection": 70,
    "windSpeed": 3,
    "windGust": null,
    "visibility": 10,
    "temperatureC": -9,
    "dewPointC": -14,
    "cloudCeiling": 99999,
    "altimeter": "A3016",
    "timestamp": "2025-12-05T07:51:00+00:00",
    "station": "KSTL"
  }
}