{
  "lastUpdated": "2026-01-17T18:06:27.349966+00:00",
  "kcps": {
    "metar": "KCPS 171801Z 29008KT 3SM -SN FEW017 BKN022 BKN034 M06/M09 A3017 RMK AO2 P0000 T10611094 $",
    "windDirection": 290,
    "windSpeed": 8,
    "windGust": null,
    "visibility": 3,
    "temperatureC": -6,
    "dewPointC": -9,
    "cloudCeiling": 2200,
    "altimeter": "A3017",
    "timestamp": "2026-01-17T18:01:00+00:00",
    "station": "KCPS"
  },
  "kstl": {
    "metar": "KSTL 171751Z 31010KT 9SM -SN BKN031 OVC060 M06/M12 A3016 RMK AO2 SLP228 P0000 60001 T10611117 11050 21072 50014 $",
    "windDirection": 310,
    "windSpeed": 10,
    "windGust": null,
    "visibility": 9,
    "temperatureC": -6,
    "dewPointC": -12,
    "cloudCeiling": 3100,
    "altimeter": "A3016",
    "timestamp": "2026-01-17T17:51:00+00:00",
    "station": "KSTL"
  }
}