{
  "lastUpdated": "2026-05-17T10:44:19.157739+00:00",
  "kcps": {
    "metar": "KCPS 170953Z AUTO 15004KT 8SM CLR 18/17 A2991 RMK AO2 SLP124 T01780172 $",
    "windDirection": 150,
    "windSpeed": 4,
    "windGust": null,
    "visibility": 8,
    "temperatureC": 18,
    "dewPointC": 17,
    "cloudCeiling": 99999,
    "altimeter": "A2991",
    "timestamp": "2026-05-17T09:53:00+00:00",
    "station": "KCPS"
  },
  "kstl": {
    "metar": "KSTL 170951Z 13008KT 10SM SCT150 SCT250 19/17 A2991 RMK AO2 SLP118 T01940172 $",
    "windDirection": 130,
    "windSpeed": 8,
    "windGust": null,
    "visibility": 10,
    "temperatureC": 19,
    "dewPointC": 17,
    "cloudCeiling": null,
    "altimeter": "A2991",
    "timestamp": "2026-05-17T09:51:00+00:00",
    "station": "KSTL"
  }
}