{
  "lastUpdated": "2026-03-21T03:29:53.352171+00:00",
  "kcps": {
    "metar": "KCPS 210253Z 03006KT 10SM CLR 22/08 A2988 RMK AO2 SLP114 T02220078 53017 $",
    "windDirection": 30,
    "windSpeed": 6,
    "windGust": null,
    "visibility": 10,
    "temperatureC": 22,
    "dewPointC": 8,
    "cloudCeiling": 99999,
    "altimeter": "A2988",
    "timestamp": "2026-03-21T02:53:00+00:00",
    "station": "KCPS"
  },
  "kstl": {
    "metar": "KSTL 210251Z 06005KT 10SM SCT250 23/07 A2989 RMK AO2 SLP113 T02280067 53014 $",
    "windDirection": 60,
    "windSpeed": 5,
    "windGust": null,
    "visibility": 10,
    "temperatureC": 23,
    "dewPointC": 7,
    "cloudCeiling": null,
    "altimeter": "A2989",
    "timestamp": "2026-03-21T02:51:00+00:00",
    "station": "KSTL"
  }
}