{
  "lastUpdated": "2026-01-31T15:02:35.582348+00:00",
  "kcps": {
    "metar": "KCPS 311453Z 32013KT 10SM SCT085 M13/M18 A3056 RMK AO2 SLP357 T11281183 53005 $",
    "windDirection": 320,
    "windSpeed": 13,
    "windGust": null,
    "visibility": 10,
    "temperatureC": -13,
    "dewPointC": -18,
    "cloudCeiling": null,
    "altimeter": "A3056",
    "timestamp": "2026-01-31T14:53:00+00:00",
    "station": "KCPS"
  },
  "kstl": {
    "metar": "KSTL 311451Z 30011KT 10SM FEW065 SCT120 M13/M18 A3055 RMK AO2 SLP368 T11331183 53006 $",
    "windDirection": 300,
    "windSpeed": 11,
    "windGust": null,
    "visibility": 10,
    "temperatureC": -13,
    "dewPointC": -18,
    "cloudCeiling": null,
    "altimeter": "A3055",
    "timestamp": "2026-01-31T14:51:00+00:00",
    "station": "KSTL"
  }
}