{
  "lastUpdated": "2025-12-26T19:20:47.095831+00:00",
  "kcps": {
    "metar": "KCPS 261853Z 32011KT 10SM CLR 22/14 A2978 RMK AO2 SLP083 T02170139 $",
    "windDirection": 320,
    "windSpeed": 11,
    "windGust": null,
    "visibility": 10,
    "temperatureC": 22,
    "dewPointC": 14,
    "cloudCeiling": 99999,
    "altimeter": "A2978",
    "timestamp": "2025-12-26T18:53:00+00:00",
    "station": "KCPS"
  },
  "kstl": {
    "metar": "KSTL 261851Z 33014KT 10SM SCT021 SCT250 18/13 A2980 RMK AO2 SLP087 T01830128 $",
    "windDirection": 330,
    "windSpeed": 14,
    "windGust": null,
    "visibility": 10,
    "temperatureC": 18,
    "dewPointC": 13,
    "cloudCeiling": null,
    "altimeter": "A2980",
    "timestamp": "2025-12-26T18:51:00+00:00",
    "station": "KSTL"
  }
}