{
  "lastUpdated": "2025-11-16T05:34:50.562142+00:00",
  "kcps": {
    "metar": "KCPS 160453Z AUTO 35007KT 10SM CLR 16/07 A2982 RMK AO2 SLP095 T01560067 $",
    "windDirection": 350,
    "windSpeed": 7,
    "windGust": null,
    "visibility": 10,
    "temperatureC": 16,
    "dewPointC": 7,
    "cloudCeiling": 99999,
    "altimeter": "A2982",
    "timestamp": "2025-11-16T04:53:00+00:00",
    "station": "KCPS"
  },
  "kstl": {
    "metar": "KSTL 160451Z 33006KT 10SM SCT250 14/06 A2984 RMK AO2 SLP097 T01390061 $",
    "windDirection": 330,
    "windSpeed": 6,
    "windGust": null,
    "visibility": 10,
    "temperatureC": 14,
    "dewPointC": 6,
    "cloudCeiling": null,
    "altimeter": "A2984",
    "timestamp": "2025-11-16T04:51:00+00:00",
    "station": "KSTL"
  }
}