{
  "lastUpdated": "2026-04-18T12:13:00.759907+00:00",
  "kcps": {
    "metar": "KCPS 181153Z 29004KT 10SM OVC033 09/07 A2992 RMK AO2 RAE51 SLP131 P0004 60064 70081 T00890067 10172 20089 53034 $",
    "windDirection": 290,
    "windSpeed": 4,
    "windGust": null,
    "visibility": 10,
    "temperatureC": 9,
    "dewPointC": 7,
    "cloudCeiling": 3300,
    "altimeter": "A2992",
    "timestamp": "2026-04-18T11:53:00+00:00",
    "station": "KCPS"
  },
  "kstl": {
    "metar": "KSTL 181151Z 30007KT 10SM BKN040 OVC080 09/07 A2991 RMK AO2 RAE30 SLP121 P0001 60058 70082 T00890072 10167 20089 53027 $",
    "windDirection": 300,
    "windSpeed": 7,
    "windGust": null,
    "visibility": 10,
    "temperatureC": 9,
    "dewPointC": 7,
    "cloudCeiling": 4000,
    "altimeter": "A2991",
    "timestamp": "2026-04-18T11:51:00+00:00",
    "station": "KSTL"
  }
}