{
  "lastUpdated": "2026-05-26T16:04:41.931647+00:00",
  "kcps": {
    "metar": "KCPS 261553Z 05008KT 10SM CLR 24/19 A3001 RMK AO2 SLP159 T02440194 $",
    "windDirection": 50,
    "windSpeed": 8,
    "windGust": null,
    "visibility": 10,
    "temperatureC": 24,
    "dewPointC": 19,
    "cloudCeiling": 99999,
    "altimeter": "A3001",
    "timestamp": "2026-05-26T15:53:00+00:00",
    "station": "KCPS"
  },
  "kstl": {
    "metar": "KSTL 261551Z 09007KT 10SM FEW030 SCT150 BKN250 25/19 A3003 RMK AO2 SLP158 T02500189 $",
    "windDirection": 90,
    "windSpeed": 7,
    "windGust": null,
    "visibility": 10,
    "temperatureC": 25,
    "dewPointC": 19,
    "cloudCeiling": 25000,
    "altimeter": "A3003",
    "timestamp": "2026-05-26T15:51:00+00:00",
    "station": "KSTL"
  }
}