{
  "lastUpdated": "2026-05-17T13:07:43.145033+00:00",
  "kcps": {
    "metar": "KCPS 171253Z VRB06KT 10SM FEW055 23/18 A2993 RMK AO2 SLP130 T02280178 $",
    "windDirection": null,
    "windSpeed": null,
    "windGust": null,
    "visibility": 10,
    "temperatureC": 23,
    "dewPointC": 18,
    "cloudCeiling": null,
    "altimeter": "A2993",
    "timestamp": "2026-05-17T12:53:00+00:00",
    "station": "KCPS"
  },
  "kstl": {
    "metar": "KSTL 171251Z 18009KT 10SM SCT055 SCT150 OVC250 22/18 A2991 RMK AO2 SLP120 T02220178 $",
    "windDirection": 180,
    "windSpeed": 9,
    "windGust": null,
    "visibility": 10,
    "temperatureC": 22,
    "dewPointC": 18,
    "cloudCeiling": 25000,
    "altimeter": "A2991",
    "timestamp": "2026-05-17T12:51:00+00:00",
    "station": "KSTL"
  }
}