{
  "lastUpdated": "2026-04-25T23:43:38.143307+00:00",
  "kcps": {
    "metar": "KCPS 252253Z 09008KT 10SM CLR 24/11 A2984 RMK AO2 SLP101 T02440106 $",
    "windDirection": 90,
    "windSpeed": 8,
    "windGust": null,
    "visibility": 10,
    "temperatureC": 24,
    "dewPointC": 11,
    "cloudCeiling": 99999,
    "altimeter": "A2984",
    "timestamp": "2026-04-25T22:53:00+00:00",
    "station": "KCPS"
  },
  "kstl": {
    "metar": "KSTL 252251Z 07008KT 10SM SCT250 24/10 A2985 RMK AO2 SLP102 T02390100 $",
    "windDirection": 70,
    "windSpeed": 8,
    "windGust": null,
    "visibility": 10,
    "temperatureC": 24,
    "dewPointC": 10,
    "cloudCeiling": null,
    "altimeter": "A2985",
    "timestamp": "2026-04-25T22:51:00+00:00",
    "station": "KSTL"
  }
}