{
  "lastUpdated": "2025-12-26T21:46:05.647993+00:00",
  "kcps": {
    "metar": "KCPS 261953Z 33010KT 10SM CLR 21/13 A2980 RMK AO2 SLP088 T02060133 $",
    "windDirection": 330,
    "windSpeed": 10,
    "windGust": null,
    "visibility": 10,
    "temperatureC": 21,
    "dewPointC": 13,
    "cloudCeiling": 99999,
    "altimeter": "A2980",
    "timestamp": "2025-12-26T19:53:00+00:00",
    "station": "KCPS"
  },
  "kstl": {
    "metar": "KSTL 262051Z 34009KT 10SM FEW022 FEW250 16/11 A2984 RMK AO2 SLP102 T01610106 53017 $",
    "windDirection": 340,
    "windSpeed": 9,
    "windGust": null,
    "visibility": 10,
    "temperatureC": 16,
    "dewPointC": 11,
    "cloudCeiling": null,
    "altimeter": "A2984",
    "timestamp": "2025-12-26T20:51:00+00:00",
    "station": "KSTL"
  }
}