{
  "lastUpdated": "2026-02-24T11:28:37.878146+00:00",
  "kcps": {
    "metar": "KCPS 241053Z AUTO 17007KT 10SM CLR M04/M11 A3015 RMK AO2 SLP215 T10441106 PNO $",
    "windDirection": 170,
    "windSpeed": 7,
    "windGust": null,
    "visibility": 10,
    "temperatureC": -4,
    "dewPointC": -11,
    "cloudCeiling": 99999,
    "altimeter": "A3015",
    "timestamp": "2026-02-24T10:53:00+00:00",
    "station": "KCPS"
  },
  "kstl": {
    "metar": "KSTL 241051Z 17008KT 10SM BKN200 BKN250 M04/M12 A3013 RMK AO2 SLP214 T10391117 $",
    "windDirection": 170,
    "windSpeed": 8,
    "windGust": null,
    "visibility": 10,
    "temperatureC": -4,
    "dewPointC": -12,
    "cloudCeiling": 20000,
    "altimeter": "A3013",
    "timestamp": "2026-02-24T10:51:00+00:00",
    "station": "KSTL"
  }
}