{
  "lastUpdated": "2025-11-18T15:48:42.347640+00:00",
  "kcps": {
    "metar": "KCPS 181538Z 22007KT 10SM BKN026 BKN033 OVC039 16/12 A2983 RMK AO2 T01610122",
    "windDirection": 220,
    "windSpeed": 7,
    "windGust": null,
    "visibility": 10,
    "temperatureC": 16,
    "dewPointC": 12,
    "cloudCeiling": 2600,
    "altimeter": "A2983",
    "timestamp": "2025-11-18T15:38:00+00:00",
    "station": "KCPS"
  },
  "kstl": {
    "metar": "KSTL 181543Z 00000KT 10SM SCT027 BKN033 BKN039 15/12 A2982 RMK AO2 T01500117 $",
    "windDirection": 0,
    "windSpeed": 0,
    "windGust": null,
    "visibility": 10,
    "temperatureC": 15,
    "dewPointC": 12,
    "cloudCeiling": 3300,
    "altimeter": "A2982",
    "timestamp": "2025-11-18T15:43:00+00:00",
    "station": "KSTL"
  }
}