{
  "lastUpdated": "2026-05-05T20:33:29.554528+00:00",
  "kcps": {
    "metar": "KCPS 052004Z 01014G23KT 10SM SCT022 BKN028 OVC034 11/07 A2984 RMK AO2 T01060072 $",
    "windDirection": 10,
    "windSpeed": 14,
    "windGust": 23,
    "visibility": 10,
    "temperatureC": 11,
    "dewPointC": 7,
    "cloudCeiling": 2800,
    "altimeter": "A2984",
    "timestamp": "2026-05-05T20:04:00+00:00",
    "station": "KCPS"
  },
  "kstl": {
    "metar": "KSTL 052024Z 35008KT 6SM -RA BR FEW009 SCT013 OVC046 08/07 A2984 RMK AO2 P0003 T00830072 $",
    "windDirection": 350,
    "windSpeed": 8,
    "windGust": null,
    "visibility": 6,
    "temperatureC": 8,
    "dewPointC": 7,
    "cloudCeiling": 4600,
    "altimeter": "A2984",
    "timestamp": "2026-05-05T20:24:00+00:00",
    "station": "KSTL"
  }
}