{
  "lastUpdated": "2026-05-31T12:07:22.251852+00:00",
  "kcps": {
    "metar": "KCPS 311153Z 11004KT 10SM CLR 19/15 A3001 RMK AO2 SLP160 70006 T01940150 10211 20183 53010 $",
    "windDirection": 110,
    "windSpeed": 4,
    "windGust": null,
    "visibility": 10,
    "temperatureC": 19,
    "dewPointC": 15,
    "cloudCeiling": 99999,
    "altimeter": "A3001",
    "timestamp": "2026-05-31T11:53:00+00:00",
    "station": "KCPS"
  },
  "kstl": {
    "metar": "KSTL 311151Z 11007KT 10SM BKN120 OVC250 21/14 A3002 RMK AO2 SLP156 70002 T02060144 10228 20206 53010 $",
    "windDirection": 110,
    "windSpeed": 7,
    "windGust": null,
    "visibility": 10,
    "temperatureC": 21,
    "dewPointC": 14,
    "cloudCeiling": 12000,
    "altimeter": "A3002",
    "timestamp": "2026-05-31T11:51:00+00:00",
    "station": "KSTL"
  }
}