{
  "lastUpdated": "2025-11-06T12:44:16.810878+00:00",
  "kcps": {
    "metar": "KCPS 061153Z AUTO 00000KT 9SM CLR 01/01 A3024 RMK AO2 SLP241 T00060006 10050 20006 55004 TSNO $",
    "windDirection": 0,
    "windSpeed": 0,
    "windGust": null,
    "visibility": 9,
    "temperatureC": 1,
    "dewPointC": 1,
    "cloudCeiling": 99999,
    "altimeter": "A3024",
    "timestamp": "2025-11-06T11:53:00+00:00",
    "station": "KCPS"
  },
  "kstl": {
    "metar": "KSTL 061151Z 11005KT 10SM CLR 03/M01 A3024 RMK AO2 SLP241 T00331006 10067 20033 55004 $",
    "windDirection": 110,
    "windSpeed": 5,
    "windGust": null,
    "visibility": 10,
    "temperatureC": 3,
    "dewPointC": -1,
    "cloudCeiling": 99999,
    "altimeter": "A3024",
    "timestamp": "2025-11-06T11:51:00+00:00",
    "station": "KSTL"
  }
}