{
  "lastUpdated": "2026-01-24T23:02:19.585623+00:00",
  "kcps": {
    "metar": "KCPS 242253Z 03008KT 3SM -SN BKN042 OVC060 M13/M16 A3042 RMK AO2 SLP310 P0000 T11331161 $",
    "windDirection": 30,
    "windSpeed": 8,
    "windGust": null,
    "visibility": 3,
    "temperatureC": -13,
    "dewPointC": -16,
    "cloudCeiling": 4200,
    "altimeter": "A3042",
    "timestamp": "2026-01-24T22:53:00+00:00",
    "station": "KCPS"
  },
  "kstl": {
    "metar": "KSTL 242251Z 03009G16KT 1SM R30R/P6000FT -SN OVC032 M13/M16 A3041 RMK AO2 SLP322 P0002 T11331161 $",
    "windDirection": 30,
    "windSpeed": 9,
    "windGust": 16,
    "visibility": 1,
    "temperatureC": -13,
    "dewPointC": -16,
    "cloudCeiling": 3200,
    "altimeter": "A3041",
    "timestamp": "2026-01-24T22:51:00+00:00",
    "station": "KSTL"
  }
}