{
  "lastUpdated": "2025-10-18T16:47:16.088660+00:00",
  "kcps": {
    "metar": "KCPS 181639Z 00000KT 1 1/2SM +TSRA BR BKN008 BKN024 OVC039 19/19 A2982 RMK AO2 LTG DSNT ALQDS RAB1558 TSB1559 T01940189 PNO $",
    "windDirection": 0,
    "windSpeed": 0,
    "windGust": null,
    "visibility": 0.5,
    "temperatureC": 19,
    "dewPointC": 19,
    "cloudCeiling": 800,
    "altimeter": "A2982",
    "timestamp": "2025-10-18T16:39:00+00:00",
    "station": "KCPS"
  },
  "kstl": {
    "metar": "KSTL 181623Z 25008G20KT 7SM -TSRA SCT010 BKN034CB OVC100 19/19 A2980 RMK AO2 OCNL LTGICCG N-S TS N-S MOV NE P0019 T01940189 $",
    "windDirection": 250,
    "windSpeed": 8,
    "windGust": 20,
    "visibility": 7,
    "temperatureC": 19,
    "dewPointC": 19,
    "cloudCeiling": 3400,
    "altimeter": "A2980",
    "timestamp": "2025-10-18T16:23:00+00:00",
    "station": "KSTL"
  }
}