{
  "lastUpdated": "2025-10-13T17:02:33.807304+00:00",
  "kcps": {
    "metar": "KCPS 131653Z 25003KT 10SM BKN120 22/13 A3007 RMK AO2 RAB08E17 SLP180 P0000 T02220133 $",
    "windDirection": 250,
    "windSpeed": 3,
    "windGust": null,
    "visibility": 10,
    "temperatureC": 22,
    "dewPointC": 13,
    "cloudCeiling": 12000,
    "altimeter": "A3007",
    "timestamp": "2025-10-13T16:53:00+00:00",
    "station": "KCPS"
  },
  "kstl": {
    "metar": "KSTL 131651Z VRB03KT 10SM FEW110 BKN150 23/13 A3006 RMK AO2 SLP172 T02330133 $",
    "windDirection": null,
    "windSpeed": null,
    "windGust": null,
    "visibility": 10,
    "temperatureC": 23,
    "dewPointC": 13,
    "cloudCeiling": 15000,
    "altimeter": "A3006",
    "timestamp": "2025-10-13T16:51:00+00:00",
    "station": "KSTL"
  }
}