{
  "lastUpdated": "2026-01-06T06:02:53.727969+00:00",
  "kcps": {
    "metar": "KCPS 060553Z 20008G16KT 10SM CLR 12/07 A2970 RMK AO2 SLP056 T01170072 10122 20067 401611028 58003",
    "windDirection": 200,
    "windSpeed": 8,
    "windGust": 16,
    "visibility": 10,
    "temperatureC": 12,
    "dewPointC": 7,
    "cloudCeiling": 99999,
    "altimeter": "A2970",
    "timestamp": "2026-01-06T05:53:00+00:00",
    "station": "KCPS"
  },
  "kstl": {
    "metar": "KSTL 060551Z 20011KT 10SM FEW200 SCT250 11/07 A2968 RMK AO2 SLP050 T01110067 10128 20100 401561017 58005 $",
    "windDirection": 200,
    "windSpeed": 11,
    "windGust": null,
    "visibility": 10,
    "temperatureC": 11,
    "dewPointC": 7,
    "cloudCeiling": null,
    "altimeter": "A2968",
    "timestamp": "2026-01-06T05:51:00+00:00",
    "station": "KSTL"
  }
}