{
  "lastUpdated": "2026-02-25T07:34:56.365983+00:00",
  "kcps": {
    "metar": "KCPS 250653Z AUTO 18003KT 10SM FEW100 05/M04 A2966 RMK AO2 SLP044 T00501039 $",
    "windDirection": 180,
    "windSpeed": 3,
    "windGust": null,
    "visibility": 10,
    "temperatureC": 5,
    "dewPointC": -4,
    "cloudCeiling": null,
    "altimeter": "A2966",
    "timestamp": "2026-02-25T06:53:00+00:00",
    "station": "KCPS"
  },
  "kstl": {
    "metar": "KSTL 250651Z 22004KT 10SM BKN100 BKN150 07/M04 A2965 RMK AO2 SLP045 T00721044 $",
    "windDirection": 220,
    "windSpeed": 4,
    "windGust": null,
    "visibility": 10,
    "temperatureC": 7,
    "dewPointC": -4,
    "cloudCeiling": 10000,
    "altimeter": "A2965",
    "timestamp": "2026-02-25T06:51:00+00:00",
    "station": "KSTL"
  }
}