{
  "lastUpdated": "2025-12-17T00:06:40.930663+00:00",
  "kcps": {
    "metar": "KCPS 162353Z 18006KT 10SM CLR 07/M02 A2990 RMK AO2 SLP128 T00671022 10133 20067 53001",
    "windDirection": 180,
    "windSpeed": 6,
    "windGust": null,
    "visibility": 10,
    "temperatureC": 7,
    "dewPointC": -2,
    "cloudCeiling": 99999,
    "altimeter": "A2990",
    "timestamp": "2025-12-16T23:53:00+00:00",
    "station": "KCPS"
  },
  "kstl": {
    "metar": "KSTL 162351Z 18007KT 10SM SCT250 08/M02 A2988 RMK AO2 SLP126 T00781017 10139 20078 55002 $",
    "windDirection": 180,
    "windSpeed": 7,
    "windGust": null,
    "visibility": 10,
    "temperatureC": 8,
    "dewPointC": -2,
    "cloudCeiling": null,
    "altimeter": "A2988",
    "timestamp": "2025-12-16T23:51:00+00:00",
    "station": "KSTL"
  }
}