{
  "lastUpdated": "2026-04-07T19:06:25.714398+00:00",
  "kcps": {
    "metar": "KCPS 071853Z 12008KT 10SM CLR 13/02 A3037 RMK AO2 SLP286 T01280022 $",
    "windDirection": 120,
    "windSpeed": 8,
    "windGust": null,
    "visibility": 10,
    "temperatureC": 13,
    "dewPointC": 2,
    "cloudCeiling": 99999,
    "altimeter": "A3037",
    "timestamp": "2026-04-07T18:53:00+00:00",
    "station": "KCPS"
  },
  "kstl": {
    "metar": "KSTL 071851Z VRB06KT 10SM FEW038 FEW110 SCT250 11/01 A3038 RMK AO2 SLP288 T01110011 $",
    "windDirection": null,
    "windSpeed": null,
    "windGust": null,
    "visibility": 10,
    "temperatureC": 11,
    "dewPointC": 1,
    "cloudCeiling": null,
    "altimeter": "A3038",
    "timestamp": "2026-04-07T18:51:00+00:00",
    "station": "KSTL"
  }
}