{
  "lastUpdated": "2026-06-07T04:06:17.649464+00:00",
  "kcps": {
    "metar": "KCPS 070353Z AUTO 16003KT 10SM CLR 25/21 A2993 RMK AO2 SLP130 T02500206 $",
    "windDirection": 160,
    "windSpeed": 3,
    "windGust": null,
    "visibility": 10,
    "temperatureC": 25,
    "dewPointC": 21,
    "cloudCeiling": 99999,
    "altimeter": "A2993",
    "timestamp": "2026-06-07T03:53:00+00:00",
    "station": "KCPS"
  },
  "kstl": {
    "metar": "KSTL 070351Z 19005KT 10SM BKN140 OVC250 26/20 A2994 RMK AO2 SLP124 T02610200 $",
    "windDirection": 190,
    "windSpeed": 5,
    "windGust": null,
    "visibility": 10,
    "temperatureC": 26,
    "dewPointC": 20,
    "cloudCeiling": 14000,
    "altimeter": "A2994",
    "timestamp": "2026-06-07T03:51:00+00:00",
    "station": "KSTL"
  }
}