{
  "lastUpdated": "2025-10-26T14:46:29.798491+00:00",
  "kcps": {
    "metar": "KCPS 261353Z 09008KT 10SM OVC080 12/08 A3019 RMK AO2 SLP225 T01170078 $",
    "windDirection": 90,
    "windSpeed": 8,
    "windGust": null,
    "visibility": 10,
    "temperatureC": 12,
    "dewPointC": 8,
    "cloudCeiling": 8000,
    "altimeter": "A3019",
    "timestamp": "2025-10-26T13:53:00+00:00",
    "station": "KCPS"
  },
  "kstl": {
    "metar": "KSTL 261351Z 08011KT 10SM OVC070 11/07 A3020 RMK AO2 RAE05 SLP226 P0000 T01110072 $",
    "windDirection": 80,
    "windSpeed": 11,
    "windGust": null,
    "visibility": 10,
    "temperatureC": 11,
    "dewPointC": 7,
    "cloudCeiling": 7000,
    "altimeter": "A3020",
    "timestamp": "2025-10-26T13:51:00+00:00",
    "station": "KSTL"
  }
}