{
  "lastUpdated": "2026-03-12T06:02:43.423980+00:00",
  "kcps": {
    "metar": "KCPS 120453Z AUTO 32007KT 10SM CLR 04/M02 A3027 RMK AO2 SLP253 T00391017 $",
    "windDirection": 320,
    "windSpeed": 7,
    "windGust": null,
    "visibility": 10,
    "temperatureC": 4,
    "dewPointC": -2,
    "cloudCeiling": 99999,
    "altimeter": "A3027",
    "timestamp": "2026-03-12T04:53:00+00:00",
    "station": "KCPS"
  },
  "kstl": {
    "metar": "KSTL 120551Z 31009KT 10SM BKN250 03/M02 A3028 RMK AO2 SLP260 T00331017 10056 20028 402330028 51012 $",
    "windDirection": 310,
    "windSpeed": 9,
    "windGust": null,
    "visibility": 10,
    "temperatureC": 3,
    "dewPointC": -2,
    "cloudCeiling": 25000,
    "altimeter": "A3028",
    "timestamp": "2026-03-12T05:51:00+00:00",
    "station": "KSTL"
  }
}