{
  "lastUpdated": "2026-01-31T10:40:13.943744+00:00",
  "kcps": {
    "metar": "KCPS 310953Z AUTO 32009KT 10SM CLR M12/M15 A3053 RMK AO2 SLP347 T11171150 $",
    "windDirection": 320,
    "windSpeed": 9,
    "windGust": null,
    "visibility": 10,
    "temperatureC": -12,
    "dewPointC": -15,
    "cloudCeiling": 99999,
    "altimeter": "A3053",
    "timestamp": "2026-01-31T09:53:00+00:00",
    "station": "KCPS"
  },
  "kstl": {
    "metar": "KSTL 310951Z 29007KT 10SM FEW035 M14/M17 A3053 RMK AO2 SLP359 T11391167 $",
    "windDirection": 290,
    "windSpeed": 7,
    "windGust": null,
    "visibility": 10,
    "temperatureC": -14,
    "dewPointC": -17,
    "cloudCeiling": null,
    "altimeter": "A3053",
    "timestamp": "2026-01-31T09:51:00+00:00",
    "station": "KSTL"
  }
}