{
  "lastUpdated": "2025-10-21T09:35:13.487114+00:00",
  "kcps": {
    "metar": "KCPS 210853Z AUTO 27004KT 10SM CLR 13/07 A2994 RMK AO2 SLP137 T01280067 51012",
    "windDirection": 270,
    "windSpeed": 4,
    "windGust": null,
    "visibility": 10,
    "temperatureC": 13,
    "dewPointC": 7,
    "cloudCeiling": 99999,
    "altimeter": "A2994",
    "timestamp": "2025-10-21T08:53:00+00:00",
    "station": "KCPS"
  },
  "kstl": {
    "metar": "KSTL 210851Z 29005KT 10SM CLR 12/06 A2994 RMK AO2 SLP132 T01220061 50005 $",
    "windDirection": 290,
    "windSpeed": 5,
    "windGust": null,
    "visibility": 10,
    "temperatureC": 12,
    "dewPointC": 6,
    "cloudCeiling": 99999,
    "altimeter": "A2994",
    "timestamp": "2025-10-21T08:51:00+00:00",
    "station": "KSTL"
  }
}