{
  "lastUpdated": "2025-11-18T14:49:02.655605+00:00",
  "kcps": {
    "metar": "KCPS 181253Z 00000KT 10SM FEW120 12/09 A2982 RMK AO2 RAE40 SLP097 P0001 T01220094",
    "windDirection": 0,
    "windSpeed": 0,
    "windGust": null,
    "visibility": 10,
    "temperatureC": 12,
    "dewPointC": 9,
    "cloudCeiling": null,
    "altimeter": "A2982",
    "timestamp": "2025-11-18T12:53:00+00:00",
    "station": "KCPS"
  },
  "kstl": {
    "metar": "KSTL 181351Z 00000KT 10SM -RA SCT046 BKN065 BKN090 BKN250 13/10 A2982 RMK AO2 RAB48 SLP099 P0000 T01280100 $",
    "windDirection": 0,
    "windSpeed": 0,
    "windGust": null,
    "visibility": 10,
    "temperatureC": 13,
    "dewPointC": 10,
    "cloudCeiling": 6500,
    "altimeter": "A2982",
    "timestamp": "2025-11-18T13:51:00+00:00",
    "station": "KSTL"
  }
}