{
  "lastUpdated": "2026-01-09T18:23:07.399567+00:00",
  "kcps": {
    "metar": "KCPS 091807Z 34011KT 10SM BKN026 10/04 A3010 RMK AO2 T01000039",
    "windDirection": 340,
    "windSpeed": 11,
    "windGust": null,
    "visibility": 10,
    "temperatureC": 10,
    "dewPointC": 4,
    "cloudCeiling": 2600,
    "altimeter": "A3010",
    "timestamp": "2026-01-09T18:07:00+00:00",
    "station": "KCPS"
  },
  "kstl": {
    "metar": "KSTL 091751Z 31008KT 10SM OVC021 09/03 A3010 RMK AO2 SLP191 T00890033 10094 20072 51024 $",
    "windDirection": 310,
    "windSpeed": 8,
    "windGust": null,
    "visibility": 10,
    "temperatureC": 9,
    "dewPointC": 3,
    "cloudCeiling": 2100,
    "altimeter": "A3010",
    "timestamp": "2026-01-09T17:51:00+00:00",
    "station": "KSTL"
  }
}