{
  "lastUpdated": "2026-05-24T07:32:21.430734+00:00",
  "kcps": {
    "metar": "KCPS 240653Z AUTO 00000KT 10SM CLR 18/18 A2998 RMK AO2 SLP149 T01830178 $",
    "windDirection": 0,
    "windSpeed": 0,
    "windGust": null,
    "visibility": 10,
    "temperatureC": 18,
    "dewPointC": 18,
    "cloudCeiling": 99999,
    "altimeter": "A2998",
    "timestamp": "2026-05-24T06:53:00+00:00",
    "station": "KCPS"
  },
  "kstl": {
    "metar": "KSTL 240651Z 31004KT 10SM OVC250 19/17 A2999 RMK AO2 SLP147 T01890172 $",
    "windDirection": 310,
    "windSpeed": 4,
    "windGust": null,
    "visibility": 10,
    "temperatureC": 19,
    "dewPointC": 17,
    "cloudCeiling": 25000,
    "altimeter": "A2999",
    "timestamp": "2026-05-24T06:51:00+00:00",
    "station": "KSTL"
  }
}