{
  "lastUpdated": "2025-12-19T04:41:25.406211+00:00",
  "kcps": {
    "metar": "KCPS 190353Z 30018G30KT 10SM OVC036 00/M06 A2977 RMK AO2 PK WND 30037/0254 SNE29 SLP082 P0000 T00001061",
    "windDirection": 300,
    "windSpeed": 18,
    "windGust": 30,
    "visibility": 10,
    "temperatureC": 0,
    "dewPointC": -6,
    "cloudCeiling": 3600,
    "altimeter": "A2977",
    "timestamp": "2025-12-19T03:53:00+00:00",
    "station": "KCPS"
  },
  "kstl": {
    "metar": "KSTL 190425Z 29017G31KT 10SM -SN OVC036 M02/M08 A2979 RMK AO2 PK WND 31035/0402 SNE11B25 P0000 T10221083 $",
    "windDirection": 290,
    "windSpeed": 17,
    "windGust": 31,
    "visibility": 10,
    "temperatureC": -2,
    "dewPointC": -8,
    "cloudCeiling": 3600,
    "altimeter": "A2979",
    "timestamp": "2025-12-19T04:25:00+00:00",
    "station": "KSTL"
  }
}