{
  "lastUpdated": "2026-03-10T09:29:59.123618+00:00",
  "kcps": {
    "metar": "KCPS 100853Z AUTO 17004KT 10SM CLR 17/16 A2985 RMK AO2 SLP104 T01720156 50001 $",
    "windDirection": 170,
    "windSpeed": 4,
    "windGust": null,
    "visibility": 10,
    "temperatureC": 17,
    "dewPointC": 16,
    "cloudCeiling": 99999,
    "altimeter": "A2985",
    "timestamp": "2026-03-10T08:53:00+00:00",
    "station": "KCPS"
  },
  "kstl": {
    "metar": "KSTL 100851Z 20006KT 10SM CLR 18/16 A2985 RMK AO2 SLP098 T01780156 50001 $",
    "windDirection": 200,
    "windSpeed": 6,
    "windGust": null,
    "visibility": 10,
    "temperatureC": 18,
    "dewPointC": 16,
    "cloudCeiling": 99999,
    "altimeter": "A2985",
    "timestamp": "2026-03-10T08:51:00+00:00",
    "station": "KSTL"
  }
}