{
  "lastUpdated": "2025-12-07T05:34:09.311389+00:00",
  "kcps": {
    "metar": "KCPS 070502Z AUTO 17007KT 7SM BKN011 OVC100 03/01 A2994 RMK AO2 T00330011 $",
    "windDirection": 170,
    "windSpeed": 7,
    "windGust": null,
    "visibility": 7,
    "temperatureC": 3,
    "dewPointC": 1,
    "cloudCeiling": 1100,
    "altimeter": "A2994",
    "timestamp": "2025-12-07T05:02:00+00:00",
    "station": "KCPS"
  },
  "kstl": {
    "metar": "KSTL 070451Z 16010KT 10SM OVC095 05/01 A2991 RMK AO2 SLP133 T00500006 $",
    "windDirection": 160,
    "windSpeed": 10,
    "windGust": null,
    "visibility": 10,
    "temperatureC": 5,
    "dewPointC": 1,
    "cloudCeiling": 9500,
    "altimeter": "A2991",
    "timestamp": "2025-12-07T04:51:00+00:00",
    "station": "KSTL"
  }
}