{
  "lastUpdated": "2026-01-18T19:02:09.825295+00:00",
  "kcps": {
    "metar": "KCPS 181853Z 20008KT 10SM OVC100 M05/M15 A3005 RMK AO2 SLP183 T10501150 $",
    "windDirection": 200,
    "windSpeed": 8,
    "windGust": null,
    "visibility": 10,
    "temperatureC": -5,
    "dewPointC": -15,
    "cloudCeiling": 10000,
    "altimeter": "A3005",
    "timestamp": "2026-01-18T18:53:00+00:00",
    "station": "KCPS"
  },
  "kstl": {
    "metar": "KSTL 181851Z 18008KT 10SM OVC100 M06/M16 A3003 RMK AO2 PRESFR SLP187 T10561161 $",
    "windDirection": 180,
    "windSpeed": 8,
    "windGust": null,
    "visibility": 10,
    "temperatureC": -6,
    "dewPointC": -16,
    "cloudCeiling": 10000,
    "altimeter": "A3003",
    "timestamp": "2026-01-18T18:51:00+00:00",
    "station": "KSTL"
  }
}