{
  "lastUpdated": "2025-11-17T01:51:24.227962+00:00",
  "kcps": {
    "metar": "KCPS 170053Z 00000KT 10SM CLR 04/M03 A3002 RMK AO2 SLP168 T00441028 $",
    "windDirection": 0,
    "windSpeed": 0,
    "windGust": null,
    "visibility": 10,
    "temperatureC": 4,
    "dewPointC": -3,
    "cloudCeiling": 99999,
    "altimeter": "A3002",
    "timestamp": "2025-11-17T00:53:00+00:00",
    "station": "KCPS"
  },
  "kstl": {
    "metar": "KSTL 170051Z 04003KT 10SM FEW200 08/M06 A3003 RMK AO2 SLP171 T00831061 $",
    "windDirection": 40,
    "windSpeed": 3,
    "windGust": null,
    "visibility": 10,
    "temperatureC": 8,
    "dewPointC": -6,
    "cloudCeiling": null,
    "altimeter": "A3003",
    "timestamp": "2025-11-17T00:51:00+00:00",
    "station": "KSTL"
  }
}