{
  "lastUpdated": "2025-10-25T12:02:49.227123+00:00",
  "kcps": {
    "metar": "KCPS 251153Z 12003KT 10SM OVC085 12/04 A3025 RMK AO2 SLP242 60000 T01220044 10133 20111 51003 $",
    "windDirection": 120,
    "windSpeed": 3,
    "windGust": null,
    "visibility": 10,
    "temperatureC": 12,
    "dewPointC": 4,
    "cloudCeiling": 8500,
    "altimeter": "A3025",
    "timestamp": "2025-10-25T11:53:00+00:00",
    "station": "KCPS"
  },
  "kstl": {
    "metar": "KSTL 251151Z 11009KT 10SM OVC080 12/04 A3024 RMK AO2 SLP238 T01220044 10139 20122 50000 $",
    "windDirection": 110,
    "windSpeed": 9,
    "windGust": null,
    "visibility": 10,
    "temperatureC": 12,
    "dewPointC": 4,
    "cloudCeiling": 8000,
    "altimeter": "A3024",
    "timestamp": "2025-10-25T11:51:00+00:00",
    "station": "KSTL"
  }
}