{
  "lastUpdated": "2026-05-10T09:56:35.150258+00:00",
  "kcps": {
    "metar": "KCPS 100953Z AUTO 28004KT 10SM BKN110 15/13 A2996 RMK AO2 SLP143 T01500133 $",
    "windDirection": 280,
    "windSpeed": 4,
    "windGust": null,
    "visibility": 10,
    "temperatureC": 15,
    "dewPointC": 13,
    "cloudCeiling": 11000,
    "altimeter": "A2996",
    "timestamp": "2026-05-10T09:53:00+00:00",
    "station": "KCPS"
  },
  "kstl": {
    "metar": "KSTL 100951Z 26004KT 10SM FEW130 BKN250 13/13 A2998 RMK AO2 SLP144 T01330128 $",
    "windDirection": 260,
    "windSpeed": 4,
    "windGust": null,
    "visibility": 10,
    "temperatureC": 13,
    "dewPointC": 13,
    "cloudCeiling": 25000,
    "altimeter": "A2998",
    "timestamp": "2026-05-10T09:51:00+00:00",
    "station": "KSTL"
  }
}