{
  "lastUpdated": "2026-01-08T23:47:31.811862+00:00",
  "kcps": {
    "metar": "KCPS 082338Z 18015G27KT 10SM FEW024 BKN030 OVC038 19/16 A2950 RMK AO2 PK WND 15029/2326 T01890156",
    "windDirection": 180,
    "windSpeed": 15,
    "windGust": 27,
    "visibility": 10,
    "temperatureC": 19,
    "dewPointC": 16,
    "cloudCeiling": 3000,
    "altimeter": "A2950",
    "timestamp": "2026-01-08T23:38:00+00:00",
    "station": "KCPS"
  },
  "kstl": {
    "metar": "KSTL 082251Z 17016G23KT 10SM BKN022 OVC029 18/15 A2950 RMK AO2 PK WND 17026/2233 SLP987 T01780150 $",
    "windDirection": 170,
    "windSpeed": 16,
    "windGust": 23,
    "visibility": 10,
    "temperatureC": 18,
    "dewPointC": 15,
    "cloudCeiling": 2200,
    "altimeter": "A2950",
    "timestamp": "2026-01-08T22:51:00+00:00",
    "station": "KSTL"
  }
}