{
  "lastUpdated": "2026-03-16T08:31:13.662066+00:00",
  "kcps": {
    "metar": "KCPS 160753Z AUTO 30018G32KT 9SM -SN OVC026 M01/M06 A2975 RMK AO2 PK WND 28042/0718 SLP075 P0000 T10061056 $",
    "windDirection": 300,
    "windSpeed": 18,
    "windGust": 32,
    "visibility": 9,
    "temperatureC": -1,
    "dewPointC": -6,
    "cloudCeiling": 2600,
    "altimeter": "A2975",
    "timestamp": "2026-03-16T07:53:00+00:00",
    "station": "KCPS"
  },
  "kstl": {
    "metar": "KSTL 160751Z 29022G32KT 9SM -SN OVC023 M02/M06 A2974 RMK AO2 PK WND 31039/0716 SLP072 P0000 T10171056 $",
    "windDirection": 290,
    "windSpeed": 22,
    "windGust": 32,
    "visibility": 9,
    "temperatureC": -2,
    "dewPointC": -6,
    "cloudCeiling": 2300,
    "altimeter": "A2974",
    "timestamp": "2026-03-16T07:51:00+00:00",
    "station": "KSTL"
  }
}