{
  "lastUpdated": "2025-12-23T14:37:08.383156+00:00",
  "kcps": {
    "metar": "KCPS 231419Z VRB03KT 6SM BR BKN015 08/08 A3014 RMK AO2 T00830078 $",
    "windDirection": null,
    "windSpeed": null,
    "windGust": null,
    "visibility": 6,
    "temperatureC": 8,
    "dewPointC": 8,
    "cloudCeiling": 1500,
    "altimeter": "A3014",
    "timestamp": "2025-12-23T14:19:00+00:00",
    "station": "KCPS"
  },
  "kstl": {
    "metar": "KSTL 231422Z 23007KT 7SM OVC007 11/10 A3014 RMK AO2 T01110100 $",
    "windDirection": 230,
    "windSpeed": 7,
    "windGust": null,
    "visibility": 7,
    "temperatureC": 11,
    "dewPointC": 10,
    "cloudCeiling": 700,
    "altimeter": "A3014",
    "timestamp": "2025-12-23T14:22:00+00:00",
    "station": "KSTL"
  }
}