{
  "lastUpdated": "2026-04-14T17:06:58.434359+00:00",
  "kcps": {
    "metar": "KCPS 141653Z 18010G19KT 10SM CLR 29/19 A2988 RMK AO2 SLP115 T02940189 $",
    "windDirection": 180,
    "windSpeed": 10,
    "windGust": 19,
    "visibility": 10,
    "temperatureC": 29,
    "dewPointC": 19,
    "cloudCeiling": 99999,
    "altimeter": "A2988",
    "timestamp": "2026-04-14T16:53:00+00:00",
    "station": "KCPS"
  },
  "kstl": {
    "metar": "KSTL 141651Z 21012G21KT 10SM SCT042 SCT150 BKN250 28/18 A2988 RMK AO2 SLP107 T02830183 $",
    "windDirection": 210,
    "windSpeed": 12,
    "windGust": 21,
    "visibility": 10,
    "temperatureC": 28,
    "dewPointC": 18,
    "cloudCeiling": 25000,
    "altimeter": "A2988",
    "timestamp": "2026-04-14T16:51:00+00:00",
    "station": "KSTL"
  }
}