{
  "lastUpdated": "2025-12-28T19:31:56.447099+00:00",
  "kcps": {
    "metar": "KCPS 281853Z 21011G17KT 10SM SCT042 OVC050 23/16 A2952 RMK AO2 SLP993 T02330161 $",
    "windDirection": 210,
    "windSpeed": 11,
    "windGust": 17,
    "visibility": 10,
    "temperatureC": 23,
    "dewPointC": 16,
    "cloudCeiling": 5000,
    "altimeter": "A2952",
    "timestamp": "2025-12-28T18:53:00+00:00",
    "station": "KCPS"
  },
  "kstl": {
    "metar": "KSTL 281851Z 22015G22KT 10SM SCT040 BKN055 BKN070 24/16 A2951 RMK AO2 PK WND 22028/1819 SLP987 T02390156 $",
    "windDirection": 220,
    "windSpeed": 15,
    "windGust": 22,
    "visibility": 10,
    "temperatureC": 24,
    "dewPointC": 16,
    "cloudCeiling": 5500,
    "altimeter": "A2951",
    "timestamp": "2025-12-28T18:51:00+00:00",
    "station": "KSTL"
  }
}