{
  "lastUpdated": "2026-04-22T23:59:58.648315+00:00",
  "kcps": {
    "metar": "KCPS 222353Z 29003KT 10SM CLR 26/14 A2994 RMK AO2 SLP137 T02560139 10272 20239 56009 $",
    "windDirection": 290,
    "windSpeed": 3,
    "windGust": null,
    "visibility": 10,
    "temperatureC": 26,
    "dewPointC": 14,
    "cloudCeiling": 99999,
    "altimeter": "A2994",
    "timestamp": "2026-04-22T23:53:00+00:00",
    "station": "KCPS"
  },
  "kstl": {
    "metar": "KSTL 222351Z 26006KT 10SM FEW040 SCT250 23/14 A2996 RMK AO2 SLP138 T02330144 10250 20222 56011 $",
    "windDirection": 260,
    "windSpeed": 6,
    "windGust": null,
    "visibility": 10,
    "temperatureC": 23,
    "dewPointC": 14,
    "cloudCeiling": null,
    "altimeter": "A2996",
    "timestamp": "2026-04-22T23:51:00+00:00",
    "station": "KSTL"
  }
}