{
  "lastUpdated": "2025-11-15T11:20:15.131036+00:00",
  "kcps": {
    "metar": "KCPS 151053Z AUTO 17005KT 10SM CLR 15/13 A2978 RMK AO2 SLP081 T01500133 $",
    "windDirection": 170,
    "windSpeed": 5,
    "windGust": null,
    "visibility": 10,
    "temperatureC": 15,
    "dewPointC": 13,
    "cloudCeiling": 99999,
    "altimeter": "A2978",
    "timestamp": "2025-11-15T10:53:00+00:00",
    "station": "KCPS"
  },
  "kstl": {
    "metar": "KSTL 151051Z 19006KT 10SM CLR 17/14 A2977 RMK AO2 SLP073 T01670139 $",
    "windDirection": 190,
    "windSpeed": 6,
    "windGust": null,
    "visibility": 10,
    "temperatureC": 17,
    "dewPointC": 14,
    "cloudCeiling": 99999,
    "altimeter": "A2977",
    "timestamp": "2025-11-15T10:51:00+00:00",
    "station": "KSTL"
  }
}