{
  "lastUpdated": "2025-12-30T15:36:20.704122+00:00",
  "kcps": {
    "metar": "KCPS 301453Z 27008KT 10SM CLR M07/M12 A3042 RMK AO2 SLP309 T10671117 50004 $",
    "windDirection": 270,
    "windSpeed": 8,
    "windGust": null,
    "visibility": 10,
    "temperatureC": -7,
    "dewPointC": -12,
    "cloudCeiling": 99999,
    "altimeter": "A3042",
    "timestamp": "2025-12-30T14:53:00+00:00",
    "station": "KCPS"
  },
  "kstl": {
    "metar": "KSTL 301451Z 27012KT 10SM FEW250 M07/M12 A3041 RMK AO2 SLP314 T10671117 50003 $",
    "windDirection": 270,
    "windSpeed": 12,
    "windGust": null,
    "visibility": 10,
    "temperatureC": -7,
    "dewPointC": -12,
    "cloudCeiling": null,
    "altimeter": "A3041",
    "timestamp": "2025-12-30T14:51:00+00:00",
    "station": "KSTL"
  }
}