{
  "lastUpdated": "2026-01-25T04:59:39.025488+00:00",
  "kcps": {
    "metar": "KCPS 250453Z AUTO 03008KT 3/4SM -SN BR VV010 M13/M14 A3025 RMK AO2 SLP253 P0003 T11281144 $",
    "windDirection": 30,
    "windSpeed": 8,
    "windGust": null,
    "visibility": 0.75,
    "temperatureC": -13,
    "dewPointC": -14,
    "cloudCeiling": 1000,
    "altimeter": "A3025",
    "timestamp": "2026-01-25T04:53:00+00:00",
    "station": "KCPS"
  },
  "kstl": {
    "metar": "KSTL 250451Z 04010KT 3/4SM R30R/6000VP6000FT -SN BR VV011 M13/M15 A3024 RMK AO2 SLP265 SNINCR 1/5 P0005 T11281150 $",
    "windDirection": 40,
    "windSpeed": 10,
    "windGust": null,
    "visibility": 0.75,
    "temperatureC": -13,
    "dewPointC": -15,
    "cloudCeiling": 1100,
    "altimeter": "A3024",
    "timestamp": "2026-01-25T04:51:00+00:00",
    "station": "KSTL"
  }
}