{
  "lastUpdated": "2026-02-19T16:01:26.043676+00:00",
  "kcps": {
    "metar": "KCPS 191553Z 21004KT 5SM BR BKN004 13/13 A2957 RMK AO2 SLP013 T01330133 $",
    "windDirection": 210,
    "windSpeed": 4,
    "windGust": null,
    "visibility": 5,
    "temperatureC": 13,
    "dewPointC": 13,
    "cloudCeiling": 400,
    "altimeter": "A2957",
    "timestamp": "2026-02-19T15:53:00+00:00",
    "station": "KCPS"
  },
  "kstl": {
    "metar": "KSTL 191551Z 10004KT 5SM BR SCT003 OVC120 12/12 A2957 RMK AO2 SLP011 T01170117 $",
    "windDirection": 100,
    "windSpeed": 4,
    "windGust": null,
    "visibility": 5,
    "temperatureC": 12,
    "dewPointC": 12,
    "cloudCeiling": 12000,
    "altimeter": "A2957",
    "timestamp": "2026-02-19T15:51:00+00:00",
    "station": "KSTL"
  }
}