{
  "lastUpdated": "2025-12-19T23:21:29.310293+00:00",
  "kcps": {
    "metar": "KCPS 192253Z 15004KT 10SM CLR 01/M10 A3005 RMK AO2 SLP181 T00061100",
    "windDirection": 150,
    "windSpeed": 4,
    "windGust": null,
    "visibility": 10,
    "temperatureC": 1,
    "dewPointC": -10,
    "cloudCeiling": 99999,
    "altimeter": "A3005",
    "timestamp": "2025-12-19T22:53:00+00:00",
    "station": "KCPS"
  },
  "kstl": {
    "metar": "KSTL 192251Z 16005KT 10SM BKN250 03/M12 A3004 RMK AO2 SLP185 T00281122 $",
    "windDirection": 160,
    "windSpeed": 5,
    "windGust": null,
    "visibility": 10,
    "temperatureC": 3,
    "dewPointC": -12,
    "cloudCeiling": 25000,
    "altimeter": "A3004",
    "timestamp": "2025-12-19T22:51:00+00:00",
    "station": "KSTL"
  }
}