{
  "lastUpdated": "2026-04-21T19:07:16.616538+00:00",
  "kcps": {
    "metar": "KCPS 211853Z 21009G20KT 10SM CLR 27/09 A3004 RMK AO2 SLP170 T02670094 $",
    "windDirection": 210,
    "windSpeed": 9,
    "windGust": 20,
    "visibility": 10,
    "temperatureC": 27,
    "dewPointC": 9,
    "cloudCeiling": 99999,
    "altimeter": "A3004",
    "timestamp": "2026-04-21T18:53:00+00:00",
    "station": "KCPS"
  },
  "kstl": {
    "metar": "KSTL 211851Z 21017KT 10SM FEW075 SCT250 26/10 A3004 RMK AO2 PK WND 23029/1828 SLP165 T02560100 $",
    "windDirection": 210,
    "windSpeed": 17,
    "windGust": null,
    "visibility": 10,
    "temperatureC": 26,
    "dewPointC": 10,
    "cloudCeiling": null,
    "altimeter": "A3004",
    "timestamp": "2026-04-21T18:51:00+00:00",
    "station": "KSTL"
  }
}