{
  "lastUpdated": "2025-10-21T18:39:55.646090+00:00",
  "kcps": {
    "metar": "KCPS 211753Z 28011G24KT 10SM CLR 18/00 A2993 RMK AO2 PK WND 24030/1659 SLP133 T01830000 10183 20106 58009 $",
    "windDirection": 280,
    "windSpeed": 11,
    "windGust": 24,
    "visibility": 10,
    "temperatureC": 18,
    "dewPointC": 0,
    "cloudCeiling": 99999,
    "altimeter": "A2993",
    "timestamp": "2025-10-21T17:53:00+00:00",
    "station": "KCPS"
  },
  "kstl": {
    "metar": "KSTL 211751Z 29019G31KT 10SM FEW050 17/00 A2993 RMK AO2 PK WND 28034/1739 SLP132 T01720000 10178 20106 58007 $",
    "windDirection": 290,
    "windSpeed": 19,
    "windGust": 31,
    "visibility": 10,
    "temperatureC": 17,
    "dewPointC": 0,
    "cloudCeiling": null,
    "altimeter": "A2993",
    "timestamp": "2025-10-21T17:51:00+00:00",
    "station": "KSTL"
  }
}