{
  "lastUpdated": "2025-12-20T12:23:41.381375+00:00",
  "kcps": {
    "metar": "KCPS 201153Z 15009KT 10SM CLR 01/M04 A2985 RMK AO2 SLP111 T00111039 10017 21006 56015 $",
    "windDirection": 150,
    "windSpeed": 9,
    "windGust": null,
    "visibility": 10,
    "temperatureC": 1,
    "dewPointC": -4,
    "cloudCeiling": 99999,
    "altimeter": "A2985",
    "timestamp": "2025-12-20T11:53:00+00:00",
    "station": "KCPS"
  },
  "kstl": {
    "metar": "KSTL 201151Z 17010KT 10SM CLR 03/M04 A2983 RMK AO2 SLP109 T00331039 10039 21006 58014 $",
    "windDirection": 170,
    "windSpeed": 10,
    "windGust": null,
    "visibility": 10,
    "temperatureC": 3,
    "dewPointC": -4,
    "cloudCeiling": 99999,
    "altimeter": "A2983",
    "timestamp": "2025-12-20T11:51:00+00:00",
    "station": "KSTL"
  }
}