{
  "lastUpdated": "2026-02-14T10:22:45.834149+00:00",
  "kcps": {
    "metar": "KCPS 140953Z 00000KT 10SM FEW120 03/M01 A3005 RMK AO2 SLP176 T00281006 $",
    "windDirection": 0,
    "windSpeed": 0,
    "windGust": null,
    "visibility": 10,
    "temperatureC": 3,
    "dewPointC": -1,
    "cloudCeiling": null,
    "altimeter": "A3005",
    "timestamp": "2026-02-14T09:53:00+00:00",
    "station": "KCPS"
  },
  "kstl": {
    "metar": "KSTL 140951Z 00000KT 10SM BKN120 BKN250 06/M01 A3005 RMK AO2 SLP176 T00611011 $",
    "windDirection": 0,
    "windSpeed": 0,
    "windGust": null,
    "visibility": 10,
    "temperatureC": 6,
    "dewPointC": -1,
    "cloudCeiling": 12000,
    "altimeter": "A3005",
    "timestamp": "2026-02-14T09:51:00+00:00",
    "station": "KSTL"
  }
}