{
  "lastUpdated": "2025-12-14T21:46:27.304246+00:00",
  "kcps": {
    "metar": "KCPS 142053Z 34009KT 10SM CLR M08/M19 A3071 RMK AO2 SLP407 T10781194 56006 $",
    "windDirection": 340,
    "windSpeed": 9,
    "windGust": null,
    "visibility": 10,
    "temperatureC": -8,
    "dewPointC": -19,
    "cloudCeiling": 99999,
    "altimeter": "A3071",
    "timestamp": "2025-12-14T20:53:00+00:00",
    "station": "KCPS"
  },
  "kstl": {
    "metar": "KSTL 142051Z 26006KT 10SM FEW250 M08/M19 A3070 RMK AO2 SLP417 T10831189 55006 $",
    "windDirection": 260,
    "windSpeed": 6,
    "windGust": null,
    "visibility": 10,
    "temperatureC": -8,
    "dewPointC": -19,
    "cloudCeiling": null,
    "altimeter": "A3070",
    "timestamp": "2025-12-14T20:51:00+00:00",
    "station": "KSTL"
  }
}