{
  "lastUpdated": "2026-02-02T09:32:12.103449+00:00",
  "kcps": {
    "metar": "KCPS 020853Z AUTO 00000KT 10SM OVC050 M03/M10 A3017 RMK AO2 SLP222 T10281100 56006 $",
    "windDirection": 0,
    "windSpeed": 0,
    "windGust": null,
    "visibility": 10,
    "temperatureC": -3,
    "dewPointC": -10,
    "cloudCeiling": 5000,
    "altimeter": "A3017",
    "timestamp": "2026-02-02T08:53:00+00:00",
    "station": "KCPS"
  },
  "kstl": {
    "metar": "KSTL 020851Z 24004KT 10SM OVC044 M02/M08 A3016 RMK AO2 SLP227 T10221083 55003 $",
    "windDirection": 240,
    "windSpeed": 4,
    "windGust": null,
    "visibility": 10,
    "temperatureC": -2,
    "dewPointC": -8,
    "cloudCeiling": 4400,
    "altimeter": "A3016",
    "timestamp": "2026-02-02T08:51:00+00:00",
    "station": "KSTL"
  }
}