{
  "lastUpdated": "2026-03-11T21:41:59.694083+00:00",
  "kcps": {
    "metar": "KCPS 112053Z 32017G25KT 10SM OVC018 07/03 A3002 RMK AO2 PK WND 32036/1959 RAB1955E10 SLP165 P0000 60000 T00720033 53036 $",
    "windDirection": 320,
    "windSpeed": 17,
    "windGust": 25,
    "visibility": 10,
    "temperatureC": 7,
    "dewPointC": 3,
    "cloudCeiling": 1800,
    "altimeter": "A3002",
    "timestamp": "2026-03-11T20:53:00+00:00",
    "station": "KCPS"
  },
  "kstl": {
    "metar": "KSTL 112051Z 32018G26KT 10SM OVC017 07/03 A3002 RMK AO2 PK WND 32029/2026 SLP165 60000 T00670033 51034 $",
    "windDirection": 320,
    "windSpeed": 18,
    "windGust": 26,
    "visibility": 10,
    "temperatureC": 7,
    "dewPointC": 3,
    "cloudCeiling": 1700,
    "altimeter": "A3002",
    "timestamp": "2026-03-11T20:51:00+00:00",
    "station": "KSTL"
  }
}