{
  "lastUpdated": "2025-12-06T03:52:13.572125+00:00",
  "kcps": {
    "metar": "KCPS 060153Z 20005KT 10SM CLR 03/M06 A2990 RMK AO2 SLP130 T00331056 $",
    "windDirection": 200,
    "windSpeed": 5,
    "windGust": null,
    "visibility": 10,
    "temperatureC": 3,
    "dewPointC": -6,
    "cloudCeiling": 99999,
    "altimeter": "A2990",
    "timestamp": "2025-12-06T01:53:00+00:00",
    "station": "KCPS"
  },
  "kstl": {
    "metar": "KSTL 060251Z 20006KT 10SM BKN160 OVC250 04/M04 A2989 RMK AO2 SLP132 T00441044 53002 $",
    "windDirection": 200,
    "windSpeed": 6,
    "windGust": null,
    "visibility": 10,
    "temperatureC": 4,
    "dewPointC": -4,
    "cloudCeiling": 16000,
    "altimeter": "A2989",
    "timestamp": "2025-12-06T02:51:00+00:00",
    "station": "KSTL"
  }
}