{
  "lastUpdated": "2026-01-08T22:02:29.430924+00:00",
  "kcps": {
    "metar": "KCPS 082153Z AUTO 16015G24KT 8SM SCT014 BKN020 OVC026 17/16 A2954 RMK AO2 SLP001 T01720156",
    "windDirection": 160,
    "windSpeed": 15,
    "windGust": 24,
    "visibility": 8,
    "temperatureC": 17,
    "dewPointC": 16,
    "cloudCeiling": 2000,
    "altimeter": "A2954",
    "timestamp": "2026-01-08T21:53:00+00:00",
    "station": "KCPS"
  },
  "kstl": {
    "metar": "KSTL 082151Z 15015KT 10SM BKN017 OVC021 17/15 A2952 RMK AO2 RAE24 SLP995 P0001 T01670150 $",
    "windDirection": 150,
    "windSpeed": 15,
    "windGust": null,
    "visibility": 10,
    "temperatureC": 17,
    "dewPointC": 15,
    "cloudCeiling": 1700,
    "altimeter": "A2952",
    "timestamp": "2026-01-08T21:51:00+00:00",
    "station": "KSTL"
  }
}