{
  "lastUpdated": "2025-12-18T11:47:25.534740+00:00",
  "kcps": {
    "metar": "KCPS 181134Z AUTO 16008KT 10SM OVC011 12/10 A2963 RMK AO2 T01170100 $",
    "windDirection": 160,
    "windSpeed": 8,
    "windGust": null,
    "visibility": 10,
    "temperatureC": 12,
    "dewPointC": 10,
    "cloudCeiling": 1100,
    "altimeter": "A2963",
    "timestamp": "2025-12-18T11:34:00+00:00",
    "station": "KCPS"
  },
  "kstl": {
    "metar": "KSTL 181051Z 18015G23KT 10SM OVC010 12/11 A2962 RMK AO2 SLP030 T01220106 $",
    "windDirection": 180,
    "windSpeed": 15,
    "windGust": 23,
    "visibility": 10,
    "temperatureC": 12,
    "dewPointC": 11,
    "cloudCeiling": 1000,
    "altimeter": "A2962",
    "timestamp": "2025-12-18T10:51:00+00:00",
    "station": "KSTL"
  }
}