{
  "lastUpdated": "2026-02-20T11:16:42.608362+00:00",
  "kcps": {
    "metar": "KCPS 201053Z 28013G27KT 10SM CLR 01/M07 A2973 RMK AO2 PK WND 26028/1034 SLP067 T00061067 $",
    "windDirection": 280,
    "windSpeed": 13,
    "windGust": 27,
    "visibility": 10,
    "temperatureC": 1,
    "dewPointC": -7,
    "cloudCeiling": 99999,
    "altimeter": "A2973",
    "timestamp": "2026-02-20T10:53:00+00:00",
    "station": "KCPS"
  },
  "kstl": {
    "metar": "KSTL 201051Z 26017G26KT 10SM FEW035 00/M06 A2972 RMK AO2 PK WND 26028/1038 SLP064 T00001061 $",
    "windDirection": 260,
    "windSpeed": 17,
    "windGust": 26,
    "visibility": 10,
    "temperatureC": 0,
    "dewPointC": -6,
    "cloudCeiling": null,
    "altimeter": "A2972",
    "timestamp": "2026-02-20T10:51:00+00:00",
    "station": "KSTL"
  }
}