{
  "lastUpdated": "2025-10-18T05:02:21.966074+00:00",
  "kcps": {
    "metar": "KCPS 180453Z AUTO 17004KT 10SM CLR 20/16 A2979 RMK AO2 SLP086 T02000156 PNO $",
    "windDirection": 170,
    "windSpeed": 4,
    "windGust": null,
    "visibility": 10,
    "temperatureC": 20,
    "dewPointC": 16,
    "cloudCeiling": 99999,
    "altimeter": "A2979",
    "timestamp": "2025-10-18T04:53:00+00:00",
    "station": "KCPS"
  },
  "kstl": {
    "metar": "KSTL 180451Z 17009KT 10SM FEW250 22/15 A2979 RMK AO2 SLP079 T02170150 $",
    "windDirection": 170,
    "windSpeed": 9,
    "windGust": null,
    "visibility": 10,
    "temperatureC": 22,
    "dewPointC": 15,
    "cloudCeiling": null,
    "altimeter": "A2979",
    "timestamp": "2025-10-18T04:51:00+00:00",
    "station": "KSTL"
  }
}