{
  "lastUpdated": "2026-02-23T01:31:41.883591+00:00",
  "kcps": {
    "metar": "KCPS 230053Z 31017G25KT 10SM CLR M01/M13 A3048 RMK AO2 PK WND 30028/0008 SLP327 T10111128 PNO $",
    "windDirection": 310,
    "windSpeed": 17,
    "windGust": 25,
    "visibility": 10,
    "temperatureC": -1,
    "dewPointC": -13,
    "cloudCeiling": 99999,
    "altimeter": "A3048",
    "timestamp": "2026-02-23T00:53:00+00:00",
    "station": "KCPS"
  },
  "kstl": {
    "metar": "KSTL 230051Z 32011G19KT 10SM CLR M02/M13 A3048 RMK AO2 PK WND 31028/0029 SLP335 T10171133 $",
    "windDirection": 320,
    "windSpeed": 11,
    "windGust": 19,
    "visibility": 10,
    "temperatureC": -2,
    "dewPointC": -13,
    "cloudCeiling": 99999,
    "altimeter": "A3048",
    "timestamp": "2026-02-23T00:51:00+00:00",
    "station": "KSTL"
  }
}