{
  "lastUpdated": "2025-12-23T02:35:13.882550+00:00",
  "kcps": {
    "metar": "KCPS 230153Z 17008KT 10SM CLR 07/M01 A3005 RMK AO2 SLP178 T00671006 $",
    "windDirection": 170,
    "windSpeed": 8,
    "windGust": null,
    "visibility": 10,
    "temperatureC": 7,
    "dewPointC": -1,
    "cloudCeiling": 99999,
    "altimeter": "A3005",
    "timestamp": "2025-12-23T01:53:00+00:00",
    "station": "KCPS"
  },
  "kstl": {
    "metar": "KSTL 230151Z 17007KT 10SM CLR 09/00 A3004 RMK AO2 SLP177 T00890000 $",
    "windDirection": 170,
    "windSpeed": 7,
    "windGust": null,
    "visibility": 10,
    "temperatureC": 9,
    "dewPointC": 0,
    "cloudCeiling": 99999,
    "altimeter": "A3004",
    "timestamp": "2025-12-23T01:51:00+00:00",
    "station": "KSTL"
  }
}