{
  "lastUpdated": "2026-05-25T00:05:37.286442+00:00",
  "kcps": {
    "metar": "KCPS 242353Z 03006KT 10SM CLR 26/13 A3002 RMK AO2 SLP163 T02610128 10272 20244 55004 $",
    "windDirection": 30,
    "windSpeed": 6,
    "windGust": null,
    "visibility": 10,
    "temperatureC": 26,
    "dewPointC": 13,
    "cloudCeiling": 99999,
    "altimeter": "A3002",
    "timestamp": "2026-05-24T23:53:00+00:00",
    "station": "KCPS"
  },
  "kstl": {
    "metar": "KSTL 242351Z 03007KT 10SM CLR 26/11 A3004 RMK AO2 SLP163 T02610106 10272 20239 55003 $",
    "windDirection": 30,
    "windSpeed": 7,
    "windGust": null,
    "visibility": 10,
    "temperatureC": 26,
    "dewPointC": 11,
    "cloudCeiling": 99999,
    "altimeter": "A3004",
    "timestamp": "2026-05-24T23:51:00+00:00",
    "station": "KSTL"
  }
}