{
  "lastUpdated": "2026-01-27T01:14:48.805196+00:00",
  "kcps": {
    "metar": "KCPS 270053Z 18003KT 10SM CLR M13/M19 A3039 RMK AO2 SLP302 T11281189 $",
    "windDirection": 180,
    "windSpeed": 3,
    "windGust": null,
    "visibility": 10,
    "temperatureC": -13,
    "dewPointC": -19,
    "cloudCeiling": 99999,
    "altimeter": "A3039",
    "timestamp": "2026-01-27T00:53:00+00:00",
    "station": "KCPS"
  },
  "kstl": {
    "metar": "KSTL 270051Z 20006KT 10SM CLR M11/M18 A3037 RMK AO2 SLP309 T11061183 $",
    "windDirection": 200,
    "windSpeed": 6,
    "windGust": null,
    "visibility": 10,
    "temperatureC": -11,
    "dewPointC": -18,
    "cloudCeiling": 99999,
    "altimeter": "A3037",
    "timestamp": "2026-01-27T00:51:00+00:00",
    "station": "KSTL"
  }
}