{
  "lastUpdated": "2026-06-13T18:12:44.073689+00:00",
  "kcps": {
    "metar": "KCPS 131753Z 26003KT 5SM -RA BR BKN020 BKN055 OVC100 23/22 A2999 RMK AO2 SLP153 P0006 60009 T02280217 10233 20200 50017 $",
    "windDirection": 260,
    "windSpeed": 3,
    "windGust": null,
    "visibility": 5.0,
    "temperatureC": 22.8,
    "dewPointC": 21.7,
    "cloudCeiling": 2000,
    "altimeter": "A2999",
    "timestamp": "2026-06-13T18:00:00.000Z",
    "station": "KCPS"
  },
  "kstl": {
    "metar": "KSTL 131751Z 27005KT 10SM SCT028 BKN120 OVC200 24/21 A2999 RMK AO2 SLP147 60001 T02390206 10239 20222 50015 $",
    "windDirection": 270,
    "windSpeed": 5,
    "windGust": null,
    "visibility": 10.0,
    "temperatureC": 23.9,
    "dewPointC": 20.6,
    "cloudCeiling": 12000,
    "altimeter": "A2999",
    "timestamp": "2026-06-13T18:00:00.000Z",
    "station": "KSTL"
  }
}