{
  "lastUpdated": "2025-11-23T19:20:27.064200+00:00",
  "kcps": {
    "metar": "KCPS 231853Z 00000KT 8SM OVC009 09/07 A3019 RMK AO2 SLP225 T00940072",
    "windDirection": 0,
    "windSpeed": 0,
    "windGust": null,
    "visibility": 8,
    "temperatureC": 9,
    "dewPointC": 7,
    "cloudCeiling": 900,
    "altimeter": "A3019",
    "timestamp": "2025-11-23T18:53:00+00:00",
    "station": "KCPS"
  },
  "kstl": {
    "metar": "KSTL 231851Z 00000KT 7SM OVC006 09/07 A3019 RMK AO2 SLP226 T00890072 $",
    "windDirection": 0,
    "windSpeed": 0,
    "windGust": null,
    "visibility": 7,
    "temperatureC": 9,
    "dewPointC": 7,
    "cloudCeiling": 600,
    "altimeter": "A3019",
    "timestamp": "2025-11-23T18:51:00+00:00",
    "station": "KSTL"
  }
}