{
  "lastUpdated": "2026-04-03T12:25:32.616474+00:00",
  "kcps": {
    "metar": "KCPS 030853Z 01003KT 10SM OVC033 18/13 A2995 RMK AO2 SLP137 60000 T01830133 51015 $",
    "windDirection": 10,
    "windSpeed": 3,
    "windGust": null,
    "visibility": 10,
    "temperatureC": 18,
    "dewPointC": 13,
    "cloudCeiling": 3300,
    "altimeter": "A2995",
    "timestamp": "2026-04-03T08:53:00+00:00",
    "station": "KCPS"
  },
  "kstl": {
    "metar": "KSTL 031151Z 00000KT 10SM BKN030 BKN250 17/13 A2999 RMK AO2 SLP146 60000 70001 T01670133 10183 20161 53012 $",
    "windDirection": 0,
    "windSpeed": 0,
    "windGust": null,
    "visibility": 10,
    "temperatureC": 17,
    "dewPointC": 13,
    "cloudCeiling": 3000,
    "altimeter": "A2999",
    "timestamp": "2026-04-03T11:51:00+00:00",
    "station": "KSTL"
  }
}