{
  "lastUpdated": "2026-01-03T04:40:46.210528+00:00",
  "kcps": {
    "metar": "KCPS 030353Z 05007KT 10SM OVC110 00/M05 A2999 RMK AO2 SLP160 T00001050",
    "windDirection": 50,
    "windSpeed": 7,
    "windGust": null,
    "visibility": 10,
    "temperatureC": 0,
    "dewPointC": -5,
    "cloudCeiling": 11000,
    "altimeter": "A2999",
    "timestamp": "2026-01-03T03:53:00+00:00",
    "station": "KCPS"
  },
  "kstl": {
    "metar": "KSTL 030351Z 06008KT 10SM OVC100 M01/M05 A2999 RMK AO2 SLP167 T10061050 $",
    "windDirection": 60,
    "windSpeed": 8,
    "windGust": null,
    "visibility": 10,
    "temperatureC": -1,
    "dewPointC": -5,
    "cloudCeiling": 10000,
    "altimeter": "A2999",
    "timestamp": "2026-01-03T03:51:00+00:00",
    "station": "KSTL"
  }
}