{
  "lastUpdated": "2026-05-24T15:10:31.715935+00:00",
  "kcps": {
    "metar": "KCPS 241453Z 31005KT 10SM FEW040 SCT049 OVC065 21/18 A3005 RMK AO2 SLP174 T02110178 53010 $",
    "windDirection": 310,
    "windSpeed": 5,
    "windGust": null,
    "visibility": 10,
    "temperatureC": 21,
    "dewPointC": 18,
    "cloudCeiling": 6500,
    "altimeter": "A3005",
    "timestamp": "2026-05-24T14:53:00+00:00",
    "station": "KCPS"
  },
  "kstl": {
    "metar": "KSTL 241451Z 30004KT 10SM FEW040 BKN080 BKN250 19/18 A3006 RMK AO2 SLP173 T01940178 53010 $",
    "windDirection": 300,
    "windSpeed": 4,
    "windGust": null,
    "visibility": 10,
    "temperatureC": 19,
    "dewPointC": 18,
    "cloudCeiling": 8000,
    "altimeter": "A3006",
    "timestamp": "2026-05-24T14:51:00+00:00",
    "station": "KSTL"
  }
}