{
  "lastUpdated": "2025-11-18T01:08:16.501138+00:00",
  "kcps": {
    "metar": "KCPS 172353Z 12009KT 10SM OVC050 14/M04 A2996 RMK AO2 SLP146 T01441039 10167 20139 56008",
    "windDirection": 120,
    "windSpeed": 9,
    "windGust": null,
    "visibility": 10,
    "temperatureC": 14,
    "dewPointC": -4,
    "cloudCeiling": 5000,
    "altimeter": "A2996",
    "timestamp": "2025-11-17T23:53:00+00:00",
    "station": "KCPS"
  },
  "kstl": {
    "metar": "KSTL 180051Z 13015KT 10SM -RA FEW043 BKN050 OVC110 14/M03 A2994 RMK AO2 RAB03E14B30 TSB14E47 SLP142 OCNL LTGCCCG DSNT W-NW CB DSNT W-NW MOV E P0000 T01441033 $",
    "windDirection": 130,
    "windSpeed": 15,
    "windGust": null,
    "visibility": 10,
    "temperatureC": 14,
    "dewPointC": -3,
    "cloudCeiling": 5000,
    "altimeter": "A2994",
    "timestamp": "2025-11-18T00:51:00+00:00",
    "station": "KSTL"
  }
}