{
  "lastUpdated": "2025-11-30T08:48:06.063721+00:00",
  "kcps": {
    "metar": "KCPS 300811Z AUTO 28016G26KT 10SM OVC031 00/M06 A3018 RMK AO2 PK WND 26026/0802 T00001056 $",
    "windDirection": 280,
    "windSpeed": 16,
    "windGust": 26,
    "visibility": 10,
    "temperatureC": 0,
    "dewPointC": -6,
    "cloudCeiling": 3100,
    "altimeter": "A3018",
    "timestamp": "2025-11-30T08:11:00+00:00",
    "station": "KCPS"
  },
  "kstl": {
    "metar": "KSTL 300751Z 29017G30KT 10SM BKN028 OVC031 M01/M06 A3016 RMK AO2 PK WND 28032/0731 SLP222 T10111061 $",
    "windDirection": 290,
    "windSpeed": 17,
    "windGust": 30,
    "visibility": 10,
    "temperatureC": -1,
    "dewPointC": -6,
    "cloudCeiling": 2800,
    "altimeter": "A3016",
    "timestamp": "2025-11-30T07:51:00+00:00",
    "station": "KSTL"
  }
}