{
  "lastUpdated": "2026-04-14T06:18:23.034335+00:00",
  "kcps": {
    "metar": "KCPS 140553Z AUTO 20008G20KT 10SM CLR 23/17 A2990 RMK AO2 SLP120 T02330167 10272 20233 402940200 55005 $",
    "windDirection": 200,
    "windSpeed": 8,
    "windGust": 20,
    "visibility": 10,
    "temperatureC": 23,
    "dewPointC": 17,
    "cloudCeiling": 99999,
    "altimeter": "A2990",
    "timestamp": "2026-04-14T05:53:00+00:00",
    "station": "KCPS"
  },
  "kstl": {
    "metar": "KSTL 140551Z 21013G22KT 10SM BKN230 23/17 A2990 RMK AO2 SLP114 T02330172 10272 20233 402940200 53000 $",
    "windDirection": 210,
    "windSpeed": 13,
    "windGust": 22,
    "visibility": 10,
    "temperatureC": 23,
    "dewPointC": 17,
    "cloudCeiling": 23000,
    "altimeter": "A2990",
    "timestamp": "2026-04-14T05:51:00+00:00",
    "station": "KSTL"
  }
}