{
  "lastUpdated": "2025-12-25T16:50:22.951281+00:00",
  "kcps": {
    "metar": "KCPS 251622Z 00000KT 2 1/2SM BR BKN004 BKN015 OVC027 14/13 A3006 RMK AO2 RAB1556E05 P0000 T01440133 $",
    "windDirection": 0,
    "windSpeed": 0,
    "windGust": null,
    "visibility": 0.5,
    "temperatureC": 14,
    "dewPointC": 13,
    "cloudCeiling": 400,
    "altimeter": "A3006",
    "timestamp": "2025-12-25T16:22:00+00:00",
    "station": "KCPS"
  },
  "kstl": {
    "metar": "KSTL 251611Z 00000KT 3SM BR SCT003 OVC010 13/12 A3007 RMK AO2 T01280122 $",
    "windDirection": 0,
    "windSpeed": 0,
    "windGust": null,
    "visibility": 3,
    "temperatureC": 13,
    "dewPointC": 12,
    "cloudCeiling": 1000,
    "altimeter": "A3007",
    "timestamp": "2025-12-25T16:11:00+00:00",
    "station": "KSTL"
  }
}