{
  "lastUpdated": "2026-03-31T05:00:24.773330+00:00",
  "kcps": {
    "metar": "KCPS 310453Z AUTO 19008KT 10SM CLR 22/13 A2989 RMK AO2 SLP118 T02220128 $",
    "windDirection": 190,
    "windSpeed": 8,
    "windGust": null,
    "visibility": 10,
    "temperatureC": 22,
    "dewPointC": 13,
    "cloudCeiling": 99999,
    "altimeter": "A2989",
    "timestamp": "2026-03-31T04:53:00+00:00",
    "station": "KCPS"
  },
  "kstl": {
    "metar": "KSTL 310451Z 20014G19KT 10SM BKN250 23/12 A2989 RMK AO2 SLP111 T02280122 $",
    "windDirection": 200,
    "windSpeed": 14,
    "windGust": 19,
    "visibility": 10,
    "temperatureC": 23,
    "dewPointC": 12,
    "cloudCeiling": 25000,
    "altimeter": "A2989",
    "timestamp": "2026-03-31T04:51:00+00:00",
    "station": "KSTL"
  }
}