{
  "lastUpdated": "2026-06-05T16:34:27.018952+00:00",
  "kcps": {
    "metar": "KCPS 051553Z 23008KT 10SM SCT110 26/17 A2999 RMK AO2 SLP152 T02610172 $",
    "windDirection": 230,
    "windSpeed": 8,
    "windGust": null,
    "visibility": 10,
    "temperatureC": 26,
    "dewPointC": 17,
    "cloudCeiling": null,
    "altimeter": "A2999",
    "timestamp": "2026-06-05T15:53:00+00:00",
    "station": "KCPS"
  },
  "kstl": {
    "metar": "KSTL 051551Z 20009KT 10SM FEW046 SCT110 BKN250 27/19 A2999 RMK AO2 SLP146 TCU DSNT NW T02670189 $",
    "windDirection": 200,
    "windSpeed": 9,
    "windGust": null,
    "visibility": 10,
    "temperatureC": 27,
    "dewPointC": 19,
    "cloudCeiling": 25000,
    "altimeter": "A2999",
    "timestamp": "2026-06-05T15:51:00+00:00",
    "station": "KSTL"
  }
}