{
  "lastUpdated": "2026-05-11T22:34:04.176259+00:00",
  "kcps": {
    "metar": "KCPS 112153Z 32012G19KT 10SM CLR 24/06 A3012 RMK AO2 SLP197 T02440061 $",
    "windDirection": 320,
    "windSpeed": 12,
    "windGust": 19,
    "visibility": 10,
    "temperatureC": 24,
    "dewPointC": 6,
    "cloudCeiling": 99999,
    "altimeter": "A3012",
    "timestamp": "2026-05-11T21:53:00+00:00",
    "station": "KCPS"
  },
  "kstl": {
    "metar": "KSTL 112151Z 31005KT 10SM FEW250 24/06 A3013 RMK AO2 SLP199 T02440061 $",
    "windDirection": 310,
    "windSpeed": 5,
    "windGust": null,
    "visibility": 10,
    "temperatureC": 24,
    "dewPointC": 6,
    "cloudCeiling": null,
    "altimeter": "A3013",
    "timestamp": "2026-05-11T21:51:00+00:00",
    "station": "KSTL"
  }
}