{
  "lastUpdated": "2026-06-08T23:24:52.451670+00:00",
  "kcps": {
    "metar": "KCPS 082253Z 18007KT 10SM CLR 29/23 A2990 RMK AO2 RAE09 SLP119 P0000 T02940233 $",
    "windDirection": 180,
    "windSpeed": 7,
    "windGust": null,
    "visibility": 10,
    "temperatureC": 29,
    "dewPointC": 23,
    "cloudCeiling": 99999,
    "altimeter": "A2990",
    "timestamp": "2026-06-08T22:53:00+00:00",
    "station": "KCPS"
  },
  "kstl": {
    "metar": "KSTL 082251Z 20009KT 10SM FEW032 SCT043 BKN150 BKN250 29/22 A2991 RMK AO2 SLP116 CB DSNT NE-E MOV NE T02940222 $",
    "windDirection": 200,
    "windSpeed": 9,
    "windGust": null,
    "visibility": 10,
    "temperatureC": 29,
    "dewPointC": 22,
    "cloudCeiling": 15000,
    "altimeter": "A2991",
    "timestamp": "2026-06-08T22:51:00+00:00",
    "station": "KSTL"
  }
}