{
  "lastUpdated": "2025-10-22T02:31:01.967070+00:00",
  "kcps": {
    "metar": "KCPS 220153Z 29006KT 10SM CLR 13/01 A2999 RMK AO2 SLP155 T01330011",
    "windDirection": 290,
    "windSpeed": 6,
    "windGust": null,
    "visibility": 10,
    "temperatureC": 13,
    "dewPointC": 1,
    "cloudCeiling": 99999,
    "altimeter": "A2999",
    "timestamp": "2025-10-22T01:53:00+00:00",
    "station": "KCPS"
  },
  "kstl": {
    "metar": "KSTL 220151Z 29005KT 10SM CLR 12/01 A2999 RMK AO2 SLP155 T01220011 $",
    "windDirection": 290,
    "windSpeed": 5,
    "windGust": null,
    "visibility": 10,
    "temperatureC": 12,
    "dewPointC": 1,
    "cloudCeiling": 99999,
    "altimeter": "A2999",
    "timestamp": "2025-10-22T01:51:00+00:00",
    "station": "KSTL"
  }
}