{
  "lastUpdated": "2025-11-08T21:20:29.835333+00:00",
  "kcps": {
    "metar": "KCPS 082053Z 00000KT 10SM SCT110 17/06 A2979 RMK AO2 SLP088 T01670061 56019 $",
    "windDirection": 0,
    "windSpeed": 0,
    "windGust": null,
    "visibility": 10,
    "temperatureC": 17,
    "dewPointC": 6,
    "cloudCeiling": null,
    "altimeter": "A2979",
    "timestamp": "2025-11-08T20:53:00+00:00",
    "station": "KCPS"
  },
  "kstl": {
    "metar": "KSTL 082051Z 12004KT 10SM BKN110 OVC140 15/05 A2980 RMK AO2 SLP090 T01500050 55018 $",
    "windDirection": 120,
    "windSpeed": 4,
    "windGust": null,
    "visibility": 10,
    "temperatureC": 15,
    "dewPointC": 5,
    "cloudCeiling": 11000,
    "altimeter": "A2980",
    "timestamp": "2025-11-08T20:51:00+00:00",
    "station": "KSTL"
  }
}