{
  "lastUpdated": "2026-01-30T17:10:36.646726+00:00",
  "kcps": {
    "metar": "KCPS 301653Z 36005KT 10SM CLR M10/M17 A3044 RMK AO2 SLP316 T11001172 $",
    "windDirection": 360,
    "windSpeed": 5,
    "windGust": null,
    "visibility": 10,
    "temperatureC": -10,
    "dewPointC": -17,
    "cloudCeiling": 99999,
    "altimeter": "A3044",
    "timestamp": "2026-01-30T16:53:00+00:00",
    "station": "KCPS"
  },
  "kstl": {
    "metar": "KSTL 301651Z 36008KT 10SM SCT130 BKN250 M11/M18 A3043 RMK AO2 SLP326 T11061178 $",
    "windDirection": 360,
    "windSpeed": 8,
    "windGust": null,
    "visibility": 10,
    "temperatureC": -11,
    "dewPointC": -18,
    "cloudCeiling": 25000,
    "altimeter": "A3043",
    "timestamp": "2026-01-30T16:51:00+00:00",
    "station": "KSTL"
  }
}