{
  "lastUpdated": "2026-01-04T18:41:03.632022+00:00",
  "kcps": {
    "metar": "KCPS 041753Z VRB04KT 10SM CLR 04/M03 A3019 RMK AO2 SLP227 I6000 T00391028 10044 21078 58013 $",
    "windDirection": null,
    "windSpeed": null,
    "windGust": null,
    "visibility": 10,
    "temperatureC": 4,
    "dewPointC": -3,
    "cloudCeiling": 99999,
    "altimeter": "A3019",
    "timestamp": "2026-01-04T17:53:00+00:00",
    "station": "KCPS"
  },
  "kstl": {
    "metar": "KSTL 041751Z 16007KT 10SM BKN250 04/M03 A3018 RMK AO2 SLP231 T00391033 10039 21056 58009 $",
    "windDirection": 160,
    "windSpeed": 7,
    "windGust": null,
    "visibility": 10,
    "temperatureC": 4,
    "dewPointC": -3,
    "cloudCeiling": 25000,
    "altimeter": "A3018",
    "timestamp": "2026-01-04T17:51:00+00:00",
    "station": "KSTL"
  }
}