{
  "lastUpdated": "2026-05-24T11:26:32.426407+00:00",
  "kcps": {
    "metar": "KCPS 241053Z AUTO 00000KT 7SM OVC046 18/18 A3001 RMK AO2 SLP159 T01830178 $",
    "windDirection": 0,
    "windSpeed": 0,
    "windGust": null,
    "visibility": 7,
    "temperatureC": 18,
    "dewPointC": 18,
    "cloudCeiling": 4600,
    "altimeter": "A3001",
    "timestamp": "2026-05-24T10:53:00+00:00",
    "station": "KCPS"
  },
  "kstl": {
    "metar": "KSTL 241118Z 00000KT 10SM FEW017 BKN035 OVC110 18/17 A3003 RMK AO2 RAE12 P0000 T01830167 $",
    "windDirection": 0,
    "windSpeed": 0,
    "windGust": null,
    "visibility": 10,
    "temperatureC": 18,
    "dewPointC": 17,
    "cloudCeiling": 3500,
    "altimeter": "A3003",
    "timestamp": "2026-05-24T11:18:00+00:00",
    "station": "KSTL"
  }
}