{
  "lastUpdated": "2026-02-21T06:21:30.580939+00:00",
  "kcps": {
    "metar": "KCPS 210553Z AUTO 34004KT 10SM CLR 00/M06 A3006 RMK AO2 SLP180 6//// T00001056 10056 21011 400941011 52018 PNO $",
    "windDirection": 340,
    "windSpeed": 4,
    "windGust": null,
    "visibility": 10,
    "temperatureC": 0,
    "dewPointC": -6,
    "cloudCeiling": 99999,
    "altimeter": "A3006",
    "timestamp": "2026-02-21T05:53:00+00:00",
    "station": "KCPS"
  },
  "kstl": {
    "metar": "KSTL 210551Z 35007KT 10SM BKN100 01/M06 A3005 RMK AO2 SLP185 T00111056 10044 20006 400781011 51017 $",
    "windDirection": 350,
    "windSpeed": 7,
    "windGust": null,
    "visibility": 10,
    "temperatureC": 1,
    "dewPointC": -6,
    "cloudCeiling": 10000,
    "altimeter": "A3005",
    "timestamp": "2026-02-21T05:51:00+00:00",
    "station": "KSTL"
  }
}