{
  "lastUpdated": "2026-01-25T07:47:20.523151+00:00",
  "kcps": {
    "metar": "KCPS 250730Z AUTO 01012KT 3/4SM -SN BR VV013 M13/M15 A3018 RMK AO2 P0000 T11281150 $",
    "windDirection": 10,
    "windSpeed": 12,
    "windGust": null,
    "visibility": 0.75,
    "temperatureC": -13,
    "dewPointC": -15,
    "cloudCeiling": 1300,
    "altimeter": "A3018",
    "timestamp": "2026-01-25T07:30:00+00:00",
    "station": "KCPS"
  },
  "kstl": {
    "metar": "KSTL 250720Z 01009KT 1/2SM R30R/P6000FT SN FZFG VV015 M13/M15 A3017 RMK AO2 P0002 T11281150 $",
    "windDirection": 10,
    "windSpeed": 9,
    "windGust": null,
    "visibility": 0.5,
    "temperatureC": -13,
    "dewPointC": -15,
    "cloudCeiling": 1500,
    "altimeter": "A3017",
    "timestamp": "2026-01-25T07:20:00+00:00",
    "station": "KSTL"
  }
}