{
  "lastUpdated": "2026-03-22T18:58:43.615111+00:00",
  "kcps": {
    "metar": "KCPS 221853Z 22007KT 10SM CLR 34/12 A2960 RMK AO2 SLP018 T03390122 $",
    "windDirection": 220,
    "windSpeed": 7,
    "windGust": null,
    "visibility": 10,
    "temperatureC": 34,
    "dewPointC": 12,
    "cloudCeiling": 99999,
    "altimeter": "A2960",
    "timestamp": "2026-03-22T18:53:00+00:00",
    "station": "KCPS"
  },
  "kstl": {
    "metar": "KSTL 221851Z 32003KT 10SM BKN250 32/13 A2961 RMK AO2 SLP015 T03170133 $",
    "windDirection": 320,
    "windSpeed": 3,
    "windGust": null,
    "visibility": 10,
    "temperatureC": 32,
    "dewPointC": 13,
    "cloudCeiling": 25000,
    "altimeter": "A2961",
    "timestamp": "2026-03-22T18:51:00+00:00",
    "station": "KSTL"
  }
}