{
  "lastUpdated": "2026-06-04T15:53:36.137803+00:00",
  "kcps": {
    "metar": "KCPS 041453Z 20006KT 10SM CLR 25/16 A3016 RMK AO2 SLP210 T02500161 58006 $",
    "windDirection": 200,
    "windSpeed": 6,
    "windGust": null,
    "visibility": 10,
    "temperatureC": 25,
    "dewPointC": 16,
    "cloudCeiling": 99999,
    "altimeter": "A3016",
    "timestamp": "2026-06-04T14:53:00+00:00",
    "station": "KCPS"
  },
  "kstl": {
    "station": "KSTL",
    "metar": null,
    "error": "Failed to fetch METAR"
  }
}