{
  "lastUpdated": "2026-06-11T18:39:36.113837+00:00",
  "kcps": {
    "metar": "KCPS 111753Z 20012G21KT 10SM FEW039 BKN050 33/24 A2977 RMK AO2 SLP077 T03280239 10328 20211 56012 $",
    "windDirection": 200,
    "windSpeed": 12,
    "windGust": 21,
    "visibility": 10.0,
    "temperatureC": 32.8,
    "dewPointC": 23.9,
    "cloudCeiling": 5000,
    "altimeter": "A2977",
    "timestamp": "2026-06-11T18:00:00.000Z",
    "station": "KCPS"
  },
  "kstl": {
    "metar": "KSTL 111751Z 21017G26KT 10SM SCT045 BKN250 32/23 A2978 RMK AO2 PK WND 21026/1737 SLP069 T03220228 10322 20211 56008 $",
    "windDirection": 210,
    "windSpeed": 17,
    "windGust": 26,
    "visibility": 10.0,
    "temperatureC": 32.2,
    "dewPointC": 22.8,
    "cloudCeiling": 25000,
    "altimeter": "A2978",
    "timestamp": "2026-06-11T18:00:00.000Z",
    "station": "KSTL"
  }
}