{
  "lastUpdated": "2025-10-24T11:21:16.305797+00:00",
  "kcps": {
    "metar": "KCPS 241053Z AUTO 00000KT 10SM CLR 02/02 A3025 RMK AO2 SLP245 T00220017 $",
    "windDirection": 0,
    "windSpeed": 0,
    "windGust": null,
    "visibility": 10,
    "temperatureC": 2,
    "dewPointC": 2,
    "cloudCeiling": 99999,
    "altimeter": "A3025",
    "timestamp": "2025-10-24T10:53:00+00:00",
    "station": "KCPS"
  },
  "kstl": {
    "metar": "KSTL 241051Z 00000KT 10SM FEW250 05/03 A3025 RMK AO2 SLP244 T00500028 $",
    "windDirection": 0,
    "windSpeed": 0,
    "windGust": null,
    "visibility": 10,
    "temperatureC": 5,
    "dewPointC": 3,
    "cloudCeiling": null,
    "altimeter": "A3025",
    "timestamp": "2025-10-24T10:51:00+00:00",
    "station": "KSTL"
  }
}