{
  "lastUpdated": "2025-11-25T04:22:43.915553+00:00",
  "kcps": {
    "metar": "KCPS 250400Z AUTO 16005KT 5SM -RA BR BKN007 OVC021 11/10 A2985 RMK AO2 P0000 T01060100 $",
    "windDirection": 160,
    "windSpeed": 5,
    "windGust": null,
    "visibility": 5,
    "temperatureC": 11,
    "dewPointC": 10,
    "cloudCeiling": 700,
    "altimeter": "A2985",
    "timestamp": "2025-11-25T04:00:00+00:00",
    "station": "KCPS"
  },
  "kstl": {
    "metar": "KSTL 250401Z 16006KT 5SM -RA BR BKN007 OVC020 11/10 A2985 RMK AO2 P0003 T01060100 $",
    "windDirection": 160,
    "windSpeed": 6,
    "windGust": null,
    "visibility": 5,
    "temperatureC": 11,
    "dewPointC": 10,
    "cloudCeiling": 700,
    "altimeter": "A2985",
    "timestamp": "2025-11-25T04:01:00+00:00",
    "station": "KSTL"
  }
}