{
  "lastUpdated": "2026-05-01T00:01:58.334812+00:00",
  "kcps": {
    "metar": "KCPS 302353Z 19005KT 10SM CLR 18/03 A2995 RMK AO2 SLP141 T01830028 10194 20167 56017 $",
    "windDirection": 190,
    "windSpeed": 5,
    "windGust": null,
    "visibility": 10,
    "temperatureC": 18,
    "dewPointC": 3,
    "cloudCeiling": 99999,
    "altimeter": "A2995",
    "timestamp": "2026-05-30T23:53:00+00:00",
    "station": "KCPS"
  },
  "kstl": {
    "metar": "KSTL 302351Z 23006KT 10SM BKN190 OVC250 17/01 A2995 RMK AO2 SLP142 T01720011 10189 20167 56017",
    "windDirection": 230,
    "windSpeed": 6,
    "windGust": null,
    "visibility": 10,
    "temperatureC": 17,
    "dewPointC": 1,
    "cloudCeiling": 19000,
    "altimeter": "A2995",
    "timestamp": "2026-05-30T23:51:00+00:00",
    "station": "KSTL"
  }
}