{
  "lastUpdated": "2025-12-21T17:33:52.844008+00:00",
  "kcps": {
    "metar": "KCPS 211653Z 10006KT 10SM CLR 04/M08 A3049 RMK AO2 SLP330 T00441078 $",
    "windDirection": 100,
    "windSpeed": 6,
    "windGust": null,
    "visibility": 10,
    "temperatureC": 4,
    "dewPointC": -8,
    "cloudCeiling": 99999,
    "altimeter": "A3049",
    "timestamp": "2025-12-21T16:53:00+00:00",
    "station": "KCPS"
  },
  "kstl": {
    "metar": "KSTL 211651Z 12009KT 10SM BKN250 03/M09 A3049 RMK AO2 SLP334 T00281089 $",
    "windDirection": 120,
    "windSpeed": 9,
    "windGust": null,
    "visibility": 10,
    "temperatureC": 3,
    "dewPointC": -9,
    "cloudCeiling": 25000,
    "altimeter": "A3049",
    "timestamp": "2025-12-21T16:51:00+00:00",
    "station": "KSTL"
  }
}