{
  "lastUpdated": "2026-02-18T07:06:11.466289+00:00",
  "kcps": {
    "metar": "KCPS 180653Z AUTO 19007KT 10SM BKN027 15/11 A2961 RMK AO2 SLP026 T01500106 $",
    "windDirection": 190,
    "windSpeed": 7,
    "windGust": null,
    "visibility": 10,
    "temperatureC": 15,
    "dewPointC": 11,
    "cloudCeiling": 2700,
    "altimeter": "A2961",
    "timestamp": "2026-02-18T06:53:00+00:00",
    "station": "KCPS"
  },
  "kstl": {
    "metar": "KSTL 180651Z 20016G22KT 10SM SCT150 15/11 A2959 RMK AO2 SLP017 T01500106 $",
    "windDirection": 200,
    "windSpeed": 16,
    "windGust": 22,
    "visibility": 10,
    "temperatureC": 15,
    "dewPointC": 11,
    "cloudCeiling": null,
    "altimeter": "A2959",
    "timestamp": "2026-02-18T06:51:00+00:00",
    "station": "KSTL"
  }
}