{
  "lastUpdated": "2026-05-01T14:36:27.226248+00:00",
  "kcps": {
    "metar": "KCPS 011353Z 35010KT 10SM CLR 12/01 A3008 RMK AO2 SLP184 T01170006 $",
    "windDirection": 350,
    "windSpeed": 10,
    "windGust": null,
    "visibility": 10,
    "temperatureC": 12,
    "dewPointC": 1,
    "cloudCeiling": 99999,
    "altimeter": "A3008",
    "timestamp": "2026-05-01T13:53:00+00:00",
    "station": "KCPS"
  },
  "kstl": {
    "metar": "KSTL 011351Z 35006KT 10SM FEW250 11/02 A3008 RMK AO2 SLP184 T01110017",
    "windDirection": 350,
    "windSpeed": 6,
    "windGust": null,
    "visibility": 10,
    "temperatureC": 11,
    "dewPointC": 2,
    "cloudCeiling": null,
    "altimeter": "A3008",
    "timestamp": "2026-05-01T13:51:00+00:00",
    "station": "KSTL"
  }
}