{
  "lastUpdated": "2026-03-28T11:51:38.906338+00:00",
  "kcps": {
    "metar": "KCPS 280953Z 01008KT 10SM CLR 02/M07 A3064 RMK AO2 SLP376 T00171067 $",
    "windDirection": 10,
    "windSpeed": 8,
    "windGust": null,
    "visibility": 10,
    "temperatureC": 2,
    "dewPointC": -7,
    "cloudCeiling": 99999,
    "altimeter": "A3064",
    "timestamp": "2026-03-28T09:53:00+00:00",
    "station": "KCPS"
  },
  "kstl": {
    "metar": "KSTL 281051Z 36004KT 10SM CLR 01/M07 A3064 RMK AO2 SLP381 T00061067 $",
    "windDirection": 360,
    "windSpeed": 4,
    "windGust": null,
    "visibility": 10,
    "temperatureC": 1,
    "dewPointC": -7,
    "cloudCeiling": 99999,
    "altimeter": "A3064",
    "timestamp": "2026-03-28T10:51:00+00:00",
    "station": "KSTL"
  }
}