{
  "lastUpdated": "2026-02-04T03:35:12.450410+00:00",
  "kcps": {
    "metar": "KCPS 040253Z 01005KT 10SM OVC080 M01/M04 A3029 RMK AO2 SLP262 T10061044 51015 $",
    "windDirection": 10,
    "windSpeed": 5,
    "windGust": null,
    "visibility": 10,
    "temperatureC": -1,
    "dewPointC": -4,
    "cloudCeiling": 8000,
    "altimeter": "A3029",
    "timestamp": "2026-02-04T02:53:00+00:00",
    "station": "KCPS"
  },
  "kstl": {
    "metar": "KSTL 040251Z 36008KT 10SM OVC080 M01/M05 A3029 RMK AO2 SLP268 T10061050 51014",
    "windDirection": 360,
    "windSpeed": 8,
    "windGust": null,
    "visibility": 10,
    "temperatureC": -1,
    "dewPointC": -5,
    "cloudCeiling": 8000,
    "altimeter": "A3029",
    "timestamp": "2026-02-04T02:51:00+00:00",
    "station": "KSTL"
  }
}