{
  "lastUpdated": "2026-01-19T14:22:54.272526+00:00",
  "kcps": {
    "metar": "KCPS 191353Z 31013G21KT 10SM CLR M09/M17 A3036 RMK AO2 PK WND 31027/1259 SLP285 T10891172 $",
    "windDirection": 310,
    "windSpeed": 13,
    "windGust": 21,
    "visibility": 10,
    "temperatureC": -9,
    "dewPointC": -17,
    "cloudCeiling": 99999,
    "altimeter": "A3036",
    "timestamp": "2026-01-19T13:53:00+00:00",
    "station": "KCPS"
  },
  "kstl": {
    "metar": "KSTL 191351Z 32016G21KT 10SM FEW025 FEW250 M10/M18 A3035 RMK AO2 PK WND 31027/1252 SLP293 T11001178 $",
    "windDirection": 320,
    "windSpeed": 16,
    "windGust": 21,
    "visibility": 10,
    "temperatureC": -10,
    "dewPointC": -18,
    "cloudCeiling": null,
    "altimeter": "A3035",
    "timestamp": "2026-01-19T13:51:00+00:00",
    "station": "KSTL"
  }
}