{
  "lastUpdated": "2025-11-17T15:22:03.970724+00:00",
  "kcps": {
    "metar": "KCPS 171453Z 13008KT 10SM CLR 08/M06 A3012 RMK AO2 SLP201 T00831056 51012",
    "windDirection": 130,
    "windSpeed": 8,
    "windGust": null,
    "visibility": 10,
    "temperatureC": 8,
    "dewPointC": -6,
    "cloudCeiling": 99999,
    "altimeter": "A3012",
    "timestamp": "2025-11-17T14:53:00+00:00",
    "station": "KCPS"
  },
  "kstl": {
    "metar": "KSTL 171451Z 13010KT 10SM FEW140 SCT250 09/M07 A3011 RMK AO2 SLP197 T00941067 51008 $",
    "windDirection": 130,
    "windSpeed": 10,
    "windGust": null,
    "visibility": 10,
    "temperatureC": 9,
    "dewPointC": -7,
    "cloudCeiling": null,
    "altimeter": "A3011",
    "timestamp": "2025-11-17T14:51:00+00:00",
    "station": "KSTL"
  }
}