{
  "lastUpdated": "2026-04-30T19:29:33.077728+00:00",
  "kcps": {
    "metar": "KCPS 301853Z VRB03KT 10SM CLR 18/02 A3004 RMK AO2 SLP173 T01780017 $",
    "windDirection": null,
    "windSpeed": null,
    "windGust": null,
    "visibility": 10,
    "temperatureC": 18,
    "dewPointC": 2,
    "cloudCeiling": 99999,
    "altimeter": "A3004",
    "timestamp": "2026-04-30T18:53:00+00:00",
    "station": "KCPS"
  },
  "kstl": {
    "metar": "KSTL 301851Z VRB04KT 10SM FEW040 FEW100 SCT250 18/M01 A3004 RMK AO2 SLP172 T01781011",
    "windDirection": null,
    "windSpeed": null,
    "windGust": null,
    "visibility": 10,
    "temperatureC": 18,
    "dewPointC": -1,
    "cloudCeiling": null,
    "altimeter": "A3004",
    "timestamp": "2026-04-30T18:51:00+00:00",
    "station": "KSTL"
  }
}