{
  "lastUpdated": "2026-05-22T19:15:45.854066+00:00",
  "kcps": {
    "metar": "KCPS 221853Z 07006KT 10SM OVC020 19/15 A2991 RMK AO2 SLP127 T01940150 $",
    "windDirection": 70,
    "windSpeed": 6,
    "windGust": null,
    "visibility": 10,
    "temperatureC": 19,
    "dewPointC": 15,
    "cloudCeiling": 2000,
    "altimeter": "A2991",
    "timestamp": "2026-05-22T18:53:00+00:00",
    "station": "KCPS"
  },
  "kstl": {
    "metar": "KSTL 221851Z 05008KT 10SM OVC020 19/14 A2993 RMK AO2 SLP129 T01890139 $",
    "windDirection": 50,
    "windSpeed": 8,
    "windGust": null,
    "visibility": 10,
    "temperatureC": 19,
    "dewPointC": 14,
    "cloudCeiling": 2000,
    "altimeter": "A2993",
    "timestamp": "2026-05-22T18:51:00+00:00",
    "station": "KSTL"
  }
}