{
  "lastUpdated": "2026-02-23T21:31:18.853167+00:00",
  "kcps": {
    "metar": "KCPS 232053Z 30006KT 10SM CLR M01/M13 A3050 RMK AO2 SLP332 6//// T10111128 56031 PNO $",
    "windDirection": 300,
    "windSpeed": 6,
    "windGust": null,
    "visibility": 10,
    "temperatureC": -1,
    "dewPointC": -13,
    "cloudCeiling": 99999,
    "altimeter": "A3050",
    "timestamp": "2026-02-23T20:53:00+00:00",
    "station": "KCPS"
  },
  "kstl": {
    "metar": "KSTL 232051Z 34008G15KT 10SM CLR M01/M12 A3049 RMK AO2 SLP342 T10061122 56029 $",
    "windDirection": 340,
    "windSpeed": 8,
    "windGust": 15,
    "visibility": 10,
    "temperatureC": -1,
    "dewPointC": -12,
    "cloudCeiling": 99999,
    "altimeter": "A3049",
    "timestamp": "2026-02-23T20:51:00+00:00",
    "station": "KSTL"
  }
}