{
  "lastUpdated": "2025-12-18T00:06:29.984520+00:00",
  "kcps": {
    "metar": "KCPS 172353Z 18004KT 10SM CLR 09/02 A2990 RMK AO2 SLP126 T00890017 10139 20083 58025",
    "windDirection": 180,
    "windSpeed": 4,
    "windGust": null,
    "visibility": 10,
    "temperatureC": 9,
    "dewPointC": 2,
    "cloudCeiling": 99999,
    "altimeter": "A2990",
    "timestamp": "2025-12-17T23:53:00+00:00",
    "station": "KCPS"
  },
  "kstl": {
    "metar": "KSTL 172351Z 14009KT 10SM FEW250 11/02 A2990 RMK AO2 SLP127 T01060017 10128 20089 58020 $",
    "windDirection": 140,
    "windSpeed": 9,
    "windGust": null,
    "visibility": 10,
    "temperatureC": 11,
    "dewPointC": 2,
    "cloudCeiling": null,
    "altimeter": "A2990",
    "timestamp": "2025-12-17T23:51:00+00:00",
    "station": "KSTL"
  }
}