{
  "lastUpdated": "2026-03-14T18:23:50.096003+00:00",
  "kcps": {
    "metar": "KCPS 141753Z 14013G22KT 10SM CLR 14/M01 A3002 RMK AO2 SLP167 T01441006 10144 20039 58031 $",
    "windDirection": 140,
    "windSpeed": 13,
    "windGust": 22,
    "visibility": 10,
    "temperatureC": 14,
    "dewPointC": -1,
    "cloudCeiling": 99999,
    "altimeter": "A3002",
    "timestamp": "2026-03-14T17:53:00+00:00",
    "station": "KCPS"
  },
  "kstl": {
    "metar": "KSTL 141751Z 12013G21KT 10SM FEW140 SCT250 14/M02 A3003 RMK AO2 PK WND 11026/1652 SLP172 T01391017 10139 20033 58027 $",
    "windDirection": 120,
    "windSpeed": 13,
    "windGust": 21,
    "visibility": 10,
    "temperatureC": 14,
    "dewPointC": -2,
    "cloudCeiling": null,
    "altimeter": "A3003",
    "timestamp": "2026-03-14T17:51:00+00:00",
    "station": "KSTL"
  }
}