{
  "lastUpdated": "2026-05-27T22:18:56.964936+00:00",
  "kcps": {
    "metar": "KCPS 272153Z 08008KT 10SM SCT060 OVC075 26/20 A2996 RMK AO2 SLP142 T02610200 $",
    "windDirection": 80,
    "windSpeed": 8,
    "windGust": null,
    "visibility": 10,
    "temperatureC": 26,
    "dewPointC": 20,
    "cloudCeiling": 7500,
    "altimeter": "A2996",
    "timestamp": "2026-05-27T21:53:00+00:00",
    "station": "KCPS"
  },
  "kstl": {
    "metar": "KSTL 272151Z 00000KT 10SM BKN065 BKN100 BKN250 29/15 A2997 RMK AO2 SLP137 T02890150 $",
    "windDirection": 0,
    "windSpeed": 0,
    "windGust": null,
    "visibility": 10,
    "temperatureC": 29,
    "dewPointC": 15,
    "cloudCeiling": 6500,
    "altimeter": "A2997",
    "timestamp": "2026-05-27T21:51:00+00:00",
    "station": "KSTL"
  }
}