{
  "lastUpdated": "2026-04-01T17:17:13.915411+00:00",
  "kcps": {
    "metar": "KCPS 011653Z 04006KT 3SM -RA BR BKN006 BKN060 OVC090 11/10 A3006 RMK AO2 SLP176 P0013 T01060100 $",
    "windDirection": 40,
    "windSpeed": 6,
    "windGust": null,
    "visibility": 3,
    "temperatureC": 11,
    "dewPointC": 10,
    "cloudCeiling": 600,
    "altimeter": "A3006",
    "timestamp": "2026-04-01T16:53:00+00:00",
    "station": "KCPS"
  },
  "kstl": {
    "metar": "KSTL 011713Z 08007KT 9SM -RA BKN006 OVC100 10/09 A3005 RMK AO2 P0001 T01000094 $",
    "windDirection": 80,
    "windSpeed": 7,
    "windGust": null,
    "visibility": 9,
    "temperatureC": 10,
    "dewPointC": 9,
    "cloudCeiling": 600,
    "altimeter": "A3005",
    "timestamp": "2026-04-01T17:13:00+00:00",
    "station": "KSTL"
  }
}