{
  "lastUpdated": "2026-06-14T20:41:33.195756+00:00",
  "kcps": {
    "metar": "KCPS 141953Z 33012G22KT 10SM FEW055 26/13 A2997 RMK AO2 SLP146 T02560128 $",
    "windDirection": 330,
    "windSpeed": 12,
    "windGust": 22,
    "visibility": 10.0,
    "temperatureC": 25.6,
    "dewPointC": 12.8,
    "cloudCeiling": null,
    "altimeter": "A2997",
    "timestamp": "2026-06-14T20:00:00.000Z",
    "station": "KCPS"
  },
  "kstl": {
    "metar": "KSTL 141951Z 33012G20KT 10SM FEW030 FEW250 24/12 A2999 RMK AO2 SLP145 T02440122 $",
    "windDirection": 330,
    "windSpeed": 12,
    "windGust": 20,
    "visibility": 10.0,
    "temperatureC": 24.4,
    "dewPointC": 12.2,
    "cloudCeiling": null,
    "altimeter": "A2999",
    "timestamp": "2026-06-14T20:00:00.000Z",
    "station": "KSTL"
  }
}