{
  "lastUpdated": "2026-05-09T03:01:18.915027+00:00",
  "kcps": {
    "metar": "KCPS 090253Z 13004KT 5SM RA BR BKN025 OVC044 15/13 A2982 RMK AO2 RAB21 SLP096 P0005 60005 T01500133 51019 $",
    "windDirection": 130,
    "windSpeed": 4,
    "windGust": null,
    "visibility": 5,
    "temperatureC": 15,
    "dewPointC": 13,
    "cloudCeiling": 2500,
    "altimeter": "A2982",
    "timestamp": "2026-05-09T02:53:00+00:00",
    "station": "KCPS"
  },
  "kstl": {
    "metar": "KSTL 090251Z 29006KT 4SM +RA BR FEW044 OVC055 14/13 A2982 RMK AO2 SLP094 P0014 60014 T01440133 53013 $",
    "windDirection": 290,
    "windSpeed": 6,
    "windGust": null,
    "visibility": 4,
    "temperatureC": 14,
    "dewPointC": 13,
    "cloudCeiling": 5500,
    "altimeter": "A2982",
    "timestamp": "2026-05-09T02:51:00+00:00",
    "station": "KSTL"
  }
}