{
  "lastUpdated": "2026-02-27T20:04:41.465715+00:00",
  "kcps": {
    "metar": "KCPS 271953Z 26011G19KT 10SM CLR 23/M01 A2988 RMK AO2 SLP117 T02331006 $",
    "windDirection": 260,
    "windSpeed": 11,
    "windGust": 19,
    "visibility": 10,
    "temperatureC": 23,
    "dewPointC": -1,
    "cloudCeiling": 99999,
    "altimeter": "A2988",
    "timestamp": "2026-02-27T19:53:00+00:00",
    "station": "KCPS"
  },
  "kstl": {
    "metar": "KSTL 271951Z 24012G23KT 10SM FEW250 23/M01 A2987 RMK AO2 PK WND 21026/1938 SLP116 T02281006 $",
    "windDirection": 240,
    "windSpeed": 12,
    "windGust": 23,
    "visibility": 10,
    "temperatureC": 23,
    "dewPointC": -1,
    "cloudCeiling": null,
    "altimeter": "A2987",
    "timestamp": "2026-02-27T19:51:00+00:00",
    "station": "KSTL"
  }
}