{
  "lastUpdated": "2025-12-19T19:46:31.084225+00:00",
  "kcps": {
    "metar": "KCPS 191853Z 25005G14KT 10SM CLR 02/M12 A3011 RMK AO2 SLP199 T00171122",
    "windDirection": 250,
    "windSpeed": 5,
    "windGust": 14,
    "visibility": 10,
    "temperatureC": 2,
    "dewPointC": -12,
    "cloudCeiling": 99999,
    "altimeter": "A3011",
    "timestamp": "2025-12-19T18:53:00+00:00",
    "station": "KCPS"
  },
  "kstl": {
    "metar": "KSTL 191851Z 25009KT 10SM FEW250 02/M12 A3009 RMK AO2 SLP202 T00171117 $",
    "windDirection": 250,
    "windSpeed": 9,
    "windGust": null,
    "visibility": 10,
    "temperatureC": 2,
    "dewPointC": -12,
    "cloudCeiling": null,
    "altimeter": "A3009",
    "timestamp": "2025-12-19T18:51:00+00:00",
    "station": "KSTL"
  }
}