{
  "lastUpdated": "2026-02-27T06:14:21.902575+00:00",
  "kcps": {
    "metar": "KCPS 270553Z AUTO 00000KT 10SM CLR 01/01 A2994 RMK AO2 SLP138 T00110006 10122 20006 401610000 50007 $",
    "windDirection": 0,
    "windSpeed": 0,
    "windGust": null,
    "visibility": 10,
    "temperatureC": 1,
    "dewPointC": 1,
    "cloudCeiling": 99999,
    "altimeter": "A2994",
    "timestamp": "2026-02-27T05:53:00+00:00",
    "station": "KCPS"
  },
  "kstl": {
    "metar": "KSTL 270551Z 08003KT 10SM CLR 06/02 A2994 RMK AO2 SLP139 T00610022 10139 20056 401610006 50006 $",
    "windDirection": 80,
    "windSpeed": 3,
    "windGust": null,
    "visibility": 10,
    "temperatureC": 6,
    "dewPointC": 2,
    "cloudCeiling": 99999,
    "altimeter": "A2994",
    "timestamp": "2026-02-27T05:51:00+00:00",
    "station": "KSTL"
  }
}