{
  "lastUpdated": "2026-02-18T16:35:17.451487+00:00",
  "kcps": {
    "metar": "KCPS 181553Z 27007KT 10SM CLR 19/09 A2969 RMK AO2 SLP052 T01890089 $",
    "windDirection": 270,
    "windSpeed": 7,
    "windGust": null,
    "visibility": 10,
    "temperatureC": 19,
    "dewPointC": 9,
    "cloudCeiling": 99999,
    "altimeter": "A2969",
    "timestamp": "2026-02-18T15:53:00+00:00",
    "station": "KCPS"
  },
  "kstl": {
    "metar": "KSTL 181551Z 28013KT 10SM SCT250 19/04 A2970 RMK AO2 SLP051 T01890044 $",
    "windDirection": 280,
    "windSpeed": 13,
    "windGust": null,
    "visibility": 10,
    "temperatureC": 19,
    "dewPointC": 4,
    "cloudCeiling": null,
    "altimeter": "A2970",
    "timestamp": "2026-02-18T15:51:00+00:00",
    "station": "KSTL"
  }
}