{
  "lastUpdated": "2026-04-02T11:58:26.941103+00:00",
  "kcps": {
    "metar": "KCPS 021153Z 16012G22KT 10SM SCT120 19/16 A2977 RMK AO2 SLP080 70065 T01890156 10189 20133 58007 $",
    "windDirection": 160,
    "windSpeed": 12,
    "windGust": 22,
    "visibility": 10,
    "temperatureC": 19,
    "dewPointC": 16,
    "cloudCeiling": null,
    "altimeter": "A2977",
    "timestamp": "2026-04-02T11:53:00+00:00",
    "station": "KCPS"
  },
  "kstl": {
    "metar": "KSTL 021151Z 17016G22KT 10SM BKN110 OVC250 19/15 A2976 RMK AO2 PK WND 17028/1113 SLP073 70064 T01940150 10194 20139 56008 $",
    "windDirection": 170,
    "windSpeed": 16,
    "windGust": 22,
    "visibility": 10,
    "temperatureC": 19,
    "dewPointC": 15,
    "cloudCeiling": 11000,
    "altimeter": "A2976",
    "timestamp": "2026-04-02T11:51:00+00:00",
    "station": "KSTL"
  }
}