{
  "lastUpdated": "2026-02-21T22:39:11.775772+00:00",
  "kcps": {
    "metar": "KCPS 212153Z 30013KT 10SM FEW110 06/M07 A3022 RMK AO2 SLP237 T00561067 PNO $",
    "windDirection": 300,
    "windSpeed": 13,
    "windGust": null,
    "visibility": 10,
    "temperatureC": 6,
    "dewPointC": -7,
    "cloudCeiling": null,
    "altimeter": "A3022",
    "timestamp": "2026-02-21T21:53:00+00:00",
    "station": "KCPS"
  },
  "kstl": {
    "metar": "KSTL 212151Z 30011KT 10SM FEW055 BKN110 04/M07 A3022 RMK AO2 SLP245 T00441072 $",
    "windDirection": 300,
    "windSpeed": 11,
    "windGust": null,
    "visibility": 10,
    "temperatureC": 4,
    "dewPointC": -7,
    "cloudCeiling": 11000,
    "altimeter": "A3022",
    "timestamp": "2026-02-21T21:51:00+00:00",
    "station": "KSTL"
  }
}