{
  "lastUpdated": "2026-02-15T10:22:31.705437+00:00",
  "kcps": {
    "metar": "KCPS 150953Z AUTO 03006KT 10SM OVC007 07/06 A2985 RMK AO2 RAE37 SLP110 P0001 T00720061 $",
    "windDirection": 30,
    "windSpeed": 6,
    "windGust": null,
    "visibility": 10,
    "temperatureC": 7,
    "dewPointC": 6,
    "cloudCeiling": 700,
    "altimeter": "A2985",
    "timestamp": "2026-02-15T09:53:00+00:00",
    "station": "KCPS"
  },
  "kstl": {
    "metar": "KSTL 150951Z 05006KT 9SM OVC006 07/06 A2987 RMK AO2 SLP117 T00720061 $",
    "windDirection": 50,
    "windSpeed": 6,
    "windGust": null,
    "visibility": 9,
    "temperatureC": 7,
    "dewPointC": 6,
    "cloudCeiling": 600,
    "altimeter": "A2987",
    "timestamp": "2026-02-15T09:51:00+00:00",
    "station": "KSTL"
  }
}