{
  "lastUpdated": "2025-11-19T15:35:03.906236+00:00",
  "kcps": {
    "metar": "KCPS 191453Z 01003KT 4SM BR OVC006 09/08 A3020 RMK AO2 SLP228 T00890078 53012",
    "windDirection": 10,
    "windSpeed": 3,
    "windGust": null,
    "visibility": 4,
    "temperatureC": 9,
    "dewPointC": 8,
    "cloudCeiling": 600,
    "altimeter": "A3020",
    "timestamp": "2025-11-19T14:53:00+00:00",
    "station": "KCPS"
  },
  "kstl": {
    "metar": "KSTL 191451Z 08004KT 5SM BR OVC006 09/08 A3020 RMK AO2 SLP228 T00890078 51015 $",
    "windDirection": 80,
    "windSpeed": 4,
    "windGust": null,
    "visibility": 5,
    "temperatureC": 9,
    "dewPointC": 8,
    "cloudCeiling": 600,
    "altimeter": "A3020",
    "timestamp": "2025-11-19T14:51:00+00:00",
    "station": "KSTL"
  }
}