{
  "lastUpdated": "2025-11-21T16:22:33.869325+00:00",
  "kcps": {
    "metar": "KCPS 211615Z 00000KT 2SM RA BR OVC005 13/13 A2994 RMK AO2 P0002 T01330128 $",
    "windDirection": 0,
    "windSpeed": 0,
    "windGust": null,
    "visibility": 2,
    "temperatureC": 13,
    "dewPointC": 13,
    "cloudCeiling": 500,
    "altimeter": "A2994",
    "timestamp": "2025-11-21T16:15:00+00:00",
    "station": "KCPS"
  },
  "kstl": {
    "metar": "KSTL 211617Z 10005KT 4SM -RA BR OVC004 13/12 A2994 RMK AO2 P0002 T01280117 $",
    "windDirection": 100,
    "windSpeed": 5,
    "windGust": null,
    "visibility": 4,
    "temperatureC": 13,
    "dewPointC": 12,
    "cloudCeiling": 400,
    "altimeter": "A2994",
    "timestamp": "2025-11-21T16:17:00+00:00",
    "station": "KSTL"
  }
}