{
  "lastUpdated": "2026-01-31T18:03:12.612290+00:00",
  "kcps": {
    "metar": "KCPS 311753Z 32013G20KT 10SM CLR M10/M17 A3054 RMK AO2 SLP350 T11001167 11100 21139 58006 $",
    "windDirection": 320,
    "windSpeed": 13,
    "windGust": 20,
    "visibility": 10,
    "temperatureC": -10,
    "dewPointC": -17,
    "cloudCeiling": 99999,
    "altimeter": "A3054",
    "timestamp": "2026-01-31T17:53:00+00:00",
    "station": "KCPS"
  },
  "kstl": {
    "metar": "KSTL 311751Z 28012KT 10SM CLR M10/M17 A3054 RMK AO2 SLP361 4/004 933004 T11001167 11100 21156 58005 $",
    "windDirection": 280,
    "windSpeed": 12,
    "windGust": null,
    "visibility": 10,
    "temperatureC": -10,
    "dewPointC": -17,
    "cloudCeiling": 99999,
    "altimeter": "A3054",
    "timestamp": "2026-01-31T17:51:00+00:00",
    "station": "KSTL"
  }
}