{
  "lastUpdated": "2026-04-18T16:44:14.846992+00:00",
  "kcps": {
    "metar": "KCPS 181553Z 32014KT 10SM CLR 11/04 A3003 RMK AO2 SLP170 T01110039 $",
    "windDirection": 320,
    "windSpeed": 14,
    "windGust": null,
    "visibility": 10,
    "temperatureC": 11,
    "dewPointC": 4,
    "cloudCeiling": 99999,
    "altimeter": "A3003",
    "timestamp": "2026-04-18T15:53:00+00:00",
    "station": "KCPS"
  },
  "kstl": {
    "metar": "KSTL 181551Z 32014KT 10SM SCT025 BKN050 10/04 A3004 RMK AO2 SLP170 T01000039 $",
    "windDirection": 320,
    "windSpeed": 14,
    "windGust": null,
    "visibility": 10,
    "temperatureC": 10,
    "dewPointC": 4,
    "cloudCeiling": 5000,
    "altimeter": "A3004",
    "timestamp": "2026-04-18T15:51:00+00:00",
    "station": "KSTL"
  }
}