{
  "lastUpdated": "2026-02-16T16:46:27.574010+00:00",
  "kcps": {
    "metar": "KCPS 161553Z 00000KT 10SM CLR 11/06 A3009 RMK AO2 SLP190 T01110056 $",
    "windDirection": 0,
    "windSpeed": 0,
    "windGust": null,
    "visibility": 10,
    "temperatureC": 11,
    "dewPointC": 6,
    "cloudCeiling": 99999,
    "altimeter": "A3009",
    "timestamp": "2026-02-16T15:53:00+00:00",
    "station": "KCPS"
  },
  "kstl": {
    "metar": "KSTL 161551Z 20008KT 10SM FEW150 FEW250 13/05 A3008 RMK AO2 SLP188 T01330050 $",
    "windDirection": 200,
    "windSpeed": 8,
    "windGust": null,
    "visibility": 10,
    "temperatureC": 13,
    "dewPointC": 5,
    "cloudCeiling": null,
    "altimeter": "A3008",
    "timestamp": "2026-02-16T15:51:00+00:00",
    "station": "KSTL"
  }
}