{
  "lastUpdated": "2026-02-02T10:50:14.045460+00:00",
  "kcps": {
    "metar": "KCPS 020953Z AUTO 00000KT 10SM OVC043 M03/M09 A3018 RMK AO2 SLP224 T10281089 $",
    "windDirection": 0,
    "windSpeed": 0,
    "windGust": null,
    "visibility": 10,
    "temperatureC": -3,
    "dewPointC": -9,
    "cloudCeiling": 4300,
    "altimeter": "A3018",
    "timestamp": "2026-02-02T09:53:00+00:00",
    "station": "KCPS"
  },
  "kstl": {
    "metar": "KSTL 020951Z 24005KT 10SM OVC037 M02/M08 A3016 RMK AO2 SLP227 T10171078 $",
    "windDirection": 240,
    "windSpeed": 5,
    "windGust": null,
    "visibility": 10,
    "temperatureC": -2,
    "dewPointC": -8,
    "cloudCeiling": 3700,
    "altimeter": "A3016",
    "timestamp": "2026-02-02T09:51:00+00:00",
    "station": "KSTL"
  }
}