{
  "lastUpdated": "2026-05-08T08:48:26.162523+00:00",
  "kcps": {
    "metar": "KCPS 080753Z AUTO 16004KT 10SM CLR 09/06 A2992 RMK AO2 SLP129 T00890056 $",
    "windDirection": 160,
    "windSpeed": 4,
    "windGust": null,
    "visibility": 10,
    "temperatureC": 9,
    "dewPointC": 6,
    "cloudCeiling": 99999,
    "altimeter": "A2992",
    "timestamp": "2026-05-08T07:53:00+00:00",
    "station": "KCPS"
  },
  "kstl": {
    "metar": "KSTL 080751Z 21006KT 10SM CLR 12/04 A2991 RMK AO2 SLP125 T01220039 $",
    "windDirection": 210,
    "windSpeed": 6,
    "windGust": null,
    "visibility": 10,
    "temperatureC": 12,
    "dewPointC": 4,
    "cloudCeiling": 99999,
    "altimeter": "A2991",
    "timestamp": "2026-05-08T07:51:00+00:00",
    "station": "KSTL"
  }
}