{
  "lastUpdated": "2026-01-02T15:02:38.041521+00:00",
  "kcps": {
    "metar": "KCPS 021353Z 03005KT 10SM BR OVC010 00/M02 A2993 RMK AO2 SLP137 T00001022",
    "windDirection": 30,
    "windSpeed": 5,
    "windGust": null,
    "visibility": 10,
    "temperatureC": 0,
    "dewPointC": -2,
    "cloudCeiling": 1000,
    "altimeter": "A2993",
    "timestamp": "2026-01-02T13:53:00+00:00",
    "station": "KCPS"
  },
  "kstl": {
    "metar": "KSTL 021451Z 05006KT 10SM OVC009 M01/M03 A2993 RMK AO2 SLP146 T10111028 51010 $",
    "windDirection": 50,
    "windSpeed": 6,
    "windGust": null,
    "visibility": 10,
    "temperatureC": -1,
    "dewPointC": -3,
    "cloudCeiling": 900,
    "altimeter": "A2993",
    "timestamp": "2026-01-02T14:51:00+00:00",
    "station": "KSTL"
  }
}