{
  "lastUpdated": "2026-04-04T09:24:57.300717+00:00",
  "kcps": {
    "metar": "KCPS 040853Z AUTO 24007KT 10SM -RA FEW031 BKN070 OVC090 19/17 A2993 RMK AO2 SLP132 P0004 60007 T01940172 53007 $",
    "windDirection": 240,
    "windSpeed": 7,
    "windGust": null,
    "visibility": 10,
    "temperatureC": 19,
    "dewPointC": 17,
    "cloudCeiling": 7000,
    "altimeter": "A2993",
    "timestamp": "2026-04-04T08:53:00+00:00",
    "station": "KCPS"
  },
  "kstl": {
    "metar": "KSTL 040851Z 21008KT 10SM -RA FEW037 OVC070 19/16 A2993 RMK AO2 PK WND 23035/0823 RAB02 SLP125 P0002 60002 T01890161 53006 $",
    "windDirection": 210,
    "windSpeed": 8,
    "windGust": null,
    "visibility": 10,
    "temperatureC": 19,
    "dewPointC": 16,
    "cloudCeiling": 7000,
    "altimeter": "A2993",
    "timestamp": "2026-04-04T08:51:00+00:00",
    "station": "KSTL"
  }
}