{
  "lastUpdated": "2025-10-18T06:22:31.759040+00:00",
  "kcps": {
    "metar": "KCPS 180553Z AUTO 16003KT 10SM CLR 19/15 A2979 RMK AO2 SLP084 6//// T01890150 10250 20189 402940133 56010 PNO $",
    "windDirection": 160,
    "windSpeed": 3,
    "windGust": null,
    "visibility": 10,
    "temperatureC": 19,
    "dewPointC": 15,
    "cloudCeiling": 99999,
    "altimeter": "A2979",
    "timestamp": "2025-10-18T05:53:00+00:00",
    "station": "KCPS"
  },
  "kstl": {
    "metar": "KSTL 180551Z 17007KT 10SM FEW250 21/15 A2979 RMK AO2 SLP077 T02060150 10261 20206 402830172 56010 $",
    "windDirection": 170,
    "windSpeed": 7,
    "windGust": null,
    "visibility": 10,
    "temperatureC": 21,
    "dewPointC": 15,
    "cloudCeiling": null,
    "altimeter": "A2979",
    "timestamp": "2025-10-18T05:51:00+00:00",
    "station": "KSTL"
  }
}