{
  "lastUpdated": "2026-02-14T05:44:34.990692+00:00",
  "kcps": {
    "metar": "KCPS 140453Z 16004KT 10SM CLR 06/M02 A3008 RMK AO2 SLP187 T00561022 $",
    "windDirection": 160,
    "windSpeed": 4,
    "windGust": null,
    "visibility": 10,
    "temperatureC": 6,
    "dewPointC": -2,
    "cloudCeiling": 99999,
    "altimeter": "A3008",
    "timestamp": "2026-02-14T04:53:00+00:00",
    "station": "KCPS"
  },
  "kstl": {
    "metar": "KSTL 140451Z 20008KT 10SM SCT250 09/M02 A3008 RMK AO2 SLP185 T00941022 $",
    "windDirection": 200,
    "windSpeed": 8,
    "windGust": null,
    "visibility": 10,
    "temperatureC": 9,
    "dewPointC": -2,
    "cloudCeiling": null,
    "altimeter": "A3008",
    "timestamp": "2026-02-14T04:51:00+00:00",
    "station": "KSTL"
  }
}