{
  "lastUpdated": "2025-12-17T04:00:51.514024+00:00",
  "kcps": {
    "metar": "KCPS 170353Z AUTO 16004KT 10SM CLR 02/M04 A2997 RMK AO2 SLP150 T00221044",
    "windDirection": 160,
    "windSpeed": 4,
    "windGust": null,
    "visibility": 10,
    "temperatureC": 2,
    "dewPointC": -4,
    "cloudCeiling": 99999,
    "altimeter": "A2997",
    "timestamp": "2025-12-17T03:53:00+00:00",
    "station": "KCPS"
  },
  "kstl": {
    "metar": "KSTL 170351Z 20004KT 10SM BKN220 06/M04 A2996 RMK AO2 SLP149 T00561039 $",
    "windDirection": 200,
    "windSpeed": 4,
    "windGust": null,
    "visibility": 10,
    "temperatureC": 6,
    "dewPointC": -4,
    "cloudCeiling": 22000,
    "altimeter": "A2996",
    "timestamp": "2025-12-17T03:51:00+00:00",
    "station": "KSTL"
  }
}