{
  "lastUpdated": "2026-03-28T01:31:41.796054+00:00",
  "kcps": {
    "metar": "KCPS 280053Z 35011KT 10SM CLR 09/M03 A3053 RMK AO2 SLP340 T00941033 $",
    "windDirection": 350,
    "windSpeed": 11,
    "windGust": null,
    "visibility": 10,
    "temperatureC": 9,
    "dewPointC": -3,
    "cloudCeiling": 99999,
    "altimeter": "A3053",
    "timestamp": "2026-03-28T00:53:00+00:00",
    "station": "KCPS"
  },
  "kstl": {
    "metar": "KSTL 280051Z 34005KT 10SM FEW200 BKN250 08/M03 A3054 RMK AO2 SLP346 T00831028 $",
    "windDirection": 340,
    "windSpeed": 5,
    "windGust": null,
    "visibility": 10,
    "temperatureC": 8,
    "dewPointC": -3,
    "cloudCeiling": 25000,
    "altimeter": "A3054",
    "timestamp": "2026-03-28T00:51:00+00:00",
    "station": "KSTL"
  }
}