{
  "lastUpdated": "2025-11-13T08:02:41.582593+00:00",
  "kcps": {
    "metar": "KCPS 130753Z AUTO 00000KT 10SM CLR 02/01 A3021 RMK AO2 SLP229 T00170006 TSNO",
    "windDirection": 0,
    "windSpeed": 0,
    "windGust": null,
    "visibility": 10,
    "temperatureC": 2,
    "dewPointC": 1,
    "cloudCeiling": 99999,
    "altimeter": "A3021",
    "timestamp": "2025-11-13T07:53:00+00:00",
    "station": "KCPS"
  },
  "kstl": {
    "metar": "KSTL 130751Z 27003KT 10SM BKN230 06/02 A3021 RMK AO2 SLP229 T00560017",
    "windDirection": 270,
    "windSpeed": 3,
    "windGust": null,
    "visibility": 10,
    "temperatureC": 6,
    "dewPointC": 2,
    "cloudCeiling": 23000,
    "altimeter": "A3021",
    "timestamp": "2025-11-13T07:51:00+00:00",
    "station": "KSTL"
  }
}