{
  "lastUpdated": "2026-03-28T18:43:54.402688+00:00",
  "kcps": {
    "metar": "KCPS 281753Z VRB03KT 10SM CLR 09/M06 A3060 RMK AO2 SLP364 T00941056 10094 21006 58028 $",
    "windDirection": null,
    "windSpeed": null,
    "windGust": null,
    "visibility": 10,
    "temperatureC": 9,
    "dewPointC": -6,
    "cloudCeiling": 99999,
    "altimeter": "A3060",
    "timestamp": "2026-03-28T17:53:00+00:00",
    "station": "KCPS"
  },
  "kstl": {
    "metar": "KSTL 281751Z VRB05KT 10SM CLR 08/M06 A3060 RMK AO2 SLP368 T00781061 10083 21006 58024 $",
    "windDirection": null,
    "windSpeed": null,
    "windGust": null,
    "visibility": 10,
    "temperatureC": 8,
    "dewPointC": -6,
    "cloudCeiling": 99999,
    "altimeter": "A3060",
    "timestamp": "2026-03-28T17:51:00+00:00",
    "station": "KSTL"
  }
}