{
  "lastUpdated": "2026-05-05T12:06:13.663193+00:00",
  "kcps": {
    "metar": "KCPS 051153Z 35009KT 7SM -RA BKN026 OVC041 12/10 A2978 RMK AO2 LTG DSNT W RAE1058B30 SLP081 P0000 60000 7//// T01220100 10211 20122 53029 $",
    "windDirection": 350,
    "windSpeed": 9,
    "windGust": null,
    "visibility": 7,
    "temperatureC": 12,
    "dewPointC": 10,
    "cloudCeiling": 2600,
    "altimeter": "A2978",
    "timestamp": "2026-05-05T11:53:00+00:00",
    "station": "KCPS"
  },
  "kstl": {
    "metar": "KSTL 051151Z 34007G16KT 10SM -TSRA OVC037CB 11/08 A2982 RMK AO2 RAB06 TSB24 PRESRR SLP089 OCNL LTGCG SW TS SW MOV NE P0001 60004 70010 T01110083 10217 20111 53037 $",
    "windDirection": 340,
    "windSpeed": 7,
    "windGust": 16,
    "visibility": 10,
    "temperatureC": 11,
    "dewPointC": 8,
    "cloudCeiling": 3700,
    "altimeter": "A2982",
    "timestamp": "2026-05-05T11:51:00+00:00",
    "station": "KSTL"
  }
}