{
  "lastUpdated": "2025-12-19T08:02:44.005588+00:00",
  "kcps": {
    "metar": "KCPS 190753Z AUTO 28014G27KT 10SM BKN037 M02/M09 A2990 RMK AO2 PK WND 26027/0745 SLP127 T10221094",
    "windDirection": 280,
    "windSpeed": 14,
    "windGust": 27,
    "visibility": 10,
    "temperatureC": -2,
    "dewPointC": -9,
    "cloudCeiling": 3700,
    "altimeter": "A2990",
    "timestamp": "2025-12-19T07:53:00+00:00",
    "station": "KCPS"
  },
  "kstl": {
    "metar": "KSTL 190751Z 28021G30KT 10SM BKN034 M02/M09 A2989 RMK AO2 PK WND 28030/0751 SLP129 T10221094 $",
    "windDirection": 280,
    "windSpeed": 21,
    "windGust": 30,
    "visibility": 10,
    "temperatureC": -2,
    "dewPointC": -9,
    "cloudCeiling": 3400,
    "altimeter": "A2989",
    "timestamp": "2025-12-19T07:51:00+00:00",
    "station": "KSTL"
  }
}