{
  "lastUpdated": "2026-03-10T02:35:47.715881+00:00",
  "kcps": {
    "metar": "KCPS 100153Z 17006KT 10SM CLR 20/16 A2978 RMK AO2 SLP084 T02000156 $",
    "windDirection": 170,
    "windSpeed": 6,
    "windGust": null,
    "visibility": 10,
    "temperatureC": 20,
    "dewPointC": 16,
    "cloudCeiling": 99999,
    "altimeter": "A2978",
    "timestamp": "2026-03-10T01:53:00+00:00",
    "station": "KCPS"
  },
  "kstl": {
    "metar": "KSTL 100151Z 19010KT 10SM FEW050 22/16 A2978 RMK AO2 SLP079 T02170156 $",
    "windDirection": 190,
    "windSpeed": 10,
    "windGust": null,
    "visibility": 10,
    "temperatureC": 22,
    "dewPointC": 16,
    "cloudCeiling": null,
    "altimeter": "A2978",
    "timestamp": "2026-03-10T01:51:00+00:00",
    "station": "KSTL"
  }
}