{
  "lastUpdated": "2025-10-14T14:02:56.663636+00:00",
  "kcps": {
    "metar": "KCPS 141353Z 00000KT 10SM CLR 18/13 A3027 RMK AO2 SLP250 T01780133",
    "windDirection": 0,
    "windSpeed": 0,
    "windGust": null,
    "visibility": 10,
    "temperatureC": 18,
    "dewPointC": 13,
    "cloudCeiling": 99999,
    "altimeter": "A3027",
    "timestamp": "2025-10-14T13:53:00+00:00",
    "station": "KCPS"
  },
  "kstl": {
    "metar": "KSTL 141351Z 11005KT 10SM BKN140 21/12 A3027 RMK AO2 SLP244 T02060117 $",
    "windDirection": 110,
    "windSpeed": 5,
    "windGust": null,
    "visibility": 10,
    "temperatureC": 21,
    "dewPointC": 12,
    "cloudCeiling": 14000,
    "altimeter": "A3027",
    "timestamp": "2025-10-14T13:51:00+00:00",
    "station": "KSTL"
  }
}