{
  "lastUpdated": "2026-05-02T01:53:28.290940+00:00",
  "kcps": {
    "metar": "KCPS 020053Z 29004KT 10SM CLR 15/M01 A3000 RMK AO2 SLP158 T01501006 $",
    "windDirection": 290,
    "windSpeed": 4,
    "windGust": null,
    "visibility": 10,
    "temperatureC": 15,
    "dewPointC": -1,
    "cloudCeiling": 99999,
    "altimeter": "A3000",
    "timestamp": "2026-05-02T00:53:00+00:00",
    "station": "KCPS"
  },
  "kstl": {
    "metar": "KSTL 020051Z 32003KT 10SM BKN100 BKN250 14/02 A3000 RMK AO2 SLP160 VCSH NW-NE T01440017",
    "windDirection": 320,
    "windSpeed": 3,
    "windGust": null,
    "visibility": 10,
    "temperatureC": 14,
    "dewPointC": 2,
    "cloudCeiling": 10000,
    "altimeter": "A3000",
    "timestamp": "2026-05-02T00:51:00+00:00",
    "station": "KSTL"
  }
}