{
  "lastUpdated": "2026-01-07T21:21:44.647958+00:00",
  "kcps": {
    "metar": "KCPS 072053Z 16005KT 10SM CLR 18/03 A2992 RMK AO2 SLP131 T01780028 56013 $",
    "windDirection": 160,
    "windSpeed": 5,
    "windGust": null,
    "visibility": 10,
    "temperatureC": 18,
    "dewPointC": 3,
    "cloudCeiling": 99999,
    "altimeter": "A2992",
    "timestamp": "2026-01-07T20:53:00+00:00",
    "station": "KCPS"
  },
  "kstl": {
    "metar": "KSTL 072051Z 16009KT 10SM SCT150 SCT250 18/02 A2991 RMK AO2 SLP131 T01780022 56012 $",
    "windDirection": 160,
    "windSpeed": 9,
    "windGust": null,
    "visibility": 10,
    "temperatureC": 18,
    "dewPointC": 2,
    "cloudCeiling": null,
    "altimeter": "A2991",
    "timestamp": "2026-01-07T20:51:00+00:00",
    "station": "KSTL"
  }
}