{
  "lastUpdated": "2026-02-14T07:45:01.768191+00:00",
  "kcps": {
    "metar": "KCPS 140653Z 19003KT 10SM CLR 04/M02 A3007 RMK AO2 SLP184 T00441017 $",
    "windDirection": 190,
    "windSpeed": 3,
    "windGust": null,
    "visibility": 10,
    "temperatureC": 4,
    "dewPointC": -2,
    "cloudCeiling": 99999,
    "altimeter": "A3007",
    "timestamp": "2026-02-14T06:53:00+00:00",
    "station": "KCPS"
  },
  "kstl": {
    "metar": "KSTL 140651Z 23005KT 10SM BKN250 08/M02 A3007 RMK AO2 SLP183 T00831022 $",
    "windDirection": 230,
    "windSpeed": 5,
    "windGust": null,
    "visibility": 10,
    "temperatureC": 8,
    "dewPointC": -2,
    "cloudCeiling": 25000,
    "altimeter": "A3007",
    "timestamp": "2026-02-14T06:51:00+00:00",
    "station": "KSTL"
  }
}