{
  "lastUpdated": "2025-10-16T19:19:52.546604+00:00",
  "kcps": {
    "metar": "KCPS 161853Z 12005KT 10SM CLR 28/14 A3005 RMK AO2 SLP172 T02780144",
    "windDirection": 120,
    "windSpeed": 5,
    "windGust": null,
    "visibility": 10,
    "temperatureC": 28,
    "dewPointC": 14,
    "cloudCeiling": 99999,
    "altimeter": "A3005",
    "timestamp": "2025-10-16T18:53:00+00:00",
    "station": "KCPS"
  },
  "kstl": {
    "metar": "KSTL 161851Z 13010KT 10SM CLR 27/14 A3006 RMK AO2 SLP169 T02670144 $",
    "windDirection": 130,
    "windSpeed": 10,
    "windGust": null,
    "visibility": 10,
    "temperatureC": 27,
    "dewPointC": 14,
    "cloudCeiling": 99999,
    "altimeter": "A3006",
    "timestamp": "2025-10-16T18:51:00+00:00",
    "station": "KSTL"
  }
}