{
  "lastUpdated": "2026-04-25T21:43:25.814055+00:00",
  "kcps": {
    "metar": "KCPS 252053Z 10007KT 050V130 10SM CLR 26/09 A2984 RMK AO2 SLP103 T02560094 58013 $",
    "windDirection": 100,
    "windSpeed": 7,
    "windGust": null,
    "visibility": 10,
    "temperatureC": 26,
    "dewPointC": 9,
    "cloudCeiling": 99999,
    "altimeter": "A2984",
    "timestamp": "2026-04-25T20:53:00+00:00",
    "station": "KCPS"
  },
  "kstl": {
    "metar": "KSTL 252051Z 12007KT 10SM SCT250 24/08 A2986 RMK AO2 SLP107 T02440083 58010 $",
    "windDirection": 120,
    "windSpeed": 7,
    "windGust": null,
    "visibility": 10,
    "temperatureC": 24,
    "dewPointC": 8,
    "cloudCeiling": null,
    "altimeter": "A2986",
    "timestamp": "2026-04-25T20:51:00+00:00",
    "station": "KSTL"
  }
}