{
  "lastUpdated": "2026-05-29T02:17:39.439351+00:00",
  "kcps": {
    "metar": "KCPS 290153Z 06004KT 10SM CLR 24/17 A3000 RMK AO2 SLP155 T02440172 $",
    "windDirection": 60,
    "windSpeed": 4,
    "windGust": null,
    "visibility": 10,
    "temperatureC": 24,
    "dewPointC": 17,
    "cloudCeiling": 99999,
    "altimeter": "A3000",
    "timestamp": "2026-05-29T01:53:00+00:00",
    "station": "KCPS"
  },
  "kstl": {
    "metar": "KSTL 290151Z 08007KT 10SM SCT200 BKN250 26/15 A3001 RMK AO2 SLP152 T02610150 $",
    "windDirection": 80,
    "windSpeed": 7,
    "windGust": null,
    "visibility": 10,
    "temperatureC": 26,
    "dewPointC": 15,
    "cloudCeiling": 25000,
    "altimeter": "A3001",
    "timestamp": "2026-05-29T01:51:00+00:00",
    "station": "KSTL"
  }
}