{
  "lastUpdated": "2025-12-18T07:04:35.764147+00:00",
  "kcps": {
    "metar": "KCPS 180553Z AUTO 18011G18KT 10SM BKN012 OVC027 10/08 A2979 RMK AO2 RAB00E09 SLP087 P0000 60000 T01000078 10111 20083 401391017 58019",
    "windDirection": 180,
    "windSpeed": 11,
    "windGust": 18,
    "visibility": 10,
    "temperatureC": 10,
    "dewPointC": 8,
    "cloudCeiling": 1200,
    "altimeter": "A2979",
    "timestamp": "2025-12-18T05:53:00+00:00",
    "station": "KCPS"
  },
  "kstl": {
    "metar": "KSTL 180651Z 17016G29KT 10SM BKN015 OVC034 11/08 A2973 RMK AO2 PK WND 17029/0649 SLP068 T01060083 $",
    "windDirection": 170,
    "windSpeed": 16,
    "windGust": 29,
    "visibility": 10,
    "temperatureC": 11,
    "dewPointC": 8,
    "cloudCeiling": 1500,
    "altimeter": "A2973",
    "timestamp": "2025-12-18T06:51:00+00:00",
    "station": "KSTL"
  }
}