{
  "lastUpdated": "2026-03-26T08:30:51.963568+00:00",
  "kcps": {
    "metar": "KCPS 260753Z AUTO 20007KT 10SM CLR 21/13 A2982 RMK AO2 SLP093 T02110133 $",
    "windDirection": 200,
    "windSpeed": 7,
    "windGust": null,
    "visibility": 10,
    "temperatureC": 21,
    "dewPointC": 13,
    "cloudCeiling": 99999,
    "altimeter": "A2982",
    "timestamp": "2026-03-26T07:53:00+00:00",
    "station": "KCPS"
  },
  "kstl": {
    "metar": "KSTL 260751Z 23015KT 10SM FEW250 23/13 A2982 RMK AO2 SLP086 T02280133 $",
    "windDirection": 230,
    "windSpeed": 15,
    "windGust": null,
    "visibility": 10,
    "temperatureC": 23,
    "dewPointC": 13,
    "cloudCeiling": null,
    "altimeter": "A2982",
    "timestamp": "2026-03-26T07:51:00+00:00",
    "station": "KSTL"
  }
}