{
  "lastUpdated": "2026-05-06T18:29:38.624745+00:00",
  "kcps": {
    "metar": "KCPS 061753Z 01009KT BKN090 15/06 A3002 RMK AO2 SLP166 T01500061 10150 20089 51008 $",
    "windDirection": 10,
    "windSpeed": 9,
    "windGust": null,
    "visibility": null,
    "temperatureC": 15,
    "dewPointC": 6,
    "cloudCeiling": 9000,
    "altimeter": "A3002",
    "timestamp": "2026-05-06T17:53:00+00:00",
    "station": "KCPS"
  },
  "kstl": {
    "metar": "KSTL 061751Z 31007G17KT 10SM FEW050 SCT095 SCT250 15/02 A3002 RMK AO2 SLP167 60000 T01500022 10156 20083 51010 $",
    "windDirection": 310,
    "windSpeed": 7,
    "windGust": 17,
    "visibility": 10,
    "temperatureC": 15,
    "dewPointC": 2,
    "cloudCeiling": null,
    "altimeter": "A3002",
    "timestamp": "2026-05-06T17:51:00+00:00",
    "station": "KSTL"
  }
}