{
  "lastUpdated": "2025-12-28T05:12:11.018070+00:00",
  "kcps": {
    "metar": "KCPS 280339Z 18005KT 10SM SCT015 17/16 A2976 RMK AO2 T01720156 $",
    "windDirection": 180,
    "windSpeed": 5,
    "windGust": null,
    "visibility": 10,
    "temperatureC": 17,
    "dewPointC": 16,
    "cloudCeiling": null,
    "altimeter": "A2976",
    "timestamp": "2025-12-28T03:39:00+00:00",
    "station": "KCPS"
  },
  "kstl": {
    "metar": "KSTL 280451Z 18006KT 10SM FEW100 17/15 A2975 RMK AO2 SLP072 T01670150 $",
    "windDirection": 180,
    "windSpeed": 6,
    "windGust": null,
    "visibility": 10,
    "temperatureC": 17,
    "dewPointC": 15,
    "cloudCeiling": null,
    "altimeter": "A2975",
    "timestamp": "2025-12-28T04:51:00+00:00",
    "station": "KSTL"
  }
}