{
  "lastUpdated": "2026-01-22T04:28:19.085019+00:00",
  "kcps": {
    "metar": "KCPS 220353Z 29014G24KT 10SM CLR 06/M08 A3018 RMK AO2 SLP221 T00561078 $",
    "windDirection": 290,
    "windSpeed": 14,
    "windGust": 24,
    "visibility": 10,
    "temperatureC": 6,
    "dewPointC": -8,
    "cloudCeiling": 99999,
    "altimeter": "A3018",
    "timestamp": "2026-01-22T03:53:00+00:00",
    "station": "KCPS"
  },
  "kstl": {
    "metar": "KSTL 220351Z 30015G23KT 10SM CLR 04/M09 A3018 RMK AO2 PK WND 29028/0339 SLP225 T00441089 $",
    "windDirection": 300,
    "windSpeed": 15,
    "windGust": 23,
    "visibility": 10,
    "temperatureC": 4,
    "dewPointC": -9,
    "cloudCeiling": 99999,
    "altimeter": "A3018",
    "timestamp": "2026-01-22T03:51:00+00:00",
    "station": "KSTL"
  }
}