{
  "lastUpdated": "2026-02-26T17:05:44.847968+00:00",
  "kcps": {
    "metar": "KCPS 261653Z 12009KT 10SM CLR 11/02 A2989 RMK AO2 SLP123 T01060017 $",
    "windDirection": 120,
    "windSpeed": 9,
    "windGust": null,
    "visibility": 10,
    "temperatureC": 11,
    "dewPointC": 2,
    "cloudCeiling": 99999,
    "altimeter": "A2989",
    "timestamp": "2026-02-26T16:53:00+00:00",
    "station": "KCPS"
  },
  "kstl": {
    "metar": "KSTL 261651Z 14008KT 10SM CLR 09/01 A2990 RMK AO2 SLP126 T00940006 $",
    "windDirection": 140,
    "windSpeed": 8,
    "windGust": null,
    "visibility": 10,
    "temperatureC": 9,
    "dewPointC": 1,
    "cloudCeiling": 99999,
    "altimeter": "A2990",
    "timestamp": "2026-02-26T16:51:00+00:00",
    "station": "KSTL"
  }
}