{
  "lastUpdated": "2026-01-20T03:21:03.641797+00:00",
  "kcps": {
    "metar": "KCPS 200253Z 26003KT 10SM CLR M11/M19 A3042 RMK AO2 SLP310 T11061189 51007 $",
    "windDirection": 260,
    "windSpeed": 3,
    "windGust": null,
    "visibility": 10,
    "temperatureC": -11,
    "dewPointC": -19,
    "cloudCeiling": 99999,
    "altimeter": "A3042",
    "timestamp": "2026-01-20T02:53:00+00:00",
    "station": "KCPS"
  },
  "kstl": {
    "metar": "KSTL 200251Z 27003KT 10SM CLR M09/M19 A3041 RMK AO2 SLP318 T10941194 51006 $",
    "windDirection": 270,
    "windSpeed": 3,
    "windGust": null,
    "visibility": 10,
    "temperatureC": -9,
    "dewPointC": -19,
    "cloudCeiling": 99999,
    "altimeter": "A3041",
    "timestamp": "2026-01-20T02:51:00+00:00",
    "station": "KSTL"
  }
}