{
  "lastUpdated": "2025-12-15T08:55:41.038437+00:00",
  "kcps": {
    "metar": "KCPS 150853Z AUTO 15004KT 10SM CLR M12/M16 A3054 RMK AO2 SLP349 T11171161 56018 $",
    "windDirection": 150,
    "windSpeed": 4,
    "windGust": null,
    "visibility": 10,
    "temperatureC": -12,
    "dewPointC": -16,
    "cloudCeiling": 99999,
    "altimeter": "A3054",
    "timestamp": "2025-12-15T08:53:00+00:00",
    "station": "KCPS"
  },
  "kstl": {
    "metar": "KSTL 150851Z 16008KT 10SM CLR M11/M17 A3051 RMK AO2 SLP351 T11061167 58018 $",
    "windDirection": 160,
    "windSpeed": 8,
    "windGust": null,
    "visibility": 10,
    "temperatureC": -11,
    "dewPointC": -17,
    "cloudCeiling": 99999,
    "altimeter": "A3051",
    "timestamp": "2025-12-15T08:51:00+00:00",
    "station": "KSTL"
  }
}