{
  "lastUpdated": "2025-12-05T15:48:49.645202+00:00",
  "kcps": {
    "metar": "KCPS 051453Z 00000KT 10SM CLR M06/M11 A3009 RMK AO2 SLP196 T10611106 55009 $",
    "windDirection": 0,
    "windSpeed": 0,
    "windGust": null,
    "visibility": 10,
    "temperatureC": -6,
    "dewPointC": -11,
    "cloudCeiling": 99999,
    "altimeter": "A3009",
    "timestamp": "2025-12-05T14:53:00+00:00",
    "station": "KCPS"
  },
  "kstl": {
    "metar": "KSTL 051451Z 19004KT 10SM FEW075 FEW250 M05/M11 A3006 RMK AO2 SLP197 T10501111 55011 $",
    "windDirection": 190,
    "windSpeed": 4,
    "windGust": null,
    "visibility": 10,
    "temperatureC": -5,
    "dewPointC": -11,
    "cloudCeiling": null,
    "altimeter": "A3006",
    "timestamp": "2025-12-05T14:51:00+00:00",
    "station": "KSTL"
  }
}