{
  "lastUpdated": "2026-02-15T17:05:36.464926+00:00",
  "kcps": {
    "metar": "KCPS 151644Z 01010KT 10SM OVC012 08/07 A2998 RMK AO2 T00830067 $",
    "windDirection": 10,
    "windSpeed": 10,
    "windGust": null,
    "visibility": 10,
    "temperatureC": 8,
    "dewPointC": 7,
    "cloudCeiling": 1200,
    "altimeter": "A2998",
    "timestamp": "2026-02-15T16:44:00+00:00",
    "station": "KCPS"
  },
  "kstl": {
    "metar": "KSTL 151651Z 36010KT 10SM OVC009 08/06 A2999 RMK AO2 CIG 009V013 SLP160 T00830061 $",
    "windDirection": 360,
    "windSpeed": 10,
    "windGust": null,
    "visibility": 10,
    "temperatureC": 8,
    "dewPointC": 6,
    "cloudCeiling": 900,
    "altimeter": "A2999",
    "timestamp": "2026-02-15T16:51:00+00:00",
    "station": "KSTL"
  }
}