{
  "lastUpdated": "2026-02-13T11:25:21.286126+00:00",
  "kcps": {
    "metar": "KCPS 131053Z AUTO 15003KT 10SM FEW050 M01/M03 A3021 RMK AO2 SLP231 T10061033 $",
    "windDirection": 150,
    "windSpeed": 3,
    "windGust": null,
    "visibility": 10,
    "temperatureC": -1,
    "dewPointC": -3,
    "cloudCeiling": null,
    "altimeter": "A3021",
    "timestamp": "2026-02-13T10:53:00+00:00",
    "station": "KCPS"
  },
  "kstl": {
    "metar": "KSTL 131051Z 10004KT 10SM FEW090 01/M03 A3020 RMK AO2 SLP233 T00111028 $",
    "windDirection": 100,
    "windSpeed": 4,
    "windGust": null,
    "visibility": 10,
    "temperatureC": 1,
    "dewPointC": -3,
    "cloudCeiling": null,
    "altimeter": "A3020",
    "timestamp": "2026-02-13T10:51:00+00:00",
    "station": "KSTL"
  }
}