{
  "lastUpdated": "2026-04-22T04:54:27.708577+00:00",
  "kcps": {
    "metar": "KCPS 220353Z AUTO 23006KT 10SM CLR 21/08 A3002 RMK AO2 SLP164 T02110078 $",
    "windDirection": 230,
    "windSpeed": 6,
    "windGust": null,
    "visibility": 10,
    "temperatureC": 21,
    "dewPointC": 8,
    "cloudCeiling": 99999,
    "altimeter": "A3002",
    "timestamp": "2026-04-22T03:53:00+00:00",
    "station": "KCPS"
  },
  "kstl": {
    "metar": "KSTL 220451Z 23008KT 10SM FEW090 FEW250 20/08 A3003 RMK AO2 SLP161 T02000083 $",
    "windDirection": 230,
    "windSpeed": 8,
    "windGust": null,
    "visibility": 10,
    "temperatureC": 20,
    "dewPointC": 8,
    "cloudCeiling": null,
    "altimeter": "A3003",
    "timestamp": "2026-04-22T04:51:00+00:00",
    "station": "KSTL"
  }
}