{
  "lastUpdated": "2025-12-28T11:21:16.609531+00:00",
  "kcps": {
    "metar": "KCPS 281053Z AUTO 16005KT 10SM FEW120 18/16 A2969 RMK AO2 SLP053 T01780156 $",
    "windDirection": 160,
    "windSpeed": 5,
    "windGust": null,
    "visibility": 10,
    "temperatureC": 18,
    "dewPointC": 16,
    "cloudCeiling": null,
    "altimeter": "A2969",
    "timestamp": "2025-12-28T10:53:00+00:00",
    "station": "KCPS"
  },
  "kstl": {
    "metar": "KSTL 281051Z 18009KT 10SM BKN120 18/16 A2968 RMK AO2 SLP047 T01780161 $",
    "windDirection": 180,
    "windSpeed": 9,
    "windGust": null,
    "visibility": 10,
    "temperatureC": 18,
    "dewPointC": 16,
    "cloudCeiling": 12000,
    "altimeter": "A2968",
    "timestamp": "2025-12-28T10:51:00+00:00",
    "station": "KSTL"
  }
}