{
  "lastUpdated": "2025-12-27T16:49:28.702283+00:00",
  "kcps": {
    "metar": "KCPS 271634Z 13005KT 3/4SM BR OVC002 09/09 A2995 RMK AO2 T00940089 $",
    "windDirection": 130,
    "windSpeed": 5,
    "windGust": null,
    "visibility": 0.75,
    "temperatureC": 9,
    "dewPointC": 9,
    "cloudCeiling": 200,
    "altimeter": "A2995",
    "timestamp": "2025-12-27T16:34:00+00:00",
    "station": "KCPS"
  },
  "kstl": {
    "metar": "KSTL 271558Z 15012KT 1/2SM R30R/2000V2800FT -DZ FG OVC002 09/09 A2996 RMK AO2 P0000 T00890089 $",
    "windDirection": 150,
    "windSpeed": 12,
    "windGust": null,
    "visibility": 0.5,
    "temperatureC": 9,
    "dewPointC": 9,
    "cloudCeiling": 200,
    "altimeter": "A2996",
    "timestamp": "2025-12-27T15:58:00+00:00",
    "station": "KSTL"
  }
}