{
  "lastUpdated": "2025-10-16T08:38:58.909837+00:00",
  "kcps": {
    "metar": "KCPS 160753Z AUTO 00000KT 10SM CLR 15/14 A3010 RMK AO2 SLP188 T01500144",
    "windDirection": 0,
    "windSpeed": 0,
    "windGust": null,
    "visibility": 10,
    "temperatureC": 15,
    "dewPointC": 14,
    "cloudCeiling": 99999,
    "altimeter": "A3010",
    "timestamp": "2025-10-16T07:53:00+00:00",
    "station": "KCPS"
  },
  "kstl": {
    "metar": "KSTL 160751Z 13004KT 10SM CLR 18/14 A3010 RMK AO2 SLP183 T01830139",
    "windDirection": 130,
    "windSpeed": 4,
    "windGust": null,
    "visibility": 10,
    "temperatureC": 18,
    "dewPointC": 14,
    "cloudCeiling": 99999,
    "altimeter": "A3010",
    "timestamp": "2025-10-16T07:51:00+00:00",
    "station": "KSTL"
  }
}