{
  "lastUpdated": "2025-11-30T04:12:25.269966+00:00",
  "kcps": {
    "metar": "KCPS 300353Z 27014G26KT 10SM -RA BKN014 OVC020 02/00 A3003 RMK AO2 PK WND 29027/0321 SLP172 P0002 T00220000 $",
    "windDirection": 270,
    "windSpeed": 14,
    "windGust": 26,
    "visibility": 10,
    "temperatureC": 2,
    "dewPointC": 0,
    "cloudCeiling": 1400,
    "altimeter": "A3003",
    "timestamp": "2025-11-30T03:53:00+00:00",
    "station": "KCPS"
  },
  "kstl": {
    "metar": "KSTL 300403Z 26024G33KT 10SM OVC013 01/M01 A3004 RMK AO2 PK WND 26033/0402 T00111011 $",
    "windDirection": 260,
    "windSpeed": 24,
    "windGust": 33,
    "visibility": 10,
    "temperatureC": 1,
    "dewPointC": -1,
    "cloudCeiling": 1300,
    "altimeter": "A3004",
    "timestamp": "2025-11-30T04:03:00+00:00",
    "station": "KSTL"
  }
}