{
  "lastUpdated": "2026-02-01T15:50:52.671044+00:00",
  "kcps": {
    "metar": "KCPS 011453Z VRB04KT 10SM CLR M12/M17 A3040 RMK AO2 SLP303 I3000 T11221172 56014 $",
    "windDirection": null,
    "windSpeed": null,
    "windGust": null,
    "visibility": 10,
    "temperatureC": -12,
    "dewPointC": -17,
    "cloudCeiling": 99999,
    "altimeter": "A3040",
    "timestamp": "2026-02-01T14:53:00+00:00",
    "station": "KCPS"
  },
  "kstl": {
    "metar": "KSTL 011451Z 24005KT 10SM BKN200 OVC250 M11/M17 A3039 RMK AO2 SLP311 T11061167 56010 $",
    "windDirection": 240,
    "windSpeed": 5,
    "windGust": null,
    "visibility": 10,
    "temperatureC": -11,
    "dewPointC": -17,
    "cloudCeiling": 20000,
    "altimeter": "A3039",
    "timestamp": "2026-02-01T14:51:00+00:00",
    "station": "KSTL"
  }
}