{
  "lastUpdated": "2026-01-18T21:02:09.125219+00:00",
  "kcps": {
    "metar": "KCPS 182053Z 22010G17KT 10SM OVC095 M03/M15 A3003 RMK AO2 SLP174 T10331150 56024 $",
    "windDirection": 220,
    "windSpeed": 10,
    "windGust": 17,
    "visibility": 10,
    "temperatureC": -3,
    "dewPointC": -15,
    "cloudCeiling": 9500,
    "altimeter": "A3003",
    "timestamp": "2026-01-18T20:53:00+00:00",
    "station": "KCPS"
  },
  "kstl": {
    "metar": "KSTL 182051Z 21009KT 10SM FEW055 BKN090 BKN250 M03/M15 A2999 RMK AO2 PRESFR SLP175 T10331150 56028 $",
    "windDirection": 210,
    "windSpeed": 9,
    "windGust": null,
    "visibility": 10,
    "temperatureC": -3,
    "dewPointC": -15,
    "cloudCeiling": 9000,
    "altimeter": "A2999",
    "timestamp": "2026-01-18T20:51:00+00:00",
    "station": "KSTL"
  }
}