{
  "lastUpdated": "2026-01-20T09:26:18.698603+00:00",
  "kcps": {
    "metar": "KCPS 200853Z AUTO 00000KT 10SM CLR M13/M17 A3045 RMK AO2 SLP318 T11281167 55000 $",
    "windDirection": 0,
    "windSpeed": 0,
    "windGust": null,
    "visibility": 10,
    "temperatureC": -13,
    "dewPointC": -17,
    "cloudCeiling": 99999,
    "altimeter": "A3045",
    "timestamp": "2026-01-20T08:53:00+00:00",
    "station": "KCPS"
  },
  "kstl": {
    "metar": "KSTL 200851Z 22003KT 10SM BKN070 M10/M17 A3043 RMK AO2 SLP324 T11001172 53001 $",
    "windDirection": 220,
    "windSpeed": 3,
    "windGust": null,
    "visibility": 10,
    "temperatureC": -10,
    "dewPointC": -17,
    "cloudCeiling": 7000,
    "altimeter": "A3043",
    "timestamp": "2026-01-20T08:51:00+00:00",
    "station": "KSTL"
  }
}