{
  "lastUpdated": "2026-03-18T02:36:09.929490+00:00",
  "kcps": {
    "metar": "KCPS 180153Z 14007KT 10SM OVC065 01/M11 A3018 RMK AO2 SLP225 T00111111 $",
    "windDirection": 140,
    "windSpeed": 7,
    "windGust": null,
    "visibility": 10,
    "temperatureC": 1,
    "dewPointC": -11,
    "cloudCeiling": 6500,
    "altimeter": "A3018",
    "timestamp": "2026-03-18T01:53:00+00:00",
    "station": "KCPS"
  },
  "kstl": {
    "metar": "KSTL 180222Z 17007KT 10SM -SN OVC044 01/M13 A3016 RMK AO2 SNE0155B22 P0000 T00111128 $",
    "windDirection": 170,
    "windSpeed": 7,
    "windGust": null,
    "visibility": 10,
    "temperatureC": 1,
    "dewPointC": -13,
    "cloudCeiling": 4400,
    "altimeter": "A3016",
    "timestamp": "2026-03-18T02:22:00+00:00",
    "station": "KSTL"
  }
}