{
  "lastUpdated": "2026-01-11T05:07:06.607008+00:00",
  "kcps": {
    "metar": "KCPS 110453Z 33016G24KT 10SM BKN043 OVC055 03/M05 A3022 RMK AO2 PK WND 29030/0354 RAB0356E05 SLP237 P0000 T00281050 $",
    "windDirection": 330,
    "windSpeed": 16,
    "windGust": 24,
    "visibility": 10,
    "temperatureC": 3,
    "dewPointC": -5,
    "cloudCeiling": 4300,
    "altimeter": "A3022",
    "timestamp": "2026-01-11T04:53:00+00:00",
    "station": "KCPS"
  },
  "kstl": {
    "metar": "KSTL 110451Z 30012KT 10SM FEW046 SCT120 01/M06 A3023 RMK AO2 SLP243 T00111061 $",
    "windDirection": 300,
    "windSpeed": 12,
    "windGust": null,
    "visibility": 10,
    "temperatureC": 1,
    "dewPointC": -6,
    "cloudCeiling": null,
    "altimeter": "A3023",
    "timestamp": "2026-01-11T04:51:00+00:00",
    "station": "KSTL"
  }
}