{
  "lastUpdated": "2025-11-30T07:20:56.126229+00:00",
  "kcps": {
    "metar": "KCPS 300653Z AUTO 27013G27KT 10SM OVC034 01/M04 A3013 RMK AO2 PK WND 30028/0642 SLP206 T00061044 $",
    "windDirection": 270,
    "windSpeed": 13,
    "windGust": 27,
    "visibility": 10,
    "temperatureC": 1,
    "dewPointC": -4,
    "cloudCeiling": 3400,
    "altimeter": "A3013",
    "timestamp": "2025-11-30T06:53:00+00:00",
    "station": "KCPS"
  },
  "kstl": {
    "metar": "KSTL 300651Z 28021G29KT 10SM BKN028 OVC035 00/M05 A3012 RMK AO2 PK WND 28035/0636 SLP210 T00001050 $",
    "windDirection": 280,
    "windSpeed": 21,
    "windGust": 29,
    "visibility": 10,
    "temperatureC": 0,
    "dewPointC": -5,
    "cloudCeiling": 2800,
    "altimeter": "A3012",
    "timestamp": "2025-11-30T06:51:00+00:00",
    "station": "KSTL"
  }
}