{
  "lastUpdated": "2025-12-31T17:02:25.085364+00:00",
  "kcps": {
    "metar": "KCPS 311653Z 30009KT 10SM OVC022 03/M02 A3009 RMK AO2 SLP193 T00331022",
    "windDirection": 300,
    "windSpeed": 9,
    "windGust": null,
    "visibility": 10,
    "temperatureC": 3,
    "dewPointC": -2,
    "cloudCeiling": 2200,
    "altimeter": "A3009",
    "timestamp": "2025-12-31T16:53:00+00:00",
    "station": "KCPS"
  },
  "kstl": {
    "metar": "KSTL 311651Z 26009KT 10SM OVC020 02/M02 A3009 RMK AO2 SLP199 T00221022 $",
    "windDirection": 260,
    "windSpeed": 9,
    "windGust": null,
    "visibility": 10,
    "temperatureC": 2,
    "dewPointC": -2,
    "cloudCeiling": 2000,
    "altimeter": "A3009",
    "timestamp": "2025-12-31T16:51:00+00:00",
    "station": "KSTL"
  }
}