{
  "lastUpdated": "2025-11-18T06:02:49.029443+00:00",
  "kcps": {
    "metar": "KCPS 180553Z 14008KT 10SM BKN041 BKN055 OVC080 13/00 A2992 RMK AO2 LTG DSNT NE AND E RAE0458B14E49 SLP132 P0000 60001 T01280000 10144 20111 401671011 58005",
    "windDirection": 140,
    "windSpeed": 8,
    "windGust": null,
    "visibility": 10,
    "temperatureC": 13,
    "dewPointC": 0,
    "cloudCeiling": 4100,
    "altimeter": "A2992",
    "timestamp": "2025-11-18T05:53:00+00:00",
    "station": "KCPS"
  },
  "kstl": {
    "metar": "KSTL 180551Z 11008KT 10SM SCT050 BKN060 OVC080 10/04 A2992 RMK AO2 SLP130 60018 T01000039 10144 20083 401500017 58001 $",
    "windDirection": 110,
    "windSpeed": 8,
    "windGust": null,
    "visibility": 10,
    "temperatureC": 10,
    "dewPointC": 4,
    "cloudCeiling": 6000,
    "altimeter": "A2992",
    "timestamp": "2025-11-18T05:51:00+00:00",
    "station": "KSTL"
  }
}