{
  "lastUpdated": "2025-11-08T04:47:47.661075+00:00",
  "kcps": {
    "metar": "KCPS 080353Z AUTO 00000KT 10SM CLR 08/05 A2978 RMK AO2 SLP083 T00830050 TSNO",
    "windDirection": 0,
    "windSpeed": 0,
    "windGust": null,
    "visibility": 10,
    "temperatureC": 8,
    "dewPointC": 5,
    "cloudCeiling": 99999,
    "altimeter": "A2978",
    "timestamp": "2025-11-08T03:53:00+00:00",
    "station": "KCPS"
  },
  "kstl": {
    "metar": "KSTL 080351Z 26007KT 10SM CLR 13/03 A2978 RMK AO2 SLP081 T01280033 $",
    "windDirection": 260,
    "windSpeed": 7,
    "windGust": null,
    "visibility": 10,
    "temperatureC": 13,
    "dewPointC": 3,
    "cloudCeiling": 99999,
    "altimeter": "A2978",
    "timestamp": "2025-11-08T03:51:00+00:00",
    "station": "KSTL"
  }
}