{
  "lastUpdated": "2026-03-24T01:31:41.430269+00:00",
  "kcps": {
    "metar": "KCPS 240053Z 07004KT 10SM CLR 08/M03 A3038 RMK AO2 SLP290 T00781028 $",
    "windDirection": 70,
    "windSpeed": 4,
    "windGust": null,
    "visibility": 10,
    "temperatureC": 8,
    "dewPointC": -3,
    "cloudCeiling": 99999,
    "altimeter": "A3038",
    "timestamp": "2026-03-24T00:53:00+00:00",
    "station": "KCPS"
  },
  "kstl": {
    "metar": "KSTL 240051Z 07007KT 10SM FEW120 BKN220 09/M04 A3038 RMK AO2 SLP292 T00891044 $",
    "windDirection": 70,
    "windSpeed": 7,
    "windGust": null,
    "visibility": 10,
    "temperatureC": 9,
    "dewPointC": -4,
    "cloudCeiling": 22000,
    "altimeter": "A3038",
    "timestamp": "2026-03-24T00:51:00+00:00",
    "station": "KSTL"
  }
}