{
  "lastUpdated": "2025-12-12T03:43:52.012319+00:00",
  "kcps": {
    "metar": "KCPS 120253Z 10009KT 10SM BKN070 OVC100 01/M02 A2993 RMK AO2 SLP139 T00111022 58005",
    "windDirection": 100,
    "windSpeed": 9,
    "windGust": null,
    "visibility": 10,
    "temperatureC": 1,
    "dewPointC": -2,
    "cloudCeiling": 7000,
    "altimeter": "A2993",
    "timestamp": "2025-12-12T02:53:00+00:00",
    "station": "KCPS"
  },
  "kstl": {
    "metar": "KSTL 120330Z 11014KT 9SM SCT080 BKN095 OVC110 01/M02 A2990 RMK AO2 SNB03E30 P0000 T00061022 $",
    "windDirection": 110,
    "windSpeed": 14,
    "windGust": null,
    "visibility": 9,
    "temperatureC": 1,
    "dewPointC": -2,
    "cloudCeiling": 9500,
    "altimeter": "A2990",
    "timestamp": "2025-12-12T03:30:00+00:00",
    "station": "KSTL"
  }
}