{
  "lastUpdated": "2026-05-05T00:02:58.455581+00:00",
  "kcps": {
    "metar": "KCPS 042353Z 19009G18KT 10SM BKN080 26/12 A2958 RMK AO2 LTG DSNT NE AND E SLP015 6//// T02610117 10261 20167 56018 $",
    "windDirection": 190,
    "windSpeed": 9,
    "windGust": 18,
    "visibility": 10,
    "temperatureC": 26,
    "dewPointC": 12,
    "cloudCeiling": 8000,
    "altimeter": "A2958",
    "timestamp": "2026-05-04T23:53:00+00:00",
    "station": "KCPS"
  },
  "kstl": {
    "metar": "KSTL 042351Z 22014G22KT 10SM FEW075 SCT110 BKN225 26/12 A2959 RMK AO2 SLP010 60002 T02610117 10267 20172 58015 $",
    "windDirection": 220,
    "windSpeed": 14,
    "windGust": 22,
    "visibility": 10,
    "temperatureC": 26,
    "dewPointC": 12,
    "cloudCeiling": 22500,
    "altimeter": "A2959",
    "timestamp": "2026-05-04T23:51:00+00:00",
    "station": "KSTL"
  }
}