{
  "lastUpdated": "2026-01-16T08:22:55.833244+00:00",
  "kcps": {
    "metar": "KCPS 160753Z AUTO 19007KT 10SM BKN055 01/M11 A2970 RMK AO2 SLP062 T00111106 $",
    "windDirection": 190,
    "windSpeed": 7,
    "windGust": null,
    "visibility": 10,
    "temperatureC": 1,
    "dewPointC": -11,
    "cloudCeiling": 5500,
    "altimeter": "A2970",
    "timestamp": "2026-01-16T07:53:00+00:00",
    "station": "KCPS"
  },
  "kstl": {
    "metar": "KSTL 160751Z 19008KT 10SM BKN055 02/M12 A2969 RMK AO2 SLP063 T00171117 $",
    "windDirection": 190,
    "windSpeed": 8,
    "windGust": null,
    "visibility": 10,
    "temperatureC": 2,
    "dewPointC": -12,
    "cloudCeiling": 5500,
    "altimeter": "A2969",
    "timestamp": "2026-01-16T07:51:00+00:00",
    "station": "KSTL"
  }
}