{
  "lastUpdated": "2026-01-06T20:02:26.280489+00:00",
  "kcps": {
    "metar": "KCPS 061953Z 26010G18KT 10SM CLR 19/06 A2969 RMK AO2 SLP053 T01940056",
    "windDirection": 260,
    "windSpeed": 10,
    "windGust": 18,
    "visibility": 10,
    "temperatureC": 19,
    "dewPointC": 6,
    "cloudCeiling": 99999,
    "altimeter": "A2969",
    "timestamp": "2026-01-06T19:53:00+00:00",
    "station": "KCPS"
  },
  "kstl": {
    "metar": "KSTL 061951Z 26013KT 10SM CLR 19/06 A2970 RMK AO2 SLP055 T01890056 $",
    "windDirection": 260,
    "windSpeed": 13,
    "windGust": null,
    "visibility": 10,
    "temperatureC": 19,
    "dewPointC": 6,
    "cloudCeiling": 99999,
    "altimeter": "A2970",
    "timestamp": "2026-01-06T19:51:00+00:00",
    "station": "KSTL"
  }
}