{
  "lastUpdated": "2026-02-19T15:30:51.490868+00:00",
  "kcps": {
    "metar": "KCPS 191500Z 15003KT 5SM BR BKN004 13/13 A2958 RMK AO2 T01330128 $",
    "windDirection": 150,
    "windSpeed": 3,
    "windGust": null,
    "visibility": 5,
    "temperatureC": 13,
    "dewPointC": 13,
    "cloudCeiling": 400,
    "altimeter": "A2958",
    "timestamp": "2026-02-19T15:00:00+00:00",
    "station": "KCPS"
  },
  "kstl": {
    "metar": "KSTL 191514Z 10003KT 3SM BR BKN002 OVC120 12/11 A2957 RMK AO2 T01170111 $",
    "windDirection": 100,
    "windSpeed": 3,
    "windGust": null,
    "visibility": 3,
    "temperatureC": 12,
    "dewPointC": 11,
    "cloudCeiling": 200,
    "altimeter": "A2957",
    "timestamp": "2026-02-19T15:14:00+00:00",
    "station": "KSTL"
  }
}