{
  "lastUpdated": "2026-02-17T23:23:06.065221+00:00",
  "kcps": {
    "metar": "KCPS 172253Z 18013G23KT 10SM OVC015 13/10 A2974 RMK AO2 SLP072 T01280100 $",
    "windDirection": 180,
    "windSpeed": 13,
    "windGust": 23,
    "visibility": 10,
    "temperatureC": 13,
    "dewPointC": 10,
    "cloudCeiling": 1500,
    "altimeter": "A2974",
    "timestamp": "2026-02-17T22:53:00+00:00",
    "station": "KCPS"
  },
  "kstl": {
    "metar": "KSTL 172315Z 16021G30KT 10SM BKN015 OVC150 13/09 A2970 RMK AO2 PK WND 18033/2252 T01280094 $",
    "windDirection": 160,
    "windSpeed": 21,
    "windGust": 30,
    "visibility": 10,
    "temperatureC": 13,
    "dewPointC": 9,
    "cloudCeiling": 1500,
    "altimeter": "A2970",
    "timestamp": "2026-02-17T23:15:00+00:00",
    "station": "KSTL"
  }
}