{
  "lastUpdated": "2025-10-10T20:08:00.270228+00:00",
  "kcps": {
    "metar": "KCPS 101953Z 19005KT 10SM CLR 23/08 A3013 RMK AO2 SLP203 T02330078",
    "windDirection": 190,
    "windSpeed": 5,
    "windGust": null,
    "visibility": 10,
    "temperatureC": 23,
    "dewPointC": 8,
    "cloudCeiling": 99999,
    "altimeter": "A3013",
    "timestamp": "2025-10-10T19:53:00+00:00",
    "station": "KCPS"
  },
  "kstl": {
    "metar": "KSTL 101951Z 16005KT 10SM FEW120 FEW250 23/08 A3014 RMK AO2 SLP200 T02330078 $",
    "windDirection": 160,
    "windSpeed": 5,
    "windGust": null,
    "visibility": 10,
    "temperatureC": 23,
    "dewPointC": 8,
    "cloudCeiling": null,
    "altimeter": "A3014",
    "timestamp": "2025-10-10T19:51:00+00:00",
    "station": "KSTL"
  }
}