{
  "lastUpdated": "2026-06-08T07:05:08.198244+00:00",
  "kcps": {
    "station": "KCPS",
    "metar": null,
    "error": "Failed to fetch METAR"
  },
  "kstl": {
    "metar": "KSTL 080651Z 14010KT 10SM FEW020 SCT100 BKN130 24/22 A2987 RMK AO2 RAE21 SLP100 P0000 T02440222 $",
    "windDirection": 140,
    "windSpeed": 10,
    "windGust": null,
    "visibility": 10,
    "temperatureC": 24,
    "dewPointC": 22,
    "cloudCeiling": 13000,
    "altimeter": "A2987",
    "timestamp": "2026-06-08T06:51:00+00:00",
    "station": "KSTL"
  }
}