{
  "lastUpdated": "2026-04-11T11:14:46.740803+00:00",
  "kcps": {
    "metar": "KCPS 111053Z AUTO 05003KT 10SM BKN095 09/08 A3035 RMK AO2 SLP275 T00940078 $",
    "windDirection": 50,
    "windSpeed": 3,
    "windGust": null,
    "visibility": 10,
    "temperatureC": 9,
    "dewPointC": 8,
    "cloudCeiling": 9500,
    "altimeter": "A3035",
    "timestamp": "2026-04-11T10:53:00+00:00",
    "station": "KCPS"
  },
  "kstl": {
    "metar": "KSTL 111051Z 09008KT 10SM BKN090 10/07 A3035 RMK AO2 SLP275 T01000072 $",
    "windDirection": 90,
    "windSpeed": 8,
    "windGust": null,
    "visibility": 10,
    "temperatureC": 10,
    "dewPointC": 7,
    "cloudCeiling": 9000,
    "altimeter": "A3035",
    "timestamp": "2026-04-11T10:51:00+00:00",
    "station": "KSTL"
  }
}