{
  "lastUpdated": "2025-11-17T00:07:20.822825+00:00",
  "kcps": {
    "metar": "KCPS 162353Z 00000KT 10SM CLR 08/M06 A3002 RMK AO2 SLP165 T00781056 10144 20072 53003 $",
    "windDirection": 0,
    "windSpeed": 0,
    "windGust": null,
    "visibility": 10,
    "temperatureC": 8,
    "dewPointC": -6,
    "cloudCeiling": 99999,
    "altimeter": "A3002",
    "timestamp": "2025-11-16T23:53:00+00:00",
    "station": "KCPS"
  },
  "kstl": {
    "metar": "KSTL 162351Z 34003KT 10SM FEW200 10/M07 A3002 RMK AO2 SLP168 T01001067 10144 20094 53002 $",
    "windDirection": 340,
    "windSpeed": 3,
    "windGust": null,
    "visibility": 10,
    "temperatureC": 10,
    "dewPointC": -7,
    "cloudCeiling": null,
    "altimeter": "A3002",
    "timestamp": "2025-11-16T23:51:00+00:00",
    "station": "KSTL"
  }
}