{
  "lastUpdated": "2025-10-09T21:02:35.528299+00:00",
  "kcps": {
    "metar": "KCPS 092053Z 05007KT 10SM CLR 23/06 A3031 RMK AO2 SLP263 T02330056 56025",
    "windDirection": 50,
    "windSpeed": 7,
    "windGust": null,
    "visibility": 10,
    "temperatureC": 23,
    "dewPointC": 6,
    "cloudCeiling": 99999,
    "altimeter": "A3031",
    "timestamp": "2025-10-09T20:53:00+00:00",
    "station": "KCPS"
  },
  "kstl": {
    "metar": "KSTL 092051Z 12005KT 10SM CLR 23/04 A3032 RMK AO2 SLP263 T02280044 56026 $",
    "windDirection": 120,
    "windSpeed": 5,
    "windGust": null,
    "visibility": 10,
    "temperatureC": 23,
    "dewPointC": 4,
    "cloudCeiling": 99999,
    "altimeter": "A3032",
    "timestamp": "2025-10-09T20:51:00+00:00",
    "station": "KSTL"
  }
}