{
  "lastUpdated": "2025-11-16T16:21:58.221044+00:00",
  "kcps": {
    "metar": "KCPS 161553Z 35003KT 10SM CLR 10/M03 A3006 RMK AO2 SLP177 T01001028 $",
    "windDirection": 350,
    "windSpeed": 3,
    "windGust": null,
    "visibility": 10,
    "temperatureC": 10,
    "dewPointC": -3,
    "cloudCeiling": 99999,
    "altimeter": "A3006",
    "timestamp": "2025-11-16T15:53:00+00:00",
    "station": "KCPS"
  },
  "kstl": {
    "metar": "KSTL 161551Z VRB05KT 10SM FEW250 10/M04 A3006 RMK AO2 SLP178 T01001039 $",
    "windDirection": null,
    "windSpeed": null,
    "windGust": null,
    "visibility": 10,
    "temperatureC": 10,
    "dewPointC": -4,
    "cloudCeiling": null,
    "altimeter": "A3006",
    "timestamp": "2025-11-16T15:51:00+00:00",
    "station": "KSTL"
  }
}