{
  "lastUpdated": "2026-01-06T22:21:45.703516+00:00",
  "kcps": {
    "metar": "KCPS 062153Z 27008KT 10SM CLR 20/03 A2972 RMK AO2 SLP062 T02000033 $",
    "windDirection": 270,
    "windSpeed": 8,
    "windGust": null,
    "visibility": 10,
    "temperatureC": 20,
    "dewPointC": 3,
    "cloudCeiling": 99999,
    "altimeter": "A2972",
    "timestamp": "2026-01-06T21:53:00+00:00",
    "station": "KCPS"
  },
  "kstl": {
    "metar": "KSTL 062151Z 28012KT 10SM CLR 19/03 A2972 RMK AO2 SLP063 T01890028 $",
    "windDirection": 280,
    "windSpeed": 12,
    "windGust": null,
    "visibility": 10,
    "temperatureC": 19,
    "dewPointC": 3,
    "cloudCeiling": 99999,
    "altimeter": "A2972",
    "timestamp": "2026-01-06T21:51:00+00:00",
    "station": "KSTL"
  }
}