{
  "lastUpdated": "2026-03-23T11:15:27.757945+00:00",
  "kcps": {
    "metar": "KCPS 231053Z AUTO 01017G22KT 10SM CLR 04/M03 A3030 RMK AO2 PK WND 01026/0958 SLP262 T00391028 $",
    "windDirection": 10,
    "windSpeed": 17,
    "windGust": 22,
    "visibility": 10,
    "temperatureC": 4,
    "dewPointC": -3,
    "cloudCeiling": 99999,
    "altimeter": "A3030",
    "timestamp": "2026-03-23T10:53:00+00:00",
    "station": "KCPS"
  },
  "kstl": {
    "metar": "KSTL 231051Z 36013G18KT 10SM OVC023 04/M01 A3030 RMK AO2 SLP259 T00441006 $",
    "windDirection": 360,
    "windSpeed": 13,
    "windGust": 18,
    "visibility": 10,
    "temperatureC": 4,
    "dewPointC": -1,
    "cloudCeiling": 2300,
    "altimeter": "A3030",
    "timestamp": "2026-03-23T10:51:00+00:00",
    "station": "KSTL"
  }
}