{
  "lastUpdated": "2026-05-23T19:40:08.697339+00:00",
  "kcps": {
    "metar": "KCPS 231853Z VRB04KT 10SM BKN023 OVC039 22/17 A2998 RMK AO2 SLP150 T02220172 $",
    "windDirection": null,
    "windSpeed": null,
    "windGust": null,
    "visibility": 10,
    "temperatureC": 22,
    "dewPointC": 17,
    "cloudCeiling": 2300,
    "altimeter": "A2998",
    "timestamp": "2026-05-23T18:53:00+00:00",
    "station": "KCPS"
  },
  "kstl": {
    "metar": "KSTL 231914Z VRB03KT 10SM OVC031 23/17 A2999 RMK AO2 T02280167 $",
    "windDirection": null,
    "windSpeed": null,
    "windGust": null,
    "visibility": 10,
    "temperatureC": 23,
    "dewPointC": 17,
    "cloudCeiling": 3100,
    "altimeter": "A2999",
    "timestamp": "2026-05-23T19:14:00+00:00",
    "station": "KSTL"
  }
}