{
  "lastUpdated": "2026-05-05T07:14:37.941325+00:00",
  "kcps": {
    "metar": "KCPS 050653Z AUTO 22006KT 10SM CLR 21/12 A2968 RMK AO2 LTG DSNT N AND NE SLP047 T02060122 $",
    "windDirection": 220,
    "windSpeed": 6,
    "windGust": null,
    "visibility": 10,
    "temperatureC": 21,
    "dewPointC": 12,
    "cloudCeiling": 99999,
    "altimeter": "A2968",
    "timestamp": "2026-05-05T06:53:00+00:00",
    "station": "KCPS"
  },
  "kstl": {
    "metar": "KSTL 050651Z 36009G27KT 10SM BKN048 BKN060 OVC200 19/11 A2973 RMK AO2 PK WND 31037/0629 WSHFT 0623 SLP061 OCNL LTGICCG DSNT N-NE CB DSNT N-NE MOV SE T01890106 $",
    "windDirection": 360,
    "windSpeed": 9,
    "windGust": 27,
    "visibility": 10,
    "temperatureC": 19,
    "dewPointC": 11,
    "cloudCeiling": 4800,
    "altimeter": "A2973",
    "timestamp": "2026-05-05T06:51:00+00:00",
    "station": "KSTL"
  }
}