{
  "lastUpdated": "2026-05-07T15:32:17.736223+00:00",
  "kcps": {
    "metar": "KCPS 071453Z VRB05KT 10SM CLR 14/04 A3006 RMK AO2 SLP180 T01390039 50003 $",
    "windDirection": null,
    "windSpeed": null,
    "windGust": null,
    "visibility": 10,
    "temperatureC": 14,
    "dewPointC": 4,
    "cloudCeiling": 99999,
    "altimeter": "A3006",
    "timestamp": "2026-05-07T14:53:00+00:00",
    "station": "KCPS"
  },
  "kstl": {
    "metar": "KSTL 071451Z 23010KT 10SM CLR 14/01 A3006 RMK AO2 SLP178 T01440011 50003 $",
    "windDirection": 230,
    "windSpeed": 10,
    "windGust": null,
    "visibility": 10,
    "temperatureC": 14,
    "dewPointC": 1,
    "cloudCeiling": 99999,
    "altimeter": "A3006",
    "timestamp": "2026-05-07T14:51:00+00:00",
    "station": "KSTL"
  }
}