{
  "lastUpdated": "2026-04-20T21:33:21.608996+00:00",
  "kcps": {
    "metar": "KCPS 202053Z 15006KT 10SM CLR 19/04 A3023 RMK AO2 SLP237 T01890039 56027 $",
    "windDirection": 150,
    "windSpeed": 6,
    "windGust": null,
    "visibility": 10,
    "temperatureC": 19,
    "dewPointC": 4,
    "cloudCeiling": 99999,
    "altimeter": "A3023",
    "timestamp": "2026-04-20T20:53:00+00:00",
    "station": "KCPS"
  },
  "kstl": {
    "metar": "KSTL 202051Z 11008KT 10SM FEW250 18/03 A3023 RMK AO2 SLP237 T01830033 56027 $",
    "windDirection": 110,
    "windSpeed": 8,
    "windGust": null,
    "visibility": 10,
    "temperatureC": 18,
    "dewPointC": 3,
    "cloudCeiling": null,
    "altimeter": "A3023",
    "timestamp": "2026-04-20T20:51:00+00:00",
    "station": "KSTL"
  }
}