{
  "lastUpdated": "2025-10-18T17:20:03.007214+00:00",
  "kcps": {
    "metar": "KCPS 181717Z 18004KT 2 1/2SM VCTS RA BR FEW011 BKN070 OVC085 19/18 A2978 RMK AO2 VIS 1 3/4V3 LTG DSNT ALQDS TSE11 P0008 T01890183 $",
    "windDirection": 180,
    "windSpeed": 4,
    "windGust": null,
    "visibility": 0.5,
    "temperatureC": 19,
    "dewPointC": 18,
    "cloudCeiling": 7000,
    "altimeter": "A2978",
    "timestamp": "2025-10-18T17:17:00+00:00",
    "station": "KCPS"
  },
  "kstl": {
    "metar": "KSTL 181712Z AUTO 21007KT 7SM -RA SCT012 SCT032 OVC095 20/18 A2981 RMK TS ENDED 1708",
    "windDirection": 210,
    "windSpeed": 7,
    "windGust": null,
    "visibility": 7,
    "temperatureC": 20,
    "dewPointC": 18,
    "cloudCeiling": 9500,
    "altimeter": "A2981",
    "timestamp": "2025-10-18T17:12:00+00:00",
    "station": "KSTL"
  }
}