{
  "lastUpdated": "2026-02-18T02:36:20.395927+00:00",
  "kcps": {
    "metar": "KCPS 180153Z 17014G24KT 10SM BKN023 14/09 A2967 RMK AO2 SLP046 T01390094 $",
    "windDirection": 170,
    "windSpeed": 14,
    "windGust": 24,
    "visibility": 10,
    "temperatureC": 14,
    "dewPointC": 9,
    "cloudCeiling": 2300,
    "altimeter": "A2967",
    "timestamp": "2026-02-18T01:53:00+00:00",
    "station": "KCPS"
  },
  "kstl": {
    "metar": "KSTL 180206Z 17018G27KT 10SM SCT019 OVC150 13/09 A2965 RMK AO2 PK WND 18027/0206 T01330094 $",
    "windDirection": 170,
    "windSpeed": 18,
    "windGust": 27,
    "visibility": 10,
    "temperatureC": 13,
    "dewPointC": 9,
    "cloudCeiling": 15000,
    "altimeter": "A2965",
    "timestamp": "2026-02-18T02:06:00+00:00",
    "station": "KSTL"
  }
}