{
  "lastUpdated": "2026-06-04T21:49:35.102124+00:00",
  "kcps": {
    "metar": "KCPS 042053Z 16008G17KT 10SM FEW050 SCT065 29/18 A3004 RMK AO2 SLP171 T02890178 58023 $",
    "windDirection": 160,
    "windSpeed": 8,
    "windGust": 17,
    "visibility": 10,
    "temperatureC": 29,
    "dewPointC": 18,
    "cloudCeiling": null,
    "altimeter": "A3004",
    "timestamp": "2026-06-04T20:53:00+00:00",
    "station": "KCPS"
  },
  "kstl": {
    "metar": "KSTL 042051Z 17012KT 10SM FEW060 FEW075 BKN250 29/17 A3005 RMK AO2 SLP165 T02890167 58024 $",
    "windDirection": 170,
    "windSpeed": 12,
    "windGust": null,
    "visibility": 10,
    "temperatureC": 29,
    "dewPointC": 17,
    "cloudCeiling": 25000,
    "altimeter": "A3005",
    "timestamp": "2026-06-04T20:51:00+00:00",
    "station": "KSTL"
  }
}