{
  "lastUpdated": "2026-05-12T06:53:21.224855+00:00",
  "kcps": {
    "metar": "KCPS 120553Z AUTO 00000KT 10SM CLR 14/09 A3014 RMK AO2 SLP204 T01390094 10233 20133 402560067 55000 $",
    "windDirection": 0,
    "windSpeed": 0,
    "windGust": null,
    "visibility": 10,
    "temperatureC": 14,
    "dewPointC": 9,
    "cloudCeiling": 99999,
    "altimeter": "A3014",
    "timestamp": "2026-05-12T05:53:00+00:00",
    "station": "KCPS"
  },
  "kstl": {
    "metar": "KSTL 120551Z 00000KT 10SM FEW090 SCT250 16/08 A3014 RMK AO2 SLP201 T01610083 10233 20156 402440078 53000 $",
    "windDirection": 0,
    "windSpeed": 0,
    "windGust": null,
    "visibility": 10,
    "temperatureC": 16,
    "dewPointC": 8,
    "cloudCeiling": null,
    "altimeter": "A3014",
    "timestamp": "2026-05-12T05:51:00+00:00",
    "station": "KSTL"
  }
}