{
  "lastUpdated": "2026-03-23T02:36:16.086146+00:00",
  "kcps": {
    "metar": "KCPS 230153Z 01017G23KT 10SM CLR 12/04 A2999 RMK AO2 PK WND 01029/0138 SLP153 T01220039 $",
    "windDirection": 10,
    "windSpeed": 17,
    "windGust": 23,
    "visibility": 10,
    "temperatureC": 12,
    "dewPointC": 4,
    "cloudCeiling": 99999,
    "altimeter": "A2999",
    "timestamp": "2026-03-23T01:53:00+00:00",
    "station": "KCPS"
  },
  "kstl": {
    "metar": "KSTL 230151Z 35013G23KT 10SM FEW100 OVC220 12/04 A3000 RMK AO2 PK WND 36030/0114 SLP152 T01170039 $",
    "windDirection": 350,
    "windSpeed": 13,
    "windGust": 23,
    "visibility": 10,
    "temperatureC": 12,
    "dewPointC": 4,
    "cloudCeiling": 22000,
    "altimeter": "A3000",
    "timestamp": "2026-03-23T01:51:00+00:00",
    "station": "KSTL"
  }
}