{
  "lastUpdated": "2026-04-19T17:00:25.056749+00:00",
  "kcps": {
    "metar": "KCPS 191653Z 28012G22KT 10SM CLR 17/M02 A3024 RMK AO2 SLP242 T01671017 $",
    "windDirection": 280,
    "windSpeed": 12,
    "windGust": 22,
    "visibility": 10,
    "temperatureC": 17,
    "dewPointC": -2,
    "cloudCeiling": 99999,
    "altimeter": "A3024",
    "timestamp": "2026-04-19T16:53:00+00:00",
    "station": "KCPS"
  },
  "kstl": {
    "metar": "KSTL 191651Z 27019G31KT 10SM FEW200 17/M02 A3025 RMK AO2 PK WND 25031/1649 SLP244 T01671022 $",
    "windDirection": 270,
    "windSpeed": 19,
    "windGust": 31,
    "visibility": 10,
    "temperatureC": 17,
    "dewPointC": -2,
    "cloudCeiling": null,
    "altimeter": "A3025",
    "timestamp": "2026-04-19T16:51:00+00:00",
    "station": "KSTL"
  }
}