{
  "lastUpdated": "2026-04-03T07:39:43.458617+00:00",
  "kcps": {
    "metar": "KCPS 030553Z 25004KT 10SM FEW055 SCT080 21/17 A2990 RMK AO2 SLP122 T02110167 10239 20211 402440133 53035 $",
    "windDirection": 250,
    "windSpeed": 4,
    "windGust": null,
    "visibility": 10,
    "temperatureC": 21,
    "dewPointC": 17,
    "cloudCeiling": null,
    "altimeter": "A2990",
    "timestamp": "2026-04-03T05:53:00+00:00",
    "station": "KCPS"
  },
  "kstl": {
    "metar": "KSTL 030551Z 32006KT 10SM -RA SCT038 BKN090 BKN110 19/15 A2991 RMK AO2 RAB0452 SLP121 P0001 60001 T01890150 10244 20189 402560139 53036 $",
    "windDirection": 320,
    "windSpeed": 6,
    "windGust": null,
    "visibility": 10,
    "temperatureC": 19,
    "dewPointC": 15,
    "cloudCeiling": 9000,
    "altimeter": "A2991",
    "timestamp": "2026-04-03T05:51:00+00:00",
    "station": "KSTL"
  }
}