{
  "lastUpdated": "2026-04-13T11:08:32.274530+00:00",
  "kcps": {
    "metar": "KCPS 131053Z AUTO 19005KT 10SM BKN038 21/16 A2997 RMK AO2 SLP146 T02110161 $",
    "windDirection": 190,
    "windSpeed": 5,
    "windGust": null,
    "visibility": 10,
    "temperatureC": 21,
    "dewPointC": 16,
    "cloudCeiling": 3800,
    "altimeter": "A2997",
    "timestamp": "2026-04-13T10:53:00+00:00",
    "station": "KCPS"
  },
  "kstl": {
    "metar": "KSTL 131051Z 20008KT 10SM FEW033 SCT250 21/16 A2997 RMK AO2 SLP140 T02060161 $",
    "windDirection": 200,
    "windSpeed": 8,
    "windGust": null,
    "visibility": 10,
    "temperatureC": 21,
    "dewPointC": 16,
    "cloudCeiling": null,
    "altimeter": "A2997",
    "timestamp": "2026-04-13T10:51:00+00:00",
    "station": "KSTL"
  }
}