{
  "lastUpdated": "2026-01-29T00:48:15.170314+00:00",
  "kcps": {
    "metar": "KCPS 282353Z 04003KT 10SM OVC090 M02/M11 A3025 RMK AO2 SLP251 T10171111 10000 21028 55001 $",
    "windDirection": 40,
    "windSpeed": 3,
    "windGust": null,
    "visibility": 10,
    "temperatureC": -2,
    "dewPointC": -11,
    "cloudCeiling": 9000,
    "altimeter": "A3025",
    "timestamp": "2026-01-28T23:53:00+00:00",
    "station": "KCPS"
  },
  "kstl": {
    "metar": "KSTL 282351Z 29003KT 10SM BKN085 BKN250 M02/M12 A3025 RMK AO2 SLP259 4/004 T10171117 11006 21028 53001 $",
    "windDirection": 290,
    "windSpeed": 3,
    "windGust": null,
    "visibility": 10,
    "temperatureC": -2,
    "dewPointC": -12,
    "cloudCeiling": 8500,
    "altimeter": "A3025",
    "timestamp": "2026-01-28T23:51:00+00:00",
    "station": "KSTL"
  }
}