{
  "lastUpdated": "2026-01-31T06:30:02.990402+00:00",
  "kcps": {
    "metar": "KCPS 310616Z AUTO 35013KT 6SM -SN FEW020 OVC033 M09/M13 A3050 RMK AO2 P0000 T10941133 $",
    "windDirection": 350,
    "windSpeed": 13,
    "windGust": null,
    "visibility": 6,
    "temperatureC": -9,
    "dewPointC": -13,
    "cloudCeiling": 3300,
    "altimeter": "A3050",
    "timestamp": "2026-01-31T06:16:00+00:00",
    "station": "KCPS"
  },
  "kstl": {
    "metar": "KSTL 310551Z 33008KT 8SM -SN SCT044 OVC080 M11/M13 A3050 RMK AO2 SLP349 4/004 P0000 60000 T11061133 11094 21106 410781150 50007 $",
    "windDirection": 330,
    "windSpeed": 8,
    "windGust": null,
    "visibility": 8,
    "temperatureC": -11,
    "dewPointC": -13,
    "cloudCeiling": 8000,
    "altimeter": "A3050",
    "timestamp": "2026-01-31T05:51:00+00:00",
    "station": "KSTL"
  }
}