{
  "lastUpdated": "2026-01-29T22:22:47.675358+00:00",
  "kcps": {
    "metar": "KCPS 292153Z 03009KT 10SM OVC080 M03/M13 A3028 RMK AO2 SLP260 T10331128 $",
    "windDirection": 30,
    "windSpeed": 9,
    "windGust": null,
    "visibility": 10,
    "temperatureC": -3,
    "dewPointC": -13,
    "cloudCeiling": 8000,
    "altimeter": "A3028",
    "timestamp": "2026-01-29T21:53:00+00:00",
    "station": "KCPS"
  },
  "kstl": {
    "metar": "KSTL 292151Z 35009KT 10SM FEW060 BKN090 BKN250 M04/M12 A3028 RMK AO2 SLP269 T10441122 $",
    "windDirection": 350,
    "windSpeed": 9,
    "windGust": null,
    "visibility": 10,
    "temperatureC": -4,
    "dewPointC": -12,
    "cloudCeiling": 9000,
    "altimeter": "A3028",
    "timestamp": "2026-01-29T21:51:00+00:00",
    "station": "KSTL"
  }
}