{
  "lastUpdated": "2026-02-26T10:30:09.348164+00:00",
  "kcps": {
    "metar": "KCPS 260953Z AUTO 05007KT 10SM FEW065 OVC095 04/M02 A2982 RMK AO2 RAE46 SLP098 P0000 T00441017 $",
    "windDirection": 50,
    "windSpeed": 7,
    "windGust": null,
    "visibility": 10,
    "temperatureC": 4,
    "dewPointC": -2,
    "cloudCeiling": 9500,
    "altimeter": "A2982",
    "timestamp": "2026-02-26T09:53:00+00:00",
    "station": "KCPS"
  },
  "kstl": {
    "metar": "KSTL 260951Z 04006KT 10SM SCT100 04/M04 A2983 RMK AO2 RAE0856 SLP103 P0000 T00441044 $",
    "windDirection": 40,
    "windSpeed": 6,
    "windGust": null,
    "visibility": 10,
    "temperatureC": 4,
    "dewPointC": -4,
    "cloudCeiling": null,
    "altimeter": "A2983",
    "timestamp": "2026-02-26T09:51:00+00:00",
    "station": "KSTL"
  }
}