{
  "lastUpdated": "2025-11-30T14:34:11.415039+00:00",
  "kcps": {
    "metar": "KCPS 301353Z 29015G27KT 10SM CLR M03/M09 A3034 RMK AO2 PK WND 30028/1329 SLP278 T10331094 $",
    "windDirection": 290,
    "windSpeed": 15,
    "windGust": 27,
    "visibility": 10,
    "temperatureC": -3,
    "dewPointC": -9,
    "cloudCeiling": 99999,
    "altimeter": "A3034",
    "timestamp": "2025-11-30T13:53:00+00:00",
    "station": "KCPS"
  },
  "kstl": {
    "metar": "KSTL 301351Z 29016G25KT 10SM FEW030 SCT250 M04/M09 A3033 RMK AO2 PK WND 29029/1309 SLP282 T10441094 $",
    "windDirection": 290,
    "windSpeed": 16,
    "windGust": 25,
    "visibility": 10,
    "temperatureC": -4,
    "dewPointC": -9,
    "cloudCeiling": null,
    "altimeter": "A3033",
    "timestamp": "2025-11-30T13:51:00+00:00",
    "station": "KSTL"
  }
}