{
  "lastUpdated": "2026-04-07T13:07:56.347627+00:00",
  "kcps": {
    "metar": "KCPS 071253Z 07010KT 10SM OVC085 06/00 A3042 RMK AO2 SLP302 T00610000 $",
    "windDirection": 70,
    "windSpeed": 10,
    "windGust": null,
    "visibility": 10,
    "temperatureC": 6,
    "dewPointC": 0,
    "cloudCeiling": 8500,
    "altimeter": "A3042",
    "timestamp": "2026-04-07T12:53:00+00:00",
    "station": "KCPS"
  },
  "kstl": {
    "metar": "KSTL 071251Z 06010KT 10SM FEW060 BKN085 BKN120 BKN250 06/00 A3042 RMK AO2 RAB37E45 SLP305 P0000 T00560000 $",
    "windDirection": 60,
    "windSpeed": 10,
    "windGust": null,
    "visibility": 10,
    "temperatureC": 6,
    "dewPointC": 0,
    "cloudCeiling": 8500,
    "altimeter": "A3042",
    "timestamp": "2026-04-07T12:51:00+00:00",
    "station": "KSTL"
  }
}