{
  "lastUpdated": "2026-04-02T00:56:17.964548+00:00",
  "kcps": {
    "metar": "KCPS 020053Z 33003KT 10SM BKN006 OVC110 13/13 A2993 RMK AO2 RAE16 PRESRR SLP135 P0000 T01330128 $",
    "windDirection": 330,
    "windSpeed": 3,
    "windGust": null,
    "visibility": 10,
    "temperatureC": 13,
    "dewPointC": 13,
    "cloudCeiling": 600,
    "altimeter": "A2993",
    "timestamp": "2026-04-02T00:53:00+00:00",
    "station": "KCPS"
  },
  "kstl": {
    "metar": "KSTL 020051Z 05008KT 7SM OVC004 12/11 A2994 RMK AO2 SLP138 T01170106 $",
    "windDirection": 50,
    "windSpeed": 8,
    "windGust": null,
    "visibility": 7,
    "temperatureC": 12,
    "dewPointC": 11,
    "cloudCeiling": 400,
    "altimeter": "A2994",
    "timestamp": "2026-04-02T00:51:00+00:00",
    "station": "KSTL"
  }
}