{
  "lastUpdated": "2026-05-22T16:21:37.072755+00:00",
  "kcps": {
    "metar": "KCPS 221553Z 08008KT 10SM OVC021 19/14 A2995 RMK AO2 SLP141 T01890139 $",
    "windDirection": 80,
    "windSpeed": 8,
    "windGust": null,
    "visibility": 10,
    "temperatureC": 19,
    "dewPointC": 14,
    "cloudCeiling": 2100,
    "altimeter": "A2995",
    "timestamp": "2026-05-22T15:53:00+00:00",
    "station": "KCPS"
  },
  "kstl": {
    "metar": "KSTL 221551Z AUTO 09009KT 10SM OVC018 18/13 A2996 RMK AO2 SLP141 T01830133 $",
    "windDirection": 90,
    "windSpeed": 9,
    "windGust": null,
    "visibility": 10,
    "temperatureC": 18,
    "dewPointC": 13,
    "cloudCeiling": 1800,
    "altimeter": "A2996",
    "timestamp": "2026-05-22T15:51:00+00:00",
    "station": "KSTL"
  }
}