{
  "lastUpdated": "2026-05-04T18:03:46.734622+00:00",
  "kcps": {
    "metar": "KCPS 041753Z 14004KT 10SM CLR 20/11 A2970 RMK AO2 LTG DSNT W-N RAB30E42 SLP054 P0000 60000 T02000111 10222 20150 58020 $",
    "windDirection": 140,
    "windSpeed": 4,
    "windGust": null,
    "visibility": 10,
    "temperatureC": 20,
    "dewPointC": 11,
    "cloudCeiling": 99999,
    "altimeter": "A2970",
    "timestamp": "2026-05-04T17:53:00+00:00",
    "station": "KCPS"
  },
  "kstl": {
    "metar": "KSTL 041751Z 17012G19KT 8SM R30R/4500VP6000FT -TSRA SCT050CB BKN090 BKN250 17/13 A2967 RMK AO2 PRESFR SLP043 OCNL LTGIC NE-SW TS NE-SW MOV E P0003 60004 T01720128 10217 20167 56027 $",
    "windDirection": 170,
    "windSpeed": 12,
    "windGust": 19,
    "visibility": 8,
    "temperatureC": 17,
    "dewPointC": 13,
    "cloudCeiling": 9000,
    "altimeter": "A2967",
    "timestamp": "2026-05-04T17:51:00+00:00",
    "station": "KSTL"
  }
}