{
  "lastUpdated": "2025-12-26T16:49:37.003985+00:00",
  "kcps": {
    "metar": "KCPS 261642Z 28008KT 10SM BKN022 20/15 A2978 RMK AO2 T02000150 $",
    "windDirection": 280,
    "windSpeed": 8,
    "windGust": null,
    "visibility": 10,
    "temperatureC": 20,
    "dewPointC": 15,
    "cloudCeiling": 2200,
    "altimeter": "A2978",
    "timestamp": "2025-12-26T16:42:00+00:00",
    "station": "KCPS"
  },
  "kstl": {
    "metar": "KSTL 261551Z 26012KT 10SM BKN016 BKN250 18/15 A2979 RMK AO2 SLP081 T01830150 $",
    "windDirection": 260,
    "windSpeed": 12,
    "windGust": null,
    "visibility": 10,
    "temperatureC": 18,
    "dewPointC": 15,
    "cloudCeiling": 1600,
    "altimeter": "A2979",
    "timestamp": "2025-12-26T15:51:00+00:00",
    "station": "KSTL"
  }
}