{
  "lastUpdated": "2026-03-12T16:06:29.905080+00:00",
  "kcps": {
    "metar": "KCPS 121553Z 28007KT 10SM CLR 07/M03 A3034 RMK AO2 SLP276 T00721028 $",
    "windDirection": 280,
    "windSpeed": 7,
    "windGust": null,
    "visibility": 10,
    "temperatureC": 7,
    "dewPointC": -3,
    "cloudCeiling": 99999,
    "altimeter": "A3034",
    "timestamp": "2026-03-12T15:53:00+00:00",
    "station": "KCPS"
  },
  "kstl": {
    "metar": "KSTL 121551Z 30006KT 10SM FEW250 07/M02 A3034 RMK AO2 SLP278 T00721017 $",
    "windDirection": 300,
    "windSpeed": 6,
    "windGust": null,
    "visibility": 10,
    "temperatureC": 7,
    "dewPointC": -2,
    "cloudCeiling": null,
    "altimeter": "A3034",
    "timestamp": "2026-03-12T15:51:00+00:00",
    "station": "KSTL"
  }
}