{
  "lastUpdated": "2026-04-01T18:36:36.724889+00:00",
  "kcps": {
    "metar": "KCPS 011753Z 10006KT 10SM -RA OVC006 12/11 A3002 RMK AO2 SLP164 P0001 60054 T01220111 10122 20100 58016 $",
    "windDirection": 100,
    "windSpeed": 6,
    "windGust": null,
    "visibility": 10,
    "temperatureC": 12,
    "dewPointC": 11,
    "cloudCeiling": 600,
    "altimeter": "A3002",
    "timestamp": "2026-04-01T17:53:00+00:00",
    "station": "KCPS"
  },
  "kstl": {
    "metar": "KSTL 011751Z 12010KT 9SM OVC006 11/10 A3002 RMK AO2 RAE35 SLP162 P0001 60050 T01110100 10111 20089 58016 $",
    "windDirection": 120,
    "windSpeed": 10,
    "windGust": null,
    "visibility": 9,
    "temperatureC": 11,
    "dewPointC": 10,
    "cloudCeiling": 600,
    "altimeter": "A3002",
    "timestamp": "2026-04-01T17:51:00+00:00",
    "station": "KSTL"
  }
}