{
  "lastUpdated": "2025-11-17T05:47:34.851049+00:00",
  "kcps": {
    "metar": "KCPS 170453Z AUTO 00000KT 10SM CLR 01/M02 A3004 RMK AO2 SLP175 T00111017 $",
    "windDirection": 0,
    "windSpeed": 0,
    "windGust": null,
    "visibility": 10,
    "temperatureC": 1,
    "dewPointC": -2,
    "cloudCeiling": 99999,
    "altimeter": "A3004",
    "timestamp": "2025-11-17T04:53:00+00:00",
    "station": "KCPS"
  },
  "kstl": {
    "metar": "KSTL 170451Z 00000KT 10SM CLR 05/M04 A3004 RMK AO2 SLP175 T00501044 $",
    "windDirection": 0,
    "windSpeed": 0,
    "windGust": null,
    "visibility": 10,
    "temperatureC": 5,
    "dewPointC": -4,
    "cloudCeiling": 99999,
    "altimeter": "A3004",
    "timestamp": "2025-11-17T04:51:00+00:00",
    "station": "KSTL"
  }
}