{
  "lastUpdated": "2026-01-27T06:58:17.991773+00:00",
  "kcps": {
    "metar": "KCPS 270653Z AUTO 21007KT 10SM CLR M08/M16 A3025 RMK AO2 SLP252 T10781161 $",
    "windDirection": 210,
    "windSpeed": 7,
    "windGust": null,
    "visibility": 10,
    "temperatureC": -8,
    "dewPointC": -16,
    "cloudCeiling": 99999,
    "altimeter": "A3025",
    "timestamp": "2026-01-27T06:53:00+00:00",
    "station": "KCPS"
  },
  "kstl": {
    "metar": "KSTL 270651Z 24013KT 10SM CLR M08/M16 A3022 RMK AO2 SLP254 T10831156 $",
    "windDirection": 240,
    "windSpeed": 13,
    "windGust": null,
    "visibility": 10,
    "temperatureC": -8,
    "dewPointC": -16,
    "cloudCeiling": 99999,
    "altimeter": "A3022",
    "timestamp": "2026-01-27T06:51:00+00:00",
    "station": "KSTL"
  }
}