{
  "lastUpdated": "2026-05-11T23:33:36.990214+00:00",
  "kcps": {
    "metar": "KCPS 112253Z 33010G19KT 10SM CLR 24/07 A3012 RMK AO2 SLP198 T02390067 $",
    "windDirection": 330,
    "windSpeed": 10,
    "windGust": 19,
    "visibility": 10,
    "temperatureC": 24,
    "dewPointC": 7,
    "cloudCeiling": 99999,
    "altimeter": "A3012",
    "timestamp": "2026-05-11T22:53:00+00:00",
    "station": "KCPS"
  },
  "kstl": {
    "metar": "KSTL 112251Z VRB03KT 10SM CLR 24/06 A3013 RMK AO2 SLP200 T02390061 $",
    "windDirection": null,
    "windSpeed": null,
    "windGust": null,
    "visibility": 10,
    "temperatureC": 24,
    "dewPointC": 6,
    "cloudCeiling": 99999,
    "altimeter": "A3013",
    "timestamp": "2026-05-11T22:51:00+00:00",
    "station": "KSTL"
  }
}