{
  "lastUpdated": "2026-01-21T09:23:45.414391+00:00",
  "kcps": {
    "metar": "KCPS 210853Z AUTO 20005KT 10SM CLR 02/M11 A3012 RMK AO2 SLP201 T00221111 58009 $",
    "windDirection": 200,
    "windSpeed": 5,
    "windGust": null,
    "visibility": 10,
    "temperatureC": 2,
    "dewPointC": -11,
    "cloudCeiling": 99999,
    "altimeter": "A3012",
    "timestamp": "2026-01-21T08:53:00+00:00",
    "station": "KCPS"
  },
  "kstl": {
    "metar": "KSTL 210851Z 21013KT 10SM OVC170 02/M11 A3010 RMK AO2 SLP199 T00221111 56019 $",
    "windDirection": 210,
    "windSpeed": 13,
    "windGust": null,
    "visibility": 10,
    "temperatureC": 2,
    "dewPointC": -11,
    "cloudCeiling": 17000,
    "altimeter": "A3010",
    "timestamp": "2026-01-21T08:51:00+00:00",
    "station": "KSTL"
  }
}