{
  "lastUpdated": "2026-02-08T04:04:26.720333+00:00",
  "kcps": {
    "metar": "KCPS 080353Z 13011KT 10SM CLR M02/M08 A3026 RMK AO2 SLP250 T10171083 $",
    "windDirection": 130,
    "windSpeed": 11,
    "windGust": null,
    "visibility": 10,
    "temperatureC": -2,
    "dewPointC": -8,
    "cloudCeiling": 99999,
    "altimeter": "A3026",
    "timestamp": "2026-02-08T03:53:00+00:00",
    "station": "KCPS"
  },
  "kstl": {
    "metar": "KSTL 080351Z 13015KT 10SM BKN200 M01/M08 A3024 RMK AO2 SLP252 T10111083 $",
    "windDirection": 130,
    "windSpeed": 15,
    "windGust": null,
    "visibility": 10,
    "temperatureC": -1,
    "dewPointC": -8,
    "cloudCeiling": 20000,
    "altimeter": "A3024",
    "timestamp": "2026-02-08T03:51:00+00:00",
    "station": "KSTL"
  }
}