{
  "lastUpdated": "2026-02-25T18:18:49.773264+00:00",
  "kcps": {
    "metar": "KCPS 251753Z VRB03KT 10SM FEW120 12/M02 A2977 RMK AO2 SLP083 T01171017 10117 20000 58001 $",
    "windDirection": null,
    "windSpeed": null,
    "windGust": null,
    "visibility": 10,
    "temperatureC": 12,
    "dewPointC": -2,
    "cloudCeiling": null,
    "altimeter": "A2977",
    "timestamp": "2026-02-25T17:53:00+00:00",
    "station": "KCPS"
  },
  "kstl": {
    "metar": "KSTL 251751Z 26003KT 10SM FEW120 FEW150 BKN250 11/M02 A2978 RMK AO2 SLP087 T01111017 10111 20028 50003 $",
    "windDirection": 260,
    "windSpeed": 3,
    "windGust": null,
    "visibility": 10,
    "temperatureC": 11,
    "dewPointC": -2,
    "cloudCeiling": 25000,
    "altimeter": "A2978",
    "timestamp": "2026-02-25T17:51:00+00:00",
    "station": "KSTL"
  }
}