{
  "lastUpdated": "2025-10-25T18:22:33.029677+00:00",
  "kcps": {
    "metar": "KCPS 251753Z 11006KT 10SM OVC100 16/04 A3024 RMK AO2 RAB29E38 SLP240 P0000 60000 T01560044 10156 20117 58014 $",
    "windDirection": 110,
    "windSpeed": 6,
    "windGust": null,
    "visibility": 10,
    "temperatureC": 16,
    "dewPointC": 4,
    "cloudCeiling": 10000,
    "altimeter": "A3024",
    "timestamp": "2025-10-25T17:53:00+00:00",
    "station": "KCPS"
  },
  "kstl": {
    "metar": "KSTL 251751Z 11011KT 10SM BKN085 OVC250 14/04 A3024 RMK AO2 SLP239 T01440044 10144 20122 58011 $",
    "windDirection": 110,
    "windSpeed": 11,
    "windGust": null,
    "visibility": 10,
    "temperatureC": 14,
    "dewPointC": 4,
    "cloudCeiling": 8500,
    "altimeter": "A3024",
    "timestamp": "2025-10-25T17:51:00+00:00",
    "station": "KSTL"
  }
}