{
  "lastUpdated": "2025-11-12T04:22:20.868339+00:00",
  "kcps": {
    "metar": "KCPS 120353Z 00000KT 10SM CLR 04/M02 A2996 RMK AO2 SLP146 T00441022 $",
    "windDirection": 0,
    "windSpeed": 0,
    "windGust": null,
    "visibility": 10,
    "temperatureC": 4,
    "dewPointC": -2,
    "cloudCeiling": 99999,
    "altimeter": "A2996",
    "timestamp": "2025-11-12T03:53:00+00:00",
    "station": "KCPS"
  },
  "kstl": {
    "metar": "KSTL 120351Z 26006KT 10SM CLR 08/M01 A2995 RMK AO2 SLP149 T00781011 $",
    "windDirection": 260,
    "windSpeed": 6,
    "windGust": null,
    "visibility": 10,
    "temperatureC": 8,
    "dewPointC": -1,
    "cloudCeiling": 99999,
    "altimeter": "A2995",
    "timestamp": "2025-11-12T03:51:00+00:00",
    "station": "KSTL"
  }
}