{
  "lastUpdated": "2026-02-12T13:57:45.351622+00:00",
  "kcps": {
    "metar": "KCPS 121353Z 00000KT 10SM CLR M01/M03 A3030 RMK AO2 SLP265 T10111028 $",
    "windDirection": 0,
    "windSpeed": 0,
    "windGust": null,
    "visibility": 10,
    "temperatureC": -1,
    "dewPointC": -3,
    "cloudCeiling": 99999,
    "altimeter": "A3030",
    "timestamp": "2026-02-12T13:53:00+00:00",
    "station": "KCPS"
  },
  "kstl": {
    "metar": "KSTL 121351Z 14003KT 10SM SCT110 BKN250 04/M03 A3029 RMK AO2 SLP265 T00391033 $",
    "windDirection": 140,
    "windSpeed": 3,
    "windGust": null,
    "visibility": 10,
    "temperatureC": 4,
    "dewPointC": -3,
    "cloudCeiling": 25000,
    "altimeter": "A3029",
    "timestamp": "2026-02-12T13:51:00+00:00",
    "station": "KSTL"
  }
}