{
  "lastUpdated": "2025-12-29T09:40:51.995450+00:00",
  "kcps": {
    "metar": "KCPS 290853Z AUTO 29020G43KT 9SM -SN OVC044 M06/M15 A3012 RMK AO2 PK WND 30043/0844 SNB0757E07B25 SLP199 P0000 60000 T10611150 53016 $",
    "windDirection": 290,
    "windSpeed": 20,
    "windGust": 43,
    "visibility": 9,
    "temperatureC": -6,
    "dewPointC": -15,
    "cloudCeiling": 4400,
    "altimeter": "A3012",
    "timestamp": "2025-12-29T08:53:00+00:00",
    "station": "KCPS"
  },
  "kstl": {
    "metar": "KSTL 290923Z 30019G33KT 10SM BKN034 BKN041 M08/M16 A3013 RMK AO2 PK WND 29037/0855 SNE23 P0000 T10831161 $",
    "windDirection": 300,
    "windSpeed": 19,
    "windGust": 33,
    "visibility": 10,
    "temperatureC": -8,
    "dewPointC": -16,
    "cloudCeiling": 3400,
    "altimeter": "A3013",
    "timestamp": "2025-12-29T09:23:00+00:00",
    "station": "KSTL"
  }
}