{
  "lastUpdated": "2026-03-14T23:04:45.320317+00:00",
  "kcps": {
    "metar": "KCPS 142253Z 13012KT 10SM CLR 18/03 A2984 RMK AO2 SLP105 T01830033 $",
    "windDirection": 130,
    "windSpeed": 12,
    "windGust": null,
    "visibility": 10,
    "temperatureC": 18,
    "dewPointC": 3,
    "cloudCeiling": 99999,
    "altimeter": "A2984",
    "timestamp": "2026-03-14T22:53:00+00:00",
    "station": "KCPS"
  },
  "kstl": {
    "metar": "KSTL 142251Z 12015KT 10SM SCT250 18/03 A2984 RMK AO2 SLP106 T01780028 $",
    "windDirection": 120,
    "windSpeed": 15,
    "windGust": null,
    "visibility": 10,
    "temperatureC": 18,
    "dewPointC": 3,
    "cloudCeiling": null,
    "altimeter": "A2984",
    "timestamp": "2026-03-14T22:51:00+00:00",
    "station": "KSTL"
  }
}