{
  "lastUpdated": "2026-04-12T07:27:51.787759+00:00",
  "kcps": {
    "metar": "KCPS 120653Z AUTO 17009KT 10SM CLR 19/13 A3011 RMK AO2 SLP193 T01890133 $",
    "windDirection": 170,
    "windSpeed": 9,
    "windGust": null,
    "visibility": 10,
    "temperatureC": 19,
    "dewPointC": 13,
    "cloudCeiling": 99999,
    "altimeter": "A3011",
    "timestamp": "2026-04-12T06:53:00+00:00",
    "station": "KCPS"
  },
  "kstl": {
    "metar": "KSTL 120651Z 16009KT 10SM CLR 18/14 A3011 RMK AO2 SLP188 T01830139 $",
    "windDirection": 160,
    "windSpeed": 9,
    "windGust": null,
    "visibility": 10,
    "temperatureC": 18,
    "dewPointC": 14,
    "cloudCeiling": 99999,
    "altimeter": "A3011",
    "timestamp": "2026-04-12T06:51:00+00:00",
    "station": "KSTL"
  }
}