{
  "lastUpdated": "2025-11-24T02:34:20.889063+00:00",
  "kcps": {
    "metar": "KCPS 240153Z 17006KT 4SM BR OVC005 09/08 A3018 RMK AO2 SLP220 T00890078",
    "windDirection": 170,
    "windSpeed": 6,
    "windGust": null,
    "visibility": 4,
    "temperatureC": 9,
    "dewPointC": 8,
    "cloudCeiling": 500,
    "altimeter": "A3018",
    "timestamp": "2025-11-24T01:53:00+00:00",
    "station": "KCPS"
  },
  "kstl": {
    "metar": "KSTL 240151Z 14007KT 5SM BR OVC008 09/07 A3017 RMK AO2 SLP219 T00890072 $",
    "windDirection": 140,
    "windSpeed": 7,
    "windGust": null,
    "visibility": 5,
    "temperatureC": 9,
    "dewPointC": 7,
    "cloudCeiling": 800,
    "altimeter": "A3017",
    "timestamp": "2025-11-24T01:51:00+00:00",
    "station": "KSTL"
  }
}