{
  "lastUpdated": "2026-02-11T11:15:34.004464+00:00",
  "kcps": {
    "metar": "KCPS 111053Z AUTO 35007KT 10SM CLR 00/M03 A3026 RMK AO2 SLP247 T00001028 $",
    "windDirection": 350,
    "windSpeed": 7,
    "windGust": null,
    "visibility": 10,
    "temperatureC": 0,
    "dewPointC": -3,
    "cloudCeiling": 99999,
    "altimeter": "A3026",
    "timestamp": "2026-02-11T10:53:00+00:00",
    "station": "KCPS"
  },
  "kstl": {
    "metar": "KSTL 111051Z 34006KT 10SM CLR 00/M03 A3026 RMK AO2 SLP251 T00001033 $",
    "windDirection": 340,
    "windSpeed": 6,
    "windGust": null,
    "visibility": 10,
    "temperatureC": 0,
    "dewPointC": -3,
    "cloudCeiling": 99999,
    "altimeter": "A3026",
    "timestamp": "2026-02-11T10:51:00+00:00",
    "station": "KSTL"
  }
}