{
  "lastUpdated": "2026-02-16T05:17:32.087588+00:00",
  "kcps": {
    "metar": "KCPS 160453Z AUTO 00000KT 7SM CLR 03/02 A3004 RMK AO2 SLP174 T00280022 $",
    "windDirection": 0,
    "windSpeed": 0,
    "windGust": null,
    "visibility": 7,
    "temperatureC": 3,
    "dewPointC": 2,
    "cloudCeiling": 99999,
    "altimeter": "A3004",
    "timestamp": "2026-02-16T04:53:00+00:00",
    "station": "KCPS"
  },
  "kstl": {
    "metar": "KSTL 160451Z 00000KT 10SM CLR 06/04 A3004 RMK AO2 SLP176 T00560039 $",
    "windDirection": 0,
    "windSpeed": 0,
    "windGust": null,
    "visibility": 10,
    "temperatureC": 6,
    "dewPointC": 4,
    "cloudCeiling": 99999,
    "altimeter": "A3004",
    "timestamp": "2026-02-16T04:51:00+00:00",
    "station": "KSTL"
  }
}