{
  "lastUpdated": "2025-11-25T20:02:35.058828+00:00",
  "kcps": {
    "metar": "KCPS 251953Z 28004KT 5SM BR SCT018 BKN025 OVC031 13/12 A2985 RMK AO2 RAE44 SLP107 P0000 T01330122",
    "windDirection": 280,
    "windSpeed": 4,
    "windGust": null,
    "visibility": 5,
    "temperatureC": 13,
    "dewPointC": 12,
    "cloudCeiling": 2500,
    "altimeter": "A2985",
    "timestamp": "2025-11-25T19:53:00+00:00",
    "station": "KCPS"
  },
  "kstl": {
    "metar": "KSTL 251951Z 28008KT 8SM OVC017 14/11 A2985 RMK AO2 SLP107 T01390106 $",
    "windDirection": 280,
    "windSpeed": 8,
    "windGust": null,
    "visibility": 8,
    "temperatureC": 14,
    "dewPointC": 11,
    "cloudCeiling": 1700,
    "altimeter": "A2985",
    "timestamp": "2025-11-25T19:51:00+00:00",
    "station": "KSTL"
  }
}