{
  "lastUpdated": "2025-11-19T00:07:32.274502+00:00",
  "kcps": {
    "metar": "KCPS 182353Z 36006KT 10SM CLR 15/12 A2991 RMK AO2 SLP130 T01500122 10222 20144 51040",
    "windDirection": 360,
    "windSpeed": 6,
    "windGust": null,
    "visibility": 10,
    "temperatureC": 15,
    "dewPointC": 12,
    "cloudCeiling": 99999,
    "altimeter": "A2991",
    "timestamp": "2025-11-18T23:53:00+00:00",
    "station": "KCPS"
  },
  "kstl": {
    "metar": "KSTL 182351Z 01010KT 10SM BKN023 14/12 A2993 RMK AO2 SLP133 T01440117 10211 20144 53033 $",
    "windDirection": 10,
    "windSpeed": 10,
    "windGust": null,
    "visibility": 10,
    "temperatureC": 14,
    "dewPointC": 12,
    "cloudCeiling": 2300,
    "altimeter": "A2993",
    "timestamp": "2025-11-18T23:51:00+00:00",
    "station": "KSTL"
  }
}