{
  "lastUpdated": "2026-03-27T14:23:50.155493+00:00",
  "kcps": {
    "metar": "KCPS 271353Z 35011KT 10SM BKN023 OVC110 04/01 A3038 RMK AO2 SLP288 T00390006 $",
    "windDirection": 350,
    "windSpeed": 11,
    "windGust": null,
    "visibility": 10,
    "temperatureC": 4,
    "dewPointC": 1,
    "cloudCeiling": 2300,
    "altimeter": "A3038",
    "timestamp": "2026-03-27T13:53:00+00:00",
    "station": "KCPS"
  },
  "kstl": {
    "metar": "KSTL 271351Z 01012KT 10SM FEW021 BKN120 BKN250 04/M01 A3038 RMK AO2 SLP281 T00441006 $",
    "windDirection": 10,
    "windSpeed": 12,
    "windGust": null,
    "visibility": 10,
    "temperatureC": 4,
    "dewPointC": -1,
    "cloudCeiling": 12000,
    "altimeter": "A3038",
    "timestamp": "2026-03-27T13:51:00+00:00",
    "station": "KSTL"
  }
}