{
  "lastUpdated": "2026-01-16T22:36:50.531753+00:00",
  "kcps": {
    "metar": "KCPS 162153Z 27009G17KT 10SM FEW055 OVC075 07/M04 A2977 RMK AO2 SLP082 T00671044 $",
    "windDirection": 270,
    "windSpeed": 9,
    "windGust": 17,
    "visibility": 10,
    "temperatureC": 7,
    "dewPointC": -4,
    "cloudCeiling": 7500,
    "altimeter": "A2977",
    "timestamp": "2026-01-16T21:53:00+00:00",
    "station": "KCPS"
  },
  "kstl": {
    "metar": "KSTL 162151Z 28011KT 10SM SCT055 BKN080 OVC250 06/M05 A2977 RMK AO2 SLP085 VCSH SW-W T00611050 $",
    "windDirection": 280,
    "windSpeed": 11,
    "windGust": null,
    "visibility": 10,
    "temperatureC": 6,
    "dewPointC": -5,
    "cloudCeiling": 8000,
    "altimeter": "A2977",
    "timestamp": "2026-01-16T21:51:00+00:00",
    "station": "KSTL"
  }
}