{
  "lastUpdated": "2025-10-24T23:02:29.276939+00:00",
  "kcps": {
    "metar": "KCPS 242253Z 00000KT 10SM BKN120 14/05 A3023 RMK AO2 SLP238 T01390050 $",
    "windDirection": 0,
    "windSpeed": 0,
    "windGust": null,
    "visibility": 10,
    "temperatureC": 14,
    "dewPointC": 5,
    "cloudCeiling": 12000,
    "altimeter": "A3023",
    "timestamp": "2025-10-24T22:53:00+00:00",
    "station": "KCPS"
  },
  "kstl": {
    "metar": "KSTL 242251Z 16006KT 10SM BKN120 OVC250 16/02 A3023 RMK AO2 SLP238 T01560022 $",
    "windDirection": 160,
    "windSpeed": 6,
    "windGust": null,
    "visibility": 10,
    "temperatureC": 16,
    "dewPointC": 2,
    "cloudCeiling": 12000,
    "altimeter": "A3023",
    "timestamp": "2025-10-24T22:51:00+00:00",
    "station": "KSTL"
  }
}