{
  "lastUpdated": "2025-11-25T09:22:31.405094+00:00",
  "kcps": {
    "metar": "KCPS 250909Z AUTO 00000KT 8SM -RA SCT007 OVC023 11/11 A2980 RMK AO2 RAB07 P0000 T01110106 $",
    "windDirection": 0,
    "windSpeed": 0,
    "windGust": null,
    "visibility": 8,
    "temperatureC": 11,
    "dewPointC": 11,
    "cloudCeiling": 2300,
    "altimeter": "A2980",
    "timestamp": "2025-11-25T09:09:00+00:00",
    "station": "KCPS"
  },
  "kstl": {
    "metar": "KSTL 250851Z 19003KT 6SM BR BKN005 OVC013 11/11 A2980 RMK AO2 SLP091 60002 T01110106 56012 $",
    "windDirection": 190,
    "windSpeed": 3,
    "windGust": null,
    "visibility": 6,
    "temperatureC": 11,
    "dewPointC": 11,
    "cloudCeiling": 500,
    "altimeter": "A2980",
    "timestamp": "2025-11-25T08:51:00+00:00",
    "station": "KSTL"
  }
}