{
  "lastUpdated": "2026-04-05T08:26:23.992965+00:00",
  "kcps": {
    "metar": "KCPS 050753Z AUTO 30008G15KT 10SM CLR 07/00 A3020 RMK AO2 SLP227 T00670000 $",
    "windDirection": 300,
    "windSpeed": 8,
    "windGust": 15,
    "visibility": 10,
    "temperatureC": 7,
    "dewPointC": 0,
    "cloudCeiling": 99999,
    "altimeter": "A3020",
    "timestamp": "2026-04-05T07:53:00+00:00",
    "station": "KCPS"
  },
  "kstl": {
    "metar": "KSTL 050751Z 29010KT 10SM CLR 06/00 A3020 RMK AO2 SLP228 T00610000 $",
    "windDirection": 290,
    "windSpeed": 10,
    "windGust": null,
    "visibility": 10,
    "temperatureC": 6,
    "dewPointC": 0,
    "cloudCeiling": 99999,
    "altimeter": "A3020",
    "timestamp": "2026-04-05T07:51:00+00:00",
    "station": "KSTL"
  }
}