{
  "lastUpdated": "2026-03-15T22:22:37.114873+00:00",
  "kcps": {
    "metar": "KCPS 152218Z 30026G38KT 3/4SM VCTS +RA BR FEW011 BKN025 OVC032 13/11 A2935 RMK AO2 PK WND 25038/2211 WSHFT 2204 LTG DSNT SW-N RAB09 P0024 T01280106 $",
    "windDirection": 300,
    "windSpeed": 26,
    "windGust": 38,
    "visibility": 0.75,
    "temperatureC": 13,
    "dewPointC": 11,
    "cloudCeiling": 2500,
    "altimeter": "A2935",
    "timestamp": "2026-03-15T22:18:00+00:00",
    "station": "KCPS"
  },
  "kstl": {
    "metar": "KSTL 152213Z 29018G38KT 4SM TSRA BR FEW007 BKN015CB OVC050 08/08 A2937 RMK AO2 PK WND 31038/2207 WSHFT 2138 OCNL LTGICCG ALQDS CB ALQDS MOV NE P0038 T00830078 $",
    "windDirection": 290,
    "windSpeed": 18,
    "windGust": 38,
    "visibility": 4,
    "temperatureC": 8,
    "dewPointC": 8,
    "cloudCeiling": 1500,
    "altimeter": "A2937",
    "timestamp": "2026-03-15T22:13:00+00:00",
    "station": "KSTL"
  }
}