{
  "lastUpdated": "2025-12-16T05:03:52.899104+00:00",
  "kcps": {
    "metar": "KCPS 160453Z AUTO 17004KT 10SM OVC026 02/M09 A3011 RMK AO2 SLP202 T00221094 $",
    "windDirection": 170,
    "windSpeed": 4,
    "windGust": null,
    "visibility": 10,
    "temperatureC": 2,
    "dewPointC": -9,
    "cloudCeiling": 2600,
    "altimeter": "A3011",
    "timestamp": "2025-12-16T04:53:00+00:00",
    "station": "KCPS"
  },
  "kstl": {
    "metar": "KSTL 160451Z 00000KT 10SM OVC025 02/M09 A3011 RMK AO2 SLP205 T00171089 $",
    "windDirection": 0,
    "windSpeed": 0,
    "windGust": null,
    "visibility": 10,
    "temperatureC": 2,
    "dewPointC": -9,
    "cloudCeiling": 2500,
    "altimeter": "A3011",
    "timestamp": "2025-12-16T04:51:00+00:00",
    "station": "KSTL"
  }
}