{
  "lastUpdated": "2026-01-04T10:21:47.102956+00:00",
  "kcps": {
    "metar": "KCPS 040953Z AUTO 00000KT 9SM CLR M06/M07 A3015 RMK AO2 SLP215 I1000 T10611072 $",
    "windDirection": 0,
    "windSpeed": 0,
    "windGust": null,
    "visibility": 9,
    "temperatureC": -6,
    "dewPointC": -7,
    "cloudCeiling": 99999,
    "altimeter": "A3015",
    "timestamp": "2026-01-04T09:53:00+00:00",
    "station": "KCPS"
  },
  "kstl": {
    "metar": "KSTL 040951Z 23003KT 10SM CLR M03/M07 A3015 RMK AO2 SLP219 T10331067 $",
    "windDirection": 230,
    "windSpeed": 3,
    "windGust": null,
    "visibility": 10,
    "temperatureC": -3,
    "dewPointC": -7,
    "cloudCeiling": 99999,
    "altimeter": "A3015",
    "timestamp": "2026-01-04T09:51:00+00:00",
    "station": "KSTL"
  }
}