{
  "lastUpdated": "2026-01-06T16:41:50.571164+00:00",
  "kcps": {
    "metar": "KCPS 061553Z 28011KT 10SM CLR 13/08 A2975 RMK AO2 SLP074 T01280078",
    "windDirection": 280,
    "windSpeed": 11,
    "windGust": null,
    "visibility": 10,
    "temperatureC": 13,
    "dewPointC": 8,
    "cloudCeiling": 99999,
    "altimeter": "A2975",
    "timestamp": "2026-01-06T15:53:00+00:00",
    "station": "KCPS"
  },
  "kstl": {
    "metar": "KSTL 061551Z 28012KT 10SM SCT016 BKN250 12/08 A2976 RMK AO2 SLP078 T01170078 $",
    "windDirection": 280,
    "windSpeed": 12,
    "windGust": null,
    "visibility": 10,
    "temperatureC": 12,
    "dewPointC": 8,
    "cloudCeiling": 25000,
    "altimeter": "A2976",
    "timestamp": "2026-01-06T15:51:00+00:00",
    "station": "KSTL"
  }
}