{
  "lastUpdated": "2026-01-10T16:50:09.398054+00:00",
  "kcps": {
    "metar": "KCPS 101636Z 31012KT 10SM SCT020 OVC060 04/01 A3014 RMK AO2 T00440011 $",
    "windDirection": 310,
    "windSpeed": 12,
    "windGust": null,
    "visibility": 10,
    "temperatureC": 4,
    "dewPointC": 1,
    "cloudCeiling": 6000,
    "altimeter": "A3014",
    "timestamp": "2026-01-10T16:36:00+00:00",
    "station": "KCPS"
  },
  "kstl": {
    "metar": "KSTL 101603Z 30012KT 10SM SCT016 BKN033 BKN060 03/01 A3014 RMK AO2 T00330006 $",
    "windDirection": 300,
    "windSpeed": 12,
    "windGust": null,
    "visibility": 10,
    "temperatureC": 3,
    "dewPointC": 1,
    "cloudCeiling": 3300,
    "altimeter": "A3014",
    "timestamp": "2026-01-10T16:03:00+00:00",
    "station": "KSTL"
  }
}