{
  "lastUpdated": "2026-04-02T07:42:46.400231+00:00",
  "kcps": {
    "metar": "KCPS 020653Z AUTO 00000KT 7SM CLR 14/13 A2986 RMK AO2 SLP109 T01390133 $",
    "windDirection": 0,
    "windSpeed": 0,
    "windGust": null,
    "visibility": 7,
    "temperatureC": 14,
    "dewPointC": 13,
    "cloudCeiling": 99999,
    "altimeter": "A2986",
    "timestamp": "2026-04-02T06:53:00+00:00",
    "station": "KCPS"
  },
  "kstl": {
    "metar": "KSTL 020651Z 10006KT 6SM BR FEW005 BKN070 OVC250 14/13 A2986 RMK AO2 SLP109 T01390133 $",
    "windDirection": 100,
    "windSpeed": 6,
    "windGust": null,
    "visibility": 6,
    "temperatureC": 14,
    "dewPointC": 13,
    "cloudCeiling": 7000,
    "altimeter": "A2986",
    "timestamp": "2026-04-02T06:51:00+00:00",
    "station": "KSTL"
  }
}