{
  "lastUpdated": "2026-04-18T09:34:11.576198+00:00",
  "kcps": {
    "metar": "KCPS 180928Z AUTO 32018KT 10SM RA BKN009 BKN015 OVC060 12/11 A2985 RMK AO2 PK WND 35027/0918 PRESRR P0008 T01220111 $",
    "windDirection": 320,
    "windSpeed": 18,
    "windGust": null,
    "visibility": 10,
    "temperatureC": 12,
    "dewPointC": 11,
    "cloudCeiling": 900,
    "altimeter": "A2985",
    "timestamp": "2026-04-18T09:28:00+00:00",
    "station": "KCPS"
  },
  "kstl": {
    "metar": "KSTL 180924Z 32018G31KT 7SM RA SCT013 BKN023 OVC085 09/08 A2986 RMK AO2 PK WND 31031/0918 P0007 T00940078 $",
    "windDirection": 320,
    "windSpeed": 18,
    "windGust": 31,
    "visibility": 7,
    "temperatureC": 9,
    "dewPointC": 8,
    "cloudCeiling": 2300,
    "altimeter": "A2986",
    "timestamp": "2026-04-18T09:24:00+00:00",
    "station": "KSTL"
  }
}