{
  "lastUpdated": "2025-12-27T05:48:38.332990+00:00",
  "kcps": {
    "metar": "KCPS 270528Z AUTO 00000KT 1/4SM FG VV003 04/04 A2995 RMK AO2 T00440044 $",
    "windDirection": 0,
    "windSpeed": 0,
    "windGust": null,
    "visibility": 0.25,
    "temperatureC": 4,
    "dewPointC": 4,
    "cloudCeiling": 300,
    "altimeter": "A2995",
    "timestamp": "2025-12-27T05:28:00+00:00",
    "station": "KCPS"
  },
  "kstl": {
    "metar": "KSTL 270544Z 08005KT 8SM SCT008 SCT250 07/07 A2995 RMK AO2 T00720067 $",
    "windDirection": 80,
    "windSpeed": 5,
    "windGust": null,
    "visibility": 8,
    "temperatureC": 7,
    "dewPointC": 7,
    "cloudCeiling": null,
    "altimeter": "A2995",
    "timestamp": "2025-12-27T05:44:00+00:00",
    "station": "KSTL"
  }
}