{
  "lastUpdated": "2025-11-16T01:10:19.517832+00:00",
  "kcps": {
    "metar": "KCPS 160053Z 33009KT 10SM CLR 19/11 A2974 RMK AO2 SLP069 T01940106 $",
    "windDirection": 330,
    "windSpeed": 9,
    "windGust": null,
    "visibility": 10,
    "temperatureC": 19,
    "dewPointC": 11,
    "cloudCeiling": 99999,
    "altimeter": "A2974",
    "timestamp": "2025-11-16T00:53:00+00:00",
    "station": "KCPS"
  },
  "kstl": {
    "metar": "KSTL 160051Z 30004KT 10SM SCT250 18/09 A2975 RMK AO2 SLP070 T01780094 $",
    "windDirection": 300,
    "windSpeed": 4,
    "windGust": null,
    "visibility": 10,
    "temperatureC": 18,
    "dewPointC": 9,
    "cloudCeiling": null,
    "altimeter": "A2975",
    "timestamp": "2025-11-16T00:51:00+00:00",
    "station": "KSTL"
  }
}