{
  "lastUpdated": "2026-01-20T18:44:11.217939+00:00",
  "kcps": {
    "metar": "KCPS 201653Z 17009KT 10SM SCT046 M02/M14 A3044 RMK AO2 SLP314 T10221139 $",
    "windDirection": 170,
    "windSpeed": 9,
    "windGust": null,
    "visibility": 10,
    "temperatureC": -2,
    "dewPointC": -14,
    "cloudCeiling": null,
    "altimeter": "A3044",
    "timestamp": "2026-01-20T16:53:00+00:00",
    "station": "KCPS"
  },
  "kstl": {
    "metar": "KSTL 201751Z 18011G19KT 10SM FEW070 SCT085 SCT150 BKN220 01/M16 A3037 RMK AO2 SLP301 T00061156 10006 21083 58015 $",
    "windDirection": 180,
    "windSpeed": 11,
    "windGust": 19,
    "visibility": 10,
    "temperatureC": 1,
    "dewPointC": -16,
    "cloudCeiling": 22000,
    "altimeter": "A3037",
    "timestamp": "2026-01-20T17:51:00+00:00",
    "station": "KSTL"
  }
}