{
  "lastUpdated": "2025-12-01T23:02:23.787708+00:00",
  "kcps": {
    "metar": "KCPS 012253Z 00000KT 2SM -SN BR FEW006 OVC029 M03/M04 A3016 RMK AO2 SLP219 P0001 T10331044 $",
    "windDirection": 0,
    "windSpeed": 0,
    "windGust": null,
    "visibility": 2,
    "temperatureC": -3,
    "dewPointC": -4,
    "cloudCeiling": 2900,
    "altimeter": "A3016",
    "timestamp": "2025-12-01T22:53:00+00:00",
    "station": "KCPS"
  },
  "kstl": {
    "metar": "KSTL 012257Z 12004KT 2SM -SN BR BKN008 OVC013 M04/M05 A3014 RMK AO2 P0000 T10391050 $",
    "windDirection": 120,
    "windSpeed": 4,
    "windGust": null,
    "visibility": 2,
    "temperatureC": -4,
    "dewPointC": -5,
    "cloudCeiling": 800,
    "altimeter": "A3014",
    "timestamp": "2025-12-01T22:57:00+00:00",
    "station": "KSTL"
  }
}