{
  "lastUpdated": "2025-11-18T12:03:00.218029+00:00",
  "kcps": {
    "metar": "\u0000\u0000\u0000\u0000\u0000\u0000\u0000\u0000\u0000\u0000\u0000\u0000\u0000\u0000\u0000\u0000\u0000\u0000",
    "windDirection": null,
    "windSpeed": null,
    "windGust": null,
    "visibility": null,
    "temperatureC": null,
    "dewPointC": null,
    "cloudCeiling": null,
    "altimeter": null,
    "timestamp": null
  },
  "kstl": {
    "metar": "KSTL 181151Z 17008KT 5SM -TSRA SCT047CB BKN080 OVC100 11/08 A2983 RMK AO2 RAB13 TSB06 SLP100 OCNL LTGICCCCG N-E TS N-E MOV NE P0013 60013 70031 T01110083 10117 20100 55005 $",
    "windDirection": 170,
    "windSpeed": 8,
    "windGust": null,
    "visibility": 5,
    "temperatureC": 11,
    "dewPointC": 8,
    "cloudCeiling": 8000,
    "altimeter": "A2983",
    "timestamp": "2025-11-18T11:51:00+00:00",
    "station": "KSTL"
  }
}