{
  "lastUpdated": "2025-10-17T04:47:24.143704+00:00",
  "kcps": {
    "metar": "KCPS 170353Z AUTO 14006KT 10SM CLR 20/15 A3000 RMK AO2 SLP157 T02000150",
    "windDirection": 140,
    "windSpeed": 6,
    "windGust": null,
    "visibility": 10,
    "temperatureC": 20,
    "dewPointC": 15,
    "cloudCeiling": 99999,
    "altimeter": "A3000",
    "timestamp": "2025-10-17T03:53:00+00:00",
    "station": "KCPS"
  },
  "kstl": {
    "metar": "KSTL 170351Z 14006KT 10SM SCT250 22/14 A3000 RMK AO2 SLP151 T02220144 $",
    "windDirection": 140,
    "windSpeed": 6,
    "windGust": null,
    "visibility": 10,
    "temperatureC": 22,
    "dewPointC": 14,
    "cloudCeiling": null,
    "altimeter": "A3000",
    "timestamp": "2025-10-17T03:51:00+00:00",
    "station": "KSTL"
  }
}