{
  "lastUpdated": "2026-06-02T23:10:47.740438+00:00",
  "kcps": {
    "metar": "KCPS 022253Z 07009KT 10SM CLR 27/11 A3020 RMK AO2 SLP224 T02670106 $",
    "windDirection": 70,
    "windSpeed": 9,
    "windGust": null,
    "visibility": 10,
    "temperatureC": 27,
    "dewPointC": 11,
    "cloudCeiling": 99999,
    "altimeter": "A3020",
    "timestamp": "2026-06-02T22:53:00+00:00",
    "station": "KCPS"
  },
  "kstl": {
    "metar": "KSTL 022251Z 09012KT 10SM FEW055 SCT250 26/10 A3021 RMK AO2 SLP222 T02610100 $",
    "windDirection": 90,
    "windSpeed": 12,
    "windGust": null,
    "visibility": 10,
    "temperatureC": 26,
    "dewPointC": 10,
    "cloudCeiling": null,
    "altimeter": "A3021",
    "timestamp": "2026-06-02T22:51:00+00:00",
    "station": "KSTL"
  }
}