{
  "lastUpdated": "2026-04-14T19:07:31.720613+00:00",
  "kcps": {
    "metar": "KCPS 141853Z 18009G19KT 10SM FEW050 31/19 A2985 RMK AO2 SLP102 T03060189 $",
    "windDirection": 180,
    "windSpeed": 9,
    "windGust": 19,
    "visibility": 10,
    "temperatureC": 31,
    "dewPointC": 19,
    "cloudCeiling": null,
    "altimeter": "A2985",
    "timestamp": "2026-04-14T18:53:00+00:00",
    "station": "KCPS"
  },
  "kstl": {
    "metar": "KSTL 141851Z 22012G21KT 10SM FEW048 BKN160 BKN250 30/18 A2985 RMK AO2 SLP096 T03000183 $",
    "windDirection": 220,
    "windSpeed": 12,
    "windGust": 21,
    "visibility": 10,
    "temperatureC": 30,
    "dewPointC": 18,
    "cloudCeiling": 16000,
    "altimeter": "A2985",
    "timestamp": "2026-04-14T18:51:00+00:00",
    "station": "KSTL"
  }
}