{
  "lastUpdated": "2025-10-18T03:37:54.738818+00:00",
  "kcps": {
    "metar": "KCPS 180253Z AUTO 16007KT 10SM CLR 21/15 A2982 RMK AO2 SLP095 T02110150 51007 $",
    "windDirection": 160,
    "windSpeed": 7,
    "windGust": null,
    "visibility": 10,
    "temperatureC": 21,
    "dewPointC": 15,
    "cloudCeiling": 99999,
    "altimeter": "A2982",
    "timestamp": "2025-10-18T02:53:00+00:00",
    "station": "KCPS"
  },
  "kstl": {
    "metar": "KSTL 180251Z 17008KT 10SM BKN150 BKN250 23/14 A2982 RMK AO2 SLP088 T02330144 51006 $",
    "windDirection": 170,
    "windSpeed": 8,
    "windGust": null,
    "visibility": 10,
    "temperatureC": 23,
    "dewPointC": 14,
    "cloudCeiling": 15000,
    "altimeter": "A2982",
    "timestamp": "2025-10-18T02:51:00+00:00",
    "station": "KSTL"
  }
}