{
  "lastUpdated": "2025-12-06T16:48:29.734748+00:00",
  "kcps": {
    "metar": "KCPS 061553Z 00000KT 10SM CLR 04/01 A2999 RMK AO2 SLP159 T00440006 $",
    "windDirection": 0,
    "windSpeed": 0,
    "windGust": null,
    "visibility": 10,
    "temperatureC": 4,
    "dewPointC": 1,
    "cloudCeiling": 99999,
    "altimeter": "A2999",
    "timestamp": "2025-12-06T15:53:00+00:00",
    "station": "KCPS"
  },
  "kstl": {
    "metar": "KSTL 061551Z 28003KT 10SM FEW250 04/00 A2999 RMK AO2 SLP161 T00440000 $",
    "windDirection": 280,
    "windSpeed": 3,
    "windGust": null,
    "visibility": 10,
    "temperatureC": 4,
    "dewPointC": 0,
    "cloudCeiling": null,
    "altimeter": "A2999",
    "timestamp": "2025-12-06T15:51:00+00:00",
    "station": "KSTL"
  }
}