{
  "lastUpdated": "2026-06-06T02:16:48.460284+00:00",
  "kcps": {
    "metar": "KCPS 060153Z 18004KT 10SM CLR 26/21 A2992 RMK AO2 SLP127 T02610206 $",
    "windDirection": 180,
    "windSpeed": 4,
    "windGust": null,
    "visibility": 10,
    "temperatureC": 26,
    "dewPointC": 21,
    "cloudCeiling": 99999,
    "altimeter": "A2992",
    "timestamp": "2026-06-06T01:53:00+00:00",
    "station": "KCPS"
  },
  "kstl": {
    "metar": "KSTL 060151Z 20008KT 10SM FEW045 FEW150 BKN250 27/21 A2992 RMK AO2 SLP119 T02720206 $",
    "windDirection": 200,
    "windSpeed": 8,
    "windGust": null,
    "visibility": 10,
    "temperatureC": 27,
    "dewPointC": 21,
    "cloudCeiling": 25000,
    "altimeter": "A2992",
    "timestamp": "2026-06-06T01:51:00+00:00",
    "station": "KSTL"
  }
}