{
  "lastUpdated": "2026-02-06T14:31:46.388490+00:00",
  "kcps": {
    "metar": "KCPS 061353Z 29005KT 10SM CLR 04/M01 A2978 RMK AO2 PRESRR SLP086 T00391006 $",
    "windDirection": 290,
    "windSpeed": 5,
    "windGust": null,
    "visibility": 10,
    "temperatureC": 4,
    "dewPointC": -1,
    "cloudCeiling": 99999,
    "altimeter": "A2978",
    "timestamp": "2026-02-06T13:53:00+00:00",
    "station": "KCPS"
  },
  "kstl": {
    "metar": "KSTL 061351Z 28007KT 10SM CLR 04/00 A2979 RMK AO2 SLP096 T00390000 $",
    "windDirection": 280,
    "windSpeed": 7,
    "windGust": null,
    "visibility": 10,
    "temperatureC": 4,
    "dewPointC": 0,
    "cloudCeiling": 99999,
    "altimeter": "A2979",
    "timestamp": "2026-02-06T13:51:00+00:00",
    "station": "KSTL"
  }
}