{
  "lastUpdated": "2025-11-13T10:38:15.166146+00:00",
  "kcps": {
    "metar": "KCPS 130953Z AUTO 00000KT 10SM CLR 03/01 A3022 RMK AO2 SLP235 T00280011 TSNO",
    "windDirection": 0,
    "windSpeed": 0,
    "windGust": null,
    "visibility": 10,
    "temperatureC": 3,
    "dewPointC": 1,
    "cloudCeiling": 99999,
    "altimeter": "A3022",
    "timestamp": "2025-11-13T09:53:00+00:00",
    "station": "KCPS"
  },
  "kstl": {
    "metar": "KSTL 130951Z 00000KT 10SM BKN220 07/02 A3022 RMK AO2 SLP232 T00670022",
    "windDirection": 0,
    "windSpeed": 0,
    "windGust": null,
    "visibility": 10,
    "temperatureC": 7,
    "dewPointC": 2,
    "cloudCeiling": 22000,
    "altimeter": "A3022",
    "timestamp": "2025-11-13T09:51:00+00:00",
    "station": "KSTL"
  }
}