{
  "lastUpdated": "2026-04-04T23:54:08.943261+00:00",
  "kcps": {
    "metar": "KCPS 042253Z 30010G20KT 10SM BKN038 11/03 A3009 RMK AO2 SLP190 T01060033 $",
    "windDirection": 300,
    "windSpeed": 10,
    "windGust": 20,
    "visibility": 10,
    "temperatureC": 11,
    "dewPointC": 3,
    "cloudCeiling": 3800,
    "altimeter": "A3009",
    "timestamp": "2026-04-04T22:53:00+00:00",
    "station": "KCPS"
  },
  "kstl": {
    "metar": "KSTL 042351Z 31014G22KT 10SM BKN043 BKN250 11/02 A3011 RMK AO2 SLP194 T01110022 10111 20094 53009 $",
    "windDirection": 310,
    "windSpeed": 14,
    "windGust": 22,
    "visibility": 10,
    "temperatureC": 11,
    "dewPointC": 2,
    "cloudCeiling": 4300,
    "altimeter": "A3011",
    "timestamp": "2026-04-04T23:51:00+00:00",
    "station": "KSTL"
  }
}