{
  "lastUpdated": "2025-10-18T20:46:11.164835+00:00",
  "kcps": {
    "metar": "KCPS 182021Z 15003KT 8SM -RA FEW060 SCT080 OVC100 19/18 A2970 RMK AO2 LTG DSNT SE AND W P0003 T01890178 $",
    "windDirection": 150,
    "windSpeed": 3,
    "windGust": null,
    "visibility": 8,
    "temperatureC": 19,
    "dewPointC": 18,
    "cloudCeiling": 10000,
    "altimeter": "A2970",
    "timestamp": "2025-10-18T20:21:00+00:00",
    "station": "KCPS"
  },
  "kstl": {
    "metar": "KSTL 182017Z 12011KT 7SM RA FEW080 OVC100 18/18 A2970 RMK AO2 TSE16 P0006 T01830178 $",
    "windDirection": 120,
    "windSpeed": 11,
    "windGust": null,
    "visibility": 7,
    "temperatureC": 18,
    "dewPointC": 18,
    "cloudCeiling": 10000,
    "altimeter": "A2970",
    "timestamp": "2025-10-18T20:17:00+00:00",
    "station": "KSTL"
  }
}