{
  "lastUpdated": "2026-03-19T22:24:34.724944+00:00",
  "kcps": {
    "metar": "KCPS 192053Z 16008KT 10SM CLR 26/06 A2997 RMK AO2 SLP148 T02560061 56029 $",
    "windDirection": 160,
    "windSpeed": 8,
    "windGust": null,
    "visibility": 10,
    "temperatureC": 26,
    "dewPointC": 6,
    "cloudCeiling": 99999,
    "altimeter": "A2997",
    "timestamp": "2026-03-19T20:53:00+00:00",
    "station": "KCPS"
  },
  "kstl": {
    "metar": "KSTL 192151Z 21008KT 10SM FEW250 27/02 A2996 RMK AO2 SLP141 T02670022 $",
    "windDirection": 210,
    "windSpeed": 8,
    "windGust": null,
    "visibility": 10,
    "temperatureC": 27,
    "dewPointC": 2,
    "cloudCeiling": null,
    "altimeter": "A2996",
    "timestamp": "2026-03-19T21:51:00+00:00",
    "station": "KSTL"
  }
}