{
  "lastUpdated": "2026-03-27T23:55:41.162718+00:00",
  "kcps": {
    "metar": "KCPS 272353Z 36013KT 10SM CLR 10/M02 A3051 RMK AO2 SLP333 T01001022 10128 20083 53022 $",
    "windDirection": 360,
    "windSpeed": 13,
    "windGust": null,
    "visibility": 10,
    "temperatureC": 10,
    "dewPointC": -2,
    "cloudCeiling": 99999,
    "altimeter": "A3051",
    "timestamp": "2026-03-27T23:53:00+00:00",
    "station": "KCPS"
  },
  "kstl": {
    "metar": "KSTL 272351Z 35011KT 10SM FEW049 BKN250 10/M03 A3051 RMK AO2 SLP338 T01001028 10128 20083 53022 $",
    "windDirection": 350,
    "windSpeed": 11,
    "windGust": null,
    "visibility": 10,
    "temperatureC": 10,
    "dewPointC": -3,
    "cloudCeiling": 25000,
    "altimeter": "A3051",
    "timestamp": "2026-03-27T23:51:00+00:00",
    "station": "KSTL"
  }
}