{
  "lastUpdated": "2026-05-15T13:32:06.232004+00:00",
  "kcps": {
    "metar": "KCPS 151253Z 11007KT 10SM CLR 16/07 A2996 RMK AO2 SLP142 T01610072 $",
    "windDirection": 110,
    "windSpeed": 7,
    "windGust": null,
    "visibility": 10,
    "temperatureC": 16,
    "dewPointC": 7,
    "cloudCeiling": 99999,
    "altimeter": "A2996",
    "timestamp": "2026-05-15T12:53:00+00:00",
    "station": "KCPS"
  },
  "kstl": {
    "metar": "KSTL 151251Z 12012KT 10SM FEW075 FEW120 BKN200 BKN250 17/07 A2994 RMK AO2 SLP131 T01670067 $",
    "windDirection": 120,
    "windSpeed": 12,
    "windGust": null,
    "visibility": 10,
    "temperatureC": 17,
    "dewPointC": 7,
    "cloudCeiling": 20000,
    "altimeter": "A2994",
    "timestamp": "2026-05-15T12:51:00+00:00",
    "station": "KSTL"
  }
}