{
  "lastUpdated": "2025-11-26T06:23:25.692542+00:00",
  "kcps": {
    "metar": "KCPS 260553Z AUTO 30014G25KT 10SM CLR 07/M02 A3003 RMK AO2 PK WND 31032/0528 RAE02 SLP168 P0000 60000 T00671017 10133 20067 401440067 51025",
    "windDirection": 300,
    "windSpeed": 14,
    "windGust": 25,
    "visibility": 10,
    "temperatureC": 7,
    "dewPointC": -2,
    "cloudCeiling": 99999,
    "altimeter": "A3003",
    "timestamp": "2025-11-26T05:53:00+00:00",
    "station": "KCPS"
  },
  "kstl": {
    "metar": "KSTL 260551Z 29013G27KT 10SM CLR 06/M02 A3002 RMK AO2 PK WND 29035/0521 SLP168 60000 T00561022 10133 20056 401440056 51019 $",
    "windDirection": 290,
    "windSpeed": 13,
    "windGust": 27,
    "visibility": 10,
    "temperatureC": 6,
    "dewPointC": -2,
    "cloudCeiling": 99999,
    "altimeter": "A3002",
    "timestamp": "2025-11-26T05:51:00+00:00",
    "station": "KSTL"
  }
}