{
  "lastUpdated": "2026-03-24T16:06:50.443507+00:00",
  "kcps": {
    "metar": "KCPS 241553Z 13008KT 10SM CLR 10/M01 A3032 RMK AO2 SLP269 T01001006 $",
    "windDirection": 130,
    "windSpeed": 8,
    "windGust": null,
    "visibility": 10,
    "temperatureC": 10,
    "dewPointC": -1,
    "cloudCeiling": 99999,
    "altimeter": "A3032",
    "timestamp": "2026-03-24T15:53:00+00:00",
    "station": "KCPS"
  },
  "kstl": {
    "metar": "KSTL 241451Z 14011KT 10SM FEW180 BKN250 08/M02 A3033 RMK AO2 SLP274 T00781022 58002",
    "windDirection": 140,
    "windSpeed": 11,
    "windGust": null,
    "visibility": 10,
    "temperatureC": 8,
    "dewPointC": -2,
    "cloudCeiling": 25000,
    "altimeter": "A3033",
    "timestamp": "2026-03-24T14:51:00+00:00",
    "station": "KSTL"
  }
}