{
  "lastUpdated": "2025-11-12T22:46:38.295451+00:00",
  "kcps": {
    "metar": "KCPS 122153Z AUTO 31004KT 10SM CLR 18/01 A3011 RMK AO2 SLP198 T01830011 TSNO",
    "windDirection": 310,
    "windSpeed": 4,
    "windGust": null,
    "visibility": 10,
    "temperatureC": 18,
    "dewPointC": 1,
    "cloudCeiling": 99999,
    "altimeter": "A3011",
    "timestamp": "2025-11-12T21:53:00+00:00",
    "station": "KCPS"
  },
  "kstl": {
    "metar": "KSTL 122151Z 28009KT 10SM FEW250 18/00 A3012 RMK AO2 SLP200 T01830000",
    "windDirection": 280,
    "windSpeed": 9,
    "windGust": null,
    "visibility": 10,
    "temperatureC": 18,
    "dewPointC": 0,
    "cloudCeiling": null,
    "altimeter": "A3012",
    "timestamp": "2025-11-12T21:51:00+00:00",
    "station": "KSTL"
  }
}