{
  "lastUpdated": "2025-11-25T03:56:22.272217+00:00",
  "kcps": {
    "metar": "KCPS 250353Z AUTO 16006KT 3SM -RA BR SCT007 OVC021 11/10 A2985 RMK AO2 RAE0256B15 SLP109 P0002 T01060100 $",
    "windDirection": 160,
    "windSpeed": 6,
    "windGust": null,
    "visibility": 3,
    "temperatureC": 11,
    "dewPointC": 10,
    "cloudCeiling": 2100,
    "altimeter": "A2985",
    "timestamp": "2025-11-25T03:53:00+00:00",
    "station": "KCPS"
  },
  "kstl": {
    "metar": "KSTL 250351Z 16007KT 3SM RA BR SCT007 BKN020 OVC028 11/10 A2986 RMK AO2 RAB02 SLP113 P0006 T01060100 $",
    "windDirection": 160,
    "windSpeed": 7,
    "windGust": null,
    "visibility": 3,
    "temperatureC": 11,
    "dewPointC": 10,
    "cloudCeiling": 2000,
    "altimeter": "A2986",
    "timestamp": "2025-11-25T03:51:00+00:00",
    "station": "KSTL"
  }
}