{
  "lastUpdated": "2025-11-11T12:44:15.883884+00:00",
  "kcps": {
    "metar": "KCPS 110953Z AUTO 00000KT 10SM OVC120 M02/M08 A3024 RMK AO2 SLP244 T10171078 TSNO",
    "windDirection": 0,
    "windSpeed": 0,
    "windGust": null,
    "visibility": 10,
    "temperatureC": -2,
    "dewPointC": -8,
    "cloudCeiling": 12000,
    "altimeter": "A3024",
    "timestamp": "2025-11-11T09:53:00+00:00",
    "station": "KCPS"
  },
  "kstl": {
    "metar": "KSTL 111151Z 18007G17KT 10SM BKN170 OVC200 00/M09 A3016 RMK AO2 SLP224 T00001089 10006 21028 58026 $",
    "windDirection": 180,
    "windSpeed": 7,
    "windGust": 17,
    "visibility": 10,
    "temperatureC": 0,
    "dewPointC": -9,
    "cloudCeiling": 17000,
    "altimeter": "A3016",
    "timestamp": "2025-11-11T11:51:00+00:00",
    "station": "KSTL"
  }
}