{
  "lastUpdated": "2026-02-11T01:32:54.633883+00:00",
  "kcps": {
    "metar": "KCPS 110053Z 36008KT 10SM FEW065 11/00 A3005 RMK AO2 SLP179 T01060000 $",
    "windDirection": 360,
    "windSpeed": 8,
    "windGust": null,
    "visibility": 10,
    "temperatureC": 11,
    "dewPointC": 0,
    "cloudCeiling": null,
    "altimeter": "A3005",
    "timestamp": "2026-02-11T00:53:00+00:00",
    "station": "KCPS"
  },
  "kstl": {
    "metar": "KSTL 110051Z 35010KT 10SM SCT250 10/M01 A3007 RMK AO2 SLP184 T01001011 $",
    "windDirection": 350,
    "windSpeed": 10,
    "windGust": null,
    "visibility": 10,
    "temperatureC": 10,
    "dewPointC": -1,
    "cloudCeiling": null,
    "altimeter": "A3007",
    "timestamp": "2026-02-11T00:51:00+00:00",
    "station": "KSTL"
  }
}