{
  "lastUpdated": "2026-01-17T17:33:58.072303+00:00",
  "kcps": {
    "station": "KCPS",
    "metar": "Data unavailable",
    "error": "Failed to fetch METAR"
  },
  "kstl": {
    "metar": "KSTL 171651Z 30010KT 9SM -SN BKN030 OVC055 M07/M12 A3016 RMK AO2 SLP227 P0000 T10671122 $",
    "windDirection": 300,
    "windSpeed": 10,
    "windGust": null,
    "visibility": 9,
    "temperatureC": -7,
    "dewPointC": -12,
    "cloudCeiling": 3000,
    "altimeter": "A3016",
    "timestamp": "2026-01-17T16:51:00+00:00",
    "station": "KSTL"
  }
}