{
  "lastUpdated": "2025-11-05T21:46:21.027019+00:00",
  "kcps": {
    "metar": "KCPS 052053Z 32014G21KT 10SM CLR 21/08 A3013 RMK AO2 SLP200 T02060078 53014 $",
    "windDirection": 320,
    "windSpeed": 14,
    "windGust": 21,
    "visibility": 10,
    "temperatureC": 21,
    "dewPointC": 8,
    "cloudCeiling": 99999,
    "altimeter": "A3013",
    "timestamp": "2025-11-05T20:53:00+00:00",
    "station": "KCPS"
  },
  "kstl": {
    "metar": "KSTL 052051Z 33012KT 10SM CLR 20/05 A3014 RMK AO2 SLP203 T02000050 53017 $",
    "windDirection": 330,
    "windSpeed": 12,
    "windGust": null,
    "visibility": 10,
    "temperatureC": 20,
    "dewPointC": 5,
    "cloudCeiling": 99999,
    "altimeter": "A3014",
    "timestamp": "2025-11-05T20:51:00+00:00",
    "station": "KSTL"
  }
}