{
  "lastUpdated": "2026-06-14T03:44:45.208774+00:00",
  "kstl": {
    "metar": "SPECI KSTL 140325Z 17003KT 10SM BKN025 BKN120 24/21 A2991 RMK AO2 T02390206 $",
    "windDirection": 170,
    "windSpeed": 3,
    "windGust": null,
    "visibility": 10.0,
    "temperatureC": 23.9,
    "dewPointC": 20.6,
    "cloudCeiling": 2500,
    "altimeter": "A2991",
    "timestamp": "2026-06-14T03:25:00.000Z",
    "station": "KSTL"
  },
  "kcps": {
    "metar": "KCPS 140253Z 19003KT 10SM CLR 22/21 A2991 RMK AO2 SLP124 T02220211 53017 $",
    "windDirection": 190,
    "windSpeed": 3,
    "windGust": null,
    "visibility": 10.0,
    "temperatureC": 22.2,
    "dewPointC": 21.1,
    "cloudCeiling": null,
    "altimeter": "A2991",
    "timestamp": "2026-06-14T03:00:00.000Z",
    "station": "KCPS"
  }
}