{
  "lastUpdated": "2025-11-13T13:24:51.157945+00:00",
  "kcps": {
    "metar": "KCPS 131253Z 00000KT 10SM CLR 03/02 A3023 RMK AO2 SLP240 T00280017",
    "windDirection": 0,
    "windSpeed": 0,
    "windGust": null,
    "visibility": 10,
    "temperatureC": 3,
    "dewPointC": 2,
    "cloudCeiling": 99999,
    "altimeter": "A3023",
    "timestamp": "2025-11-13T12:53:00+00:00",
    "station": "KCPS"
  },
  "kstl": {
    "metar": "KSTL 131251Z 00000KT 10SM BKN200 BKN250 06/02 A3023 RMK AO2 SLP240 T00610022",
    "windDirection": 0,
    "windSpeed": 0,
    "windGust": null,
    "visibility": 10,
    "temperatureC": 6,
    "dewPointC": 2,
    "cloudCeiling": 20000,
    "altimeter": "A3023",
    "timestamp": "2025-11-13T12:51:00+00:00",
    "station": "KSTL"
  }
}