{
  "lastUpdated": "2025-11-10T03:57:48.740006+00:00",
  "kcps": {
    "metar": "KCPS 100353Z 34017G23KT 10SM OVC043 M01/M11 A3038 RMK AO2 PK WND 33026/0301 SLP290 T10111106 $",
    "windDirection": 340,
    "windSpeed": 17,
    "windGust": 23,
    "visibility": 10,
    "temperatureC": -1,
    "dewPointC": -11,
    "cloudCeiling": 4300,
    "altimeter": "A3038",
    "timestamp": "2025-11-10T03:53:00+00:00",
    "station": "KCPS"
  },
  "kstl": {
    "metar": "KSTL 100351Z 31013G21KT 10SM -SN BKN038 M01/M10 A3037 RMK AO2 SNB47 SLP292 P0000 T10111100 $",
    "windDirection": 310,
    "windSpeed": 13,
    "windGust": 21,
    "visibility": 10,
    "temperatureC": -1,
    "dewPointC": -10,
    "cloudCeiling": 3800,
    "altimeter": "A3037",
    "timestamp": "2025-11-10T03:51:00+00:00",
    "station": "KSTL"
  }
}