{
  "lastUpdated": "2026-04-19T00:47:53.577716+00:00",
  "kcps": {
    "metar": "KCPS 182353Z 32015G21KT 10SM CLR 13/M03 A3010 RMK AO2 PK WND 32030/2329 SLP192 T01331028 10144 20117 53003 $",
    "windDirection": 320,
    "windSpeed": 15,
    "windGust": 21,
    "visibility": 10,
    "temperatureC": 13,
    "dewPointC": -3,
    "cloudCeiling": 99999,
    "altimeter": "A3010",
    "timestamp": "2026-04-18T23:53:00+00:00",
    "station": "KCPS"
  },
  "kstl": {
    "metar": "KSTL 182351Z 31017G23KT 10SM FEW035 FEW250 13/M03 A3010 RMK AO2 PK WND 31027/2318 SLP195 T01331028 10144 20117 53002 $",
    "windDirection": 310,
    "windSpeed": 17,
    "windGust": 23,
    "visibility": 10,
    "temperatureC": 13,
    "dewPointC": -3,
    "cloudCeiling": null,
    "altimeter": "A3010",
    "timestamp": "2026-04-18T23:51:00+00:00",
    "station": "KSTL"
  }
}