{
  "lastUpdated": "2026-03-25T17:46:48.130732+00:00",
  "kcps": {
    "metar": "KCPS 251653Z 22005KT 10SM CLR 20/04 A3003 RMK AO2 SLP167 T02000039 $",
    "windDirection": 220,
    "windSpeed": 5,
    "windGust": null,
    "visibility": 10,
    "temperatureC": 20,
    "dewPointC": 4,
    "cloudCeiling": 99999,
    "altimeter": "A3003",
    "timestamp": "2026-03-25T16:53:00+00:00",
    "station": "KCPS"
  },
  "kstl": {
    "metar": "KSTL 251651Z 18007KT 10SM BKN250 20/04 A3002 RMK AO2 SLP160 T02000039",
    "windDirection": 180,
    "windSpeed": 7,
    "windGust": null,
    "visibility": 10,
    "temperatureC": 20,
    "dewPointC": 4,
    "cloudCeiling": 25000,
    "altimeter": "A3002",
    "timestamp": "2026-03-25T16:51:00+00:00",
    "station": "KSTL"
  }
}