{
  "lastUpdated": "2025-10-26T03:52:19.311343+00:00",
  "kcps": {
    "metar": "KCPS 260253Z 16006KT 10SM -RA OVC085 12/07 A3026 RMK AO2 SLP245 P0001 60001 T01170072 51020 $",
    "windDirection": 160,
    "windSpeed": 6,
    "windGust": null,
    "visibility": 10,
    "temperatureC": 12,
    "dewPointC": 7,
    "cloudCeiling": 8500,
    "altimeter": "A3026",
    "timestamp": "2025-10-26T02:53:00+00:00",
    "station": "KCPS"
  },
  "kstl": {
    "metar": "KSTL 260251Z 15008KT 10SM -RA BKN065 OVC100 13/07 A3025 RMK AO2 RAB0154 SLP244 P0000 60000 T01280067 53017 $",
    "windDirection": 150,
    "windSpeed": 8,
    "windGust": null,
    "visibility": 10,
    "temperatureC": 13,
    "dewPointC": 7,
    "cloudCeiling": 6500,
    "altimeter": "A3025",
    "timestamp": "2025-10-26T02:51:00+00:00",
    "station": "KSTL"
  }
}