{
  "lastUpdated": "2026-05-22T21:24:00.249601+00:00",
  "kcps": {
    "metar": "KCPS 222053Z 04007KT 10SM OVC020 20/16 A2989 RMK AO2 SLP120 T02000156 56014 $",
    "windDirection": 40,
    "windSpeed": 7,
    "windGust": null,
    "visibility": 10,
    "temperatureC": 20,
    "dewPointC": 16,
    "cloudCeiling": 2000,
    "altimeter": "A2989",
    "timestamp": "2026-05-22T20:53:00+00:00",
    "station": "KCPS"
  },
  "kstl": {
    "metar": "KSTL 222051Z 03009KT 10SM OVC020 19/14 A2990 RMK AO2 SLP120 T01890144 56016 $",
    "windDirection": 30,
    "windSpeed": 9,
    "windGust": null,
    "visibility": 10,
    "temperatureC": 19,
    "dewPointC": 14,
    "cloudCeiling": 2000,
    "altimeter": "A2990",
    "timestamp": "2026-05-22T20:51:00+00:00",
    "station": "KSTL"
  }
}