{
  "lastUpdated": "2026-05-06T17:51:08.182334+00:00",
  "kcps": {
    "metar": "KCPS 061653Z 33010KT 10SM OVC080 13/07 A3002 RMK AO2 SLP165 T01330067 $",
    "windDirection": 330,
    "windSpeed": 10,
    "windGust": null,
    "visibility": 10,
    "temperatureC": 13,
    "dewPointC": 7,
    "cloudCeiling": 8000,
    "altimeter": "A3002",
    "timestamp": "2026-05-06T16:53:00+00:00",
    "station": "KCPS"
  },
  "kstl": {
    "metar": "KSTL 061651Z 30007KT 10SM FEW035 SCT090 BKN250 14/06 A3002 RMK AO2 SLP168 T01390061 $",
    "windDirection": 300,
    "windSpeed": 7,
    "windGust": null,
    "visibility": 10,
    "temperatureC": 14,
    "dewPointC": 6,
    "cloudCeiling": 25000,
    "altimeter": "A3002",
    "timestamp": "2026-05-06T16:51:00+00:00",
    "station": "KSTL"
  }
}