{
  "lastUpdated": "2026-02-09T11:30:39.890518+00:00",
  "kcps": {
    "metar": "KCPS 091053Z AUTO 00000KT 10SM CLR M05/M08 A3012 RMK AO2 SLP205 T10501078 $",
    "windDirection": 0,
    "windSpeed": 0,
    "windGust": null,
    "visibility": 10,
    "temperatureC": -5,
    "dewPointC": -8,
    "cloudCeiling": 99999,
    "altimeter": "A3012",
    "timestamp": "2026-02-09T10:53:00+00:00",
    "station": "KCPS"
  },
  "kstl": {
    "metar": "KSTL 091051Z 11006KT 10SM CLR M04/M08 A3011 RMK AO2 SLP206 T10391078 $",
    "windDirection": 110,
    "windSpeed": 6,
    "windGust": null,
    "visibility": 10,
    "temperatureC": -4,
    "dewPointC": -8,
    "cloudCeiling": 99999,
    "altimeter": "A3011",
    "timestamp": "2026-02-09T10:51:00+00:00",
    "station": "KSTL"
  }
}