{
  "lastUpdated": "2025-12-12T09:22:19.393127+00:00",
  "kcps": {
    "metar": "KCPS 120853Z AUTO 06009KT 10SM OVC075 01/M01 A2995 RMK AO2 SLP145 T00111011 53013 $",
    "windDirection": 60,
    "windSpeed": 9,
    "windGust": null,
    "visibility": 10,
    "temperatureC": 1,
    "dewPointC": -1,
    "cloudCeiling": 7500,
    "altimeter": "A2995",
    "timestamp": "2025-12-12T08:53:00+00:00",
    "station": "KCPS"
  },
  "kstl": {
    "metar": "KSTL 120905Z 05008KT 10SM BKN010 OVC060 01/M01 A2995 RMK AO2 T00061011 $",
    "windDirection": 50,
    "windSpeed": 8,
    "windGust": null,
    "visibility": 10,
    "temperatureC": 1,
    "dewPointC": -1,
    "cloudCeiling": 1000,
    "altimeter": "A2995",
    "timestamp": "2025-12-12T09:05:00+00:00",
    "station": "KSTL"
  }
}