{
  "lastUpdated": "2025-11-13T16:22:28.043842+00:00",
  "kcps": {
    "metar": "KCPS 131553Z 00000KT 10SM CLR 10/04 A3027 RMK AO2 SLP251 T01000044",
    "windDirection": 0,
    "windSpeed": 0,
    "windGust": null,
    "visibility": 10,
    "temperatureC": 10,
    "dewPointC": 4,
    "cloudCeiling": 99999,
    "altimeter": "A3027",
    "timestamp": "2025-11-13T15:53:00+00:00",
    "station": "KCPS"
  },
  "kstl": {
    "metar": "KSTL 131551Z 13006KT 10SM BKN200 13/01 A3027 RMK AO2 SLP251 T01280011",
    "windDirection": 130,
    "windSpeed": 6,
    "windGust": null,
    "visibility": 10,
    "temperatureC": 13,
    "dewPointC": 1,
    "cloudCeiling": 20000,
    "altimeter": "A3027",
    "timestamp": "2025-11-13T15:51:00+00:00",
    "station": "KSTL"
  }
}