{
  "lastUpdated": "2026-03-16T13:29:20.655059+00:00",
  "kcps": {
    "metar": "KCPS 161253Z AUTO 29013G27KT 9SM BKN027 OVC031 M05/M09 A2993 RMK AO2 PK WND 31032/1155 SNE53 SLP139 P0000 T10501094 $",
    "windDirection": 290,
    "windSpeed": 13,
    "windGust": 27,
    "visibility": 9,
    "temperatureC": -5,
    "dewPointC": -9,
    "cloudCeiling": 2700,
    "altimeter": "A2993",
    "timestamp": "2026-03-16T12:53:00+00:00",
    "station": "KCPS"
  },
  "kstl": {
    "metar": "KSTL 161323Z 29021G33KT 7SM -SN SCT024 BKN031 M06/M11 A2994 RMK AO2 PK WND 28033/1320 P0000 T10611106 $",
    "windDirection": 290,
    "windSpeed": 21,
    "windGust": 33,
    "visibility": 7,
    "temperatureC": -6,
    "dewPointC": -11,
    "cloudCeiling": 3100,
    "altimeter": "A2994",
    "timestamp": "2026-03-16T13:23:00+00:00",
    "station": "KSTL"
  }
}