{
  "lastUpdated": "2026-05-10T04:58:10.183396+00:00",
  "kcps": {
    "metar": "KCPS 100453Z AUTO 36008KT 10SM -RA BKN100 OVC120 17/14 A2990 RMK AO2 PK WND 32039/0356 SLP121 P0001 T01670144 $",
    "windDirection": 360,
    "windSpeed": 8,
    "windGust": null,
    "visibility": 10,
    "temperatureC": 17,
    "dewPointC": 14,
    "cloudCeiling": 10000,
    "altimeter": "A2990",
    "timestamp": "2026-05-10T04:53:00+00:00",
    "station": "KCPS"
  },
  "kstl": {
    "metar": "KSTL 100451Z 14008KT 8SM -RA FEW060 BKN075 OVC095 16/15 A2988 RMK AO2 SLP111 P0010 T01610150 $",
    "windDirection": 140,
    "windSpeed": 8,
    "windGust": null,
    "visibility": 8,
    "temperatureC": 16,
    "dewPointC": 15,
    "cloudCeiling": 7500,
    "altimeter": "A2988",
    "timestamp": "2026-05-10T04:51:00+00:00",
    "station": "KSTL"
  }
}