{
  "lastUpdated": "2026-01-28T03:21:37.560434+00:00",
  "kcps": {
    "metar": "KCPS 280253Z 33006KT 10SM CLR M06/M13 A3041 RMK AO2 SLP303 T10611133 51012 $",
    "windDirection": 330,
    "windSpeed": 6,
    "windGust": null,
    "visibility": 10,
    "temperatureC": -6,
    "dewPointC": -13,
    "cloudCeiling": 99999,
    "altimeter": "A3041",
    "timestamp": "2026-01-28T02:53:00+00:00",
    "station": "KCPS"
  },
  "kstl": {
    "metar": "KSTL 280251Z 33006KT 10SM BKN200 M07/M14 A3040 RMK AO2 SLP312 T10721139 51012 $",
    "windDirection": 330,
    "windSpeed": 6,
    "windGust": null,
    "visibility": 10,
    "temperatureC": -7,
    "dewPointC": -14,
    "cloudCeiling": 20000,
    "altimeter": "A3040",
    "timestamp": "2026-01-28T02:51:00+00:00",
    "station": "KSTL"
  }
}