{
  "lastUpdated": "2026-04-17T18:32:20.142154+00:00",
  "kcps": {
    "metar": "KCPS 171753Z 18013G21KT 10SM FEW044 28/18 A2984 RMK AO2 SLP102 T02830183 10289 20156 58023 $",
    "windDirection": 180,
    "windSpeed": 13,
    "windGust": 21,
    "visibility": 10,
    "temperatureC": 28,
    "dewPointC": 18,
    "cloudCeiling": null,
    "altimeter": "A2984",
    "timestamp": "2026-04-17T17:53:00+00:00",
    "station": "KCPS"
  },
  "kstl": {
    "metar": "KSTL 171751Z 19012G20KT 10SM SCT043 BKN250 28/18 A2984 RMK AO2 SLP094 T02830183 10283 20172 58021 $",
    "windDirection": 190,
    "windSpeed": 12,
    "windGust": 20,
    "visibility": 10,
    "temperatureC": 28,
    "dewPointC": 18,
    "cloudCeiling": 25000,
    "altimeter": "A2984",
    "timestamp": "2026-04-17T17:51:00+00:00",
    "station": "KSTL"
  }
}