{
  "lastUpdated": "2026-01-09T21:02:44.249456+00:00",
  "kcps": {
    "metar": "KCPS 092053Z 00000KT 10SM CLR 11/03 A3011 RMK AO2 SLP195 T01060033 53004 $",
    "windDirection": 0,
    "windSpeed": 0,
    "windGust": null,
    "visibility": 10,
    "temperatureC": 11,
    "dewPointC": 3,
    "cloudCeiling": 99999,
    "altimeter": "A3011",
    "timestamp": "2026-01-09T20:53:00+00:00",
    "station": "KCPS"
  },
  "kstl": {
    "metar": "KSTL 092051Z 00000KT 10SM FEW025 FEW250 11/03 A3011 RMK AO2 SLP196 T01060033 53003 $",
    "windDirection": 0,
    "windSpeed": 0,
    "windGust": null,
    "visibility": 10,
    "temperatureC": 11,
    "dewPointC": 3,
    "cloudCeiling": null,
    "altimeter": "A3011",
    "timestamp": "2026-01-09T20:51:00+00:00",
    "station": "KSTL"
  }
}