{
  "lastUpdated": "2026-04-04T00:52:41.647654+00:00",
  "kcps": {
    "metar": "KCPS 032353Z 18007KT 10SM CLR 26/17 A2992 RMK AO2 SLP130 T02560172 10283 20256 55005 $",
    "windDirection": 180,
    "windSpeed": 7,
    "windGust": null,
    "visibility": 10,
    "temperatureC": 26,
    "dewPointC": 17,
    "cloudCeiling": 99999,
    "altimeter": "A2992",
    "timestamp": "2026-04-03T23:53:00+00:00",
    "station": "KCPS"
  },
  "kstl": {
    "metar": "KSTL 032351Z 18012KT 10SM SCT110 OVC250 26/17 A2992 RMK AO2 SLP124 T02610167 10283 20261 55004 $",
    "windDirection": 180,
    "windSpeed": 12,
    "windGust": null,
    "visibility": 10,
    "temperatureC": 26,
    "dewPointC": 17,
    "cloudCeiling": 25000,
    "altimeter": "A2992",
    "timestamp": "2026-04-03T23:51:00+00:00",
    "station": "KSTL"
  }
}