{
  "lastUpdated": "2026-01-13T18:03:51.588927+00:00",
  "kcps": {
    "metar": "KCPS 131653Z 24010G19KT 10SM CLR 16/M03 A2985 RMK AO2 SLP107 T01561028",
    "windDirection": 240,
    "windSpeed": 10,
    "windGust": 19,
    "visibility": 10,
    "temperatureC": 16,
    "dewPointC": -3,
    "cloudCeiling": 99999,
    "altimeter": "A2985",
    "timestamp": "2026-01-13T16:53:00+00:00",
    "station": "KCPS"
  },
  "kstl": {
    "metar": "KSTL 131751Z 29016G24KT 10SM FEW140 BKN200 BKN250 17/M02 A2983 RMK AO2 PK WND 24028/1702 SLP102 T01721022 10172 20094 58014 $",
    "windDirection": 290,
    "windSpeed": 16,
    "windGust": 24,
    "visibility": 10,
    "temperatureC": 17,
    "dewPointC": -2,
    "cloudCeiling": 20000,
    "altimeter": "A2983",
    "timestamp": "2026-01-13T17:51:00+00:00",
    "station": "KSTL"
  }
}