{
  "lastUpdated": "2026-06-09T17:29:16.428381+00:00",
  "kcps": {
    "metar": "KCPS 091653Z 27010G19KT 10SM FEW040 31/22 A3000 RMK AO2 SLP155 T03060222 $",
    "windDirection": 270,
    "windSpeed": 10,
    "windGust": 19,
    "visibility": 10,
    "temperatureC": 31,
    "dewPointC": 22,
    "cloudCeiling": null,
    "altimeter": "A3000",
    "timestamp": "2026-06-09T16:53:00+00:00",
    "station": "KCPS"
  },
  "kstl": {
    "metar": "KSTL 091651Z 25013G23KT 10SM OVC033 28/22 A3002 RMK AO2 SLP151 T02830222 $",
    "windDirection": 250,
    "windSpeed": 13,
    "windGust": 23,
    "visibility": 10,
    "temperatureC": 28,
    "dewPointC": 22,
    "cloudCeiling": 3300,
    "altimeter": "A3002",
    "timestamp": "2026-06-09T16:51:00+00:00",
    "station": "KSTL"
  }
}