{
  "lastUpdated": "2025-10-21T13:25:35.469469+00:00",
  "kcps": {
    "metar": "KCPS 211253Z 24005KT 10SM CLR 11/07 A2995 RMK AO2 SLP142 T01060072",
    "windDirection": 240,
    "windSpeed": 5,
    "windGust": null,
    "visibility": 10,
    "temperatureC": 11,
    "dewPointC": 7,
    "cloudCeiling": 99999,
    "altimeter": "A2995",
    "timestamp": "2025-10-21T12:53:00+00:00",
    "station": "KCPS"
  },
  "kstl": {
    "metar": "KSTL 211251Z 25009KT 10SM FEW150 11/07 A2994 RMK AO2 SLP135 T01110067 $",
    "windDirection": 250,
    "windSpeed": 9,
    "windGust": null,
    "visibility": 10,
    "temperatureC": 11,
    "dewPointC": 7,
    "cloudCeiling": null,
    "altimeter": "A2994",
    "timestamp": "2025-10-21T12:51:00+00:00",
    "station": "KSTL"
  }
}