{
  "lastUpdated": "2026-05-04T11:21:41.589710+00:00",
  "kcps": {
    "metar": "KCPS 041053Z AUTO 17004KT 10SM CLR 15/10 A2978 RMK AO2 SLP082 T01500100 $",
    "windDirection": 170,
    "windSpeed": 4,
    "windGust": null,
    "visibility": 10,
    "temperatureC": 15,
    "dewPointC": 10,
    "cloudCeiling": 99999,
    "altimeter": "A2978",
    "timestamp": "2026-05-04T10:53:00+00:00",
    "station": "KCPS"
  },
  "kstl": {
    "metar": "KSTL 041051Z 00000KT 10SM FEW110 BKN180 BKN250 17/09 A2977 RMK AO2 SLP073 T01670089 $",
    "windDirection": 0,
    "windSpeed": 0,
    "windGust": null,
    "visibility": 10,
    "temperatureC": 17,
    "dewPointC": 9,
    "cloudCeiling": 18000,
    "altimeter": "A2977",
    "timestamp": "2026-05-04T10:51:00+00:00",
    "station": "KSTL"
  }
}