{
  "lastUpdated": "2026-03-18T10:16:28.089254+00:00",
  "kcps": {
    "metar": "KCPS 180953Z AUTO 16008KT 10SM OVC070 02/M07 A3004 RMK AO2 SLP174 T00221067 $",
    "windDirection": 160,
    "windSpeed": 8,
    "windGust": null,
    "visibility": 10,
    "temperatureC": 2,
    "dewPointC": -7,
    "cloudCeiling": 7000,
    "altimeter": "A3004",
    "timestamp": "2026-03-18T09:53:00+00:00",
    "station": "KCPS"
  },
  "kstl": {
    "metar": "KSTL 180951Z 15009KT 10SM -RA OVC075 02/M06 A3002 RMK AO2 RAB49 SLP174 P0000 T00171061 $",
    "windDirection": 150,
    "windSpeed": 9,
    "windGust": null,
    "visibility": 10,
    "temperatureC": 2,
    "dewPointC": -6,
    "cloudCeiling": 7500,
    "altimeter": "A3002",
    "timestamp": "2026-03-18T09:51:00+00:00",
    "station": "KSTL"
  }
}