{
  "lastUpdated": "2026-05-03T17:30:56.264195+00:00",
  "kcps": {
    "metar": "KCPS 031653Z 20011G22KT 10SM CLR 19/03 A3002 RMK AO2 SLP166 T01890033 $",
    "windDirection": 200,
    "windSpeed": 11,
    "windGust": 22,
    "visibility": 10,
    "temperatureC": 19,
    "dewPointC": 3,
    "cloudCeiling": 99999,
    "altimeter": "A3002",
    "timestamp": "2026-05-03T16:53:00+00:00",
    "station": "KCPS"
  },
  "kstl": {
    "metar": "KSTL 031651Z 21013G21KT 10SM FEW150 FEW250 19/04 A3002 RMK AO2 SLP163 T01890044 $",
    "windDirection": 210,
    "windSpeed": 13,
    "windGust": 21,
    "visibility": 10,
    "temperatureC": 19,
    "dewPointC": 4,
    "cloudCeiling": null,
    "altimeter": "A3002",
    "timestamp": "2026-05-03T16:51:00+00:00",
    "station": "KSTL"
  }
}