{
  "lastUpdated": "2025-12-05T06:54:33.561405+00:00",
  "kcps": {
    "metar": "KCPS 050553Z AUTO 00000KT 10SM CLR M10/M14 A3021 RMK AO2 SLP238 T11001139 11061 21106 400061106 58015",
    "windDirection": 0,
    "windSpeed": 0,
    "windGust": null,
    "visibility": 10,
    "temperatureC": -10,
    "dewPointC": -14,
    "cloudCeiling": 99999,
    "altimeter": "A3021",
    "timestamp": "2025-12-05T05:53:00+00:00",
    "station": "KCPS"
  },
  "kstl": {
    "metar": "KSTL 050651Z 10004KT 10SM CLR M10/M14 A3017 RMK AO2 SLP234 T11001144 $",
    "windDirection": 100,
    "windSpeed": 4,
    "windGust": null,
    "visibility": 10,
    "temperatureC": -10,
    "dewPointC": -14,
    "cloudCeiling": 99999,
    "altimeter": "A3017",
    "timestamp": "2025-12-05T06:51:00+00:00",
    "station": "KSTL"
  }
}