{
  "lastUpdated": "2026-02-21T05:44:04.497357+00:00",
  "kcps": {
    "metar": "KCPS 210453Z AUTO 34003KT 10SM CLR M01/M04 A3004 RMK AO2 SLP174 T10061039 PNO $",
    "windDirection": 340,
    "windSpeed": 3,
    "windGust": null,
    "visibility": 10,
    "temperatureC": -1,
    "dewPointC": -4,
    "cloudCeiling": 99999,
    "altimeter": "A3004",
    "timestamp": "2026-02-21T04:53:00+00:00",
    "station": "KCPS"
  },
  "kstl": {
    "metar": "KSTL 210451Z 35004KT 10SM FEW085 BKN110 01/M06 A3004 RMK AO2 SLP180 T00111056 $",
    "windDirection": 350,
    "windSpeed": 4,
    "windGust": null,
    "visibility": 10,
    "temperatureC": 1,
    "dewPointC": -6,
    "cloudCeiling": 11000,
    "altimeter": "A3004",
    "timestamp": "2026-02-21T04:51:00+00:00",
    "station": "KSTL"
  }
}