{
  "lastUpdated": "2025-11-23T14:02:05.658071+00:00",
  "kcps": {
    "metar": "KCPS 231353Z 30003KT 8SM OVC007 08/07 A3021 RMK AO2 SLP233 T00830072",
    "windDirection": 300,
    "windSpeed": 3,
    "windGust": null,
    "visibility": 8,
    "temperatureC": 8,
    "dewPointC": 7,
    "cloudCeiling": 700,
    "altimeter": "A3021",
    "timestamp": "2025-11-23T13:53:00+00:00",
    "station": "KCPS"
  },
  "kstl": {
    "metar": "KSTL 231351Z 28004KT 8SM OVC006 08/07 A3021 RMK AO2 SLP234 T00780072 $",
    "windDirection": 280,
    "windSpeed": 4,
    "windGust": null,
    "visibility": 8,
    "temperatureC": 8,
    "dewPointC": 7,
    "cloudCeiling": 600,
    "altimeter": "A3021",
    "timestamp": "2025-11-23T13:51:00+00:00",
    "station": "KSTL"
  }
}