{
  "lastUpdated": "2026-01-17T05:36:03.721682+00:00",
  "kcps": {
    "metar": "KCPS 170453Z AUTO 30013G26KT 10SM FEW075 OVC095 00/M10 A2993 RMK AO2 PK WND 29027/0441 SLP137 T00001100 $",
    "windDirection": 300,
    "windSpeed": 13,
    "windGust": 26,
    "visibility": 10,
    "temperatureC": 0,
    "dewPointC": -10,
    "cloudCeiling": 9500,
    "altimeter": "A2993",
    "timestamp": "2026-01-17T04:53:00+00:00",
    "station": "KCPS"
  },
  "kstl": {
    "metar": "KSTL 170451Z 29017G28KT 10SM FEW070 BKN095 M02/M09 A2993 RMK AO2 PK WND 28032/0423 SLP143 T10171094 $",
    "windDirection": 290,
    "windSpeed": 17,
    "windGust": 28,
    "visibility": 10,
    "temperatureC": -2,
    "dewPointC": -9,
    "cloudCeiling": 9500,
    "altimeter": "A2993",
    "timestamp": "2026-01-17T04:51:00+00:00",
    "station": "KSTL"
  }
}