{
  "lastUpdated": "2026-04-03T21:55:47.367798+00:00",
  "kcps": {
    "station": "KCPS",
    "metar": null,
    "error": "Failed to fetch METAR"
  },
  "kstl": {
    "metar": "KSTL 032151Z 17012G19KT 10SM SCT065 BKN080 OVC250 27/17 A2992 RMK AO2 PK WND 17027/2119 SLP124 T02720167 $",
    "windDirection": 170,
    "windSpeed": 12,
    "windGust": 19,
    "visibility": 10,
    "temperatureC": 27,
    "dewPointC": 17,
    "cloudCeiling": 8000,
    "altimeter": "A2992",
    "timestamp": "2026-04-03T21:51:00+00:00",
    "station": "KSTL"
  }
}