{
  "lastUpdated": "2025-12-24T04:42:10.091783+00:00",
  "kcps": {
    "metar": "KCPS 240407Z 00000KT 1/4SM FG VV002 07/07 A3023 RMK AO2 T00670067 $",
    "windDirection": 0,
    "windSpeed": 0,
    "windGust": null,
    "visibility": 0.25,
    "temperatureC": 7,
    "dewPointC": 7,
    "cloudCeiling": 200,
    "altimeter": "A3023",
    "timestamp": "2025-12-24T04:07:00+00:00",
    "station": "KCPS"
  },
  "kstl": {
    "metar": "KSTL 240407Z 00000KT 5SM BR FEW003 FEW032 07/07 A3024 RMK AO2 T00720072 $",
    "windDirection": 0,
    "windSpeed": 0,
    "windGust": null,
    "visibility": 5,
    "temperatureC": 7,
    "dewPointC": 7,
    "cloudCeiling": null,
    "altimeter": "A3024",
    "timestamp": "2025-12-24T04:07:00+00:00",
    "station": "KSTL"
  }
}