{
  "lastUpdated": "2026-01-07T17:05:22.402681+00:00",
  "kcps": {
    "metar": "KCPS 071653Z 25007KT 10SM CLR 13/03 A2998 RMK AO2 SLP152 T01330033 $",
    "windDirection": 250,
    "windSpeed": 7,
    "windGust": null,
    "visibility": 10,
    "temperatureC": 13,
    "dewPointC": 3,
    "cloudCeiling": 99999,
    "altimeter": "A2998",
    "timestamp": "2026-01-07T16:53:00+00:00",
    "station": "KCPS"
  },
  "kstl": {
    "metar": "KSTL 071651Z 22008KT 10SM SCT250 14/03 A2998 RMK AO2 SLP152 T01390028 $",
    "windDirection": 220,
    "windSpeed": 8,
    "windGust": null,
    "visibility": 10,
    "temperatureC": 14,
    "dewPointC": 3,
    "cloudCeiling": null,
    "altimeter": "A2998",
    "timestamp": "2026-01-07T16:51:00+00:00",
    "station": "KSTL"
  }
}