{
  "lastUpdated": "2026-05-31T17:36:54.580796+00:00",
  "kcps": {
    "metar": "KCPS 311653Z 06005KT 10SM CLR 24/16 A3002 RMK AO2 SLP163 T02390161 $",
    "windDirection": 60,
    "windSpeed": 5,
    "windGust": null,
    "visibility": 10,
    "temperatureC": 24,
    "dewPointC": 16,
    "cloudCeiling": 99999,
    "altimeter": "A3002",
    "timestamp": "2026-05-31T16:53:00+00:00",
    "station": "KCPS"
  },
  "kstl": {
    "metar": "KSTL 311651Z 10003KT 10SM BKN090 BKN250 24/15 A3003 RMK AO2 SLP160 T02390150 $",
    "windDirection": 100,
    "windSpeed": 3,
    "windGust": null,
    "visibility": 10,
    "temperatureC": 24,
    "dewPointC": 15,
    "cloudCeiling": 9000,
    "altimeter": "A3003",
    "timestamp": "2026-05-31T16:51:00+00:00",
    "station": "KSTL"
  }
}