{
  "lastUpdated": "2025-12-23T19:46:32.445896+00:00",
  "kcps": {
    "metar": "KCPS 231853Z 25005KT 10SM SCT027 21/13 A3010 RMK AO2 SLP194 T02060133 $",
    "windDirection": 250,
    "windSpeed": 5,
    "windGust": null,
    "visibility": 10,
    "temperatureC": 21,
    "dewPointC": 13,
    "cloudCeiling": null,
    "altimeter": "A3010",
    "timestamp": "2025-12-23T18:53:00+00:00",
    "station": "KCPS"
  },
  "kstl": {
    "metar": "KSTL 231851Z 28009KT 10SM SCT022 SCT250 19/13 A3011 RMK AO2 SLP197 T01940133 $",
    "windDirection": 280,
    "windSpeed": 9,
    "windGust": null,
    "visibility": 10,
    "temperatureC": 19,
    "dewPointC": 13,
    "cloudCeiling": null,
    "altimeter": "A3011",
    "timestamp": "2025-12-23T18:51:00+00:00",
    "station": "KSTL"
  }
}