{
  "lastUpdated": "2026-04-30T01:53:49.918642+00:00",
  "kcps": {
    "metar": "KCPS 300053Z 35008KT 10SM CLR 14/04 A3003 RMK AO2 SLP167 T01440039 $",
    "windDirection": 350,
    "windSpeed": 8,
    "windGust": null,
    "visibility": 10,
    "temperatureC": 14,
    "dewPointC": 4,
    "cloudCeiling": 99999,
    "altimeter": "A3003",
    "timestamp": "2026-04-30T00:53:00+00:00",
    "station": "KCPS"
  },
  "kstl": {
    "metar": "KSTL 300151Z 32005KT 10SM FEW050 SCT180 BKN250 13/04 A3006 RMK AO2 SLP178 T01280044 $",
    "windDirection": 320,
    "windSpeed": 5,
    "windGust": null,
    "visibility": 10,
    "temperatureC": 13,
    "dewPointC": 4,
    "cloudCeiling": 25000,
    "altimeter": "A3006",
    "timestamp": "2026-04-30T01:51:00+00:00",
    "station": "KSTL"
  }
}