{
  "lastUpdated": "2026-05-04T10:37:27.814860+00:00",
  "kcps": {
    "metar": "KCPS 040953Z AUTO 16007KT 10SM CLR 16/10 A2977 RMK AO2 SLP078 T01560100 $",
    "windDirection": 160,
    "windSpeed": 7,
    "windGust": null,
    "visibility": 10,
    "temperatureC": 16,
    "dewPointC": 10,
    "cloudCeiling": 99999,
    "altimeter": "A2977",
    "timestamp": "2026-05-04T09:53:00+00:00",
    "station": "KCPS"
  },
  "kstl": {
    "metar": "KSTL 040951Z 20008KT 10SM BKN170 OVC250 17/09 A2977 RMK AO2 SLP073 T01720094 $",
    "windDirection": 200,
    "windSpeed": 8,
    "windGust": null,
    "visibility": 10,
    "temperatureC": 17,
    "dewPointC": 9,
    "cloudCeiling": 17000,
    "altimeter": "A2977",
    "timestamp": "2026-05-04T09:51:00+00:00",
    "station": "KSTL"
  }
}