{
  "lastUpdated": "2026-04-01T11:32:24.264517+00:00",
  "kcps": {
    "metar": "KCPS 011053Z AUTO 03012KT 9SM OVC005 13/12 A2999 RMK AO2 RAE15 SLP152 P0001 T01330122 $",
    "windDirection": 30,
    "windSpeed": 12,
    "windGust": null,
    "visibility": 9,
    "temperatureC": 13,
    "dewPointC": 12,
    "cloudCeiling": 500,
    "altimeter": "A2999",
    "timestamp": "2026-04-01T10:53:00+00:00",
    "station": "KCPS"
  },
  "kstl": {
    "metar": "KSTL 011051Z 01009KT 10SM -RA OVC006 12/11 A3000 RMK AO2 RAB37 PRESRR SLP153 P0000 T01220111 $",
    "windDirection": 10,
    "windSpeed": 9,
    "windGust": null,
    "visibility": 10,
    "temperatureC": 12,
    "dewPointC": 11,
    "cloudCeiling": 600,
    "altimeter": "A3000",
    "timestamp": "2026-04-01T10:51:00+00:00",
    "station": "KSTL"
  }
}