{
  "lastUpdated": "2026-01-09T06:02:55.589387+00:00",
  "kcps": {
    "metar": "KCPS 090553Z 22007G17KT 10SM CLR 19/15 A2957 RMK AO2 SLP012 60047 T01890150 10200 20178 402000083 51010",
    "windDirection": 220,
    "windSpeed": 7,
    "windGust": 17,
    "visibility": 10,
    "temperatureC": 19,
    "dewPointC": 15,
    "cloudCeiling": 99999,
    "altimeter": "A2957",
    "timestamp": "2026-01-09T05:53:00+00:00",
    "station": "KCPS"
  },
  "kstl": {
    "metar": "KSTL 090551Z 24015KT 10SM FEW065 18/13 A2957 RMK AO2 PK WND 22027/0456 SLP009 60011 T01830128 10194 20178 401940089 53007 $",
    "windDirection": 240,
    "windSpeed": 15,
    "windGust": null,
    "visibility": 10,
    "temperatureC": 18,
    "dewPointC": 13,
    "cloudCeiling": null,
    "altimeter": "A2957",
    "timestamp": "2026-01-09T05:51:00+00:00",
    "station": "KSTL"
  }
}