{
  "lastUpdated": "2026-04-11T08:26:48.263752+00:00",
  "kcps": {
    "metar": "KCPS 110753Z AUTO 08004KT 10SM CLR 11/08 A3032 RMK AO2 SLP267 T01110083 $",
    "windDirection": 80,
    "windSpeed": 4,
    "windGust": null,
    "visibility": 10,
    "temperatureC": 11,
    "dewPointC": 8,
    "cloudCeiling": 99999,
    "altimeter": "A3032",
    "timestamp": "2026-04-11T07:53:00+00:00",
    "station": "KCPS"
  },
  "kstl": {
    "metar": "KSTL 110751Z 07007KT 10SM SCT043 11/08 A3032 RMK AO2 SLP264 T01110078 $",
    "windDirection": 70,
    "windSpeed": 7,
    "windGust": null,
    "visibility": 10,
    "temperatureC": 11,
    "dewPointC": 8,
    "cloudCeiling": null,
    "altimeter": "A3032",
    "timestamp": "2026-04-11T07:51:00+00:00",
    "station": "KSTL"
  }
}