{
  "lastUpdated": "2025-12-12T18:42:50.807403+00:00",
  "kcps": {
    "metar": "KCPS 121736Z 34007KT 7SM OVC010 02/M01 A3013 RMK AO2 T00171006",
    "windDirection": 340,
    "windSpeed": 7,
    "windGust": null,
    "visibility": 7,
    "temperatureC": 2,
    "dewPointC": -1,
    "cloudCeiling": 1000,
    "altimeter": "A3013",
    "timestamp": "2025-12-12T17:36:00+00:00",
    "station": "KCPS"
  },
  "kstl": {
    "metar": "KSTL 121751Z 34007KT 9SM OVC008 01/M01 A3014 RMK AO2 SLP215 T00111011 10017 20000 50007 $",
    "windDirection": 340,
    "windSpeed": 7,
    "windGust": null,
    "visibility": 9,
    "temperatureC": 1,
    "dewPointC": -1,
    "cloudCeiling": 800,
    "altimeter": "A3014",
    "timestamp": "2025-12-12T17:51:00+00:00",
    "station": "KSTL"
  }
}