{
  "lastUpdated": "2025-10-16T21:31:46.424380+00:00",
  "kcps": {
    "metar": "KCPS 162053Z 12006KT 10SM CLR 29/14 A3001 RMK AO2 SLP158 T02890144 56026",
    "windDirection": 120,
    "windSpeed": 6,
    "windGust": null,
    "visibility": 10,
    "temperatureC": 29,
    "dewPointC": 14,
    "cloudCeiling": 99999,
    "altimeter": "A3001",
    "timestamp": "2025-10-16T20:53:00+00:00",
    "station": "KCPS"
  },
  "kstl": {
    "metar": "KSTL 162051Z 11011G15KT 10SM FEW050 FEW250 27/14 A3002 RMK AO2 SLP155 T02720144 56026 $",
    "windDirection": 110,
    "windSpeed": 11,
    "windGust": 15,
    "visibility": 10,
    "temperatureC": 27,
    "dewPointC": 14,
    "cloudCeiling": null,
    "altimeter": "A3002",
    "timestamp": "2025-10-16T20:51:00+00:00",
    "station": "KSTL"
  }
}