{
  "lastUpdated": "2025-12-07T21:21:04.487995+00:00",
  "kcps": {
    "metar": "KCPS 072108Z 01012KT 6SM BR OVC008 02/M01 A3015 RMK AO2 T00171006 $",
    "windDirection": 10,
    "windSpeed": 12,
    "windGust": null,
    "visibility": 6,
    "temperatureC": 2,
    "dewPointC": -1,
    "cloudCeiling": 800,
    "altimeter": "A3015",
    "timestamp": "2025-12-07T21:08:00+00:00",
    "station": "KCPS"
  },
  "kstl": {
    "metar": "KSTL 072051Z 36011KT 6SM BR OVC009 01/M01 A3015 RMK AO2 SLP217 T00111011 51022 $",
    "windDirection": 360,
    "windSpeed": 11,
    "windGust": null,
    "visibility": 6,
    "temperatureC": 1,
    "dewPointC": -1,
    "cloudCeiling": 900,
    "altimeter": "A3015",
    "timestamp": "2025-12-07T20:51:00+00:00",
    "station": "KSTL"
  }
}