{
  "lastUpdated": "2026-01-21T20:55:02.604678+00:00",
  "kcps": {
    "metar": "KCPS 211953Z 28010G21KT 10SM CLR 10/M08 A3004 RMK AO2 PK WND 25026/1942 SLP173 T01001078 $",
    "windDirection": 280,
    "windSpeed": 10,
    "windGust": 21,
    "visibility": 10,
    "temperatureC": 10,
    "dewPointC": -8,
    "cloudCeiling": 99999,
    "altimeter": "A3004",
    "timestamp": "2026-01-21T19:53:00+00:00",
    "station": "KCPS"
  },
  "kstl": {
    "metar": "KSTL 212051Z 30013KT 10SM CLR 08/M07 A3005 RMK AO2 SLP180 T00831072 55007 $",
    "windDirection": 300,
    "windSpeed": 13,
    "windGust": null,
    "visibility": 10,
    "temperatureC": 8,
    "dewPointC": -7,
    "cloudCeiling": 99999,
    "altimeter": "A3005",
    "timestamp": "2026-01-21T20:51:00+00:00",
    "station": "KSTL"
  }
}