{
  "lastUpdated": "2025-12-29T21:33:39.075058+00:00",
  "kcps": {
    "metar": "KCPS 292053Z 30017G25KT 10SM OVC036 M04/M12 A3033 RMK AO2 SLP277 T10441122 53004",
    "windDirection": 300,
    "windSpeed": 17,
    "windGust": 25,
    "visibility": 10,
    "temperatureC": -4,
    "dewPointC": -12,
    "cloudCeiling": 3600,
    "altimeter": "A3033",
    "timestamp": "2025-12-29T20:53:00+00:00",
    "station": "KCPS"
  },
  "kstl": {
    "metar": "KSTL 292051Z 29013KT 10SM OVC033 M05/M12 A3033 RMK AO2 PK WND 29030/1959 SLP286 T10501122 53004 $",
    "windDirection": 290,
    "windSpeed": 13,
    "windGust": null,
    "visibility": 10,
    "temperatureC": -5,
    "dewPointC": -12,
    "cloudCeiling": 3300,
    "altimeter": "A3033",
    "timestamp": "2025-12-29T20:51:00+00:00",
    "station": "KSTL"
  }
}