{
  "lastUpdated": "2026-01-21T18:03:00.729613+00:00",
  "kcps": {
    "metar": "KCPS 211753Z 24010G16KT 10SM CLR 09/M06 A3007 RMK AO2 SLP185 T00891056 10089 20028 58005 $",
    "windDirection": 240,
    "windSpeed": 10,
    "windGust": 16,
    "visibility": 10,
    "temperatureC": 9,
    "dewPointC": -6,
    "cloudCeiling": 99999,
    "altimeter": "A3007",
    "timestamp": "2026-01-21T17:53:00+00:00",
    "station": "KCPS"
  },
  "kstl": {
    "metar": "KSTL 211751Z 25012KT 10SM FEW250 08/M06 A3007 RMK AO2 SLP188 T00781061 10078 20011 58003 $",
    "windDirection": 250,
    "windSpeed": 12,
    "windGust": null,
    "visibility": 10,
    "temperatureC": 8,
    "dewPointC": -6,
    "cloudCeiling": null,
    "altimeter": "A3007",
    "timestamp": "2026-01-21T17:51:00+00:00",
    "station": "KSTL"
  }
}