{
  "lastUpdated": "2026-01-19T10:54:25.151580+00:00",
  "kcps": {
    "metar": "KCPS 190953Z AUTO 32011KT 10SM CLR M04/M11 A3018 RMK AO2 SLP226 T10441106 TSNO $",
    "windDirection": 320,
    "windSpeed": 11,
    "windGust": null,
    "visibility": 10,
    "temperatureC": -4,
    "dewPointC": -11,
    "cloudCeiling": 99999,
    "altimeter": "A3018",
    "timestamp": "2026-01-19T09:53:00+00:00",
    "station": "KCPS"
  },
  "kstl": {
    "metar": "KSTL 191051Z 30011G23KT 10SM BKN033 M05/M12 A3020 RMK AO2 SLP241 T10501117 $",
    "windDirection": 300,
    "windSpeed": 11,
    "windGust": 23,
    "visibility": 10,
    "temperatureC": -5,
    "dewPointC": -12,
    "cloudCeiling": 3300,
    "altimeter": "A3020",
    "timestamp": "2026-01-19T10:51:00+00:00",
    "station": "KSTL"
  }
}