{
  "lastUpdated": "2025-11-12T02:31:03.313549+00:00",
  "kcps": {
    "metar": "KCPS 120153Z 18003KT 10SM CLR 09/M03 A2992 RMK AO2 SLP135 T00891028 $",
    "windDirection": 180,
    "windSpeed": 3,
    "windGust": null,
    "visibility": 10,
    "temperatureC": 9,
    "dewPointC": -3,
    "cloudCeiling": 99999,
    "altimeter": "A2992",
    "timestamp": "2025-11-12T01:53:00+00:00",
    "station": "KCPS"
  },
  "kstl": {
    "metar": "KSTL 120151Z 25003KT 10SM CLR 07/M01 A2992 RMK AO2 SLP138 T00721011 $",
    "windDirection": 250,
    "windSpeed": 3,
    "windGust": null,
    "visibility": 10,
    "temperatureC": 7,
    "dewPointC": -1,
    "cloudCeiling": 99999,
    "altimeter": "A2992",
    "timestamp": "2025-11-12T01:51:00+00:00",
    "station": "KSTL"
  }
}