{
  "lastUpdated": "2025-11-08T02:28:10.948144+00:00",
  "kcps": {
    "metar": "KCPS 080153Z 24003KT 10SM CLR 10/05 A2976 RMK AO2 SLP075 T01000050",
    "windDirection": 240,
    "windSpeed": 3,
    "windGust": null,
    "visibility": 10,
    "temperatureC": 10,
    "dewPointC": 5,
    "cloudCeiling": 99999,
    "altimeter": "A2976",
    "timestamp": "2025-11-08T01:53:00+00:00",
    "station": "KCPS"
  },
  "kstl": {
    "metar": "KSTL 080151Z COR 26005KT 10SM CLR 14/03 A2976 RMK AO2 SLP075 T01390033 $",
    "windDirection": 260,
    "windSpeed": 5,
    "windGust": null,
    "visibility": 10,
    "temperatureC": 14,
    "dewPointC": 3,
    "cloudCeiling": 99999,
    "altimeter": "A2976",
    "timestamp": "2025-11-08T01:51:00+00:00",
    "station": "KSTL"
  }
}