{
  "lastUpdated": "2025-12-09T17:48:18.224358+00:00",
  "kcps": {
    "metar": "KCPS 091653Z 21007KT 10SM BKN120 08/00 A2991 RMK AO2 SLP131 T00780000",
    "windDirection": 210,
    "windSpeed": 7,
    "windGust": null,
    "visibility": 10,
    "temperatureC": 8,
    "dewPointC": 0,
    "cloudCeiling": 12000,
    "altimeter": "A2991",
    "timestamp": "2025-12-09T16:53:00+00:00",
    "station": "KCPS"
  },
  "kstl": {
    "metar": "KSTL 091651Z 23010KT 10SM OVC110 08/00 A2990 RMK AO2 SLP130 T00830000 $",
    "windDirection": 230,
    "windSpeed": 10,
    "windGust": null,
    "visibility": 10,
    "temperatureC": 8,
    "dewPointC": 0,
    "cloudCeiling": 11000,
    "altimeter": "A2990",
    "timestamp": "2025-12-09T16:51:00+00:00",
    "station": "KSTL"
  }
}