{
  "lastUpdated": "2026-04-18T10:00:28.019256+00:00",
  "kcps": {
    "metar": "KCPS 180953Z AUTO 33017G26KT 5SM RA BR SCT011 BKN050 OVC070 11/09 A2982 RMK AO2 PK WND 32028/0937 SLP096 P0013 T01060089 $",
    "windDirection": 330,
    "windSpeed": 17,
    "windGust": 26,
    "visibility": 5,
    "temperatureC": 11,
    "dewPointC": 9,
    "cloudCeiling": 5000,
    "altimeter": "A2982",
    "timestamp": "2026-04-18T09:53:00+00:00",
    "station": "KCPS"
  },
  "kstl": {
    "metar": "KSTL 180951Z 36010G17KT 7SM RA FEW015 SCT025 OVC080 09/07 A2981 RMK AO2 PK WND 31031/0918 PRESFR SLP088 P0012 T00890072 $",
    "windDirection": 360,
    "windSpeed": 10,
    "windGust": 17,
    "visibility": 7,
    "temperatureC": 9,
    "dewPointC": 7,
    "cloudCeiling": 8000,
    "altimeter": "A2981",
    "timestamp": "2026-04-18T09:51:00+00:00",
    "station": "KSTL"
  }
}