{
  "lastUpdated": "2026-01-15T06:56:47.947405+00:00",
  "kcps": {
    "metar": "KCPS 150653Z AUTO 33015G21KT 10SM CLR M04/M13 A3012 RMK AO2 SLP203 T10441128",
    "windDirection": 330,
    "windSpeed": 15,
    "windGust": 21,
    "visibility": 10,
    "temperatureC": -4,
    "dewPointC": -13,
    "cloudCeiling": 99999,
    "altimeter": "A3012",
    "timestamp": "2026-01-15T06:53:00+00:00",
    "station": "KCPS"
  },
  "kstl": {
    "metar": "KSTL 150651Z 32008KT 10SM CLR M06/M12 A3011 RMK AO2 SLP208 T10561122 $",
    "windDirection": 320,
    "windSpeed": 8,
    "windGust": null,
    "visibility": 10,
    "temperatureC": -6,
    "dewPointC": -12,
    "cloudCeiling": 99999,
    "altimeter": "A3011",
    "timestamp": "2026-01-15T06:51:00+00:00",
    "station": "KSTL"
  }
}