{
  "lastUpdated": "2026-03-26T09:05:40.418770+00:00",
  "kcps": {
    "metar": "KCPS 260853Z AUTO 21005KT 10SM CLR 22/14 A2980 RMK AO2 SLP086 T02170139 58015 $",
    "windDirection": 210,
    "windSpeed": 5,
    "windGust": null,
    "visibility": 10,
    "temperatureC": 22,
    "dewPointC": 14,
    "cloudCeiling": 99999,
    "altimeter": "A2980",
    "timestamp": "2026-03-26T08:53:00+00:00",
    "station": "KCPS"
  },
  "kstl": {
    "metar": "KSTL 260851Z 23017KT 10SM FEW250 23/14 A2979 RMK AO2 SLP077 T02280139 58016 $",
    "windDirection": 230,
    "windSpeed": 17,
    "windGust": null,
    "visibility": 10,
    "temperatureC": 23,
    "dewPointC": 14,
    "cloudCeiling": null,
    "altimeter": "A2979",
    "timestamp": "2026-03-26T08:51:00+00:00",
    "station": "KSTL"
  }
}