{
  "lastUpdated": "2025-12-10T12:03:07.644889+00:00",
  "kcps": {
    "metar": "KCPS 101153Z AUTO 30019G28KT 10SM SCT046 11/02 A2960 RMK AO2 PK WND 30029/1133 SLP022 60000 T01110022 10111 20078 55002",
    "windDirection": 300,
    "windSpeed": 19,
    "windGust": 28,
    "visibility": 10,
    "temperatureC": 11,
    "dewPointC": 2,
    "cloudCeiling": null,
    "altimeter": "A2960",
    "timestamp": "2025-12-10T11:53:00+00:00",
    "station": "KCPS"
  },
  "kstl": {
    "metar": "KSTL 101151Z 30014G26KT 10SM FEW037 FEW045 BKN150 09/02 A2961 RMK AO2 PK WND 29039/1111 SLP027 60000 T00940022 10111 20094 53002 $",
    "windDirection": 300,
    "windSpeed": 14,
    "windGust": 26,
    "visibility": 10,
    "temperatureC": 9,
    "dewPointC": 2,
    "cloudCeiling": 15000,
    "altimeter": "A2961",
    "timestamp": "2025-12-10T11:51:00+00:00",
    "station": "KSTL"
  }
}