{
  "lastUpdated": "2025-11-15T08:22:11.148306+00:00",
  "kcps": {
    "metar": "KCPS 150753Z AUTO 21006KT 10SM SCT047 19/14 A2983 RMK AO2 SLP096 T01940139 $",
    "windDirection": 210,
    "windSpeed": 6,
    "windGust": null,
    "visibility": 10,
    "temperatureC": 19,
    "dewPointC": 14,
    "cloudCeiling": null,
    "altimeter": "A2983",
    "timestamp": "2025-11-15T07:53:00+00:00",
    "station": "KCPS"
  },
  "kstl": {
    "metar": "KSTL 150751Z 16005KT 10SM BKN042 17/14 A2983 RMK AO2 SLP090 T01720139 $",
    "windDirection": 160,
    "windSpeed": 5,
    "windGust": null,
    "visibility": 10,
    "temperatureC": 17,
    "dewPointC": 14,
    "cloudCeiling": 4200,
    "altimeter": "A2983",
    "timestamp": "2025-11-15T07:51:00+00:00",
    "station": "KSTL"
  }
}