{
  "lastUpdated": "2025-12-31T11:46:29.895031+00:00",
  "kcps": {
    "metar": "KCPS 311053Z AUTO 00000KT 10SM CLR M02/M08 A3006 RMK AO2 SLP184 T10221078 $",
    "windDirection": 0,
    "windSpeed": 0,
    "windGust": null,
    "visibility": 10,
    "temperatureC": -2,
    "dewPointC": -8,
    "cloudCeiling": 99999,
    "altimeter": "A3006",
    "timestamp": "2025-12-31T10:53:00+00:00",
    "station": "KCPS"
  },
  "kstl": {
    "metar": "KSTL 311051Z 25006KT 10SM SCT250 M02/M07 A3005 RMK AO2 SLP187 T10171072 $",
    "windDirection": 250,
    "windSpeed": 6,
    "windGust": null,
    "visibility": 10,
    "temperatureC": -2,
    "dewPointC": -7,
    "cloudCeiling": null,
    "altimeter": "A3005",
    "timestamp": "2025-12-31T10:51:00+00:00",
    "station": "KSTL"
  }
}