{
  "lastUpdated": "2026-06-13T15:58:35.662273+00:00",
  "kcps": {
    "metar": "KCPS 131553Z 15007KT 8SM -RA FEW046 FEW095 OVC110 23/21 A2996 RMK AO2 RAB15 SLP141 P0002 T02280211 $",
    "windDirection": 150,
    "windSpeed": 7,
    "windGust": null,
    "visibility": 8.0,
    "temperatureC": 22.8,
    "dewPointC": 21.1,
    "cloudCeiling": 11000,
    "altimeter": "A2996",
    "timestamp": "2026-06-13T16:00:00.000Z",
    "station": "KCPS"
  },
  "kstl": {
    "metar": "KSTL 131551Z 19010G17KT 10SM SCT024 OVC120 23/21 A2997 RMK AO2 SLP136 T02330206 $",
    "windDirection": 190,
    "windSpeed": 10,
    "windGust": 17,
    "visibility": 10.0,
    "temperatureC": 23.3,
    "dewPointC": 20.6,
    "cloudCeiling": 12000,
    "altimeter": "A2997",
    "timestamp": "2026-06-13T16:00:00.000Z",
    "station": "KSTL"
  }
}