{
  "lastUpdated": "2026-05-29T03:44:05.504411+00:00",
  "kcps": {
    "metar": "KCPS 290253Z 07004KT 10SM CLR 24/17 A3001 RMK AO2 SLP159 T02390172 53004 $",
    "windDirection": 70,
    "windSpeed": 4,
    "windGust": null,
    "visibility": 10,
    "temperatureC": 24,
    "dewPointC": 17,
    "cloudCeiling": 99999,
    "altimeter": "A3001",
    "timestamp": "2026-05-29T02:53:00+00:00",
    "station": "KCPS"
  },
  "kstl": {
    "metar": "KSTL 290251Z 09005KT 10SM BKN200 OVC250 24/16 A3003 RMK AO2 SLP157 T02440161 53004 $",
    "windDirection": 90,
    "windSpeed": 5,
    "windGust": null,
    "visibility": 10,
    "temperatureC": 24,
    "dewPointC": 16,
    "cloudCeiling": 20000,
    "altimeter": "A3003",
    "timestamp": "2026-05-29T02:51:00+00:00",
    "station": "KSTL"
  }
}