{
  "lastUpdated": "2025-11-23T17:02:19.971885+00:00",
  "kcps": {
    "metar": "KCPS 231653Z 00000KT 8SM OVC008 09/07 A3023 RMK AO2 SLP237 T00940072",
    "windDirection": 0,
    "windSpeed": 0,
    "windGust": null,
    "visibility": 8,
    "temperatureC": 9,
    "dewPointC": 7,
    "cloudCeiling": 800,
    "altimeter": "A3023",
    "timestamp": "2025-11-23T16:53:00+00:00",
    "station": "KCPS"
  },
  "kstl": {
    "metar": "KSTL 231651Z VRB03KT 8SM OVC005 08/07 A3024 RMK AO2 SLP242 T00830067 $",
    "windDirection": null,
    "windSpeed": null,
    "windGust": null,
    "visibility": 8,
    "temperatureC": 8,
    "dewPointC": 7,
    "cloudCeiling": 500,
    "altimeter": "A3024",
    "timestamp": "2025-11-23T16:51:00+00:00",
    "station": "KSTL"
  }
}