{
  "lastUpdated": "2025-10-15T15:21:33.235696+00:00",
  "kcps": {
    "metar": "KCPS 151453Z 19003KT 10SM SCT080 22/14 A3020 RMK AO2 SLP226 T02220144 50004 $",
    "windDirection": 190,
    "windSpeed": 3,
    "windGust": null,
    "visibility": 10,
    "temperatureC": 22,
    "dewPointC": 14,
    "cloudCeiling": null,
    "altimeter": "A3020",
    "timestamp": "2025-10-15T14:53:00+00:00",
    "station": "KCPS"
  },
  "kstl": {
    "metar": "KSTL 151451Z VRB04KT 10SM SCT080 BKN200 23/13 A3021 RMK AO2 SLP221 T02280133 50005",
    "windDirection": null,
    "windSpeed": null,
    "windGust": null,
    "visibility": 10,
    "temperatureC": 23,
    "dewPointC": 13,
    "cloudCeiling": 20000,
    "altimeter": "A3021",
    "timestamp": "2025-10-15T14:51:00+00:00",
    "station": "KSTL"
  }
}