{
  "lastUpdated": "2026-01-11T22:02:22.241153+00:00",
  "kcps": {
    "metar": "KCPS 112153Z 23005KT 10SM CLR 04/M08 A3051 RMK AO2 SLP336 T00391083 $",
    "windDirection": 230,
    "windSpeed": 5,
    "windGust": null,
    "visibility": 10,
    "temperatureC": 4,
    "dewPointC": -8,
    "cloudCeiling": 99999,
    "altimeter": "A3051",
    "timestamp": "2026-01-11T21:53:00+00:00",
    "station": "KCPS"
  },
  "kstl": {
    "metar": "KSTL 112151Z 29006KT 10SM SCT250 03/M08 A3051 RMK AO2 SLP341 T00331078 $",
    "windDirection": 290,
    "windSpeed": 6,
    "windGust": null,
    "visibility": 10,
    "temperatureC": 3,
    "dewPointC": -8,
    "cloudCeiling": null,
    "altimeter": "A3051",
    "timestamp": "2026-01-11T21:51:00+00:00",
    "station": "KSTL"
  }
}