{
  "lastUpdated": "2026-03-29T23:55:10.001711+00:00",
  "kcps": {
    "metar": "KCPS 292253Z 18010G23KT 10SM CLR 22/04 A3004 RMK AO2 SLP170 T02170044 $",
    "windDirection": 180,
    "windSpeed": 10,
    "windGust": 23,
    "visibility": 10,
    "temperatureC": 22,
    "dewPointC": 4,
    "cloudCeiling": 99999,
    "altimeter": "A3004",
    "timestamp": "2026-03-29T22:53:00+00:00",
    "station": "KCPS"
  },
  "kstl": {
    "metar": "KSTL 292351Z 19008KT 10SM BKN220 22/05 A3003 RMK AO2 SLP167 T02170050 10228 20178 56012 $",
    "windDirection": 190,
    "windSpeed": 8,
    "windGust": null,
    "visibility": 10,
    "temperatureC": 22,
    "dewPointC": 5,
    "cloudCeiling": 22000,
    "altimeter": "A3003",
    "timestamp": "2026-03-29T23:51:00+00:00",
    "station": "KSTL"
  }
}