{
  "lastUpdated": "2025-12-12T13:53:29.445034+00:00",
  "kcps": {
    "metar": "KCPS 121153Z AUTO 04007KT 10SM OVC009 01/M01 A3000 RMK AO2 SLP163 T00061011 10017 20006 53018 $",
    "windDirection": 40,
    "windSpeed": 7,
    "windGust": null,
    "visibility": 10,
    "temperatureC": 1,
    "dewPointC": -1,
    "cloudCeiling": 900,
    "altimeter": "A3000",
    "timestamp": "2025-12-12T11:53:00+00:00",
    "station": "KCPS"
  },
  "kstl": {
    "metar": "KSTL 121351Z 05006KT 6SM BR OVC006 00/M02 A3008 RMK AO2 SLP194 T00001017",
    "windDirection": 50,
    "windSpeed": 6,
    "windGust": null,
    "visibility": 6,
    "temperatureC": 0,
    "dewPointC": -2,
    "cloudCeiling": 600,
    "altimeter": "A3008",
    "timestamp": "2025-12-12T13:51:00+00:00",
    "station": "KSTL"
  }
}