{
  "lastUpdated": "2026-02-28T01:15:07.554680+00:00",
  "kcps": {
    "metar": "KCPS 280053Z 24003KT 10SM CLR 18/M02 A2985 RMK AO2 SLP109 T01831022 $",
    "windDirection": 240,
    "windSpeed": 3,
    "windGust": null,
    "visibility": 10,
    "temperatureC": 18,
    "dewPointC": -2,
    "cloudCeiling": 99999,
    "altimeter": "A2985",
    "timestamp": "2026-02-28T00:53:00+00:00",
    "station": "KCPS"
  },
  "kstl": {
    "metar": "KSTL 280051Z 24006KT 10SM CLR 18/M02 A2986 RMK AO2 SLP113 T01781017 $",
    "windDirection": 240,
    "windSpeed": 6,
    "windGust": null,
    "visibility": 10,
    "temperatureC": 18,
    "dewPointC": -2,
    "cloudCeiling": 99999,
    "altimeter": "A2986",
    "timestamp": "2026-02-28T00:51:00+00:00",
    "station": "KSTL"
  }
}