{
  "lastUpdated": "2026-04-29T15:29:38.669089+00:00",
  "kcps": {
    "metar": "KCPS 291453Z 31012KT 10SM CLR 14/07 A3003 RMK AO2 SLP168 T01440072 51019 $",
    "windDirection": 310,
    "windSpeed": 12,
    "windGust": null,
    "visibility": 10,
    "temperatureC": 14,
    "dewPointC": 7,
    "cloudCeiling": 99999,
    "altimeter": "A3003",
    "timestamp": "2026-04-29T14:53:00+00:00",
    "station": "KCPS"
  },
  "kstl": {
    "metar": "KSTL 291451Z 30009KT 10SM FEW250 14/07 A3004 RMK AO2 SLP170 T01390072 51016 $",
    "windDirection": 300,
    "windSpeed": 9,
    "windGust": null,
    "visibility": 10,
    "temperatureC": 14,
    "dewPointC": 7,
    "cloudCeiling": null,
    "altimeter": "A3004",
    "timestamp": "2026-04-29T14:51:00+00:00",
    "station": "KSTL"
  }
}