{
  "lastUpdated": "2025-11-18T12:23:50.990388+00:00",
  "kcps": {
    "metar": "KCPS 181201Z 14005KT 10SM -RA OVC090 10/08 A2985 RMK AO2 LTG DSNT N-SE P0001 T01000078",
    "windDirection": 140,
    "windSpeed": 5,
    "windGust": null,
    "visibility": 10,
    "temperatureC": 10,
    "dewPointC": 8,
    "cloudCeiling": 9000,
    "altimeter": "A2985",
    "timestamp": "2025-11-18T12:01:00+00:00",
    "station": "KCPS"
  },
  "kstl": {
    "metar": "KSTL 181202Z 16006KT 10SM -RA SCT047 OVC100 12/08 A2981 RMK AO2 LTG DSNT N-E TSE02 PRESFR OCNL LTGIC DSNT N-E CB DSNT N-E MOV NE P0000 T01220083 $",
    "windDirection": 160,
    "windSpeed": 6,
    "windGust": null,
    "visibility": 10,
    "temperatureC": 12,
    "dewPointC": 8,
    "cloudCeiling": 10000,
    "altimeter": "A2981",
    "timestamp": "2025-11-18T12:02:00+00:00",
    "station": "KSTL"
  }
}