{
  "lastUpdated": "2026-04-10T07:03:13.686132+00:00",
  "kcps": {
    "metar": "KCPS 100653Z 19004KT 10SM CLR 19/08 A3014 RMK AO2 SLP202 T01940078 $",
    "windDirection": 190,
    "windSpeed": 4,
    "windGust": null,
    "visibility": 10,
    "temperatureC": 19,
    "dewPointC": 8,
    "cloudCeiling": 99999,
    "altimeter": "A3014",
    "timestamp": "2026-04-10T06:53:00+00:00",
    "station": "KCPS"
  },
  "kstl": {
    "metar": "KSTL 100651Z 20012KT 10SM BKN170 OVC250 21/08 A3014 RMK AO2 SLP195 T02060078 $",
    "windDirection": 200,
    "windSpeed": 12,
    "windGust": null,
    "visibility": 10,
    "temperatureC": 21,
    "dewPointC": 8,
    "cloudCeiling": 17000,
    "altimeter": "A3014",
    "timestamp": "2026-04-10T06:51:00+00:00",
    "station": "KSTL"
  }
}