{
  "lastUpdated": "2026-01-08T20:02:34.199106+00:00",
  "kcps": {
    "metar": "KCPS 081853Z 17013G23KT 6SM BR OVC006 15/14 A2964 RMK AO2 SLP037 T01500139",
    "windDirection": 170,
    "windSpeed": 13,
    "windGust": 23,
    "visibility": 6,
    "temperatureC": 15,
    "dewPointC": 14,
    "cloudCeiling": 600,
    "altimeter": "A2964",
    "timestamp": "2026-01-08T18:53:00+00:00",
    "station": "KCPS"
  },
  "kstl": {
    "metar": "KSTL 081951Z 15011KT 4SM -RA BR BKN016 OVC021 16/14 A2962 RMK AO2 RAB43 SLP029 P0000 T01610139 $",
    "windDirection": 150,
    "windSpeed": 11,
    "windGust": null,
    "visibility": 4,
    "temperatureC": 16,
    "dewPointC": 14,
    "cloudCeiling": 1600,
    "altimeter": "A2962",
    "timestamp": "2026-01-08T19:51:00+00:00",
    "station": "KSTL"
  }
}