{
  "lastUpdated": "2025-12-25T01:08:54.379206+00:00",
  "kcps": {
    "metar": "KCPS 250053Z 17005KT 10SM BR CLR 16/15 A3005 RMK AO2 SLP177 T01560150 $",
    "windDirection": 170,
    "windSpeed": 5,
    "windGust": null,
    "visibility": 10,
    "temperatureC": 16,
    "dewPointC": 15,
    "cloudCeiling": 99999,
    "altimeter": "A3005",
    "timestamp": "2025-12-25T00:53:00+00:00",
    "station": "KCPS"
  },
  "kstl": {
    "metar": "KSTL 250051Z 18007KT 10SM SCT250 17/15 A3004 RMK AO2 SLP173 T01670150 $",
    "windDirection": 180,
    "windSpeed": 7,
    "windGust": null,
    "visibility": 10,
    "temperatureC": 17,
    "dewPointC": 15,
    "cloudCeiling": null,
    "altimeter": "A3004",
    "timestamp": "2025-12-25T00:51:00+00:00",
    "station": "KSTL"
  }
}