{
  "lastUpdated": "2026-05-09T12:34:46.309596+00:00",
  "kcps": {
    "metar": "KCPS 091216Z 23004KT 10SM OVC010 14/13 A2980 RMK AO2 CIG 007V013 T01440128 $",
    "windDirection": 230,
    "windSpeed": 4,
    "windGust": null,
    "visibility": 10,
    "temperatureC": 14,
    "dewPointC": 13,
    "cloudCeiling": 1000,
    "altimeter": "A2980",
    "timestamp": "2026-05-09T12:16:00+00:00",
    "station": "KCPS"
  },
  "kstl": {
    "metar": "KSTL 091151Z 25009KT 10SM BKN006 14/13 A2980 RMK AO2 SLP084 70026 T01390128 10139 20128 53008 $",
    "windDirection": 250,
    "windSpeed": 9,
    "windGust": null,
    "visibility": 10,
    "temperatureC": 14,
    "dewPointC": 13,
    "cloudCeiling": 600,
    "altimeter": "A2980",
    "timestamp": "2026-05-09T11:51:00+00:00",
    "station": "KSTL"
  }
}