{
  "lastUpdated": "2026-03-15T05:19:14.921322+00:00",
  "kcps": {
    "metar": "KCPS 150453Z AUTO 16007KT 10SM CLR 14/07 A2972 RMK AO2 SLP064 T01390072 $",
    "windDirection": 160,
    "windSpeed": 7,
    "windGust": null,
    "visibility": 10,
    "temperatureC": 14,
    "dewPointC": 7,
    "cloudCeiling": 99999,
    "altimeter": "A2972",
    "timestamp": "2026-03-15T04:53:00+00:00",
    "station": "KCPS"
  },
  "kstl": {
    "metar": "KSTL 150451Z 14010G18KT 10SM BKN220 16/08 A2971 RMK AO2 SLP060 T01560078 $",
    "windDirection": 140,
    "windSpeed": 10,
    "windGust": 18,
    "visibility": 10,
    "temperatureC": 16,
    "dewPointC": 8,
    "cloudCeiling": 22000,
    "altimeter": "A2971",
    "timestamp": "2026-03-15T04:51:00+00:00",
    "station": "KSTL"
  }
}