{
  "lastUpdated": "2026-02-13T09:29:00.655129+00:00",
  "kcps": {
    "metar": "KCPS 130853Z AUTO 00000KT 10SM BKN100 01/M03 A3021 RMK AO2 SLP231 T00061028 50002 $",
    "windDirection": 0,
    "windSpeed": 0,
    "windGust": null,
    "visibility": 10,
    "temperatureC": 1,
    "dewPointC": -3,
    "cloudCeiling": 10000,
    "altimeter": "A3021",
    "timestamp": "2026-02-13T08:53:00+00:00",
    "station": "KCPS"
  },
  "kstl": {
    "metar": "KSTL 130851Z 11005KT 10SM BKN100 03/M02 A3020 RMK AO2 SLP231 T00281022 50000 $",
    "windDirection": 110,
    "windSpeed": 5,
    "windGust": null,
    "visibility": 10,
    "temperatureC": 3,
    "dewPointC": -2,
    "cloudCeiling": 10000,
    "altimeter": "A3020",
    "timestamp": "2026-02-13T08:51:00+00:00",
    "station": "KSTL"
  }
}