{
  "lastUpdated": "2026-02-26T03:35:52.031188+00:00",
  "kcps": {
    "metar": "KCPS 260253Z 09007KT 10SM BKN100 07/M01 A2978 RMK AO2 SLP086 T00721006 58001 $",
    "windDirection": 90,
    "windSpeed": 7,
    "windGust": null,
    "visibility": 10,
    "temperatureC": 7,
    "dewPointC": -1,
    "cloudCeiling": 10000,
    "altimeter": "A2978",
    "timestamp": "2026-02-26T02:53:00+00:00",
    "station": "KCPS"
  },
  "kstl": {
    "metar": "KSTL 260251Z 11010KT 10SM OVC100 09/M01 A2978 RMK AO2 SLP089 T00891011 58001 $",
    "windDirection": 110,
    "windSpeed": 10,
    "windGust": null,
    "visibility": 10,
    "temperatureC": 9,
    "dewPointC": -1,
    "cloudCeiling": 10000,
    "altimeter": "A2978",
    "timestamp": "2026-02-26T02:51:00+00:00",
    "station": "KSTL"
  }
}