{
  "lastUpdated": "2026-04-09T22:19:23.132604+00:00",
  "kcps": {
    "metar": "KCPS 092153Z 18011KT 10SM CLR 26/06 A3011 RMK AO2 SLP192 T02610061 $",
    "windDirection": 180,
    "windSpeed": 11,
    "windGust": null,
    "visibility": 10,
    "temperatureC": 26,
    "dewPointC": 6,
    "cloudCeiling": 99999,
    "altimeter": "A3011",
    "timestamp": "2026-04-09T21:53:00+00:00",
    "station": "KCPS"
  },
  "kstl": {
    "metar": "KSTL 092151Z 18011KT 10SM BKN100 BKN250 27/06 A3011 RMK AO2 SLP187 T02670056 $",
    "windDirection": 180,
    "windSpeed": 11,
    "windGust": null,
    "visibility": 10,
    "temperatureC": 27,
    "dewPointC": 6,
    "cloudCeiling": 10000,
    "altimeter": "A3011",
    "timestamp": "2026-04-09T21:51:00+00:00",
    "station": "KSTL"
  }
}