{
  "lastUpdated": "2025-10-18T19:19:22.338851+00:00",
  "kcps": {
    "metar": "KCPS 181916Z 21006KT 2 1/2SM VCTS RA BR SCT049 BKN070 OVC090 19/18 A2973 RMK AO2 LTG DSNT ALQDS TSE16 P0006 T01890178 $",
    "windDirection": 210,
    "windSpeed": 6,
    "windGust": null,
    "visibility": 0.5,
    "temperatureC": 19,
    "dewPointC": 18,
    "cloudCeiling": 7000,
    "altimeter": "A2973",
    "timestamp": "2025-10-18T19:16:00+00:00",
    "station": "KCPS"
  },
  "kstl": {
    "metar": "KSTL 181851Z 18005KT 8SM TSRA SCT070CB BKN095 OVC110 19/17 A2972 RMK AO2 TSB02 PRESFR SLP056 OCNL LTGIC ALQDS TS ALQDS MOV NE P0017 T01890172 $",
    "windDirection": 180,
    "windSpeed": 5,
    "windGust": null,
    "visibility": 8,
    "temperatureC": 19,
    "dewPointC": 17,
    "cloudCeiling": 9500,
    "altimeter": "A2972",
    "timestamp": "2025-10-18T18:51:00+00:00",
    "station": "KSTL"
  }
}