{
  "lastUpdated": "2025-12-18T04:24:03.190682+00:00",
  "kcps": {
    "metar": "KCPS 180353Z AUTO 16009G18KT 10SM SCT044 09/06 A2982 RMK AO2 SLP099 T00940056",
    "windDirection": 160,
    "windSpeed": 9,
    "windGust": 18,
    "visibility": 10,
    "temperatureC": 9,
    "dewPointC": 6,
    "cloudCeiling": null,
    "altimeter": "A2982",
    "timestamp": "2025-12-18T03:53:00+00:00",
    "station": "KCPS"
  },
  "kstl": {
    "metar": "KSTL 180351Z 16011G18KT 10SM OVC041 11/04 A2981 RMK AO2 SLP095 T01060039 $",
    "windDirection": 160,
    "windSpeed": 11,
    "windGust": 18,
    "visibility": 10,
    "temperatureC": 11,
    "dewPointC": 4,
    "cloudCeiling": 4100,
    "altimeter": "A2981",
    "timestamp": "2025-12-18T03:51:00+00:00",
    "station": "KSTL"
  }
}