{
  "lastUpdated": "2026-02-04T17:15:35.019457+00:00",
  "kcps": {
    "metar": "KCPS 041653Z 35006KT 10SM CLR M03/M08 A3043 RMK AO2 SLP310 T10281078 $",
    "windDirection": 350,
    "windSpeed": 6,
    "windGust": null,
    "visibility": 10,
    "temperatureC": -3,
    "dewPointC": -8,
    "cloudCeiling": 99999,
    "altimeter": "A3043",
    "timestamp": "2026-02-04T16:53:00+00:00",
    "station": "KCPS"
  },
  "kstl": {
    "metar": "KSTL 041651Z 33004KT 10SM BKN016 M03/M08 A3043 RMK AO2 SLP318 T10331083",
    "windDirection": 330,
    "windSpeed": 4,
    "windGust": null,
    "visibility": 10,
    "temperatureC": -3,
    "dewPointC": -8,
    "cloudCeiling": 1600,
    "altimeter": "A3043",
    "timestamp": "2026-02-04T16:51:00+00:00",
    "station": "KSTL"
  }
}