{
  "lastUpdated": "2026-06-14T13:16:58.167564+00:00",
  "kcps": {
    "metar": "KCPS 141253Z 28006KT 10SM BKN021 BKN035 23/18 A2988 RMK AO2 SLP116 T02280183 $",
    "windDirection": 280,
    "windSpeed": 6,
    "windGust": null,
    "visibility": 10.0,
    "temperatureC": 22.8,
    "dewPointC": 18.3,
    "cloudCeiling": 2100,
    "altimeter": "A2988",
    "timestamp": "2026-06-14T13:00:00.000Z",
    "station": "KCPS"
  },
  "kstl": {
    "metar": "KSTL 141251Z 31017G25KT 10SM OVC014 22/19 A2990 RMK AO2 SLP115 T02220189 $",
    "windDirection": 310,
    "windSpeed": 17,
    "windGust": 25,
    "visibility": 10.0,
    "temperatureC": 22.2,
    "dewPointC": 18.9,
    "cloudCeiling": 1400,
    "altimeter": "A2990",
    "timestamp": "2026-06-14T13:00:00.000Z",
    "station": "KSTL"
  }
}