{
  "lastUpdated": "2026-01-04T04:58:25.000032+00:00",
  "kcps": {
    "metar": "KCPS 040453Z AUTO 00000KT 10SM CLR M05/M07 A3014 RMK AO2 SLP209 T10501067 $",
    "windDirection": 0,
    "windSpeed": 0,
    "windGust": null,
    "visibility": 10,
    "temperatureC": -5,
    "dewPointC": -7,
    "cloudCeiling": 99999,
    "altimeter": "A3014",
    "timestamp": "2026-01-04T04:53:00+00:00",
    "station": "KCPS"
  },
  "kstl": {
    "metar": "KSTL 040451Z 28003KT 10SM FEW110 M03/M07 A3013 RMK AO2 SLP215 T10281072 $",
    "windDirection": 280,
    "windSpeed": 3,
    "windGust": null,
    "visibility": 10,
    "temperatureC": -3,
    "dewPointC": -7,
    "cloudCeiling": null,
    "altimeter": "A3013",
    "timestamp": "2026-01-04T04:51:00+00:00",
    "station": "KSTL"
  }
}