{
  "lastUpdated": "2025-11-10T14:02:51.908792+00:00",
  "kcps": {
    "metar": "KCPS 101353Z 31019G26KT 10SM FEW027 M02/M08 A3039 RMK AO2 PK WND 32027/1337 SLP294 T10171078",
    "windDirection": 310,
    "windSpeed": 19,
    "windGust": 26,
    "visibility": 10,
    "temperatureC": -2,
    "dewPointC": -8,
    "cloudCeiling": null,
    "altimeter": "A3039",
    "timestamp": "2025-11-10T13:53:00+00:00",
    "station": "KCPS"
  },
  "kstl": {
    "metar": "KSTL 101351Z 31015G24KT 10SM BKN022 M03/M08 A3039 RMK AO2 SLP305 T10281078 $",
    "windDirection": 310,
    "windSpeed": 15,
    "windGust": 24,
    "visibility": 10,
    "temperatureC": -3,
    "dewPointC": -8,
    "cloudCeiling": 2200,
    "altimeter": "A3039",
    "timestamp": "2025-11-10T13:51:00+00:00",
    "station": "KSTL"
  }
}