{
  "lastUpdated": "2026-01-08T17:51:40.523703+00:00",
  "kcps": {
    "metar": "KCPS 081653Z 15011KT 8SM BKN013 BKN080 BKN095 13/12 A2973 RMK AO2 RAE00B22E53 SLP069 P0000 T01280117",
    "windDirection": 150,
    "windSpeed": 11,
    "windGust": null,
    "visibility": 8,
    "temperatureC": 13,
    "dewPointC": 12,
    "cloudCeiling": 1300,
    "altimeter": "A2973",
    "timestamp": "2026-01-08T16:53:00+00:00",
    "station": "KCPS"
  },
  "kstl": {
    "metar": "KSTL 081734Z 14015G29KT 7SM BKN012 BKN045 OVC100 14/12 A2968 RMK AO2 PK WND 13029/1726 RAE18 PRESFR P0000 T01440122 $",
    "windDirection": 140,
    "windSpeed": 15,
    "windGust": 29,
    "visibility": 7,
    "temperatureC": 14,
    "dewPointC": 12,
    "cloudCeiling": 1200,
    "altimeter": "A2968",
    "timestamp": "2026-01-08T17:34:00+00:00",
    "station": "KSTL"
  }
}