{
  "lastUpdated": "2025-11-22T19:02:07.774128+00:00",
  "kcps": {
    "metar": "KCPS 221753Z VRB04KT 8SM CLR 12/07 A3013 RMK AO2 SLP203 T01220072 10122 20083 50000",
    "windDirection": null,
    "windSpeed": null,
    "windGust": null,
    "visibility": 8,
    "temperatureC": 12,
    "dewPointC": 7,
    "cloudCeiling": 99999,
    "altimeter": "A3013",
    "timestamp": "2025-11-22T17:53:00+00:00",
    "station": "KCPS"
  },
  "kstl": {
    "metar": "KSTL 221851Z 33007KT 10SM FEW011 BKN200 11/06 A3012 RMK AO2 SLP200 T01110061 $",
    "windDirection": 330,
    "windSpeed": 7,
    "windGust": null,
    "visibility": 10,
    "temperatureC": 11,
    "dewPointC": 6,
    "cloudCeiling": 20000,
    "altimeter": "A3012",
    "timestamp": "2025-11-22T18:51:00+00:00",
    "station": "KSTL"
  }
}