{
  "lastUpdated": "2025-10-10T01:50:57.322832+00:00",
  "kcps": {
    "metar": "KCPS 100053Z 00000KT 10SM CLR 13/08 A3029 RMK AO2 SLP257 T01330078",
    "windDirection": 0,
    "windSpeed": 0,
    "windGust": null,
    "visibility": 10,
    "temperatureC": 13,
    "dewPointC": 8,
    "cloudCeiling": 99999,
    "altimeter": "A3029",
    "timestamp": "2025-10-10T00:53:00+00:00",
    "station": "KCPS"
  },
  "kstl": {
    "metar": "KSTL 100051Z 00000KT 10SM CLR 18/04 A3030 RMK AO2 SLP258 T01780044 $",
    "windDirection": 0,
    "windSpeed": 0,
    "windGust": null,
    "visibility": 10,
    "temperatureC": 18,
    "dewPointC": 4,
    "cloudCeiling": 99999,
    "altimeter": "A3030",
    "timestamp": "2025-10-10T00:51:00+00:00",
    "station": "KSTL"
  }
}