{
  "lastUpdated": "2026-01-14T08:54:55.410483+00:00",
  "kcps": {
    "metar": "KCPS 140753Z AUTO 26007KT 10SM CLR 08/06 A2974 RMK AO2 SLP071 T00830061 $",
    "windDirection": 260,
    "windSpeed": 7,
    "windGust": null,
    "visibility": 10,
    "temperatureC": 8,
    "dewPointC": 6,
    "cloudCeiling": 99999,
    "altimeter": "A2974",
    "timestamp": "2026-01-14T07:53:00+00:00",
    "station": "KCPS"
  },
  "kstl": {
    "metar": "KSTL 140851Z 27010KT 10SM SCT060 BKN150 BKN210 08/06 A2975 RMK AO2 SLP073 T00780061 55004 $",
    "windDirection": 270,
    "windSpeed": 10,
    "windGust": null,
    "visibility": 10,
    "temperatureC": 8,
    "dewPointC": 6,
    "cloudCeiling": 15000,
    "altimeter": "A2975",
    "timestamp": "2026-01-14T08:51:00+00:00",
    "station": "KSTL"
  }
}