{
  "lastUpdated": "2026-03-22T04:28:40.697176+00:00",
  "kcps": {
    "metar": "KCPS 220353Z AUTO 00000KT 10SM CLR 19/13 A2975 RMK AO2 SLP070 T01940133 $",
    "windDirection": 0,
    "windSpeed": 0,
    "windGust": null,
    "visibility": 10,
    "temperatureC": 19,
    "dewPointC": 13,
    "cloudCeiling": 99999,
    "altimeter": "A2975",
    "timestamp": "2026-03-22T03:53:00+00:00",
    "station": "KCPS"
  },
  "kstl": {
    "metar": "KSTL 220351Z 18010KT 10SM CLR 24/13 A2975 RMK AO2 SLP064 T02390128 $",
    "windDirection": 180,
    "windSpeed": 10,
    "windGust": null,
    "visibility": 10,
    "temperatureC": 24,
    "dewPointC": 13,
    "cloudCeiling": 99999,
    "altimeter": "A2975",
    "timestamp": "2026-03-22T03:51:00+00:00",
    "station": "KSTL"
  }
}