{
  "lastUpdated": "2025-11-12T08:51:15.779722+00:00",
  "kcps": {
    "metar": "KCPS 120753Z 00000KT 10SM CLR 01/M02 A2999 RMK AO2 SLP157 T00061017 $",
    "windDirection": 0,
    "windSpeed": 0,
    "windGust": null,
    "visibility": 10,
    "temperatureC": 1,
    "dewPointC": -2,
    "cloudCeiling": 99999,
    "altimeter": "A2999",
    "timestamp": "2025-11-12T07:53:00+00:00",
    "station": "KCPS"
  },
  "kstl": {
    "metar": "KSTL 120751Z 25006KT 10SM CLR 08/M01 A2999 RMK AO2 SLP158 T00781006 $",
    "windDirection": 250,
    "windSpeed": 6,
    "windGust": null,
    "visibility": 10,
    "temperatureC": 8,
    "dewPointC": -1,
    "cloudCeiling": 99999,
    "altimeter": "A2999",
    "timestamp": "2025-11-12T07:51:00+00:00",
    "station": "KSTL"
  }
}