{
  "lastUpdated": "2025-11-22T12:02:33.706775+00:00",
  "kcps": {
    "metar": "KCPS 221153Z AUTO 01011KT 6SM BR BKN013 OVC019 09/07 A3007 RMK AO2 SLP182 70038 T00890072 10106 20089 53019",
    "windDirection": 10,
    "windSpeed": 11,
    "windGust": null,
    "visibility": 6,
    "temperatureC": 9,
    "dewPointC": 7,
    "cloudCeiling": 1300,
    "altimeter": "A3007",
    "timestamp": "2025-11-22T11:53:00+00:00",
    "station": "KCPS"
  },
  "kstl": {
    "metar": "KSTL 221151Z 03007KT 7SM OVC010 08/07 A3007 RMK AO2 SLP183 60000 70022 T00830067 10100 20083 53018 $",
    "windDirection": 30,
    "windSpeed": 7,
    "windGust": null,
    "visibility": 7,
    "temperatureC": 8,
    "dewPointC": 7,
    "cloudCeiling": 1000,
    "altimeter": "A3007",
    "timestamp": "2025-11-22T11:51:00+00:00",
    "station": "KSTL"
  }
}