{
  "lastUpdated": "2026-02-16T21:52:51.087160+00:00",
  "kcps": {
    "metar": "KCPS 162053Z 16009KT 10SM CLR 17/03 A2999 RMK AO2 SLP156 T01720033 56023 $",
    "windDirection": 160,
    "windSpeed": 9,
    "windGust": null,
    "visibility": 10,
    "temperatureC": 17,
    "dewPointC": 3,
    "cloudCeiling": 99999,
    "altimeter": "A2999",
    "timestamp": "2026-02-16T20:53:00+00:00",
    "station": "KCPS"
  },
  "kstl": {
    "metar": "KSTL 162051Z 17010KT 10SM CLR 18/04 A2999 RMK AO2 SLP156 T01780039 56021 $",
    "windDirection": 170,
    "windSpeed": 10,
    "windGust": null,
    "visibility": 10,
    "temperatureC": 18,
    "dewPointC": 4,
    "cloudCeiling": 99999,
    "altimeter": "A2999",
    "timestamp": "2026-02-16T20:51:00+00:00",
    "station": "KSTL"
  }
}