{
  "lastUpdated": "2026-06-09T14:39:02.382033+00:00",
  "kcps": {
    "metar": "KCPS 091353Z 25005KT 10SM CLR 28/23 A2997 RMK AO2 PRESRR SLP144 T02780233 $",
    "windDirection": 250,
    "windSpeed": 5,
    "windGust": null,
    "visibility": 10,
    "temperatureC": 28,
    "dewPointC": 23,
    "cloudCeiling": 99999,
    "altimeter": "A2997",
    "timestamp": "2026-06-09T13:53:00+00:00",
    "station": "KCPS"
  },
  "kstl": {
    "metar": "KSTL 091351Z 22013KT 10SM FEW100 BKN250 28/23 A2998 RMK AO2 PRESRR SLP140 T02780228 $",
    "windDirection": 220,
    "windSpeed": 13,
    "windGust": null,
    "visibility": 10,
    "temperatureC": 28,
    "dewPointC": 23,
    "cloudCeiling": 25000,
    "altimeter": "A2998",
    "timestamp": "2026-06-09T13:51:00+00:00",
    "station": "KSTL"
  }
}