{
  "lastUpdated": "2025-11-24T13:04:20.572900+00:00",
  "kcps": {
    "metar": "KCPS 241253Z 17004KT 5SM BR OVC003 07/07 A3013 RMK AO2 CIG 002V006 SLP204 T00720072",
    "windDirection": 170,
    "windSpeed": 4,
    "windGust": null,
    "visibility": 5,
    "temperatureC": 7,
    "dewPointC": 7,
    "cloudCeiling": 300,
    "altimeter": "A3013",
    "timestamp": "2025-11-24T12:53:00+00:00",
    "station": "KCPS"
  },
  "kstl": {
    "metar": "KSTL 241301Z 15007KT 3SM BR OVC003 08/07 A3010 RMK AO2 T00780072 $",
    "windDirection": 150,
    "windSpeed": 7,
    "windGust": null,
    "visibility": 3,
    "temperatureC": 8,
    "dewPointC": 7,
    "cloudCeiling": 300,
    "altimeter": "A3010",
    "timestamp": "2025-11-24T13:01:00+00:00",
    "station": "KSTL"
  }
}