{
  "lastUpdated": "2025-11-30T06:41:08.383629+00:00",
  "kcps": {
    "metar": "KCPS 300553Z AUTO 26012G22KT 10SM SCT028 OVC036 01/M04 A3011 RMK AO2 PK WND 27034/0500 SLP198 60008 T00111044 10044 20011 400441006 51026 $",
    "windDirection": 260,
    "windSpeed": 12,
    "windGust": 22,
    "visibility": 10,
    "temperatureC": 1,
    "dewPointC": -4,
    "cloudCeiling": 3600,
    "altimeter": "A3011",
    "timestamp": "2025-11-30T05:53:00+00:00",
    "station": "KCPS"
  },
  "kstl": {
    "metar": "KSTL 300635Z 28026G35KT 10SM BKN028 OVC031 00/M05 A3012 RMK AO2 PK WND 28035/0635 T00001050 $",
    "windDirection": 280,
    "windSpeed": 26,
    "windGust": 35,
    "visibility": 10,
    "temperatureC": 0,
    "dewPointC": -5,
    "cloudCeiling": 2800,
    "altimeter": "A3012",
    "timestamp": "2025-11-30T06:35:00+00:00",
    "station": "KSTL"
  }
}