{
  "lastUpdated": "2026-04-01T09:39:42.143492+00:00",
  "kcps": {
    "metar": "KCPS 010936Z AUTO 35012KT 8SM -RA BKN008 OVC080 17/15 A2995 RMK AO2 LTG DSNT N RAB36 PRESRR P0000 T01670150 $",
    "windDirection": 350,
    "windSpeed": 12,
    "windGust": null,
    "visibility": 8,
    "temperatureC": 17,
    "dewPointC": 15,
    "cloudCeiling": 800,
    "altimeter": "A2995",
    "timestamp": "2026-04-01T09:36:00+00:00",
    "station": "KCPS"
  },
  "kstl": {
    "metar": "KSTL 010931Z 36011G18KT 6SM -RA BR BKN004 OVC032 14/13 A2996 RMK AO2 TSE30 OCNL LTGIC DSNT NE CB DSNT NE MOV NE P0025 T01390133 $",
    "windDirection": 360,
    "windSpeed": 11,
    "windGust": 18,
    "visibility": 6,
    "temperatureC": 14,
    "dewPointC": 13,
    "cloudCeiling": 400,
    "altimeter": "A2996",
    "timestamp": "2026-04-01T09:31:00+00:00",
    "station": "KSTL"
  }
}