{
  "lastUpdated": "2026-01-17T10:48:08.534720+00:00",
  "kcps": {
    "metar": "KCPS 170953Z AUTO 30005KT 10SM OVC060 M04/M13 A2998 RMK AO2 SLP155 T10391133 $",
    "windDirection": 300,
    "windSpeed": 5,
    "windGust": null,
    "visibility": 10,
    "temperatureC": -4,
    "dewPointC": -13,
    "cloudCeiling": 6000,
    "altimeter": "A2998",
    "timestamp": "2026-01-17T09:53:00+00:00",
    "station": "KCPS"
  },
  "kstl": {
    "metar": "KSTL 170951Z 29010KT 10SM BKN060 M04/M16 A2998 RMK AO2 SLP159 T10441156 $",
    "windDirection": 290,
    "windSpeed": 10,
    "windGust": null,
    "visibility": 10,
    "temperatureC": -4,
    "dewPointC": -16,
    "cloudCeiling": 6000,
    "altimeter": "A2998",
    "timestamp": "2026-01-17T09:51:00+00:00",
    "station": "KSTL"
  }
}