{
  "lastUpdated": "2025-11-24T09:22:33.488099+00:00",
  "kcps": {
    "metar": "KCPS 240910Z AUTO 14004KT 1 1/2SM BR OVC002 08/08 A3015 RMK AO2 T00780078 $",
    "windDirection": 140,
    "windSpeed": 4,
    "windGust": null,
    "visibility": 0.5,
    "temperatureC": 8,
    "dewPointC": 8,
    "cloudCeiling": 200,
    "altimeter": "A3015",
    "timestamp": "2025-11-24T09:10:00+00:00",
    "station": "KCPS"
  },
  "kstl": {
    "metar": "KSTL 240851Z 15006KT 1/2SM R30R/4500VP6000FT FG OVC001 08/08 A3014 RMK AO2 SLP208 T00830083 50000 $",
    "windDirection": 150,
    "windSpeed": 6,
    "windGust": null,
    "visibility": 0.5,
    "temperatureC": 8,
    "dewPointC": 8,
    "cloudCeiling": 100,
    "altimeter": "A3014",
    "timestamp": "2025-11-24T08:51:00+00:00",
    "station": "KSTL"
  }
}