{
  "lastUpdated": "2025-12-18T10:02:34.677655+00:00",
  "kcps": {
    "station": "KCPS",
    "metar": "Data unavailable",
    "error": "Failed to fetch METAR"
  },
  "kstl": {
    "metar": "KSTL 180951Z 18018G27KT 10SM OVC011 12/10 A2964 RMK AO2 PK WND 16028/0925 SLP035 T01220100 $",
    "windDirection": 180,
    "windSpeed": 18,
    "windGust": 27,
    "visibility": 10,
    "temperatureC": 12,
    "dewPointC": 10,
    "cloudCeiling": 1100,
    "altimeter": "A2964",
    "timestamp": "2025-12-18T09:51:00+00:00",
    "station": "KSTL"
  }
}