{
  "lastUpdated": "2025-11-16T02:32:37.011572+00:00",
  "kcps": {
    "metar": "KCPS 160153Z 35012KT 10SM CLR 19/09 A2976 RMK AO2 SLP077 T01940094 $",
    "windDirection": 350,
    "windSpeed": 12,
    "windGust": null,
    "visibility": 10,
    "temperatureC": 19,
    "dewPointC": 9,
    "cloudCeiling": 99999,
    "altimeter": "A2976",
    "timestamp": "2025-11-16T01:53:00+00:00",
    "station": "KCPS"
  },
  "kstl": {
    "metar": "KSTL 160151Z 33007KT 10SM SCT250 18/09 A2978 RMK AO2 SLP079 T01780089 $",
    "windDirection": 330,
    "windSpeed": 7,
    "windGust": null,
    "visibility": 10,
    "temperatureC": 18,
    "dewPointC": 9,
    "cloudCeiling": null,
    "altimeter": "A2978",
    "timestamp": "2025-11-16T01:51:00+00:00",
    "station": "KSTL"
  }
}