{
  "lastUpdated": "2026-03-24T21:43:26.709469+00:00",
  "kcps": {
    "metar": "KCPS 242053Z VRB06KT 10SM CLR 18/M04 A3018 RMK AO2 SLP220 T01831039 56035 $",
    "windDirection": null,
    "windSpeed": null,
    "windGust": null,
    "visibility": 10,
    "temperatureC": 18,
    "dewPointC": -4,
    "cloudCeiling": 99999,
    "altimeter": "A3018",
    "timestamp": "2026-03-24T20:53:00+00:00",
    "station": "KCPS"
  },
  "kstl": {
    "metar": "KSTL 242051Z 15015G20KT 10SM FEW130 SCT250 18/M05 A3018 RMK AO2 SLP221 T01781050 56036",
    "windDirection": 150,
    "windSpeed": 15,
    "windGust": 20,
    "visibility": 10,
    "temperatureC": 18,
    "dewPointC": -5,
    "cloudCeiling": null,
    "altimeter": "A3018",
    "timestamp": "2026-03-24T20:51:00+00:00",
    "station": "KSTL"
  }
}