{
  "lastUpdated": "2026-01-11T09:47:40.303204+00:00",
  "kcps": {
    "metar": "KCPS 110853Z 30013G20KT 10SM CLR M01/M10 A3030 RMK AO2 PK WND 31027/0800 SLP264 T10111100 53020 $",
    "windDirection": 300,
    "windSpeed": 13,
    "windGust": 20,
    "visibility": 10,
    "temperatureC": -1,
    "dewPointC": -10,
    "cloudCeiling": 99999,
    "altimeter": "A3030",
    "timestamp": "2026-01-11T08:53:00+00:00",
    "station": "KCPS"
  },
  "kstl": {
    "metar": "KSTL 110851Z 29010G18KT 10SM CLR M02/M10 A3031 RMK AO2 PK WND 29029/0818 SLP272 T10171100 53021 $",
    "windDirection": 290,
    "windSpeed": 10,
    "windGust": 18,
    "visibility": 10,
    "temperatureC": -2,
    "dewPointC": -10,
    "cloudCeiling": 99999,
    "altimeter": "A3031",
    "timestamp": "2026-01-11T08:51:00+00:00",
    "station": "KSTL"
  }
}