{
  "lastUpdated": "2025-12-07T22:46:35.567024+00:00",
  "kcps": {
    "metar": "KCPS 072215Z 02012G21KT 9SM OVC016 02/M02 A3018 RMK AO2 T00171017 $",
    "windDirection": 20,
    "windSpeed": 12,
    "windGust": 21,
    "visibility": 9,
    "temperatureC": 2,
    "dewPointC": -2,
    "cloudCeiling": 1600,
    "altimeter": "A3018",
    "timestamp": "2025-12-07T22:15:00+00:00",
    "station": "KCPS"
  },
  "kstl": {
    "metar": "KSTL 072203Z 36011KT 8SM OVC012 01/M02 A3018 RMK AO2 T00061017 $",
    "windDirection": 360,
    "windSpeed": 11,
    "windGust": null,
    "visibility": 8,
    "temperatureC": 1,
    "dewPointC": -2,
    "cloudCeiling": 1200,
    "altimeter": "A3018",
    "timestamp": "2025-12-07T22:03:00+00:00",
    "station": "KSTL"
  }
}