{
  "lastUpdated": "2026-05-15T18:49:45.733727+00:00",
  "kcps": {
    "metar": "KCPS 151753Z 19011G18KT 10SM CLR 27/12 A2987 RMK AO2 SLP110 T02670122 10267 20156 58020 $",
    "windDirection": 190,
    "windSpeed": 11,
    "windGust": 18,
    "visibility": 10,
    "temperatureC": 27,
    "dewPointC": 12,
    "cloudCeiling": 99999,
    "altimeter": "A2987",
    "timestamp": "2026-05-15T17:53:00+00:00",
    "station": "KCPS"
  },
  "kstl": {
    "metar": "KSTL 151751Z 19011G19KT 10SM FEW100 SCT250 26/12 A2986 RMK AO2 SLP104 T02560122 10256 20161 58018 $",
    "windDirection": 190,
    "windSpeed": 11,
    "windGust": 19,
    "visibility": 10,
    "temperatureC": 26,
    "dewPointC": 12,
    "cloudCeiling": null,
    "altimeter": "A2986",
    "timestamp": "2026-05-15T17:51:00+00:00",
    "station": "KSTL"
  }
}