{
  "lastUpdated": "2025-11-24T08:02:43.643496+00:00",
  "kcps": {
    "metar": "KCPS 240753Z AUTO 14005KT 1 3/4SM BR OVC003 08/08 A3015 RMK AO2 SLP212 T00830078 $",
    "windDirection": 140,
    "windSpeed": 5,
    "windGust": null,
    "visibility": 0.75,
    "temperatureC": 8,
    "dewPointC": 8,
    "cloudCeiling": 300,
    "altimeter": "A3015",
    "timestamp": "2025-11-24T07:53:00+00:00",
    "station": "KCPS"
  },
  "kstl": {
    "metar": "KSTL 240751Z 13007KT 1/2SM R30R/4500VP6000FT FG OVC002 08/08 A3014 RMK AO2 SLP210 T00830078 $",
    "windDirection": 130,
    "windSpeed": 7,
    "windGust": null,
    "visibility": 0.5,
    "temperatureC": 8,
    "dewPointC": 8,
    "cloudCeiling": 200,
    "altimeter": "A3014",
    "timestamp": "2025-11-24T07:51:00+00:00",
    "station": "KSTL"
  }
}