{
  "lastUpdated": "2026-05-13T23:22:14.547720+00:00",
  "kcps": {
    "metar": "KCPS 132253Z 36015KT 10SM CLR 23/03 A3001 RMK AO2 SLP159 T02280033 $",
    "windDirection": 360,
    "windSpeed": 15,
    "windGust": null,
    "visibility": 10,
    "temperatureC": 23,
    "dewPointC": 3,
    "cloudCeiling": 99999,
    "altimeter": "A3001",
    "timestamp": "2026-05-13T22:53:00+00:00",
    "station": "KCPS"
  },
  "kstl": {
    "metar": "KSTL 132251Z 35014G18KT 10SM FEW050 FEW250 22/02 A3002 RMK AO2 SLP160 T02220017 $",
    "windDirection": 350,
    "windSpeed": 14,
    "windGust": 18,
    "visibility": 10,
    "temperatureC": 22,
    "dewPointC": 2,
    "cloudCeiling": null,
    "altimeter": "A3002",
    "timestamp": "2026-05-13T22:51:00+00:00",
    "station": "KSTL"
  }
}