{
  "lastUpdated": "2026-05-21T17:21:20.338724+00:00",
  "kcps": {
    "metar": "KCPS 211653Z 02008KT 10SM BKN027 20/13 A3013 RMK AO2 SLP202 T02000133 PNO $",
    "windDirection": 20,
    "windSpeed": 8,
    "windGust": null,
    "visibility": 10,
    "temperatureC": 20,
    "dewPointC": 13,
    "cloudCeiling": 2700,
    "altimeter": "A3013",
    "timestamp": "2026-05-21T16:53:00+00:00",
    "station": "KCPS"
  },
  "kstl": {
    "metar": "KSTL 211651Z AUTO 06007KT 10SM CLR 19/12 A3014 RMK AO2 SLP201 T01940117 $",
    "windDirection": 60,
    "windSpeed": 7,
    "windGust": null,
    "visibility": 10,
    "temperatureC": 19,
    "dewPointC": 12,
    "cloudCeiling": 99999,
    "altimeter": "A3014",
    "timestamp": "2026-05-21T16:51:00+00:00",
    "station": "KSTL"
  }
}