{
  "lastUpdated": "2026-03-16T19:06:17.577884+00:00",
  "kcps": {
    "metar": "KCPS 161853Z 31019G30KT 10SM OVC034 M03/M11 A3001 RMK AO2 PK WND 30034/1755 SNE03B21E26 SLP166 P0000 T10281106 $",
    "windDirection": 310,
    "windSpeed": 19,
    "windGust": 30,
    "visibility": 10,
    "temperatureC": -3,
    "dewPointC": -11,
    "cloudCeiling": 3400,
    "altimeter": "A3001",
    "timestamp": "2026-03-16T18:53:00+00:00",
    "station": "KCPS"
  },
  "kstl": {
    "metar": "KSTL 161851Z 31022G33KT 10SM BKN029 M03/M11 A3001 RMK AO2 PK WND 32033/1847 SLP173 T10331106 $",
    "windDirection": 310,
    "windSpeed": 22,
    "windGust": 33,
    "visibility": 10,
    "temperatureC": -3,
    "dewPointC": -11,
    "cloudCeiling": 2900,
    "altimeter": "A3001",
    "timestamp": "2026-03-16T18:51:00+00:00",
    "station": "KSTL"
  }
}