{
  "lastUpdated": "2026-04-28T00:02:09.632992+00:00",
  "kcps": {
    "metar": "KCPS 272353Z 20009G26KT 10SM CLR 27/20 A2954 RMK AO2 PK WND 20026/2350 LTG DSNT SW-N SLP998 T02720200 10283 20200 58019 $",
    "windDirection": 200,
    "windSpeed": 9,
    "windGust": 26,
    "visibility": 10,
    "temperatureC": 27,
    "dewPointC": 20,
    "cloudCeiling": 99999,
    "altimeter": "A2954",
    "timestamp": "2026-04-27T23:53:00+00:00",
    "station": "KCPS"
  },
  "kstl": {
    "metar": "KSTL 272353Z 31015G30KT 10SM TS FEW021 FEW036 BKN070 23/19 A2956 RMK AO2 WSHFT 2339 PRESRR T02330189 $",
    "windDirection": 310,
    "windSpeed": 15,
    "windGust": 30,
    "visibility": 10,
    "temperatureC": 23,
    "dewPointC": 19,
    "cloudCeiling": 7000,
    "altimeter": "A2956",
    "timestamp": "2026-04-27T23:53:00+00:00",
    "station": "KSTL"
  }
}