{
  "lastUpdated": "2025-11-28T09:47:09.905817+00:00",
  "kcps": {
    "metar": "KCPS 280853Z AUTO 34007KT 10SM CLR M04/M08 A3046 RMK AO2 SLP319 T10441078 51017 $",
    "windDirection": 340,
    "windSpeed": 7,
    "windGust": null,
    "visibility": 10,
    "temperatureC": -4,
    "dewPointC": -8,
    "cloudCeiling": 99999,
    "altimeter": "A3046",
    "timestamp": "2025-11-28T08:53:00+00:00",
    "station": "KCPS"
  },
  "kstl": {
    "metar": "KSTL 280851Z COR 30003KT 10SM CLR M04/M08 A3045 RMK AO2 SLP323 T10391083 51015 $",
    "windDirection": 300,
    "windSpeed": 3,
    "windGust": null,
    "visibility": 10,
    "temperatureC": -4,
    "dewPointC": -8,
    "cloudCeiling": 99999,
    "altimeter": "A3045",
    "timestamp": "2025-11-28T08:51:00+00:00",
    "station": "KSTL"
  }
}