{
  "lastUpdated": "2025-12-20T06:41:49.136684+00:00",
  "kcps": {
    "metar": "KCPS 200553Z 16005KT 10SM CLR 01/M06 A2997 RMK AO2 SLP152 T00061056 10017 20000 400441044 55003",
    "windDirection": 160,
    "windSpeed": 5,
    "windGust": null,
    "visibility": 10,
    "temperatureC": 1,
    "dewPointC": -6,
    "cloudCeiling": 99999,
    "altimeter": "A2997",
    "timestamp": "2025-12-20T05:53:00+00:00",
    "station": "KCPS"
  },
  "kstl": {
    "metar": "KSTL 200551Z 15008KT 10SM SCT250 02/M07 A2995 RMK AO2 SLP152 T00171067 10028 20011 400391050 53000 $",
    "windDirection": 150,
    "windSpeed": 8,
    "windGust": null,
    "visibility": 10,
    "temperatureC": 2,
    "dewPointC": -7,
    "cloudCeiling": null,
    "altimeter": "A2995",
    "timestamp": "2025-12-20T05:51:00+00:00",
    "station": "KSTL"
  }
}