{
  "lastUpdated": "2025-11-07T10:02:32.238925+00:00",
  "kcps": {
    "metar": "KCPS 070953Z AUTO 22009G16KT 10SM CLR 16/13 A2966 RMK AO2 SLP041 T01610128 TSNO $",
    "windDirection": 220,
    "windSpeed": 9,
    "windGust": 16,
    "visibility": 10,
    "temperatureC": 16,
    "dewPointC": 13,
    "cloudCeiling": 99999,
    "altimeter": "A2966",
    "timestamp": "2025-11-07T09:53:00+00:00",
    "station": "KCPS"
  },
  "kstl": {
    "metar": "KSTL 070951Z 23010KT 10SM FEW080 16/13 A2966 RMK AO2 SLP039 T01610128 $",
    "windDirection": 230,
    "windSpeed": 10,
    "windGust": null,
    "visibility": 10,
    "temperatureC": 16,
    "dewPointC": 13,
    "cloudCeiling": null,
    "altimeter": "A2966",
    "timestamp": "2025-11-07T09:51:00+00:00",
    "station": "KSTL"
  }
}