{
  "lastUpdated": "2026-04-02T03:38:28.335664+00:00",
  "kcps": {
    "metar": "KCPS 020253Z 06006KT 7SM OVC005 14/13 A2991 RMK AO2 SLP130 60000 T01390128 58004 $",
    "windDirection": 60,
    "windSpeed": 6,
    "windGust": null,
    "visibility": 7,
    "temperatureC": 14,
    "dewPointC": 13,
    "cloudCeiling": 500,
    "altimeter": "A2991",
    "timestamp": "2026-04-02T02:53:00+00:00",
    "station": "KCPS"
  },
  "kstl": {
    "metar": "KSTL 020251Z 08011KT 5SM BR OVC003 12/12 A2992 RMK AO2 SLP131 T01220117 58008 $",
    "windDirection": 80,
    "windSpeed": 11,
    "windGust": null,
    "visibility": 5,
    "temperatureC": 12,
    "dewPointC": 12,
    "cloudCeiling": 300,
    "altimeter": "A2992",
    "timestamp": "2026-04-02T02:51:00+00:00",
    "station": "KSTL"
  }
}