{
  "lastUpdated": "2026-01-09T20:22:20.886202+00:00",
  "kcps": {
    "metar": "KCPS 091953Z 35005KT 10SM CLR 11/04 A3009 RMK AO2 SLP190 T01060039",
    "windDirection": 350,
    "windSpeed": 5,
    "windGust": null,
    "visibility": 10,
    "temperatureC": 11,
    "dewPointC": 4,
    "cloudCeiling": 99999,
    "altimeter": "A3009",
    "timestamp": "2026-01-09T19:53:00+00:00",
    "station": "KCPS"
  },
  "kstl": {
    "metar": "KSTL 091951Z 34007KT 300V010 10SM FEW025 SCT250 09/03 A3010 RMK AO2 SLP190 T00940028 $",
    "windDirection": 340,
    "windSpeed": 7,
    "windGust": null,
    "visibility": 10,
    "temperatureC": 9,
    "dewPointC": 3,
    "cloudCeiling": null,
    "altimeter": "A3010",
    "timestamp": "2026-01-09T19:51:00+00:00",
    "station": "KSTL"
  }
}