{
  "lastUpdated": "2026-05-16T10:25:50.210713+00:00",
  "kcps": {
    "metar": "KCPS 160953Z AUTO 17003KT 10SM CLR 23/17 A2983 RMK AO2 SLP097 T02330172 $",
    "windDirection": 170,
    "windSpeed": 3,
    "windGust": null,
    "visibility": 10,
    "temperatureC": 23,
    "dewPointC": 17,
    "cloudCeiling": 99999,
    "altimeter": "A2983",
    "timestamp": "2026-05-16T09:53:00+00:00",
    "station": "KCPS"
  },
  "kstl": {
    "metar": "KSTL 160951Z 17006KT 10SM BKN140 BKN200 24/17 A2983 RMK AO2 SLP089 T02390172 $",
    "windDirection": 170,
    "windSpeed": 6,
    "windGust": null,
    "visibility": 10,
    "temperatureC": 24,
    "dewPointC": 17,
    "cloudCeiling": 14000,
    "altimeter": "A2983",
    "timestamp": "2026-05-16T09:51:00+00:00",
    "station": "KSTL"
  }
}