{
  "lastUpdated": "2025-12-03T13:26:39.214632+00:00",
  "kcps": {
    "metar": "KCPS 031253Z 17003KT 8SM CLR M06/M07 A3010 RMK AO2 SLP199 I1000 T10561067",
    "windDirection": 170,
    "windSpeed": 3,
    "windGust": null,
    "visibility": 8,
    "temperatureC": -6,
    "dewPointC": -7,
    "cloudCeiling": 99999,
    "altimeter": "A3010",
    "timestamp": "2025-12-03T12:53:00+00:00",
    "station": "KCPS"
  },
  "kstl": {
    "metar": "KSTL 031251Z 17006KT 9SM BKN250 M04/M06 A3008 RMK AO2 SLP200 T10441056 $",
    "windDirection": 170,
    "windSpeed": 6,
    "windGust": null,
    "visibility": 9,
    "temperatureC": -4,
    "dewPointC": -6,
    "cloudCeiling": 25000,
    "altimeter": "A3008",
    "timestamp": "2025-12-03T12:51:00+00:00",
    "station": "KSTL"
  }
}