{
  "lastUpdated": "2026-05-08T00:02:12.035666+00:00",
  "kcps": {
    "metar": "KCPS 072353Z 25007KT 210V280 10SM FEW080 19/03 A2991 RMK AO2 SLP129 T01940028 10200 20178 56012 $",
    "windDirection": 250,
    "windSpeed": 7,
    "windGust": null,
    "visibility": 10,
    "temperatureC": 19,
    "dewPointC": 3,
    "cloudCeiling": null,
    "altimeter": "A2991",
    "timestamp": "2026-05-07T23:53:00+00:00",
    "station": "KCPS"
  },
  "kstl": {
    "metar": "KSTL 072351Z 26010G18KT 10SM FEW080 19/02 A2992 RMK AO2 SLP130 T01890022 10200 20172 56011 $",
    "windDirection": 260,
    "windSpeed": 10,
    "windGust": 18,
    "visibility": 10,
    "temperatureC": 19,
    "dewPointC": 2,
    "cloudCeiling": null,
    "altimeter": "A2992",
    "timestamp": "2026-05-07T23:51:00+00:00",
    "station": "KSTL"
  }
}