{
  "lastUpdated": "2026-04-30T08:33:51.402070+00:00",
  "kcps": {
    "metar": "KCPS 300753Z AUTO 00000KT 10SM CLR 06/05 A3006 RMK AO2 SLP180 T00610050 $",
    "windDirection": 0,
    "windSpeed": 0,
    "windGust": null,
    "visibility": 10,
    "temperatureC": 6,
    "dewPointC": 5,
    "cloudCeiling": 99999,
    "altimeter": "A3006",
    "timestamp": "2026-04-30T07:53:00+00:00",
    "station": "KCPS"
  },
  "kstl": {
    "metar": "KSTL 300751Z 29003KT 10SM CLR 06/04 A3007 RMK AO2 SLP182 T00610039 $",
    "windDirection": 290,
    "windSpeed": 3,
    "windGust": null,
    "visibility": 10,
    "temperatureC": 6,
    "dewPointC": 4,
    "cloudCeiling": 99999,
    "altimeter": "A3007",
    "timestamp": "2026-04-30T07:51:00+00:00",
    "station": "KSTL"
  }
}