{
  "lastUpdated": "2025-12-17T20:37:23.118002+00:00",
  "kcps": {
    "metar": "KCPS 171953Z 26003KT 10SM CLR 13/02 A2999 RMK AO2 SLP156 T01280022",
    "windDirection": 260,
    "windSpeed": 3,
    "windGust": null,
    "visibility": 10,
    "temperatureC": 13,
    "dewPointC": 2,
    "cloudCeiling": 99999,
    "altimeter": "A2999",
    "timestamp": "2025-12-17T19:53:00+00:00",
    "station": "KCPS"
  },
  "kstl": {
    "metar": "KSTL 171951Z 15003KT 10SM FEW200 BKN250 13/03 A2998 RMK AO2 SLP154 T01280028 $",
    "windDirection": 150,
    "windSpeed": 3,
    "windGust": null,
    "visibility": 10,
    "temperatureC": 13,
    "dewPointC": 3,
    "cloudCeiling": 25000,
    "altimeter": "A2998",
    "timestamp": "2025-12-17T19:51:00+00:00",
    "station": "KSTL"
  }
}