{
  "lastUpdated": "2026-03-16T05:35:02.167019+00:00",
  "kcps": {
    "metar": "KCPS 160453Z AUTO 30024G37KT 9SM -SN OVC024 02/M02 A2963 RMK AO2 PK WND 30038/0434 SNB14 SLP032 P0000 T00171022 $",
    "windDirection": 300,
    "windSpeed": 24,
    "windGust": 37,
    "visibility": 9,
    "temperatureC": 2,
    "dewPointC": -2,
    "cloudCeiling": 2400,
    "altimeter": "A2963",
    "timestamp": "2026-03-16T04:53:00+00:00",
    "station": "KCPS"
  },
  "kstl": {
    "metar": "KSTL 160454Z 30019G36KT 10SM -SN OVC022 01/M03 A2962 RMK AO2 PK WND 31032/0452 SNB54 P0000 T00111028 $",
    "windDirection": 300,
    "windSpeed": 19,
    "windGust": 36,
    "visibility": 10,
    "temperatureC": 1,
    "dewPointC": -3,
    "cloudCeiling": 2200,
    "altimeter": "A2962",
    "timestamp": "2026-03-16T04:54:00+00:00",
    "station": "KSTL"
  }
}