{
  "lastUpdated": "2025-11-28T10:22:11.827318+00:00",
  "kcps": {
    "metar": "KCPS 280953Z AUTO 33007KT 10SM CLR M04/M08 A3046 RMK AO2 SLP320 T10391083 $",
    "windDirection": 330,
    "windSpeed": 7,
    "windGust": null,
    "visibility": 10,
    "temperatureC": -4,
    "dewPointC": -8,
    "cloudCeiling": 99999,
    "altimeter": "A3046",
    "timestamp": "2025-11-28T09:53:00+00:00",
    "station": "KCPS"
  },
  "kstl": {
    "metar": "KSTL 280951Z 28004KT 10SM CLR M05/M08 A3046 RMK AO2 SLP326 T10501083 $",
    "windDirection": 280,
    "windSpeed": 4,
    "windGust": null,
    "visibility": 10,
    "temperatureC": -5,
    "dewPointC": -8,
    "cloudCeiling": 99999,
    "altimeter": "A3046",
    "timestamp": "2025-11-28T09:51:00+00:00",
    "station": "KSTL"
  }
}