{
  "lastUpdated": "2025-10-12T19:31:48.324726+00:00",
  "kcps": {
    "metar": "KCPS 121853Z 16007KT 100V230 10SM CLR 27/11 A2990 RMK AO2 SLP121 T02720111 $",
    "windDirection": 160,
    "windSpeed": 7,
    "windGust": null,
    "visibility": 10,
    "temperatureC": 27,
    "dewPointC": 11,
    "cloudCeiling": 99999,
    "altimeter": "A2990",
    "timestamp": "2025-10-12T18:53:00+00:00",
    "station": "KCPS"
  },
  "kstl": {
    "metar": "KSTL 121851Z 13006KT 10SM CLR 26/11 A2991 RMK AO2 SLP119 T02560111 $",
    "windDirection": 130,
    "windSpeed": 6,
    "windGust": null,
    "visibility": 10,
    "temperatureC": 26,
    "dewPointC": 11,
    "cloudCeiling": 99999,
    "altimeter": "A2991",
    "timestamp": "2025-10-12T18:51:00+00:00",
    "station": "KSTL"
  }
}