{
  "lastUpdated": "2026-02-26T22:23:39.652097+00:00",
  "kcps": {
    "metar": "KCPS 262153Z 00000KT 10SM CLR 16/03 A2986 RMK AO2 SLP110 T01560033 $",
    "windDirection": 0,
    "windSpeed": 0,
    "windGust": null,
    "visibility": 10,
    "temperatureC": 16,
    "dewPointC": 3,
    "cloudCeiling": 99999,
    "altimeter": "A2986",
    "timestamp": "2026-02-26T21:53:00+00:00",
    "station": "KCPS"
  },
  "kstl": {
    "metar": "KSTL 262151Z 11003KT 10SM FEW060 16/02 A2986 RMK AO2 SLP113 T01560022 $",
    "windDirection": 110,
    "windSpeed": 3,
    "windGust": null,
    "visibility": 10,
    "temperatureC": 16,
    "dewPointC": 2,
    "cloudCeiling": null,
    "altimeter": "A2986",
    "timestamp": "2026-02-26T21:51:00+00:00",
    "station": "KSTL"
  }
}