{
  "lastUpdated": "2026-06-07T01:31:30.165738+00:00",
  "kcps": {
    "metar": "KCPS 070053Z 25003KT 10SM CLR 28/21 A2989 RMK AO2 SLP117 T02780206 $",
    "windDirection": 250,
    "windSpeed": 3,
    "windGust": null,
    "visibility": 10,
    "temperatureC": 28,
    "dewPointC": 21,
    "cloudCeiling": 99999,
    "altimeter": "A2989",
    "timestamp": "2026-06-07T00:53:00+00:00",
    "station": "KCPS"
  },
  "kstl": {
    "metar": "KSTL 070051Z 23008KT 10SM FEW040 BKN200 BKN250 27/20 A2990 RMK AO2 SLP113 T02720200 $",
    "windDirection": 230,
    "windSpeed": 8,
    "windGust": null,
    "visibility": 10,
    "temperatureC": 27,
    "dewPointC": 20,
    "cloudCeiling": 20000,
    "altimeter": "A2990",
    "timestamp": "2026-06-07T00:51:00+00:00",
    "station": "KSTL"
  }
}