{
  "lastUpdated": "2026-05-18T18:32:12.169370+00:00",
  "kcps": {
    "metar": "KCPS 181827Z 36009KT 3SM -TSRA BR FEW007 BKN037 OVC045 19/19 A3001 RMK AO2 LTG DSNT ALQDS TSE1754B26 P0009 T01940189 $",
    "windDirection": 360,
    "windSpeed": 9,
    "windGust": null,
    "visibility": 3,
    "temperatureC": 19,
    "dewPointC": 19,
    "cloudCeiling": 3700,
    "altimeter": "A3001",
    "timestamp": "2026-05-18T18:27:00+00:00",
    "station": "KCPS"
  },
  "kstl": {
    "metar": "KSTL 181809Z 03006KT 5SM R30R/4000VP6000FT -TSRA BR SCT033 BKN040CB OVC060 19/18 A3004 RMK AO2 OCNL LTGIC ALQDS TS ALQDS MOV NE P0009 T01890178 $",
    "windDirection": 30,
    "windSpeed": 6,
    "windGust": null,
    "visibility": 5,
    "temperatureC": 19,
    "dewPointC": 18,
    "cloudCeiling": 4000,
    "altimeter": "A3004",
    "timestamp": "2026-05-18T18:09:00+00:00",
    "station": "KSTL"
  }
}