{
  "lastUpdated": "2025-11-04T10:22:17.863003+00:00",
  "kcps": {
    "metar": "KCPS 040953Z AUTO 00000KT 10SM CLR 03/03 A3029 RMK AO2 SLP257 T00330033 TSNO",
    "windDirection": 0,
    "windSpeed": 0,
    "windGust": null,
    "visibility": 10,
    "temperatureC": 3,
    "dewPointC": 3,
    "cloudCeiling": 99999,
    "altimeter": "A3029",
    "timestamp": "2025-11-04T09:53:00+00:00",
    "station": "KCPS"
  },
  "kstl": {
    "metar": "KSTL 040951Z 08003KT 10SM BKN250 06/03 A3029 RMK AO2 SLP256 T00610033 $",
    "windDirection": 80,
    "windSpeed": 3,
    "windGust": null,
    "visibility": 10,
    "temperatureC": 6,
    "dewPointC": 3,
    "cloudCeiling": 25000,
    "altimeter": "A3029",
    "timestamp": "2025-11-04T09:51:00+00:00",
    "station": "KSTL"
  }
}