{
  "lastUpdated": "2026-02-18T19:45:14.941769+00:00",
  "kcps": {
    "metar": "KCPS 181853Z 22007KT 10SM CLR 22/03 A2967 RMK AO2 SLP044 T02170028 $",
    "windDirection": 220,
    "windSpeed": 7,
    "windGust": null,
    "visibility": 10,
    "temperatureC": 22,
    "dewPointC": 3,
    "cloudCeiling": 99999,
    "altimeter": "A2967",
    "timestamp": "2026-02-18T18:53:00+00:00",
    "station": "KCPS"
  },
  "kstl": {
    "metar": "KSTL 181851Z 28006KT 10SM FEW250 22/M01 A2967 RMK AO2 SLP043 T02171011 $",
    "windDirection": 280,
    "windSpeed": 6,
    "windGust": null,
    "visibility": 10,
    "temperatureC": 22,
    "dewPointC": -1,
    "cloudCeiling": null,
    "altimeter": "A2967",
    "timestamp": "2026-02-18T18:51:00+00:00",
    "station": "KSTL"
  }
}