{
  "lastUpdated": "2025-12-04T06:54:55.363381+00:00",
  "kcps": {
    "metar": "KCPS 040610Z AUTO 35013G20KT 6SM HZ OVC011 01/M02 A3027 RMK AO2 T00061022 $",
    "windDirection": 350,
    "windSpeed": 13,
    "windGust": 20,
    "visibility": 6,
    "temperatureC": 1,
    "dewPointC": -2,
    "cloudCeiling": 1100,
    "altimeter": "A3027",
    "timestamp": "2025-12-04T06:10:00+00:00",
    "station": "KCPS"
  },
  "kstl": {
    "metar": "KSTL 040651Z 35012KT 8SM OVC016 M02/M06 A3029 RMK AO2 SLP266 T10221056 $",
    "windDirection": 350,
    "windSpeed": 12,
    "windGust": null,
    "visibility": 8,
    "temperatureC": -2,
    "dewPointC": -6,
    "cloudCeiling": 1600,
    "altimeter": "A3029",
    "timestamp": "2025-12-04T06:51:00+00:00",
    "station": "KSTL"
  }
}