{
  "lastUpdated": "2026-04-11T05:48:49.161921+00:00",
  "kcps": {
    "metar": "KCPS 110453Z AUTO 04007KT 10SM OVC047 13/09 A3033 RMK AO2 SLP268 T01280094 $",
    "windDirection": 40,
    "windSpeed": 7,
    "windGust": null,
    "visibility": 10,
    "temperatureC": 13,
    "dewPointC": 9,
    "cloudCeiling": 4700,
    "altimeter": "A3033",
    "timestamp": "2026-04-11T04:53:00+00:00",
    "station": "KCPS"
  },
  "kstl": {
    "metar": "KSTL 110451Z 07007KT 10SM OVC042 12/08 A3033 RMK AO2 SLP268 T01220083 $",
    "windDirection": 70,
    "windSpeed": 7,
    "windGust": null,
    "visibility": 10,
    "temperatureC": 12,
    "dewPointC": 8,
    "cloudCeiling": 4200,
    "altimeter": "A3033",
    "timestamp": "2026-04-11T04:51:00+00:00",
    "station": "KSTL"
  }
}