{
  "lastUpdated": "2026-02-09T17:31:47.946545+00:00",
  "kcps": {
    "metar": "KCPS 091653Z 30003KT 10SM CLR 04/M04 A3014 RMK AO2 SLP209 T00441044 $",
    "windDirection": 300,
    "windSpeed": 3,
    "windGust": null,
    "visibility": 10,
    "temperatureC": 4,
    "dewPointC": -4,
    "cloudCeiling": 99999,
    "altimeter": "A3014",
    "timestamp": "2026-02-09T16:53:00+00:00",
    "station": "KCPS"
  },
  "kstl": {
    "metar": "KSTL 091651Z 00000KT 10SM FEW250 05/M05 A3014 RMK AO2 SLP216 T00501050 $",
    "windDirection": 0,
    "windSpeed": 0,
    "windGust": null,
    "visibility": 10,
    "temperatureC": 5,
    "dewPointC": -5,
    "cloudCeiling": null,
    "altimeter": "A3014",
    "timestamp": "2026-02-09T16:51:00+00:00",
    "station": "KSTL"
  }
}