{
  "lastUpdated": "2026-05-20T03:43:56.067364+00:00",
  "kcps": {
    "metar": "KCPS 200253Z AUTO 36006KT 10SM BKN018 OVC035 20/17 A3012 RMK AO2 SLP197 T02000172 51026 $",
    "windDirection": 360,
    "windSpeed": 6,
    "windGust": null,
    "visibility": 10,
    "temperatureC": 20,
    "dewPointC": 17,
    "cloudCeiling": 1800,
    "altimeter": "A3012",
    "timestamp": "2026-05-20T02:53:00+00:00",
    "station": "KCPS"
  },
  "kstl": {
    "metar": "KSTL 200314Z 01008KT 10SM BKN010 OVC015 17/15 A3015 RMK AO2 T01720150 $",
    "windDirection": 10,
    "windSpeed": 8,
    "windGust": null,
    "visibility": 10,
    "temperatureC": 17,
    "dewPointC": 15,
    "cloudCeiling": 1000,
    "altimeter": "A3015",
    "timestamp": "2026-05-20T03:14:00+00:00",
    "station": "KSTL"
  }
}