{
  "lastUpdated": "2025-12-14T09:02:18.775180+00:00",
  "kcps": {
    "metar": "KCPS 140853Z 32012KT 10SM CLR M13/M17 A3058 RMK AO2 SLP364 T11331172 51017 $",
    "windDirection": 320,
    "windSpeed": 12,
    "windGust": null,
    "visibility": 10,
    "temperatureC": -13,
    "dewPointC": -17,
    "cloudCeiling": 99999,
    "altimeter": "A3058",
    "timestamp": "2025-12-14T08:53:00+00:00",
    "station": "KCPS"
  },
  "kstl": {
    "metar": "KSTL 140851Z 31012KT 10SM FEW250 M13/M19 A3057 RMK AO2 SLP372 T11331189 51016 $",
    "windDirection": 310,
    "windSpeed": 12,
    "windGust": null,
    "visibility": 10,
    "temperatureC": -13,
    "dewPointC": -19,
    "cloudCeiling": null,
    "altimeter": "A3057",
    "timestamp": "2025-12-14T08:51:00+00:00",
    "station": "KSTL"
  }
}