{
  "lastUpdated": "2026-05-30T12:10:21.372748+00:00",
  "kcps": {
    "metar": "KCPS 301153Z 00000KT 10SM SCT044 21/19 A2993 RMK AO2 SLP130 T02060189 10217 20189 53007 $",
    "windDirection": 0,
    "windSpeed": 0,
    "windGust": null,
    "visibility": 10,
    "temperatureC": 21,
    "dewPointC": 19,
    "cloudCeiling": null,
    "altimeter": "A2993",
    "timestamp": "2026-05-30T11:53:00+00:00",
    "station": "KCPS"
  },
  "kstl": {
    "metar": "KSTL 301051Z 08004KT 10SM -RA SCT100 BKN150 BKN200 21/19 A2992 RMK AO2 RAB37 SLP122 P0000 T02060189 $",
    "windDirection": 80,
    "windSpeed": 4,
    "windGust": null,
    "visibility": 10,
    "temperatureC": 21,
    "dewPointC": 19,
    "cloudCeiling": 15000,
    "altimeter": "A2992",
    "timestamp": "2026-05-30T10:51:00+00:00",
    "station": "KSTL"
  }
}