{
  "lastUpdated": "2025-12-28T10:21:43.271861+00:00",
  "kcps": {
    "metar": "KCPS 280953Z AUTO 16005KT 7SM FEW095 BKN120 16/15 A2972 RMK AO2 RAB38E48 SLP063 P0000 T01560150 $",
    "windDirection": 160,
    "windSpeed": 5,
    "windGust": null,
    "visibility": 7,
    "temperatureC": 16,
    "dewPointC": 15,
    "cloudCeiling": 12000,
    "altimeter": "A2972",
    "timestamp": "2025-12-28T09:53:00+00:00",
    "station": "KCPS"
  },
  "kstl": {
    "metar": "KSTL 280951Z 17005KT 10SM SCT120 BKN170 17/16 A2972 RMK AO2 SLP059 T01670156 $",
    "windDirection": 170,
    "windSpeed": 5,
    "windGust": null,
    "visibility": 10,
    "temperatureC": 17,
    "dewPointC": 16,
    "cloudCeiling": 17000,
    "altimeter": "A2972",
    "timestamp": "2025-12-28T09:51:00+00:00",
    "station": "KSTL"
  }
}