{
  "lastUpdated": "2026-04-15T04:54:03.828688+00:00",
  "kcps": {
    "metar": "KCPS 150353Z AUTO 19008G20KT 150V230 10SM CLR 23/18 A2987 RMK AO2 SLP110 T02330178 $",
    "windDirection": 190,
    "windSpeed": 8,
    "windGust": 20,
    "visibility": 10,
    "temperatureC": 23,
    "dewPointC": 18,
    "cloudCeiling": 99999,
    "altimeter": "A2987",
    "timestamp": "2026-04-15T03:53:00+00:00",
    "station": "KCPS"
  },
  "kstl": {
    "metar": "KSTL 150451Z 20013KT 10SM BKN250 23/18 A2984 RMK AO2 SLP092 T02330178 $",
    "windDirection": 200,
    "windSpeed": 13,
    "windGust": null,
    "visibility": 10,
    "temperatureC": 23,
    "dewPointC": 18,
    "cloudCeiling": 25000,
    "altimeter": "A2984",
    "timestamp": "2026-04-15T04:51:00+00:00",
    "station": "KSTL"
  }
}