{
  "lastUpdated": "2026-05-19T11:44:32.973168+00:00",
  "kcps": {
    "metar": "KCPS 191053Z AUTO 28004KT 10SM -RA FEW030 OVC045 19/18 A3001 RMK AO2 RAB20 SLP160 P0003 T01940183 $",
    "windDirection": 280,
    "windSpeed": 4,
    "windGust": null,
    "visibility": 10,
    "temperatureC": 19,
    "dewPointC": 18,
    "cloudCeiling": 4500,
    "altimeter": "A3001",
    "timestamp": "2026-05-19T10:53:00+00:00",
    "station": "KCPS"
  },
  "kstl": {
    "metar": "KSTL 191059Z 21005KT 10SM -RA FEW034 BKN065 BKN085 OVC200 18/18 A3001 RMK AO2 TSE59 P0001 T01830178 $",
    "windDirection": 210,
    "windSpeed": 5,
    "windGust": null,
    "visibility": 10,
    "temperatureC": 18,
    "dewPointC": 18,
    "cloudCeiling": 6500,
    "altimeter": "A3001",
    "timestamp": "2026-05-19T10:59:00+00:00",
    "station": "KSTL"
  }
}