{
  "lastUpdated": "2026-05-23T21:45:39.327973+00:00",
  "kcps": {
    "metar": "KCPS 232053Z 16005KT 10SM BKN023 OVC031 23/17 A2998 RMK AO2 SLP149 T02280172 58001 $",
    "windDirection": 160,
    "windSpeed": 5,
    "windGust": null,
    "visibility": 10,
    "temperatureC": 23,
    "dewPointC": 17,
    "cloudCeiling": 2300,
    "altimeter": "A2998",
    "timestamp": "2026-05-23T20:53:00+00:00",
    "station": "KCPS"
  },
  "kstl": {
    "metar": "KSTL 232051Z 20003KT 10SM BKN040 BKN250 23/17 A2998 RMK AO2 SLP145 T02330172 58007 $",
    "windDirection": 200,
    "windSpeed": 3,
    "windGust": null,
    "visibility": 10,
    "temperatureC": 23,
    "dewPointC": 17,
    "cloudCeiling": 4000,
    "altimeter": "A2998",
    "timestamp": "2026-05-23T20:51:00+00:00",
    "station": "KSTL"
  }
}