{
  "lastUpdated": "2025-11-26T13:26:13.224959+00:00",
  "kcps": {
    "metar": "KCPS 261253Z 28019G29KT 10SM OVC044 03/M05 A3014 RMK AO2 PK WND 25031/1206 SLP207 T00331050",
    "windDirection": 280,
    "windSpeed": 19,
    "windGust": 29,
    "visibility": 10,
    "temperatureC": 3,
    "dewPointC": -5,
    "cloudCeiling": 4400,
    "altimeter": "A3014",
    "timestamp": "2025-11-26T12:53:00+00:00",
    "station": "KCPS"
  },
  "kstl": {
    "metar": "KSTL 261251Z 28019G29KT 10SM BKN041 03/M05 A3013 RMK AO2 PK WND 26035/1208 SLP204 T00331050 $",
    "windDirection": 280,
    "windSpeed": 19,
    "windGust": 29,
    "visibility": 10,
    "temperatureC": 3,
    "dewPointC": -5,
    "cloudCeiling": 4100,
    "altimeter": "A3013",
    "timestamp": "2025-11-26T12:51:00+00:00",
    "station": "KSTL"
  }
}