{
  "lastUpdated": "2026-03-30T23:57:17.267861+00:00",
  "kcps": {
    "metar": "KCPS 302353Z 18012G25KT 10SM CLR 26/14 A2987 RMK AO2 SLP110 T02610144 10294 20261 56002 $",
    "windDirection": 180,
    "windSpeed": 12,
    "windGust": 25,
    "visibility": 10,
    "temperatureC": 26,
    "dewPointC": 14,
    "cloudCeiling": 99999,
    "altimeter": "A2987",
    "timestamp": "2026-03-30T23:53:00+00:00",
    "station": "KCPS"
  },
  "kstl": {
    "metar": "KSTL 302351Z 19013G25KT 10SM BKN250 27/13 A2986 RMK AO2 PK WND 20026/2337 SLP101 T02720133 10294 20272 55005 $",
    "windDirection": 190,
    "windSpeed": 13,
    "windGust": 25,
    "visibility": 10,
    "temperatureC": 27,
    "dewPointC": 13,
    "cloudCeiling": 25000,
    "altimeter": "A2986",
    "timestamp": "2026-03-30T23:51:00+00:00",
    "station": "KSTL"
  }
}