{
  "lastUpdated": "2026-01-03T23:47:02.192881+00:00",
  "kcps": {
    "metar": "KCPS 032253Z 01004KT 10SM CLR 02/M07 A3006 RMK AO2 SLP181 T00221067 $",
    "windDirection": 10,
    "windSpeed": 4,
    "windGust": null,
    "visibility": 10,
    "temperatureC": 2,
    "dewPointC": -7,
    "cloudCeiling": 99999,
    "altimeter": "A3006",
    "timestamp": "2026-01-03T22:53:00+00:00",
    "station": "KCPS"
  },
  "kstl": {
    "metar": "KSTL 032251Z 30003KT 10SM CLR 02/M07 A3006 RMK AO2 SLP188 T00171067 $",
    "windDirection": 300,
    "windSpeed": 3,
    "windGust": null,
    "visibility": 10,
    "temperatureC": 2,
    "dewPointC": -7,
    "cloudCeiling": 99999,
    "altimeter": "A3006",
    "timestamp": "2026-01-03T22:51:00+00:00",
    "station": "KSTL"
  }
}