{
  "lastUpdated": "2026-01-22T18:43:18.752916+00:00",
  "kcps": {
    "metar": "KCPS 221753Z 28004KT 10SM CLR 02/M14 A3035 RMK AO2 SLP280 T00221139 10022 21072 50002 $",
    "windDirection": 280,
    "windSpeed": 4,
    "windGust": null,
    "visibility": 10,
    "temperatureC": 2,
    "dewPointC": -14,
    "cloudCeiling": 99999,
    "altimeter": "A3035",
    "timestamp": "2026-01-22T17:53:00+00:00",
    "station": "KCPS"
  },
  "kstl": {
    "metar": "KSTL 221751Z 35007KT 10SM FEW170 BKN250 02/M13 A3034 RMK AO2 SLP284 T00221133 10022 21056 50001 $",
    "windDirection": 350,
    "windSpeed": 7,
    "windGust": null,
    "visibility": 10,
    "temperatureC": 2,
    "dewPointC": -13,
    "cloudCeiling": 25000,
    "altimeter": "A3034",
    "timestamp": "2026-01-22T17:51:00+00:00",
    "station": "KSTL"
  }
}