{
  "lastUpdated": "2025-11-27T21:21:07.599895+00:00",
  "kcps": {
    "metar": "KCPS 272053Z 29008KT 10SM CLR 04/M08 A3039 RMK AO2 SLP295 T00391078 56010 $",
    "windDirection": 290,
    "windSpeed": 8,
    "windGust": null,
    "visibility": 10,
    "temperatureC": 4,
    "dewPointC": -8,
    "cloudCeiling": 99999,
    "altimeter": "A3039",
    "timestamp": "2025-11-27T20:53:00+00:00",
    "station": "KCPS"
  },
  "kstl": {
    "metar": "KSTL 272051Z 28010KT 10SM CLR 04/M07 A3039 RMK AO2 SLP301 T00391072 56011 $",
    "windDirection": 280,
    "windSpeed": 10,
    "windGust": null,
    "visibility": 10,
    "temperatureC": 4,
    "dewPointC": -7,
    "cloudCeiling": 99999,
    "altimeter": "A3039",
    "timestamp": "2025-11-27T20:51:00+00:00",
    "station": "KSTL"
  }
}