{
  "lastUpdated": "2026-04-16T12:50:51.817144+00:00",
  "kcps": {
    "metar": "KCPS 161153Z 00000KT 10SM CLR 15/14 A2988 RMK AO2 SLP117 60037 70086 T01500139 10178 20144 53016 $",
    "windDirection": 0,
    "windSpeed": 0,
    "windGust": null,
    "visibility": 10,
    "temperatureC": 15,
    "dewPointC": 14,
    "cloudCeiling": 99999,
    "altimeter": "A2988",
    "timestamp": "2026-04-16T11:53:00+00:00",
    "station": "KCPS"
  },
  "kstl": {
    "metar": "KSTL 161151Z 21004KT 10SM BKN200 BKN250 15/14 A2989 RMK AO2 SLP113 60022 70153 T01500139 10172 20150 53015 $",
    "windDirection": 210,
    "windSpeed": 4,
    "windGust": null,
    "visibility": 10,
    "temperatureC": 15,
    "dewPointC": 14,
    "cloudCeiling": 20000,
    "altimeter": "A2989",
    "timestamp": "2026-04-16T11:51:00+00:00",
    "station": "KSTL"
  }
}