{
  "lastUpdated": "2025-11-19T16:39:16.648431+00:00",
  "kcps": {
    "metar": "KCPS 191553Z 04004KT 6SM BR OVC006 09/07 A3021 RMK AO2 SLP229 T00890072",
    "windDirection": 40,
    "windSpeed": 4,
    "windGust": null,
    "visibility": 6,
    "temperatureC": 9,
    "dewPointC": 7,
    "cloudCeiling": 600,
    "altimeter": "A3021",
    "timestamp": "2025-11-19T15:53:00+00:00",
    "station": "KCPS"
  },
  "kstl": {
    "metar": "KSTL 191551Z 00000KT 5SM BR OVC006 09/07 A3021 RMK AO2 SLP231 T00890072 $",
    "windDirection": 0,
    "windSpeed": 0,
    "windGust": null,
    "visibility": 5,
    "temperatureC": 9,
    "dewPointC": 7,
    "cloudCeiling": 600,
    "altimeter": "A3021",
    "timestamp": "2025-11-19T15:51:00+00:00",
    "station": "KSTL"
  }
}