{
  "lastUpdated": "2025-12-03T14:22:28.606348+00:00",
  "kcps": {
    "metar": "KCPS 031419Z 19005KT 10SM BKN007 M03/M05 A3011 RMK AO2 I1000 T10331050",
    "windDirection": 190,
    "windSpeed": 5,
    "windGust": null,
    "visibility": 10,
    "temperatureC": -3,
    "dewPointC": -5,
    "cloudCeiling": 700,
    "altimeter": "A3011",
    "timestamp": "2025-12-03T14:19:00+00:00",
    "station": "KCPS"
  },
  "kstl": {
    "metar": "KSTL 031355Z 19005KT 8SM FEW008 FEW120 BKN250 M03/M05 A3008 RMK AO2 T10331050 $",
    "windDirection": 190,
    "windSpeed": 5,
    "windGust": null,
    "visibility": 8,
    "temperatureC": -3,
    "dewPointC": -5,
    "cloudCeiling": 25000,
    "altimeter": "A3008",
    "timestamp": "2025-12-03T13:55:00+00:00",
    "station": "KSTL"
  }
}