{
  "lastUpdated": "2026-02-07T22:53:38.369630+00:00",
  "kcps": {
    "metar": "KCPS 072153Z 15010KT 10SM CLR 03/M08 A3036 RMK AO2 SLP282 T00331078 $",
    "windDirection": 150,
    "windSpeed": 10,
    "windGust": null,
    "visibility": 10,
    "temperatureC": 3,
    "dewPointC": -8,
    "cloudCeiling": 99999,
    "altimeter": "A3036",
    "timestamp": "2026-02-07T21:53:00+00:00",
    "station": "KCPS"
  },
  "kstl": {
    "metar": "KSTL 072251Z 14010KT 10SM FEW150 BKN250 02/M09 A3033 RMK AO2 SLP282 T0022",
    "windDirection": 140,
    "windSpeed": 10,
    "windGust": null,
    "visibility": 10,
    "temperatureC": 2,
    "dewPointC": -9,
    "cloudCeiling": 25000,
    "altimeter": "A3033",
    "timestamp": "2026-02-07T22:51:00+00:00",
    "station": "KSTL"
  }
}