{
  "lastUpdated": "2026-04-22T16:37:15.021925+00:00",
  "kcps": {
    "metar": "KCPS 221553Z 24007KT 10SM CLR 21/11 A3007 RMK AO2 SLP179 T02060111 $",
    "windDirection": 240,
    "windSpeed": 7,
    "windGust": null,
    "visibility": 10,
    "temperatureC": 21,
    "dewPointC": 11,
    "cloudCeiling": 99999,
    "altimeter": "A3007",
    "timestamp": "2026-04-22T15:53:00+00:00",
    "station": "KCPS"
  },
  "kstl": {
    "metar": "KSTL 221551Z 26009KT 10SM FEW150 FEW250 21/12 A3007 RMK AO2 SLP175 T02060122 $",
    "windDirection": 260,
    "windSpeed": 9,
    "windGust": null,
    "visibility": 10,
    "temperatureC": 21,
    "dewPointC": 12,
    "cloudCeiling": null,
    "altimeter": "A3007",
    "timestamp": "2026-04-22T15:51:00+00:00",
    "station": "KSTL"
  }
}