{
  "lastUpdated": "2026-05-19T00:06:41.708564+00:00",
  "kcps": {
    "metar": "KCPS 190000Z 15018G25KT 9SM -TSRA BKN060 BKN100 BKN120 18/18 A2994 RMK AO2 LTG DSNT NE AND S AND SW TSE2354 PRESFR P0002 T01830178 $",
    "windDirection": 150,
    "windSpeed": 18,
    "windGust": 25,
    "visibility": 9,
    "temperatureC": 18,
    "dewPointC": 18,
    "cloudCeiling": 6000,
    "altimeter": "A2994",
    "timestamp": "2026-05-19T00:00:00+00:00",
    "station": "KCPS"
  },
  "kstl": {
    "metar": "KSTL 182351Z 12020G27KT 10SM -TSRA FEW008 SCT050 BKN075CB BKN250 19/17 A2984 RMK AO2 PK WND 15027/2329 SLP096 OCNL LTGCCCG NE-SE TS NE-SE MOV NE P0041 60136 T01890172 10200 20183 58063 $",
    "windDirection": 120,
    "windSpeed": 20,
    "windGust": 27,
    "visibility": 10,
    "temperatureC": 19,
    "dewPointC": 17,
    "cloudCeiling": 7500,
    "altimeter": "A2984",
    "timestamp": "2026-05-18T23:51:00+00:00",
    "station": "KSTL"
  }
}