{
  "lastUpdated": "2025-11-23T18:22:27.472849+00:00",
  "kcps": {
    "metar": "KCPS 231753Z 00000KT 4SM BR OVC008 09/07 A3021 RMK AO2 SLP231 T00940072 10094 20044 58006",
    "windDirection": 0,
    "windSpeed": 0,
    "windGust": null,
    "visibility": 4,
    "temperatureC": 9,
    "dewPointC": 7,
    "cloudCeiling": 800,
    "altimeter": "A3021",
    "timestamp": "2025-11-23T17:53:00+00:00",
    "station": "KCPS"
  },
  "kstl": {
    "metar": "KSTL 231751Z 00000KT 9SM OVC006 08/07 A3021 RMK AO2 SLP234 T00780067 10083 20061 58005 $",
    "windDirection": 0,
    "windSpeed": 0,
    "windGust": null,
    "visibility": 9,
    "temperatureC": 8,
    "dewPointC": 7,
    "cloudCeiling": 600,
    "altimeter": "A3021",
    "timestamp": "2025-11-23T17:51:00+00:00",
    "station": "KSTL"
  }
}