{
  "lastUpdated": "2026-03-12T20:23:44.720856+00:00",
  "kcps": {
    "metar": "KCPS 121953Z 26008KT 10SM CLR 11/M06 A3021 RMK AO2 SLP232 T01111061 $",
    "windDirection": 260,
    "windSpeed": 8,
    "windGust": null,
    "visibility": 10,
    "temperatureC": 11,
    "dewPointC": -6,
    "cloudCeiling": 99999,
    "altimeter": "A3021",
    "timestamp": "2026-03-12T19:53:00+00:00",
    "station": "KCPS"
  },
  "kstl": {
    "metar": "KSTL 121951Z 26009KT 10SM BKN250 12/M04 A3021 RMK AO2 SLP236 T01171044 $",
    "windDirection": 260,
    "windSpeed": 9,
    "windGust": null,
    "visibility": 10,
    "temperatureC": 12,
    "dewPointC": -4,
    "cloudCeiling": 25000,
    "altimeter": "A3021",
    "timestamp": "2026-03-12T19:51:00+00:00",
    "station": "KSTL"
  }
}