{
  "lastUpdated": "2026-01-08T04:15:41.962915+00:00",
  "kcps": {
    "metar": "KCPS 080353Z 17005KT 10SM CLR 09/04 A2990 RMK AO2 SLP127 T00940039 $",
    "windDirection": 170,
    "windSpeed": 5,
    "windGust": null,
    "visibility": 10,
    "temperatureC": 9,
    "dewPointC": 4,
    "cloudCeiling": 99999,
    "altimeter": "A2990",
    "timestamp": "2026-01-08T03:53:00+00:00",
    "station": "KCPS"
  },
  "kstl": {
    "metar": "KSTL 080351Z 15010KT 10SM BKN250 12/03 A2989 RMK AO2 SLP121 T01170028 $",
    "windDirection": 150,
    "windSpeed": 10,
    "windGust": null,
    "visibility": 10,
    "temperatureC": 12,
    "dewPointC": 3,
    "cloudCeiling": 25000,
    "altimeter": "A2989",
    "timestamp": "2026-01-08T03:51:00+00:00",
    "station": "KSTL"
  }
}