{
  "lastUpdated": "2026-01-26T13:55:51.783955+00:00",
  "kcps": {
    "station": "KCPS",
    "metar": "Data unavailable",
    "error": "Failed to fetch METAR"
  },
  "kstl": {
    "metar": "KSTL 261351Z 28009KT 10SM CLR M19/M23 A3049 RMK AO2 SLP351 T11891228 $",
    "windDirection": 280,
    "windSpeed": 9,
    "windGust": null,
    "visibility": 10,
    "temperatureC": -19,
    "dewPointC": -23,
    "cloudCeiling": 99999,
    "altimeter": "A3049",
    "timestamp": "2026-01-26T13:51:00+00:00",
    "station": "KSTL"
  }
}