{
  "lastUpdated": "2026-05-29T01:19:18.317103+00:00",
  "kcps": {
    "metar": "KCPS 290053Z 07004KT 10SM CLR 27/17 A3000 RMK AO2 SLP155 T02670172 $",
    "windDirection": 70,
    "windSpeed": 4,
    "windGust": null,
    "visibility": 10,
    "temperatureC": 27,
    "dewPointC": 17,
    "cloudCeiling": 99999,
    "altimeter": "A3000",
    "timestamp": "2026-05-29T00:53:00+00:00",
    "station": "KCPS"
  },
  "kstl": {
    "metar": "KSTL 290051Z 09008KT 10SM SCT200 BKN250 27/15 A3002 RMK AO2 SLP153 T02670150 $",
    "windDirection": 90,
    "windSpeed": 8,
    "windGust": null,
    "visibility": 10,
    "temperatureC": 27,
    "dewPointC": 15,
    "cloudCeiling": 25000,
    "altimeter": "A3002",
    "timestamp": "2026-05-29T00:51:00+00:00",
    "station": "KSTL"
  }
}