{
  "lastUpdated": "2026-03-14T20:22:42.677791+00:00",
  "kcps": {
    "metar": "KCPS 141953Z 15010G20KT 10SM CLR 17/02 A2993 RMK AO2 SLP135 T01720022 $",
    "windDirection": 150,
    "windSpeed": 10,
    "windGust": 20,
    "visibility": 10,
    "temperatureC": 17,
    "dewPointC": 2,
    "cloudCeiling": 99999,
    "altimeter": "A2993",
    "timestamp": "2026-03-14T19:53:00+00:00",
    "station": "KCPS"
  },
  "kstl": {
    "metar": "KSTL 141951Z 13016G22KT 10SM FEW140 SCT250 17/01 A2993 RMK AO2 SLP138 T01670011 $",
    "windDirection": 130,
    "windSpeed": 16,
    "windGust": 22,
    "visibility": 10,
    "temperatureC": 17,
    "dewPointC": 1,
    "cloudCeiling": null,
    "altimeter": "A2993",
    "timestamp": "2026-03-14T19:51:00+00:00",
    "station": "KSTL"
  }
}