{
  "lastUpdated": "2026-02-15T17:51:36.061803+00:00",
  "kcps": {
    "metar": "KCPS 151737Z 35009KT 10SM OVC015 09/07 A2999 RMK AO2 T00890067 $",
    "windDirection": 350,
    "windSpeed": 9,
    "windGust": null,
    "visibility": 10,
    "temperatureC": 9,
    "dewPointC": 7,
    "cloudCeiling": 1500,
    "altimeter": "A2999",
    "timestamp": "2026-02-15T17:37:00+00:00",
    "station": "KCPS"
  },
  "kstl": {
    "metar": "KSTL 151724Z 01006KT 10SM OVC012 09/06 A2999 RMK AO2 T00890061 $",
    "windDirection": 10,
    "windSpeed": 6,
    "windGust": null,
    "visibility": 10,
    "temperatureC": 9,
    "dewPointC": 6,
    "cloudCeiling": 1200,
    "altimeter": "A2999",
    "timestamp": "2026-02-15T17:24:00+00:00",
    "station": "KSTL"
  }
}