{
  "lastUpdated": "2025-11-21T07:33:41.697706+00:00",
  "kcps": {
    "metar": "KCPS 210653Z AUTO 07004KT 3SM -RA BR OVC004 12/12 A3000 RMK AO2 RAB13 SLP159 P0000 T01170117",
    "windDirection": 70,
    "windSpeed": 4,
    "windGust": null,
    "visibility": 3,
    "temperatureC": 12,
    "dewPointC": 12,
    "cloudCeiling": 400,
    "altimeter": "A3000",
    "timestamp": "2025-11-21T06:53:00+00:00",
    "station": "KCPS"
  },
  "kstl": {
    "metar": "KSTL 210722Z 08005KT 1SM R30R/5500VP6000FT -RA BR OVC002 12/11 A2999 RMK AO2 RAB03 P0002 T01170111 $",
    "windDirection": 80,
    "windSpeed": 5,
    "windGust": null,
    "visibility": 1,
    "temperatureC": 12,
    "dewPointC": 11,
    "cloudCeiling": 200,
    "altimeter": "A2999",
    "timestamp": "2025-11-21T07:22:00+00:00",
    "station": "KSTL"
  }
}