{
  "lastUpdated": "2026-02-05T19:58:50.568284+00:00",
  "kcps": {
    "metar": "KCPS 051953Z 17010KT 10SM OVC110 02/M05 A2996 RMK AO2 SLP150 T00171050 $",
    "windDirection": 170,
    "windSpeed": 10,
    "windGust": null,
    "visibility": 10,
    "temperatureC": 2,
    "dewPointC": -5,
    "cloudCeiling": 11000,
    "altimeter": "A2996",
    "timestamp": "2026-02-05T19:53:00+00:00",
    "station": "KCPS"
  },
  "kstl": {
    "metar": "KSTL 051951Z 18009KT 10SM OVC100 02/M05 A2993 RMK AO2 PRESFR SLP150 T00171050 $",
    "windDirection": 180,
    "windSpeed": 9,
    "windGust": null,
    "visibility": 10,
    "temperatureC": 2,
    "dewPointC": -5,
    "cloudCeiling": 10000,
    "altimeter": "A2993",
    "timestamp": "2026-02-05T19:51:00+00:00",
    "station": "KSTL"
  }
}