{
  "lastUpdated": "2026-03-13T19:55:29.546549+00:00",
  "kcps": {
    "metar": "KCPS 131853Z 30014G24KT 10SM CLR 17/M06 A2995 RMK AO2 PK WND 30032/1836 SLP141 T01671061 $",
    "windDirection": 300,
    "windSpeed": 14,
    "windGust": 24,
    "visibility": 10,
    "temperatureC": 17,
    "dewPointC": -6,
    "cloudCeiling": 99999,
    "altimeter": "A2995",
    "timestamp": "2026-03-13T18:53:00+00:00",
    "station": "KCPS"
  },
  "kstl": {
    "metar": "KSTL 131951Z 30012G19KT 10SM BKN250 17/M03 A2995 RMK AO2 SLP142 T01671033 $",
    "windDirection": 300,
    "windSpeed": 12,
    "windGust": 19,
    "visibility": 10,
    "temperatureC": 17,
    "dewPointC": -3,
    "cloudCeiling": 25000,
    "altimeter": "A2995",
    "timestamp": "2026-03-13T19:51:00+00:00",
    "station": "KSTL"
  }
}