{
  "lastUpdated": "2026-04-01T21:29:34.897887+00:00",
  "kcps": {
    "metar": "KCPS 012053Z 03008KT 10SM OVC010 16/13 A2997 RMK AO2 SLP145 60000 T01560133 56019 $",
    "windDirection": 30,
    "windSpeed": 8,
    "windGust": null,
    "visibility": 10,
    "temperatureC": 16,
    "dewPointC": 13,
    "cloudCeiling": 1000,
    "altimeter": "A2997",
    "timestamp": "2026-04-01T20:53:00+00:00",
    "station": "KCPS"
  },
  "kstl": {
    "metar": "KSTL 012051Z 07008KT 9SM OVC006 12/11 A2997 RMK AO2 SLP149 T01220106 58015 $",
    "windDirection": 70,
    "windSpeed": 8,
    "windGust": null,
    "visibility": 9,
    "temperatureC": 12,
    "dewPointC": 11,
    "cloudCeiling": 600,
    "altimeter": "A2997",
    "timestamp": "2026-04-01T20:51:00+00:00",
    "station": "KSTL"
  }
}