{
  "lastUpdated": "2026-01-08T23:33:22.608252+00:00",
  "kcps": {
    "metar": "KCPS 082307Z 17013G24KT 10SM BKN025 OVC033 18/16 A2950 RMK AO2 T01830156",
    "windDirection": 170,
    "windSpeed": 13,
    "windGust": 24,
    "visibility": 10,
    "temperatureC": 18,
    "dewPointC": 16,
    "cloudCeiling": 2500,
    "altimeter": "A2950",
    "timestamp": "2026-01-08T23:07:00+00:00",
    "station": "KCPS"
  },
  "kstl": {
    "metar": "KSTL 082251Z 17016G23KT 10SM BKN022 OVC029 18/15 A2950 RMK AO2 PK WND 17026/2233 SLP987 T01780150 $",
    "windDirection": 170,
    "windSpeed": 16,
    "windGust": 23,
    "visibility": 10,
    "temperatureC": 18,
    "dewPointC": 15,
    "cloudCeiling": 2200,
    "altimeter": "A2950",
    "timestamp": "2026-01-08T22:51:00+00:00",
    "station": "KSTL"
  }
}