{
  "lastUpdated": "2026-05-10T14:45:23.199659+00:00",
  "kcps": {
    "metar": "KCPS 101353Z 01010KT 10SM CLR 17/07 A3006 RMK AO2 SLP177 T01670072 $",
    "windDirection": 10,
    "windSpeed": 10,
    "windGust": null,
    "visibility": 10,
    "temperatureC": 17,
    "dewPointC": 7,
    "cloudCeiling": 99999,
    "altimeter": "A3006",
    "timestamp": "2026-05-10T13:53:00+00:00",
    "station": "KCPS"
  },
  "kstl": {
    "metar": "KSTL 101351Z 01009KT 10SM SCT120 SCT250 16/06 A3008 RMK AO2 SLP180 T01610056 $",
    "windDirection": 10,
    "windSpeed": 9,
    "windGust": null,
    "visibility": 10,
    "temperatureC": 16,
    "dewPointC": 6,
    "cloudCeiling": null,
    "altimeter": "A3008",
    "timestamp": "2026-05-10T13:51:00+00:00",
    "station": "KSTL"
  }
}