{
  "lastUpdated": "2026-04-23T01:00:27.331538+00:00",
  "kcps": {
    "metar": "KCPS 230053Z 00000KT 10SM CLR 22/15 A2994 RMK AO2 SLP135 T02170150 $",
    "windDirection": 0,
    "windSpeed": 0,
    "windGust": null,
    "visibility": 10,
    "temperatureC": 22,
    "dewPointC": 15,
    "cloudCeiling": 99999,
    "altimeter": "A2994",
    "timestamp": "2026-04-23T00:53:00+00:00",
    "station": "KCPS"
  },
  "kstl": {
    "metar": "KSTL 230051Z 27005KT 10SM FEW045 SCT250 22/14 A2995 RMK AO2 SLP136 T02170144 $",
    "windDirection": 270,
    "windSpeed": 5,
    "windGust": null,
    "visibility": 10,
    "temperatureC": 22,
    "dewPointC": 14,
    "cloudCeiling": null,
    "altimeter": "A2995",
    "timestamp": "2026-04-23T00:51:00+00:00",
    "station": "KSTL"
  }
}