{
  "lastUpdated": "2026-04-20T00:56:19.289621+00:00",
  "kcps": {
    "metar": "KCPS 200053Z 32005KT 10SM CLR 15/01 A3015 RMK AO2 SLP211 T01500011 $",
    "windDirection": 320,
    "windSpeed": 5,
    "windGust": null,
    "visibility": 10,
    "temperatureC": 15,
    "dewPointC": 1,
    "cloudCeiling": 99999,
    "altimeter": "A3015",
    "timestamp": "2026-04-20T00:53:00+00:00",
    "station": "KCPS"
  },
  "kstl": {
    "metar": "KSTL 200051Z 31005KT 10SM FEW100 SCT250 16/01 A3016 RMK AO2 SLP214 T01560011 $",
    "windDirection": 310,
    "windSpeed": 5,
    "windGust": null,
    "visibility": 10,
    "temperatureC": 16,
    "dewPointC": 1,
    "cloudCeiling": null,
    "altimeter": "A3016",
    "timestamp": "2026-04-20T00:51:00+00:00",
    "station": "KSTL"
  }
}