{
  "lastUpdated": "2025-12-04T01:08:08.457332+00:00",
  "kcps": {
    "metar": "KCPS 040053Z 00000KT 10SM FEW031 BKN100 01/M01 A3016 RMK AO2 SLP219 T00111006 $",
    "windDirection": 0,
    "windSpeed": 0,
    "windGust": null,
    "visibility": 10,
    "temperatureC": 1,
    "dewPointC": -1,
    "cloudCeiling": 10000,
    "altimeter": "A3016",
    "timestamp": "2025-12-04T00:53:00+00:00",
    "station": "KCPS"
  },
  "kstl": {
    "metar": "KSTL 040051Z 32007KT 10SM FEW029 BKN100 02/M01 A3016 RMK AO2 SLP226 T00221011 $",
    "windDirection": 320,
    "windSpeed": 7,
    "windGust": null,
    "visibility": 10,
    "temperatureC": 2,
    "dewPointC": -1,
    "cloudCeiling": 10000,
    "altimeter": "A3016",
    "timestamp": "2025-12-04T00:51:00+00:00",
    "station": "KSTL"
  }
}