{
  "lastUpdated": "2026-02-19T17:04:50.581526+00:00",
  "kcps": {
    "metar": "KCPS 191653Z 13015G20KT 10SM BKN008 BKN095 BKN110 16/13 A2952 RMK AO2 LTG DSNT W PRESFR SLP996 T01610133 $",
    "windDirection": 130,
    "windSpeed": 15,
    "windGust": 20,
    "visibility": 10,
    "temperatureC": 16,
    "dewPointC": 13,
    "cloudCeiling": 800,
    "altimeter": "A2952",
    "timestamp": "2026-02-19T16:53:00+00:00",
    "station": "KCPS"
  },
  "kstl": {
    "metar": "KSTL 191659Z 14003KT 8SM TS FEW075CB BKN095 OVC120 14/12 A2956 RMK AO2 TSB59 OCNL LTGICCC S-SW TS S-SW MOV NE T01390122 $",
    "windDirection": 140,
    "windSpeed": 3,
    "windGust": null,
    "visibility": 8,
    "temperatureC": 14,
    "dewPointC": 12,
    "cloudCeiling": 9500,
    "altimeter": "A2956",
    "timestamp": "2026-02-19T16:59:00+00:00",
    "station": "KSTL"
  }
}