{
  "lastUpdated": "2025-11-20T11:32:16.038388+00:00",
  "kcps": {
    "metar": "KCPS 201053Z AUTO 12005KT 6SM BR OVC007 09/08 A3010 RMK AO2 SLP195 T00940078",
    "windDirection": 120,
    "windSpeed": 5,
    "windGust": null,
    "visibility": 6,
    "temperatureC": 9,
    "dewPointC": 8,
    "cloudCeiling": 700,
    "altimeter": "A3010",
    "timestamp": "2025-11-20T10:53:00+00:00",
    "station": "KCPS"
  },
  "kstl": {
    "metar": "KSTL 201051Z 13008KT 4SM BR OVC006 09/08 A3010 RMK AO2 SLP195 T00890078 $",
    "windDirection": 130,
    "windSpeed": 8,
    "windGust": null,
    "visibility": 4,
    "temperatureC": 9,
    "dewPointC": 8,
    "cloudCeiling": 600,
    "altimeter": "A3010",
    "timestamp": "2025-11-20T10:51:00+00:00",
    "station": "KSTL"
  }
}