{
  "lastUpdated": "2026-05-11T16:50:23.098823+00:00",
  "kcps": {
    "metar": "KCPS 111553Z 27007KT 10SM CLR 21/04 A3024 RMK AO2 SLP238 T02060039 $",
    "windDirection": 270,
    "windSpeed": 7,
    "windGust": null,
    "visibility": 10,
    "temperatureC": 21,
    "dewPointC": 4,
    "cloudCeiling": 99999,
    "altimeter": "A3024",
    "timestamp": "2026-05-11T15:53:00+00:00",
    "station": "KCPS"
  },
  "kstl": {
    "metar": "KSTL 111551Z 29007KT 10SM FEW250 20/04 A3025 RMK AO2 SLP239 T02000044 $",
    "windDirection": 290,
    "windSpeed": 7,
    "windGust": null,
    "visibility": 10,
    "temperatureC": 20,
    "dewPointC": 4,
    "cloudCeiling": null,
    "altimeter": "A3025",
    "timestamp": "2026-05-11T15:51:00+00:00",
    "station": "KSTL"
  }
}