{
  "lastUpdated": "2026-01-02T06:02:47.514012+00:00",
  "kcps": {
    "metar": "KCPS 020553Z AUTO 05004KT 3SM BR OVC003 01/00 A2990 RMK AO2 SLP128 T00110000 10017 20011 400221067 50000 $",
    "windDirection": 50,
    "windSpeed": 4,
    "windGust": null,
    "visibility": 3,
    "temperatureC": 1,
    "dewPointC": 0,
    "cloudCeiling": 300,
    "altimeter": "A2990",
    "timestamp": "2026-01-02T05:53:00+00:00",
    "station": "KCPS"
  },
  "kstl": {
    "metar": "KSTL 020551Z 01006KT 4SM BR OVC005 01/00 A2990 RMK AO2 SLP134 T00110000 10011 20011 400221033 58000 $",
    "windDirection": 10,
    "windSpeed": 6,
    "windGust": null,
    "visibility": 4,
    "temperatureC": 1,
    "dewPointC": 0,
    "cloudCeiling": 500,
    "altimeter": "A2990",
    "timestamp": "2026-01-02T05:51:00+00:00",
    "station": "KSTL"
  }
}