{
  "lastUpdated": "2026-02-20T14:50:30.208196+00:00",
  "kcps": {
    "metar": "KCPS 201253Z 27012G24KT 10SM CLR M01/M07 A2982 RMK AO2 SLP096 T10111067 $",
    "windDirection": 270,
    "windSpeed": 12,
    "windGust": 24,
    "visibility": 10,
    "temperatureC": -1,
    "dewPointC": -7,
    "cloudCeiling": 99999,
    "altimeter": "A2982",
    "timestamp": "2026-02-20T12:53:00+00:00",
    "station": "KCPS"
  },
  "kstl": {
    "metar": "KSTL 201351Z 27022G28KT 10SM FEW028 M01/M07 A2985 RMK AO2 PK WND 27028/1349 SLP109 T10061067 $",
    "windDirection": 270,
    "windSpeed": 22,
    "windGust": 28,
    "visibility": 10,
    "temperatureC": -1,
    "dewPointC": -7,
    "cloudCeiling": null,
    "altimeter": "A2985",
    "timestamp": "2026-02-20T13:51:00+00:00",
    "station": "KSTL"
  }
}