{
  "lastUpdated": "2026-04-06T16:00:01.732893+00:00",
  "kcps": {
    "metar": "KCPS 061553Z 33007KT 10SM CLR 14/03 A3033 RMK AO2 SLP271 T01440028 $",
    "windDirection": 330,
    "windSpeed": 7,
    "windGust": null,
    "visibility": 10,
    "temperatureC": 14,
    "dewPointC": 3,
    "cloudCeiling": 99999,
    "altimeter": "A3033",
    "timestamp": "2026-04-06T15:53:00+00:00",
    "station": "KCPS"
  },
  "kstl": {
    "metar": "KSTL 061551Z 31013KT 10SM FEW120 14/02 A3034 RMK AO2 SLP275 T01390022 $",
    "windDirection": 310,
    "windSpeed": 13,
    "windGust": null,
    "visibility": 10,
    "temperatureC": 14,
    "dewPointC": 2,
    "cloudCeiling": null,
    "altimeter": "A3034",
    "timestamp": "2026-04-06T15:51:00+00:00",
    "station": "KSTL"
  }
}