{
  "lastUpdated": "2026-04-13T14:31:39.654908+00:00",
  "kcps": {
    "metar": "KCPS 131353Z 20007G16KT 10SM OVC038 23/17 A3001 RMK AO2 SLP158 T02280172 $",
    "windDirection": 200,
    "windSpeed": 7,
    "windGust": 16,
    "visibility": 10,
    "temperatureC": 23,
    "dewPointC": 17,
    "cloudCeiling": 3800,
    "altimeter": "A3001",
    "timestamp": "2026-04-13T13:53:00+00:00",
    "station": "KCPS"
  },
  "kstl": {
    "metar": "KSTL 131351Z 20009G17KT 10SM BKN035 BKN250 23/17 A3001 RMK AO2 SLP151 T02280167 $",
    "windDirection": 200,
    "windSpeed": 9,
    "windGust": 17,
    "visibility": 10,
    "temperatureC": 23,
    "dewPointC": 17,
    "cloudCeiling": 3500,
    "altimeter": "A3001",
    "timestamp": "2026-04-13T13:51:00+00:00",
    "station": "KSTL"
  }
}