{
  "lastUpdated": "2026-03-26T18:17:13.942042+00:00",
  "kcps": {
    "metar": "KCPS 261753Z 20011G24KT 10SM CLR 31/16 A2976 RMK AO2 SLP073 T03060161 10306 20211 58022 $",
    "windDirection": 200,
    "windSpeed": 11,
    "windGust": 24,
    "visibility": 10,
    "temperatureC": 31,
    "dewPointC": 16,
    "cloudCeiling": 99999,
    "altimeter": "A2976",
    "timestamp": "2026-03-26T17:53:00+00:00",
    "station": "KCPS"
  },
  "kstl": {
    "metar": "KSTL 261751Z 21015G23KT 10SM FEW100 FEW250 31/16 A2976 RMK AO2 SLP067 T03060156 10306 20206 58019 $",
    "windDirection": 210,
    "windSpeed": 15,
    "windGust": 23,
    "visibility": 10,
    "temperatureC": 31,
    "dewPointC": 16,
    "cloudCeiling": null,
    "altimeter": "A2976",
    "timestamp": "2026-03-26T17:51:00+00:00",
    "station": "KSTL"
  }
}