{
  "lastUpdated": "2025-12-13T07:22:15.525423+00:00",
  "kcps": {
    "metar": "KCPS 130553Z AUTO 28004KT 10SM OVC013 01/M02 A3020 RMK AO2 SLP230 T00111017 10022 20000 400330000 53002",
    "windDirection": 280,
    "windSpeed": 4,
    "windGust": null,
    "visibility": 10,
    "temperatureC": 1,
    "dewPointC": -2,
    "cloudCeiling": 1300,
    "altimeter": "A3020",
    "timestamp": "2025-12-13T05:53:00+00:00",
    "station": "KCPS"
  },
  "kstl": {
    "metar": "KSTL 130651Z 29008KT 10SM OVC011 01/M01 A3019 RMK AO2 SLP232 T00061011 $",
    "windDirection": 290,
    "windSpeed": 8,
    "windGust": null,
    "visibility": 10,
    "temperatureC": 1,
    "dewPointC": -1,
    "cloudCeiling": 1100,
    "altimeter": "A3019",
    "timestamp": "2025-12-13T06:51:00+00:00",
    "station": "KSTL"
  }
}