{
  "lastUpdated": "2025-10-14T11:46:52.254660+00:00",
  "kcps": {
    "metar": "KCPS 141053Z AUTO 00000KT 10SM CLR 14/13 A3020 RMK AO2 SLP225 T01390128 $",
    "windDirection": 0,
    "windSpeed": 0,
    "windGust": null,
    "visibility": 10,
    "temperatureC": 14,
    "dewPointC": 13,
    "cloudCeiling": 99999,
    "altimeter": "A3020",
    "timestamp": "2025-10-14T10:53:00+00:00",
    "station": "KCPS"
  },
  "kstl": {
    "metar": "KSTL 141051Z 10004KT 10SM CLR 17/12 A3021 RMK AO2 SLP219 T01720122 $",
    "windDirection": 100,
    "windSpeed": 4,
    "windGust": null,
    "visibility": 10,
    "temperatureC": 17,
    "dewPointC": 12,
    "cloudCeiling": 99999,
    "altimeter": "A3021",
    "timestamp": "2025-10-14T10:51:00+00:00",
    "station": "KSTL"
  }
}