{
  "lastUpdated": "2026-04-21T14:58:09.713405+00:00",
  "kcps": {
    "metar": "KCPS 211453Z 20009G15KT 10SM CLR 19/07 A3012 RMK AO2 SLP196 T01940072 58007 $",
    "windDirection": 200,
    "windSpeed": 9,
    "windGust": 15,
    "visibility": 10,
    "temperatureC": 19,
    "dewPointC": 7,
    "cloudCeiling": 99999,
    "altimeter": "A3012",
    "timestamp": "2026-04-21T14:53:00+00:00",
    "station": "KCPS"
  },
  "kstl": {
    "metar": "KSTL 211451Z 24017G28KT 10SM FEW200 BKN250 20/06 A3011 RMK AO2 PK WND 23028/1449 SLP190 T02000061 58006 $",
    "windDirection": 240,
    "windSpeed": 17,
    "windGust": 28,
    "visibility": 10,
    "temperatureC": 20,
    "dewPointC": 6,
    "cloudCeiling": 25000,
    "altimeter": "A3011",
    "timestamp": "2026-04-21T14:51:00+00:00",
    "station": "KSTL"
  }
}