{
  "lastUpdated": "2025-12-12T09:37:37.726822+00:00",
  "kcps": {
    "metar": "KCPS 120925Z AUTO 03008KT 10SM BKN011 OVC070 01/M01 A2997 RMK AO2 PRESRR T00111011 $",
    "windDirection": 30,
    "windSpeed": 8,
    "windGust": null,
    "visibility": 10,
    "temperatureC": 1,
    "dewPointC": -1,
    "cloudCeiling": 1100,
    "altimeter": "A2997",
    "timestamp": "2025-12-12T09:25:00+00:00",
    "station": "KCPS"
  },
  "kstl": {
    "metar": "KSTL 120929Z 07010KT 10SM OVC009 01/M01 A2995 RMK AO2 T00061011 $",
    "windDirection": 70,
    "windSpeed": 10,
    "windGust": null,
    "visibility": 10,
    "temperatureC": 1,
    "dewPointC": -1,
    "cloudCeiling": 900,
    "altimeter": "A2995",
    "timestamp": "2025-12-12T09:29:00+00:00",
    "station": "KSTL"
  }
}