{
  "lastUpdated": "2025-11-29T10:35:29.646485+00:00",
  "kcps": {
    "metar": "KCPS 291033Z 09008KT 7SM -SN OVC035 00/M01 A3027 RMK AO2 P0003 T00001011 $",
    "windDirection": 90,
    "windSpeed": 8,
    "windGust": null,
    "visibility": 7,
    "temperatureC": 0,
    "dewPointC": -1,
    "cloudCeiling": 3500,
    "altimeter": "A3027",
    "timestamp": "2025-11-29T10:33:00+00:00",
    "station": "KCPS"
  },
  "kstl": {
    "metar": "KSTL 291022Z 11016KT 1 1/4SM R30R/5500VP6000FT -SN BR OVC018 M01/M01 A3024 RMK AO2 P0010 T10061011 $",
    "windDirection": 110,
    "windSpeed": 16,
    "windGust": null,
    "visibility": 0.25,
    "temperatureC": -1,
    "dewPointC": -1,
    "cloudCeiling": 1800,
    "altimeter": "A3024",
    "timestamp": "2025-11-29T10:22:00+00:00",
    "station": "KSTL"
  }
}