{
  "lastUpdated": "2025-11-05T16:02:44.652573+00:00",
  "kcps": {
    "metar": "KCPS 051553Z 30014G20KT 10SM FEW002 18/08 A3006 RMK AO2 SLP179 T01830083",
    "windDirection": 300,
    "windSpeed": 14,
    "windGust": 20,
    "visibility": 10,
    "temperatureC": 18,
    "dewPointC": 8,
    "cloudCeiling": null,
    "altimeter": "A3006",
    "timestamp": "2025-11-05T15:53:00+00:00",
    "station": "KCPS"
  },
  "kstl": {
    "metar": "KSTL 051551Z 30012G20KT 10SM FEW250 18/09 A3007 RMK AO2 PK WND 28026/1526 SLP177 T01830089 $",
    "windDirection": 300,
    "windSpeed": 12,
    "windGust": 20,
    "visibility": 10,
    "temperatureC": 18,
    "dewPointC": 9,
    "cloudCeiling": null,
    "altimeter": "A3007",
    "timestamp": "2025-11-05T15:51:00+00:00",
    "station": "KSTL"
  }
}