{
  "lastUpdated": "2026-05-19T20:59:31.034251+00:00",
  "kcps": {
    "metar": "KCPS 192053Z 25003KT 10SM -RA FEW080 OVC110 25/20 A3002 RMK AO2 RAE1957B32 SLP163 P0000 60000 T02500200 50002 $",
    "windDirection": 250,
    "windSpeed": 3,
    "windGust": null,
    "visibility": 10,
    "temperatureC": 25,
    "dewPointC": 20,
    "cloudCeiling": 11000,
    "altimeter": "A3002",
    "timestamp": "2026-05-19T20:53:00+00:00",
    "station": "KCPS"
  },
  "kstl": {
    "metar": "KSTL 192051Z 26006KT 10SM -RA FEW027 SCT090 OVC110 23/19 A3006 RMK AO2 RAE04B36 SLP170 P0000 60000 T02330194 53002 $",
    "windDirection": 260,
    "windSpeed": 6,
    "windGust": null,
    "visibility": 10,
    "temperatureC": 23,
    "dewPointC": 19,
    "cloudCeiling": 11000,
    "altimeter": "A3006",
    "timestamp": "2026-05-19T20:51:00+00:00",
    "station": "KSTL"
  }
}