{
  "lastUpdated": "2026-04-27T17:55:24.112874+00:00",
  "kcps": {
    "metar": "KCPS 271653Z 15007KT 10SM FEW027 FEW034 22/19 A2970 RMK AO2 LTG DSNT W RAE04 SLP053 P0000 T02220189 $",
    "windDirection": 150,
    "windSpeed": 7,
    "windGust": null,
    "visibility": 10,
    "temperatureC": 22,
    "dewPointC": 19,
    "cloudCeiling": null,
    "altimeter": "A2970",
    "timestamp": "2026-04-27T16:53:00+00:00",
    "station": "KCPS"
  },
  "kstl": {
    "metar": "KSTL 271751Z 02012G19KT 3SM R30R/2200VP6000FT -TSRA BR FEW009 BKN017CB OVC070 19/17 A2970 RMK AO2 PK WND 32051/1736 WSHFT 1726 RAB34 TSB30 SLP051 OCNL LTGICCG N-SE TS N-SE MOV E P0035 60036 T01890167 10211 20178 58001 $",
    "windDirection": 20,
    "windSpeed": 12,
    "windGust": 19,
    "visibility": 3,
    "temperatureC": 19,
    "dewPointC": 17,
    "cloudCeiling": 1700,
    "altimeter": "A2970",
    "timestamp": "2026-04-27T17:51:00+00:00",
    "station": "KSTL"
  }
}