{
  "lastUpdated": "2025-11-13T22:02:35.799333+00:00",
  "kcps": {
    "metar": "KCPS 132153Z 17006KT 10SM CLR 18/02 A3013 RMK AO2 SLP204 T01830017",
    "windDirection": 170,
    "windSpeed": 6,
    "windGust": null,
    "visibility": 10,
    "temperatureC": 18,
    "dewPointC": 2,
    "cloudCeiling": 99999,
    "altimeter": "A3013",
    "timestamp": "2025-11-13T21:53:00+00:00",
    "station": "KCPS"
  },
  "kstl": {
    "metar": "KSTL 132151Z 16008KT 10SM FEW160 BKN250 18/02 A3013 RMK AO2 SLP203 T01830017",
    "windDirection": 160,
    "windSpeed": 8,
    "windGust": null,
    "visibility": 10,
    "temperatureC": 18,
    "dewPointC": 2,
    "cloudCeiling": 25000,
    "altimeter": "A3013",
    "timestamp": "2025-11-13T21:51:00+00:00",
    "station": "KSTL"
  }
}