{
  "lastUpdated": "2025-11-09T15:21:06.122528+00:00",
  "kcps": {
    "metar": "KCPS 091453Z 31020G27KT 10SM OVC034 04/M03 A3019 RMK AO2 PK WND 33032/1420 SLP226 T00391033 51036 $",
    "windDirection": 310,
    "windSpeed": 20,
    "windGust": 27,
    "visibility": 10,
    "temperatureC": 4,
    "dewPointC": -3,
    "cloudCeiling": 3400,
    "altimeter": "A3019",
    "timestamp": "2025-11-09T14:53:00+00:00",
    "station": "KCPS"
  },
  "kstl": {
    "metar": "KSTL 091451Z 31020G28KT 10SM SCT027 SCT034 BKN055 03/M04 A3020 RMK AO2 PK WND 31030/1437 SLP229 T00281039 51019 $",
    "windDirection": 310,
    "windSpeed": 20,
    "windGust": 28,
    "visibility": 10,
    "temperatureC": 3,
    "dewPointC": -4,
    "cloudCeiling": 5500,
    "altimeter": "A3020",
    "timestamp": "2025-11-09T14:51:00+00:00",
    "station": "KSTL"
  }
}