{
  "lastUpdated": "2026-02-21T11:21:49.614398+00:00",
  "kcps": {
    "metar": "KCPS 211053Z AUTO 36006KT 10SM FEW090 SCT120 M01/M06 A3013 RMK AO2 SLP207 T10111056 PNO $",
    "windDirection": 360,
    "windSpeed": 6,
    "windGust": null,
    "visibility": 10,
    "temperatureC": -1,
    "dewPointC": -6,
    "cloudCeiling": null,
    "altimeter": "A3013",
    "timestamp": "2026-02-21T10:53:00+00:00",
    "station": "KCPS"
  },
  "kstl": {
    "metar": "KSTL 211051Z 35005KT 10SM FEW080 BKN120 M02/M07 A3014 RMK AO2 SLP214 T10221067 $",
    "windDirection": 350,
    "windSpeed": 5,
    "windGust": null,
    "visibility": 10,
    "temperatureC": -2,
    "dewPointC": -7,
    "cloudCeiling": 12000,
    "altimeter": "A3014",
    "timestamp": "2026-02-21T10:51:00+00:00",
    "station": "KSTL"
  }
}