{
  "lastUpdated": "2025-10-18T16:35:37.257560+00:00",
  "kcps": {
    "metar": "KCPS 181628Z 28015G23KT 3/4SM +TSRA BR FEW024 BKN037 OVC055 20/19 A2979 RMK AO2 LTG DSNT ALQDS RAB1558 TSB1559 T02000189 PNO $",
    "windDirection": 280,
    "windSpeed": 15,
    "windGust": 23,
    "visibility": 0.75,
    "temperatureC": 20,
    "dewPointC": 19,
    "cloudCeiling": 3700,
    "altimeter": "A2979",
    "timestamp": "2025-10-18T16:28:00+00:00",
    "station": "KCPS"
  },
  "kstl": {
    "metar": "KSTL 181623Z 25008G20KT 7SM -TSRA SCT010 BKN034CB OVC100 19/19 A2980 RMK AO2 OCNL LTGICCG N-S TS N-S MOV NE P0019 T01940189 $",
    "windDirection": 250,
    "windSpeed": 8,
    "windGust": 20,
    "visibility": 7,
    "temperatureC": 19,
    "dewPointC": 19,
    "cloudCeiling": 3400,
    "altimeter": "A2980",
    "timestamp": "2025-10-18T16:23:00+00:00",
    "station": "KSTL"
  }
}