{
  "lastUpdated": "2026-06-14T18:54:01.226041+00:00",
  "kstl": {
    "metar": "KSTL 141851Z 34014G23KT 10SM FEW030 FEW150 24/12 A2999 RMK AO2 SLP146 T02440117 $",
    "windDirection": 340,
    "windSpeed": 14,
    "windGust": 23,
    "visibility": 10.0,
    "temperatureC": 24.4,
    "dewPointC": 11.7,
    "cloudCeiling": null,
    "altimeter": "A2999",
    "timestamp": "2026-06-14T19:00:00.000Z",
    "station": "KSTL"
  },
  "kcps": {
    "metar": "KCPS 141753Z 33011G21KT 10SM CLR 24/13 A2999 RMK AO2 SLP151 60000 T02390133 10239 20200 51008 $",
    "windDirection": 330,
    "windSpeed": 11,
    "windGust": 21,
    "visibility": 10.0,
    "temperatureC": 23.9,
    "dewPointC": 13.3,
    "cloudCeiling": null,
    "altimeter": "A2999",
    "timestamp": "2026-06-14T18:00:00.000Z",
    "station": "KCPS"
  }
}