{
  "lastUpdated": "2026-03-31T14:29:10.171526+00:00",
  "kcps": {
    "metar": "KCPS 311353Z 19011G26KT 10SM CLR 22/14 A2990 RMK AO2 PK WND 20026/1343 SLP122 T02170144 $",
    "windDirection": 190,
    "windSpeed": 11,
    "windGust": 26,
    "visibility": 10,
    "temperatureC": 22,
    "dewPointC": 14,
    "cloudCeiling": 99999,
    "altimeter": "A2990",
    "timestamp": "2026-03-31T13:53:00+00:00",
    "station": "KCPS"
  },
  "kstl": {
    "metar": "KSTL 311351Z 19012G22KT 10SM FEW050 SCT100 BKN250 22/14 A2989 RMK AO2 SLP111 VIRGA ALQDS TCU DSNT N T02170139 $",
    "windDirection": 190,
    "windSpeed": 12,
    "windGust": 22,
    "visibility": 10,
    "temperatureC": 22,
    "dewPointC": 14,
    "cloudCeiling": 25000,
    "altimeter": "A2989",
    "timestamp": "2026-03-31T13:51:00+00:00",
    "station": "KSTL"
  }
}