{
  "lastUpdated": "2026-05-13T01:56:55.409562+00:00",
  "kcps": {
    "metar": "KCPS 130153Z 23003KT 10SM CLR 23/08 A2997 RMK AO2 SLP146 T02330083 $",
    "windDirection": 230,
    "windSpeed": 3,
    "windGust": null,
    "visibility": 10,
    "temperatureC": 23,
    "dewPointC": 8,
    "cloudCeiling": 99999,
    "altimeter": "A2997",
    "timestamp": "2026-05-13T01:53:00+00:00",
    "station": "KCPS"
  },
  "kstl": {
    "metar": "KSTL 130151Z 23007KT 10SM FEW100 SCT250 23/09 A2997 RMK AO2 SLP141 T02330094 $",
    "windDirection": 230,
    "windSpeed": 7,
    "windGust": null,
    "visibility": 10,
    "temperatureC": 23,
    "dewPointC": 9,
    "cloudCeiling": null,
    "altimeter": "A2997",
    "timestamp": "2026-05-13T01:51:00+00:00",
    "station": "KSTL"
  }
}