{
  "lastUpdated": "2025-10-21T17:25:56.267917+00:00",
  "kcps": {
    "metar": "KCPS 211653Z 27018G26KT 10SM FEW065 18/02 A2994 RMK AO2 PK WND 29027/1640 SLP137 T01780017",
    "windDirection": 270,
    "windSpeed": 18,
    "windGust": 26,
    "visibility": 10,
    "temperatureC": 18,
    "dewPointC": 2,
    "cloudCeiling": null,
    "altimeter": "A2994",
    "timestamp": "2025-10-21T16:53:00+00:00",
    "station": "KCPS"
  },
  "kstl": {
    "metar": "KSTL 211651Z 28020G30KT 10SM FEW050 17/00 A2994 RMK AO2 PK WND 29032/1637 SLP134 T01720000 $",
    "windDirection": 280,
    "windSpeed": 20,
    "windGust": 30,
    "visibility": 10,
    "temperatureC": 17,
    "dewPointC": 0,
    "cloudCeiling": null,
    "altimeter": "A2994",
    "timestamp": "2025-10-21T16:51:00+00:00",
    "station": "KSTL"
  }
}