{
  "lastUpdated": "2026-01-14T23:02:08.029160+00:00",
  "kcps": {
    "metar": "KCPS 142253Z 32018G31KT 10SM FEW046 01/M10 A3006 RMK AO2 PK WND 33034/2154 SNB2159E12 SLP182 P0000 T00061100",
    "windDirection": 320,
    "windSpeed": 18,
    "windGust": 31,
    "visibility": 10,
    "temperatureC": 1,
    "dewPointC": -10,
    "cloudCeiling": null,
    "altimeter": "A3006",
    "timestamp": "2026-01-14T22:53:00+00:00",
    "station": "KCPS"
  },
  "kstl": {
    "metar": "KSTL 142251Z 33016G27KT 10SM FEW045 FEW250 00/M10 A3006 RMK AO2 PK WND 32032/2219 SLP186 T00001100 $",
    "windDirection": 330,
    "windSpeed": 16,
    "windGust": 27,
    "visibility": 10,
    "temperatureC": 0,
    "dewPointC": -10,
    "cloudCeiling": null,
    "altimeter": "A3006",
    "timestamp": "2026-01-14T22:51:00+00:00",
    "station": "KSTL"
  }
}