{
  "lastUpdated": "2025-12-29T13:45:06.388190+00:00",
  "kcps": {
    "metar": "KCPS 291253Z 30023G31KT 9SM -SN SCT037 M08/M16 A3022 RMK AO2 PK WND 31035/1222 SNB1155 SLP239 P0000 T10831161 $",
    "windDirection": 300,
    "windSpeed": 23,
    "windGust": 31,
    "visibility": 9,
    "temperatureC": -8,
    "dewPointC": -16,
    "cloudCeiling": null,
    "altimeter": "A3022",
    "timestamp": "2025-12-29T12:53:00+00:00",
    "station": "KCPS"
  },
  "kstl": {
    "metar": "KSTL 291329Z 30019G32KT 10SM BKN029 M09/M15 A3024 RMK AO2 PK WND 29033/1254 PRESRR T10941150 $",
    "windDirection": 300,
    "windSpeed": 19,
    "windGust": 32,
    "visibility": 10,
    "temperatureC": -9,
    "dewPointC": -15,
    "cloudCeiling": 2900,
    "altimeter": "A3024",
    "timestamp": "2025-12-29T13:29:00+00:00",
    "station": "KSTL"
  }
}