{
  "lastUpdated": "2025-10-16T14:48:50.696412+00:00",
  "kcps": {
    "metar": "KCPS 161353Z 00000KT 10SM OVC080 17/14 A3015 RMK AO2 SLP206 T01720144",
    "windDirection": 0,
    "windSpeed": 0,
    "windGust": null,
    "visibility": 10,
    "temperatureC": 17,
    "dewPointC": 14,
    "cloudCeiling": 8000,
    "altimeter": "A3015",
    "timestamp": "2025-10-16T13:53:00+00:00",
    "station": "KCPS"
  },
  "kstl": {
    "metar": "KSTL 161351Z 11005KT 10SM BKN080 BKN250 18/14 A3014 RMK AO2 SLP200 T01830139 $",
    "windDirection": 110,
    "windSpeed": 5,
    "windGust": null,
    "visibility": 10,
    "temperatureC": 18,
    "dewPointC": 14,
    "cloudCeiling": 8000,
    "altimeter": "A3014",
    "timestamp": "2025-10-16T13:51:00+00:00",
    "station": "KSTL"
  }
}