{
  "lastUpdated": "2026-01-27T00:44:25.328372+00:00",
  "kcps": {
    "metar": "KCPS 262353Z 21004KT 10SM CLR M09/M18 A3041 RMK AO2 SLP306 T10941183 11083 21122 56012 $",
    "windDirection": 210,
    "windSpeed": 4,
    "windGust": null,
    "visibility": 10,
    "temperatureC": -9,
    "dewPointC": -18,
    "cloudCeiling": 99999,
    "altimeter": "A3041",
    "timestamp": "2026-01-26T23:53:00+00:00",
    "station": "KCPS"
  },
  "kstl": {
    "metar": "KSTL 262351Z 21005KT 10SM CLR M11/M18 A3039 RMK AO2 SLP316 T11061178 11089 21128 58012 $",
    "windDirection": 210,
    "windSpeed": 5,
    "windGust": null,
    "visibility": 10,
    "temperatureC": -11,
    "dewPointC": -18,
    "cloudCeiling": 99999,
    "altimeter": "A3039",
    "timestamp": "2026-01-26T23:51:00+00:00",
    "station": "KSTL"
  }
}