{
  "lastUpdated": "2025-10-18T20:02:22.657117+00:00",
  "kcps": {
    "metar": "KCPS 181953Z 18005KT 5SM VCTS RA BR BKN075 OVC100 19/18 A2974 RMK AO2 LTG DSNT E-S TSE16B38E53 SLP069 P0011 T01890178 $",
    "windDirection": 180,
    "windSpeed": 5,
    "windGust": null,
    "visibility": 5,
    "temperatureC": 19,
    "dewPointC": 18,
    "cloudCeiling": 7500,
    "altimeter": "A2974",
    "timestamp": "2025-10-18T19:53:00+00:00",
    "station": "KCPS"
  },
  "kstl": {
    "metar": "KSTL 181951Z 13004KT 6SM TSRA BR BKN080CB OVC100 19/18 A2972 RMK AO2 SLP058 OCNL LTGIC ALQDS TS ALQDS MOV NE P0023 T01890178 $",
    "windDirection": 130,
    "windSpeed": 4,
    "windGust": null,
    "visibility": 6,
    "temperatureC": 19,
    "dewPointC": 18,
    "cloudCeiling": 8000,
    "altimeter": "A2972",
    "timestamp": "2025-10-18T19:51:00+00:00",
    "station": "KSTL"
  }
}