{
  "lastUpdated": "2025-10-23T22:34:17.521296+00:00",
  "kcps": {
    "metar": "KCPS 232053Z 34008KT 10SM CLR 17/00 A3018 RMK AO2 SLP222 T01720000 56012 $",
    "windDirection": 340,
    "windSpeed": 8,
    "windGust": null,
    "visibility": 10,
    "temperatureC": 17,
    "dewPointC": 0,
    "cloudCeiling": 99999,
    "altimeter": "A3018",
    "timestamp": "2025-10-23T20:53:00+00:00",
    "station": "KCPS"
  },
  "kstl": {
    "metar": "KSTL 232151Z 30004KT 10SM FEW050 FEW250 17/M01 A3018 RMK AO2 SLP222 T01721006 $",
    "windDirection": 300,
    "windSpeed": 4,
    "windGust": null,
    "visibility": 10,
    "temperatureC": 17,
    "dewPointC": -1,
    "cloudCeiling": null,
    "altimeter": "A3018",
    "timestamp": "2025-10-23T21:51:00+00:00",
    "station": "KSTL"
  }
}