{
  "lastUpdated": "2026-04-11T17:55:20.644131+00:00",
  "kcps": {
    "metar": "KCPS 111553Z 10005KT 10SM SCT022 BKN095 17/09 A3036 RMK AO2 SLP279 T01670094 $",
    "windDirection": 100,
    "windSpeed": 5,
    "windGust": null,
    "visibility": 10,
    "temperatureC": 17,
    "dewPointC": 9,
    "cloudCeiling": 9500,
    "altimeter": "A3036",
    "timestamp": "2026-04-11T15:53:00+00:00",
    "station": "KCPS"
  },
  "kstl": {
    "metar": "KSTL 111751Z 13010KT 10SM SCT055 BKN090 OVC250 18/10 A3031 RMK AO2 SLP260 60000 T01830100 10183 20100 58015 $",
    "windDirection": 130,
    "windSpeed": 10,
    "windGust": null,
    "visibility": 10,
    "temperatureC": 18,
    "dewPointC": 10,
    "cloudCeiling": 9000,
    "altimeter": "A3031",
    "timestamp": "2026-04-11T17:51:00+00:00",
    "station": "KSTL"
  }
}