{
  "lastUpdated": "2026-01-22T14:57:48.266192+00:00",
  "kcps": {
    "metar": "KCPS 221353Z 19004KT 10SM CLR M06/M11 A3034 RMK AO2 SLP279 T10611111",
    "windDirection": 190,
    "windSpeed": 4,
    "windGust": null,
    "visibility": 10,
    "temperatureC": -6,
    "dewPointC": -11,
    "cloudCeiling": 99999,
    "altimeter": "A3034",
    "timestamp": "2026-01-22T13:53:00+00:00",
    "station": "KCPS"
  },
  "kstl": {
    "metar": "KSTL 221451Z 00000KT 10SM FEW160 BKN250 M03/M13 A3034 RMK AO2 SLP284 T10281128 51008 $",
    "windDirection": 0,
    "windSpeed": 0,
    "windGust": null,
    "visibility": 10,
    "temperatureC": -3,
    "dewPointC": -13,
    "cloudCeiling": 25000,
    "altimeter": "A3034",
    "timestamp": "2026-01-22T14:51:00+00:00",
    "station": "KSTL"
  }
}