{
  "lastUpdated": "2026-04-04T15:41:42.666227+00:00",
  "kcps": {
    "station": "KCPS",
    "metar": null,
    "error": "Failed to fetch METAR"
  },
  "kstl": {
    "metar": "KSTL 041451Z 31014G20KT 10SM SCT015 BKN029 OVC045 12/11 A2999 RMK AO2 RAE27 SLP150 P0001 60005 T01220106 53019 $",
    "windDirection": 310,
    "windSpeed": 14,
    "windGust": 20,
    "visibility": 10,
    "temperatureC": 12,
    "dewPointC": 11,
    "cloudCeiling": 2900,
    "altimeter": "A2999",
    "timestamp": "2026-04-04T14:51:00+00:00",
    "station": "KSTL"
  }
}