{
  "lastUpdated": "2025-12-08T08:02:50.187085+00:00",
  "kcps": {
    "metar": "KCPS 080800Z AUTO 36008KT 10SM BKN014 OVC030 M03/M06 A3031 RMK AO2 T10331061 $",
    "windDirection": 360,
    "windSpeed": 8,
    "windGust": null,
    "visibility": 10,
    "temperatureC": -3,
    "dewPointC": -6,
    "cloudCeiling": 1400,
    "altimeter": "A3031",
    "timestamp": "2025-12-08T08:00:00+00:00",
    "station": "KCPS"
  },
  "kstl": {
    "metar": "KSTL 080751Z 36007KT 10SM SCT014 OVC026 M04/M07 A3031 RMK AO2 SLP277 T10391072 $",
    "windDirection": 360,
    "windSpeed": 7,
    "windGust": null,
    "visibility": 10,
    "temperatureC": -4,
    "dewPointC": -7,
    "cloudCeiling": 2600,
    "altimeter": "A3031",
    "timestamp": "2025-12-08T07:51:00+00:00",
    "station": "KSTL"
  }
}