{
  "lastUpdated": "2026-06-12T11:55:56.949453+00:00",
  "kcps": {
    "metar": "KCPS 121153Z 00000KT 10SM CLR 22/17 A2999 RMK AO2 SLP151 70065 T02170172 10228 20194 53014 $",
    "windDirection": 0,
    "windSpeed": 0,
    "windGust": null,
    "visibility": 10.0,
    "temperatureC": 21.7,
    "dewPointC": 17.2,
    "cloudCeiling": null,
    "altimeter": "A2999",
    "timestamp": "2026-06-12T12:00:00.000Z",
    "station": "KCPS"
  },
  "kstl": {
    "metar": "KSTL 121151Z 00000KT 10SM FEW100 FEW250 21/16 A3000 RMK AO2 SLP144 70046 T02060161 10228 20194 53008 $",
    "windDirection": 0,
    "windSpeed": 0,
    "windGust": null,
    "visibility": 10.0,
    "temperatureC": 20.6,
    "dewPointC": 16.1,
    "cloudCeiling": null,
    "altimeter": "A3000",
    "timestamp": "2026-06-12T12:00:00.000Z",
    "station": "KSTL"
  }
}