{
  "lastUpdated": "2026-01-28T13:57:58.322870+00:00",
  "kcps": {
    "metar": "KCPS 281353Z 00000KT 10SM OVC075 M10/M14 A3038 RMK AO2 SLP294 T11001139 $",
    "windDirection": 0,
    "windSpeed": 0,
    "windGust": null,
    "visibility": 10,
    "temperatureC": -10,
    "dewPointC": -14,
    "cloudCeiling": 7500,
    "altimeter": "A3038",
    "timestamp": "2026-01-28T13:53:00+00:00",
    "station": "KCPS"
  },
  "kstl": {
    "metar": "KSTL 281251Z 25004KT 10SM FEW070 BKN090 M09/M14 A3037 RMK AO2 SLP304 T10891139 $",
    "windDirection": 250,
    "windSpeed": 4,
    "windGust": null,
    "visibility": 10,
    "temperatureC": -9,
    "dewPointC": -14,
    "cloudCeiling": 9000,
    "altimeter": "A3037",
    "timestamp": "2026-01-28T12:51:00+00:00",
    "station": "KSTL"
  }
}