{
  "lastUpdated": "2026-01-02T20:02:19.697300+00:00",
  "kcps": {
    "metar": "KCPS 021953Z 05006KT 10SM OVC013 00/M03 A2992 RMK AO2 SLP134 T00001033",
    "windDirection": 50,
    "windSpeed": 6,
    "windGust": null,
    "visibility": 10,
    "temperatureC": 0,
    "dewPointC": -3,
    "cloudCeiling": 1300,
    "altimeter": "A2992",
    "timestamp": "2026-01-02T19:53:00+00:00",
    "station": "KCPS"
  },
  "kstl": {
    "metar": "KSTL 021951Z 05004KT 10SM OVC011 M01/M04 A2991 RMK AO2 SLP140 T10111039 $",
    "windDirection": 50,
    "windSpeed": 4,
    "windGust": null,
    "visibility": 10,
    "temperatureC": -1,
    "dewPointC": -4,
    "cloudCeiling": 1100,
    "altimeter": "A2991",
    "timestamp": "2026-01-02T19:51:00+00:00",
    "station": "KSTL"
  }
}