{
  "lastUpdated": "2026-04-05T16:13:06.058095+00:00",
  "kcps": {
    "metar": "KCPS 051553Z 32011G22KT 10SM CLR 11/M01 A3033 RMK AO2 SLP271 T01061006 $",
    "windDirection": 320,
    "windSpeed": 11,
    "windGust": 22,
    "visibility": 10,
    "temperatureC": 11,
    "dewPointC": -1,
    "cloudCeiling": 99999,
    "altimeter": "A3033",
    "timestamp": "2026-04-05T15:53:00+00:00",
    "station": "KCPS"
  },
  "kstl": {
    "metar": "KSTL 051551Z 30011G20KT 10SM CLR 10/M02 A3032 RMK AO2 SLP272 T01001017 $",
    "windDirection": 300,
    "windSpeed": 11,
    "windGust": 20,
    "visibility": 10,
    "temperatureC": 10,
    "dewPointC": -2,
    "cloudCeiling": 99999,
    "altimeter": "A3032",
    "timestamp": "2026-04-05T15:51:00+00:00",
    "station": "KSTL"
  }
}