{
  "lastUpdated": "2026-01-05T20:37:47.453763+00:00",
  "kcps": {
    "metar": "KCPS 051953Z 15007KT 10SM CLR 16/04 A2981 RMK AO2 SLP097 T01560044",
    "windDirection": 150,
    "windSpeed": 7,
    "windGust": null,
    "visibility": 10,
    "temperatureC": 16,
    "dewPointC": 4,
    "cloudCeiling": 99999,
    "altimeter": "A2981",
    "timestamp": "2026-01-05T19:53:00+00:00",
    "station": "KCPS"
  },
  "kstl": {
    "metar": "KSTL 051951Z 14009KT 10SM BKN250 15/04 A2981 RMK AO2 SLP097 T01500039 $",
    "windDirection": 140,
    "windSpeed": 9,
    "windGust": null,
    "visibility": 10,
    "temperatureC": 15,
    "dewPointC": 4,
    "cloudCeiling": 25000,
    "altimeter": "A2981",
    "timestamp": "2026-01-05T19:51:00+00:00",
    "station": "KSTL"
  }
}