{
  "lastUpdated": "2025-11-15T16:47:31.384748+00:00",
  "kcps": {
    "metar": "KCPS 151553Z 21007KT 10SM CLR 21/15 A2972 RMK AO2 SLP061 T02110150 $",
    "windDirection": 210,
    "windSpeed": 7,
    "windGust": null,
    "visibility": 10,
    "temperatureC": 21,
    "dewPointC": 15,
    "cloudCeiling": 99999,
    "altimeter": "A2972",
    "timestamp": "2025-11-15T15:53:00+00:00",
    "station": "KCPS"
  },
  "kstl": {
    "metar": "KSTL 151551Z 26016G24KT 10SM FEW020 BKN220 22/16 A2973 RMK AO2 SLP059 T02170156 $",
    "windDirection": 260,
    "windSpeed": 16,
    "windGust": 24,
    "visibility": 10,
    "temperatureC": 22,
    "dewPointC": 16,
    "cloudCeiling": 22000,
    "altimeter": "A2973",
    "timestamp": "2025-11-15T15:51:00+00:00",
    "station": "KSTL"
  }
}