{
  "lastUpdated": "2026-02-23T17:37:12.273387+00:00",
  "kcps": {
    "metar": "KCPS 231653Z 31007G17KT 10SM FEW031 M05/M14 A3060 RMK AO2 SLP369 T10501139 PNO $",
    "windDirection": 310,
    "windSpeed": 7,
    "windGust": 17,
    "visibility": 10,
    "temperatureC": -5,
    "dewPointC": -14,
    "cloudCeiling": null,
    "altimeter": "A3060",
    "timestamp": "2026-02-23T16:53:00+00:00",
    "station": "KCPS"
  },
  "kstl": {
    "metar": "KSTL 231651Z 32011KT 10SM SCT026 M05/M13 A3060 RMK AO2 SLP378 T10501133 $",
    "windDirection": 320,
    "windSpeed": 11,
    "windGust": null,
    "visibility": 10,
    "temperatureC": -5,
    "dewPointC": -13,
    "cloudCeiling": null,
    "altimeter": "A3060",
    "timestamp": "2026-02-23T16:51:00+00:00",
    "station": "KSTL"
  }
}