{
  "lastUpdated": "2025-12-24T03:44:02.594584+00:00",
  "kcps": {
    "metar": "KCPS 240330Z 00000KT 1 1/4SM BR FEW037 08/08 A3022 RMK AO2 T00830083 $",
    "windDirection": 0,
    "windSpeed": 0,
    "windGust": null,
    "visibility": 0.25,
    "temperatureC": 8,
    "dewPointC": 8,
    "cloudCeiling": null,
    "altimeter": "A3022",
    "timestamp": "2025-12-24T03:30:00+00:00",
    "station": "KCPS"
  },
  "kstl": {
    "metar": "KSTL 240251Z 00000KT 8SM FEW032 08/08 A3023 RMK AO2 SLP237 T00780078 51010 $",
    "windDirection": 0,
    "windSpeed": 0,
    "windGust": null,
    "visibility": 8,
    "temperatureC": 8,
    "dewPointC": 8,
    "cloudCeiling": null,
    "altimeter": "A3023",
    "timestamp": "2025-12-24T02:51:00+00:00",
    "station": "KSTL"
  }
}