{
  "lastUpdated": "2026-05-02T06:57:33.385058+00:00",
  "kcps": {
    "metar": "KCPS 020653Z AUTO 02006KT 10SM SCT080 OVC110 11/05 A3004 RMK AO2 RAE02 SLP173 P0000 T01060050 $",
    "windDirection": 20,
    "windSpeed": 6,
    "windGust": null,
    "visibility": 10,
    "temperatureC": 11,
    "dewPointC": 5,
    "cloudCeiling": 11000,
    "altimeter": "A3004",
    "timestamp": "2026-05-02T06:53:00+00:00",
    "station": "KCPS"
  },
  "kstl": {
    "metar": "KSTL 020651Z 08005KT 10SM FEW050 SCT075 BKN090 11/05 A3004 RMK AO2 RAB30E38 SLP171 P0000 T01110050 $",
    "windDirection": 80,
    "windSpeed": 5,
    "windGust": null,
    "visibility": 10,
    "temperatureC": 11,
    "dewPointC": 5,
    "cloudCeiling": 9000,
    "altimeter": "A3004",
    "timestamp": "2026-05-02T06:51:00+00:00",
    "station": "KSTL"
  }
}