{
  "lastUpdated": "2026-05-21T14:09:58.830751+00:00",
  "kcps": {
    "metar": "KCPS 211353Z 02007KT 10SM CLR 16/10 A3015 RMK AO2 SLP208 T01560100 PNO $",
    "windDirection": 20,
    "windSpeed": 7,
    "windGust": null,
    "visibility": 10,
    "temperatureC": 16,
    "dewPointC": 10,
    "cloudCeiling": 99999,
    "altimeter": "A3015",
    "timestamp": "2026-05-21T13:53:00+00:00",
    "station": "KCPS"
  },
  "kstl": {
    "metar": "KSTL 211351Z AUTO 06009KT 10SM CLR 15/09 A3016 RMK AO2 SLP209 T01500089 $",
    "windDirection": 60,
    "windSpeed": 9,
    "windGust": null,
    "visibility": 10,
    "temperatureC": 15,
    "dewPointC": 9,
    "cloudCeiling": 99999,
    "altimeter": "A3016",
    "timestamp": "2026-05-21T13:51:00+00:00",
    "station": "KSTL"
  }
}