{
  "lastUpdated": "2026-06-06T19:45:20.952919+00:00",
  "kcps": {
    "metar": "KCPS 061753Z 19006KT 10SM FEW038 BKN070 30/21 A2993 RMK AO2 SLP131 T03000206 10306 20233 58007 $",
    "windDirection": 190,
    "windSpeed": 6,
    "windGust": null,
    "visibility": 10,
    "temperatureC": 30,
    "dewPointC": 21,
    "cloudCeiling": 7000,
    "altimeter": "A2993",
    "timestamp": "2026-06-06T17:53:00+00:00",
    "station": "KCPS"
  },
  "kstl": {
    "metar": "KSTL 061851Z 22007KT 10SM SCT035 BKN090 BKN200 29/21 A2993 RMK AO2 RAB1758E08 SLP122 P0000 T02890206 $",
    "windDirection": 220,
    "windSpeed": 7,
    "windGust": null,
    "visibility": 10,
    "temperatureC": 29,
    "dewPointC": 21,
    "cloudCeiling": 9000,
    "altimeter": "A2993",
    "timestamp": "2026-06-06T18:51:00+00:00",
    "station": "KSTL"
  }
}