{
  "lastUpdated": "2026-03-17T21:00:04.494773+00:00",
  "kcps": {
    "metar": "KCPS 172053Z VRB04KT 10SM CLR 01/M15 A3023 RMK AO2 SLP243 T00061150 58018 $",
    "windDirection": null,
    "windSpeed": null,
    "windGust": null,
    "visibility": 10,
    "temperatureC": 1,
    "dewPointC": -15,
    "cloudCeiling": 99999,
    "altimeter": "A3023",
    "timestamp": "2026-03-17T20:53:00+00:00",
    "station": "KCPS"
  },
  "kstl": {
    "metar": "KSTL 172051Z 00000KT 10SM FEW100 OVC240 00/M17 A3022 RMK AO2 SLP248 T00001172 58018 $",
    "windDirection": 0,
    "windSpeed": 0,
    "windGust": null,
    "visibility": 10,
    "temperatureC": 0,
    "dewPointC": -17,
    "cloudCeiling": 24000,
    "altimeter": "A3022",
    "timestamp": "2026-03-17T20:51:00+00:00",
    "station": "KSTL"
  }
}