{
  "lastUpdated": "2026-05-18T23:05:48.195525+00:00",
  "kcps": {
    "metar": "KCPS 182253Z 14008KT 10SM -RA SCT030 BKN070 OVC080 19/18 A3002 RMK AO2 LTG DSNT ALQDS TSE15B21E36 SLP162 P0042 T01890178 $",
    "windDirection": 140,
    "windSpeed": 8,
    "windGust": null,
    "visibility": 10,
    "temperatureC": 19,
    "dewPointC": 18,
    "cloudCeiling": 7000,
    "altimeter": "A3002",
    "timestamp": "2026-05-18T22:53:00+00:00",
    "station": "KCPS"
  },
  "kstl": {
    "metar": "KSTL 182251Z VRB03KT 1SM R30R/P6000FT TSRA BR OVC044CB 19/17 A3000 RMK AO2 TSB2156 PRESFR SLP150 OCNL LTGICCC ALQDS TS ALQDS MOV NE P0040 T01890172 $",
    "windDirection": null,
    "windSpeed": null,
    "windGust": null,
    "visibility": 1,
    "temperatureC": 19,
    "dewPointC": 17,
    "cloudCeiling": 4400,
    "altimeter": "A3000",
    "timestamp": "2026-05-18T22:51:00+00:00",
    "station": "KSTL"
  }
}