{
  "lastUpdated": "2025-10-16T03:40:53.296960+00:00",
  "kcps": {
    "metar": "KCPS 160253Z AUTO 00000KT 10SM CLR 19/16 A3011 RMK AO2 SLP194 T01890161 53003",
    "windDirection": 0,
    "windSpeed": 0,
    "windGust": null,
    "visibility": 10,
    "temperatureC": 19,
    "dewPointC": 16,
    "cloudCeiling": 99999,
    "altimeter": "A3011",
    "timestamp": "2025-10-16T02:53:00+00:00",
    "station": "KCPS"
  },
  "kstl": {
    "metar": "KSTL 160251Z 09003KT 10SM CLR 22/15 A3012 RMK AO2 SLP190 T02220150 53002",
    "windDirection": 90,
    "windSpeed": 3,
    "windGust": null,
    "visibility": 10,
    "temperatureC": 22,
    "dewPointC": 15,
    "cloudCeiling": 99999,
    "altimeter": "A3012",
    "timestamp": "2025-10-16T02:51:00+00:00",
    "station": "KSTL"
  }
}