{
  "lastUpdated": "2025-10-14T03:39:06.199963+00:00",
  "kcps": {
    "metar": "KCPS 140253Z 00000KT 10SM CLR 17/16 A3013 RMK AO2 SLP199 T01670156 52017 $",
    "windDirection": 0,
    "windSpeed": 0,
    "windGust": null,
    "visibility": 10,
    "temperatureC": 17,
    "dewPointC": 16,
    "cloudCeiling": 99999,
    "altimeter": "A3013",
    "timestamp": "2025-10-14T02:53:00+00:00",
    "station": "KCPS"
  },
  "kstl": {
    "metar": "KSTL 140251Z 08004KT 10SM BKN070 OVC095 22/15 A3013 RMK AO2 SLP195 T02220150 53015 $",
    "windDirection": 80,
    "windSpeed": 4,
    "windGust": null,
    "visibility": 10,
    "temperatureC": 22,
    "dewPointC": 15,
    "cloudCeiling": 7000,
    "altimeter": "A3013",
    "timestamp": "2025-10-14T02:51:00+00:00",
    "station": "KSTL"
  }
}