{
  "lastUpdated": "2025-11-29T12:59:49.638115+00:00",
  "kcps": {
    "metar": "KCPS 291253Z 14011KT 1/2SM SN FG VV004 00/M01 A3023 RMK AO2 SLP241 P0011 T00001006 $",
    "windDirection": 140,
    "windSpeed": 11,
    "windGust": null,
    "visibility": 0.5,
    "temperatureC": 0,
    "dewPointC": -1,
    "cloudCeiling": 400,
    "altimeter": "A3023",
    "timestamp": "2025-11-29T12:53:00+00:00",
    "station": "KCPS"
  },
  "kstl": {
    "metar": "KSTL 291251Z 12013KT 1/4SM R30R/2600V4000FT +SN FZFG VV004 M01/M01 A3021 RMK AO2 SLP241 SNINCR1/4 P0012 T10061006 $",
    "windDirection": 120,
    "windSpeed": 13,
    "windGust": null,
    "visibility": 0.25,
    "temperatureC": -1,
    "dewPointC": -1,
    "cloudCeiling": 400,
    "altimeter": "A3021",
    "timestamp": "2025-11-29T12:51:00+00:00",
    "station": "KSTL"
  }
}