{
  "lastUpdated": "2026-02-15T16:22:44.545849+00:00",
  "kcps": {
    "metar": "KCPS 151553Z 03010KT 10SM OVC009 08/06 A2997 RMK AO2 SLP148 T00780061 $",
    "windDirection": 30,
    "windSpeed": 10,
    "windGust": null,
    "visibility": 10,
    "temperatureC": 8,
    "dewPointC": 6,
    "cloudCeiling": 900,
    "altimeter": "A2997",
    "timestamp": "2026-02-15T15:53:00+00:00",
    "station": "KCPS"
  },
  "kstl": {
    "metar": "KSTL 151551Z AUTO 03010KT 10SM OVC009 08/06 A2998 RMK AO2 SLP157 T00780056 $",
    "windDirection": 30,
    "windSpeed": 10,
    "windGust": null,
    "visibility": 10,
    "temperatureC": 8,
    "dewPointC": 6,
    "cloudCeiling": 900,
    "altimeter": "A2998",
    "timestamp": "2026-02-15T15:51:00+00:00",
    "station": "KSTL"
  }
}