{
  "lastUpdated": "2026-02-10T14:48:56.347571+00:00",
  "kcps": {
    "metar": "KCPS 101353Z 19003KT 7SM CLR 07/07 A2988 RMK AO2 SLP118 T00720067 $",
    "windDirection": 190,
    "windSpeed": 3,
    "windGust": null,
    "visibility": 7,
    "temperatureC": 7,
    "dewPointC": 7,
    "cloudCeiling": 99999,
    "altimeter": "A2988",
    "timestamp": "2026-02-10T13:53:00+00:00",
    "station": "KCPS"
  },
  "kstl": {
    "metar": "KSTL 101351Z 23005KT 10SM FEW005 SCT250 12/08 A2988 RMK AO2 SLP118 FU FEW005 T01170083 $",
    "windDirection": 230,
    "windSpeed": 5,
    "windGust": null,
    "visibility": 10,
    "temperatureC": 12,
    "dewPointC": 8,
    "cloudCeiling": null,
    "altimeter": "A2988",
    "timestamp": "2026-02-10T13:51:00+00:00",
    "station": "KSTL"
  }
}