{
  "lastUpdated": "2025-12-02T17:22:11.790945+00:00",
  "kcps": {
    "metar": "KCPS 021653Z 31007KT 10SM OVC014 M04/M07 A3015 RMK AO2 SLP216 T10391072",
    "windDirection": 310,
    "windSpeed": 7,
    "windGust": null,
    "visibility": 10,
    "temperatureC": -4,
    "dewPointC": -7,
    "cloudCeiling": 1400,
    "altimeter": "A3015",
    "timestamp": "2025-12-02T16:53:00+00:00",
    "station": "KCPS"
  },
  "kstl": {
    "metar": "KSTL 021651Z 28006KT 10SM OVC013 M04/M07 A3014 RMK AO2 SLP220 T10441072 $",
    "windDirection": 280,
    "windSpeed": 6,
    "windGust": null,
    "visibility": 10,
    "temperatureC": -4,
    "dewPointC": -7,
    "cloudCeiling": 1300,
    "altimeter": "A3014",
    "timestamp": "2025-12-02T16:51:00+00:00",
    "station": "KSTL"
  }
}