{
  "lastUpdated": "2025-11-18T01:51:24.950148+00:00",
  "kcps": {
    "metar": "KCPS 180146Z 13011KT 10SM VCTS OVC049 14/M03 A2992 RMK AO2 LTG DSNT W-N T01441033",
    "windDirection": 130,
    "windSpeed": 11,
    "windGust": null,
    "visibility": 10,
    "temperatureC": 14,
    "dewPointC": -3,
    "cloudCeiling": 4900,
    "altimeter": "A2992",
    "timestamp": "2025-11-18T01:46:00+00:00",
    "station": "KCPS"
  },
  "kstl": {
    "metar": "KSTL 180051Z 13015KT 10SM -RA FEW043 BKN050 OVC110 14/M03 A2994 RMK AO2 RAB03E14B30 TSB14E47 SLP142 OCNL LTGCCCG DSNT W-NW CB DSNT W-NW MOV E P0000 T01441033 $",
    "windDirection": 130,
    "windSpeed": 15,
    "windGust": null,
    "visibility": 10,
    "temperatureC": 14,
    "dewPointC": -3,
    "cloudCeiling": 5000,
    "altimeter": "A2994",
    "timestamp": "2025-11-18T00:51:00+00:00",
    "station": "KSTL"
  }
}