{
  "lastUpdated": "2025-11-24T05:21:48.500450+00:00",
  "kcps": {
    "metar": "KCPS 240509Z AUTO 15007KT 1 1/4SM BR OVC002 08/08 A3015 RMK AO2 T00830083 $",
    "windDirection": 150,
    "windSpeed": 7,
    "windGust": null,
    "visibility": 0.25,
    "temperatureC": 8,
    "dewPointC": 8,
    "cloudCeiling": 200,
    "altimeter": "A3015",
    "timestamp": "2025-11-24T05:09:00+00:00",
    "station": "KCPS"
  },
  "kstl": {
    "metar": "KSTL 240459Z 16009KT 1/4SM R30R/3500V6000FT FG VV002 08/08 A3015 RMK AO2 T00780078 $",
    "windDirection": 160,
    "windSpeed": 9,
    "windGust": null,
    "visibility": 0.25,
    "temperatureC": 8,
    "dewPointC": 8,
    "cloudCeiling": 200,
    "altimeter": "A3015",
    "timestamp": "2025-11-24T04:59:00+00:00",
    "station": "KSTL"
  }
}