{
  "lastUpdated": "2026-06-10T14:05:27.994317+00:00",
  "kcps": {
    "metar": "KCPS 101353Z 20009KT 170V240 10SM CLR 28/22 A2989 RMK AO2 SLP118 T02830222 $",
    "windDirection": 200,
    "windSpeed": 9,
    "windGust": null,
    "visibility": 10,
    "temperatureC": 28,
    "dewPointC": 22,
    "cloudCeiling": 99999,
    "altimeter": "A2989",
    "timestamp": "2026-06-10T13:53:00+00:00",
    "station": "KCPS"
  },
  "kstl": {
    "metar": "KSTL 101351Z 20012KT 10SM BKN250 28/22 A2989 RMK AO2 SLP108 T02830217 $",
    "windDirection": 200,
    "windSpeed": 12,
    "windGust": null,
    "visibility": 10,
    "temperatureC": 28,
    "dewPointC": 22,
    "cloudCeiling": 25000,
    "altimeter": "A2989",
    "timestamp": "2026-06-10T13:51:00+00:00",
    "station": "KSTL"
  }
}