{
  "lastUpdated": "2025-10-16T17:02:42.403733+00:00",
  "kcps": {
    "metar": "KCPS 161653Z VRB05KT 10SM BKN090 25/15 A3012 RMK AO2 SLP196 T02500150",
    "windDirection": null,
    "windSpeed": null,
    "windGust": null,
    "visibility": 10,
    "temperatureC": 25,
    "dewPointC": 15,
    "cloudCeiling": 9000,
    "altimeter": "A3012",
    "timestamp": "2025-10-16T16:53:00+00:00",
    "station": "KCPS"
  },
  "kstl": {
    "metar": "KSTL 161651Z 13009KT 10SM SCT090 SCT250 24/14 A3012 RMK AO2 SLP190 T02390144 $",
    "windDirection": 130,
    "windSpeed": 9,
    "windGust": null,
    "visibility": 10,
    "temperatureC": 24,
    "dewPointC": 14,
    "cloudCeiling": null,
    "altimeter": "A3012",
    "timestamp": "2025-10-16T16:51:00+00:00",
    "station": "KSTL"
  }
}