{
  "lastUpdated": "2026-06-14T11:00:48.998794+00:00",
  "kcps": {
    "metar": "KCPS 141053Z AUTO 29008G19KT 10SM FEW048 23/18 A2984 RMK AO2 SLP102 T02330183 $",
    "windDirection": 290,
    "windSpeed": 8,
    "windGust": 19,
    "visibility": 10.0,
    "temperatureC": 23.3,
    "dewPointC": 18.3,
    "cloudCeiling": null,
    "altimeter": "A2984",
    "timestamp": "2026-06-14T11:00:00.000Z",
    "station": "KCPS"
  },
  "kstl": {
    "metar": "KSTL 141051Z 29010KT 10SM SCT055 BKN250 23/18 A2985 RMK AO2 SLP095 T02280178 $",
    "windDirection": 290,
    "windSpeed": 10,
    "windGust": null,
    "visibility": 10.0,
    "temperatureC": 22.8,
    "dewPointC": 17.8,
    "cloudCeiling": 25000,
    "altimeter": "A2985",
    "timestamp": "2026-06-14T11:00:00.000Z",
    "station": "KSTL"
  }
}