{
  "lastUpdated": "2025-11-22T12:43:35.024532+00:00",
  "kcps": {
    "metar": "KCPS 221232Z 03007KT 6SM BR SCT013 OVC042 09/07 A3008 RMK AO2 T00890067",
    "windDirection": 30,
    "windSpeed": 7,
    "windGust": null,
    "visibility": 6,
    "temperatureC": 9,
    "dewPointC": 7,
    "cloudCeiling": 4200,
    "altimeter": "A3008",
    "timestamp": "2025-11-22T12:32:00+00:00",
    "station": "KCPS"
  },
  "kstl": {
    "metar": "KSTL 221151Z 03007KT 7SM OVC010 08/07 A3007 RMK AO2 SLP183 60000 70022 T00830067 10100 20083 53018 $",
    "windDirection": 30,
    "windSpeed": 7,
    "windGust": null,
    "visibility": 7,
    "temperatureC": 8,
    "dewPointC": 7,
    "cloudCeiling": 1000,
    "altimeter": "A3007",
    "timestamp": "2025-11-22T11:51:00+00:00",
    "station": "KSTL"
  }
}