{
  "lastUpdated": "2025-12-16T18:42:57.560839+00:00",
  "kcps": {
    "metar": "KCPS 161753Z 21010G15KT 10SM CLR 11/M04 A2998 RMK AO2 SLP154 T01111039 10111 21056 58036",
    "windDirection": 210,
    "windSpeed": 10,
    "windGust": 15,
    "visibility": 10,
    "temperatureC": 11,
    "dewPointC": -4,
    "cloudCeiling": 99999,
    "altimeter": "A2998",
    "timestamp": "2025-12-16T17:53:00+00:00",
    "station": "KCPS"
  },
  "kstl": {
    "metar": "KSTL 161751Z 20012KT 10SM FEW250 11/M03 A2997 RMK AO2 SLP154 T01111033 10111 21017 58033 $",
    "windDirection": 200,
    "windSpeed": 12,
    "windGust": null,
    "visibility": 10,
    "temperatureC": 11,
    "dewPointC": -3,
    "cloudCeiling": null,
    "altimeter": "A2997",
    "timestamp": "2025-12-16T17:51:00+00:00",
    "station": "KSTL"
  }
}