{
  "lastUpdated": "2026-04-27T04:24:04.032506+00:00",
  "kcps": {
    "metar": "KCPS 270353Z AUTO 13007KT 10SM CLR 21/12 A2986 RMK AO2 SLP109 T02060122 $",
    "windDirection": 130,
    "windSpeed": 7,
    "windGust": null,
    "visibility": 10,
    "temperatureC": 21,
    "dewPointC": 12,
    "cloudCeiling": 99999,
    "altimeter": "A2986",
    "timestamp": "2026-04-27T03:53:00+00:00",
    "station": "KCPS"
  },
  "kstl": {
    "metar": "KSTL 270351Z 14009G18KT 10SM FEW060 OVC120 23/11 A2986 RMK AO2 SLP102 T02280106 $",
    "windDirection": 140,
    "windSpeed": 9,
    "windGust": 18,
    "visibility": 10,
    "temperatureC": 23,
    "dewPointC": 11,
    "cloudCeiling": 12000,
    "altimeter": "A2986",
    "timestamp": "2026-04-27T03:51:00+00:00",
    "station": "KSTL"
  }
}