{
  "lastUpdated": "2026-01-11T11:02:11.724946+00:00",
  "kcps": {
    "metar": "KCPS 111053Z 32015G30KT 10SM BKN041 M02/M10 A3036 RMK AO2 PK WND 32033/1028 SNB28E39 SLP286 P0000 T10221100 $",
    "windDirection": 320,
    "windSpeed": 15,
    "windGust": 30,
    "visibility": 10,
    "temperatureC": -2,
    "dewPointC": -10,
    "cloudCeiling": 4100,
    "altimeter": "A3036",
    "timestamp": "2026-01-11T10:53:00+00:00",
    "station": "KCPS"
  },
  "kstl": {
    "metar": "KSTL 111051Z 30015G26KT 10SM BKN038 M02/M10 A3036 RMK AO2 PK WND 31029/1002 SLP287 T10221100 $",
    "windDirection": 300,
    "windSpeed": 15,
    "windGust": 26,
    "visibility": 10,
    "temperatureC": -2,
    "dewPointC": -10,
    "cloudCeiling": 3800,
    "altimeter": "A3036",
    "timestamp": "2026-01-11T10:51:00+00:00",
    "station": "KSTL"
  }
}