{
  "lastUpdated": "2025-12-01T13:05:22.729796+00:00",
  "kcps": {
    "metar": "KCPS 011253Z 07005KT 10SM OVC019 M04/M07 A3042 RMK AO2 SLP308 T10441072 $",
    "windDirection": 70,
    "windSpeed": 5,
    "windGust": null,
    "visibility": 10,
    "temperatureC": -4,
    "dewPointC": -7,
    "cloudCeiling": 1900,
    "altimeter": "A3042",
    "timestamp": "2025-12-01T12:53:00+00:00",
    "station": "KCPS"
  },
  "kstl": {
    "metar": "KSTL 011251Z 10005KT 10SM OVC020 M05/M08 A3041 RMK AO2 SLP314 T10501078 $",
    "windDirection": 100,
    "windSpeed": 5,
    "windGust": null,
    "visibility": 10,
    "temperatureC": -5,
    "dewPointC": -8,
    "cloudCeiling": 2000,
    "altimeter": "A3041",
    "timestamp": "2025-12-01T12:51:00+00:00",
    "station": "KSTL"
  }
}