{
  "lastUpdated": "2026-01-17T16:02:13.252850+00:00",
  "kcps": {
    "metar": "KCPS 171553Z 29006KT 3SM -SN FEW018 BKN027 OVC034 M06/M09 A3015 RMK AO2 SLP215 P0000 T10561094 $",
    "windDirection": 290,
    "windSpeed": 6,
    "windGust": null,
    "visibility": 3,
    "temperatureC": -6,
    "dewPointC": -9,
    "cloudCeiling": 2700,
    "altimeter": "A3015",
    "timestamp": "2026-01-17T15:53:00+00:00",
    "station": "KCPS"
  },
  "kstl": {
    "metar": "KSTL 171551Z 33010KT 1SM R30R/5500VP6000FT -SN BR BKN016 OVC035 M07/M09 A3015 RMK AO2 SLP221 P0001 T10721094 $",
    "windDirection": 330,
    "windSpeed": 10,
    "windGust": null,
    "visibility": 1,
    "temperatureC": -7,
    "dewPointC": -9,
    "cloudCeiling": 1600,
    "altimeter": "A3015",
    "timestamp": "2026-01-17T15:51:00+00:00",
    "station": "KSTL"
  }
}