{
  "lastUpdated": "2026-04-10T10:20:11.940103+00:00",
  "kcps": {
    "metar": "KCPS 100853Z 20007KT 10SM SCT100 19/08 A3014 RMK AO2 SLP202 T01940083 51005 $",
    "windDirection": 200,
    "windSpeed": 7,
    "windGust": null,
    "visibility": 10,
    "temperatureC": 19,
    "dewPointC": 8,
    "cloudCeiling": null,
    "altimeter": "A3014",
    "timestamp": "2026-04-10T08:53:00+00:00",
    "station": "KCPS"
  },
  "kstl": {
    "metar": "KSTL 100951Z VRB03KT 10SM BKN070 OVC090 20/09 A3018 RMK AO2 WSHFT 0928 SLP210 T02000089 $",
    "windDirection": null,
    "windSpeed": null,
    "windGust": null,
    "visibility": 10,
    "temperatureC": 20,
    "dewPointC": 9,
    "cloudCeiling": 7000,
    "altimeter": "A3018",
    "timestamp": "2026-04-10T09:51:00+00:00",
    "station": "KSTL"
  }
}