{
  "lastUpdated": "2026-03-17T02:35:52.381364+00:00",
  "kcps": {
    "metar": "KCPS 170153Z 30017G27KT 10SM -SN FEW025 OVC038 M04/M11 A3015 RMK AO2 PK WND 31031/0059 SNB51 SLP216 P0000 T10391111 $",
    "windDirection": 300,
    "windSpeed": 17,
    "windGust": 27,
    "visibility": 10,
    "temperatureC": -4,
    "dewPointC": -11,
    "cloudCeiling": 3800,
    "altimeter": "A3015",
    "timestamp": "2026-03-17T01:53:00+00:00",
    "station": "KCPS"
  },
  "kstl": {
    "metar": "KSTL 170210Z 30014G23KT 9SM FEW038 BKN045 M04/M13 A3014 RMK AO2 SNE10 P0000 T10441128 $",
    "windDirection": 300,
    "windSpeed": 14,
    "windGust": 23,
    "visibility": 9,
    "temperatureC": -4,
    "dewPointC": -13,
    "cloudCeiling": 4500,
    "altimeter": "A3014",
    "timestamp": "2026-03-17T02:10:00+00:00",
    "station": "KSTL"
  }
}