{
  "lastUpdated": "2025-12-16T11:21:36.947675+00:00",
  "kcps": {
    "metar": "KCPS 161053Z AUTO 18003KT 10SM CLR M04/M09 A3009 RMK AO2 SLP194 T10391089 $",
    "windDirection": 180,
    "windSpeed": 3,
    "windGust": null,
    "visibility": 10,
    "temperatureC": -4,
    "dewPointC": -9,
    "cloudCeiling": 99999,
    "altimeter": "A3009",
    "timestamp": "2025-12-16T10:53:00+00:00",
    "station": "KCPS"
  },
  "kstl": {
    "metar": "KSTL 161051Z 00000KT 10SM CLR M03/M07 A3008 RMK AO2 SLP194 T10331067 $",
    "windDirection": 0,
    "windSpeed": 0,
    "windGust": null,
    "visibility": 10,
    "temperatureC": -3,
    "dewPointC": -7,
    "cloudCeiling": 99999,
    "altimeter": "A3008",
    "timestamp": "2025-12-16T10:51:00+00:00",
    "station": "KSTL"
  }
}