{
  "lastUpdated": "2026-01-03T11:32:23.714300+00:00",
  "kcps": {
    "metar": "KCPS 031053Z 03004KT 10SM CLR M02/M06 A3001 RMK AO2 SLP167 T10171056 $",
    "windDirection": 30,
    "windSpeed": 4,
    "windGust": null,
    "visibility": 10,
    "temperatureC": -2,
    "dewPointC": -6,
    "cloudCeiling": 99999,
    "altimeter": "A3001",
    "timestamp": "2026-01-03T10:53:00+00:00",
    "station": "KCPS"
  },
  "kstl": {
    "metar": "KSTL 031051Z 02003KT 10SM BKN120 M02/M06 A3001 RMK AO2 SLP172 T10171056 $",
    "windDirection": 20,
    "windSpeed": 3,
    "windGust": null,
    "visibility": 10,
    "temperatureC": -2,
    "dewPointC": -6,
    "cloudCeiling": 12000,
    "altimeter": "A3001",
    "timestamp": "2026-01-03T10:51:00+00:00",
    "station": "KSTL"
  }
}