{
  "lastUpdated": "2025-12-18T20:21:51.150573+00:00",
  "kcps": {
    "metar": "KCPS 182000Z 29009KT 10SM -RA FEW015 OVC055 07/06 A2957 RMK AO2 P0001 T00720056",
    "windDirection": 290,
    "windSpeed": 9,
    "windGust": null,
    "visibility": 10,
    "temperatureC": 7,
    "dewPointC": 6,
    "cloudCeiling": 5500,
    "altimeter": "A2957",
    "timestamp": "2025-12-18T20:00:00+00:00",
    "station": "KCPS"
  },
  "kstl": {
    "metar": "KSTL 181951Z 28007KT 10SM SCT015 BKN055 BKN250 07/06 A2957 RMK AO2 RAE51 SLP015 P0002 T00670056 $",
    "windDirection": 280,
    "windSpeed": 7,
    "windGust": null,
    "visibility": 10,
    "temperatureC": 7,
    "dewPointC": 6,
    "cloudCeiling": 5500,
    "altimeter": "A2957",
    "timestamp": "2025-12-18T19:51:00+00:00",
    "station": "KSTL"
  }
}