{
  "lastUpdated": "2026-02-11T21:42:33.979353+00:00",
  "kcps": {
    "metar": "KCPS 112053Z 32006KT 10SM CLR 10/M04 A3029 RMK AO2 SLP261 T01001039 56015 $",
    "windDirection": 320,
    "windSpeed": 6,
    "windGust": null,
    "visibility": 10,
    "temperatureC": 10,
    "dewPointC": -4,
    "cloudCeiling": 99999,
    "altimeter": "A3029",
    "timestamp": "2026-02-11T20:53:00+00:00",
    "station": "KCPS"
  },
  "kstl": {
    "metar": "KSTL 112051Z 36004KT 10SM BKN250 09/M04 A3031 RMK AO2 SLP269 T00891039 55013 $",
    "windDirection": 360,
    "windSpeed": 4,
    "windGust": null,
    "visibility": 10,
    "temperatureC": 9,
    "dewPointC": -4,
    "cloudCeiling": 25000,
    "altimeter": "A3031",
    "timestamp": "2026-02-11T20:51:00+00:00",
    "station": "KSTL"
  }
}