{
  "lastUpdated": "2026-05-27T22:58:03.953495+00:00",
  "kcps": {
    "metar": "KCPS 272253Z 10003KT 10SM FEW090 BKN110 28/18 A2996 RMK AO2 SLP140 T02830178 $",
    "windDirection": 100,
    "windSpeed": 3,
    "windGust": null,
    "visibility": 10,
    "temperatureC": 28,
    "dewPointC": 18,
    "cloudCeiling": 11000,
    "altimeter": "A2996",
    "timestamp": "2026-05-27T22:53:00+00:00",
    "station": "KCPS"
  },
  "kstl": {
    "metar": "KSTL 272251Z 12006KT 10SM FEW065 SCT110 BKN250 28/19 A2997 RMK AO2 SLP136 T02780194 $",
    "windDirection": 120,
    "windSpeed": 6,
    "windGust": null,
    "visibility": 10,
    "temperatureC": 28,
    "dewPointC": 19,
    "cloudCeiling": 25000,
    "altimeter": "A2997",
    "timestamp": "2026-05-27T22:51:00+00:00",
    "station": "KSTL"
  }
}