{
  "lastUpdated": "2026-04-27T18:53:26.162793+00:00",
  "kcps": {
    "metar": "KCPS 271840Z 05011G22KT 10SM FEW022 OVC029 21/17 A2968 RMK AO2 LTG DSNT W-NE T02060172 $",
    "windDirection": 50,
    "windSpeed": 11,
    "windGust": 22,
    "visibility": 10,
    "temperatureC": 21,
    "dewPointC": 17,
    "cloudCeiling": 2900,
    "altimeter": "A2968",
    "timestamp": "2026-04-27T18:40:00+00:00",
    "station": "KCPS"
  },
  "kstl": {
    "metar": "KSTL 271845Z 08009KT 3/4SM R30R/3000VP6000FT +TSRA BR SCT021CB OVC044 18/17 A2970 RMK AO2 FRQ LTGICCG ALQDS TS ALQDS MOV E P0013 $",
    "windDirection": 80,
    "windSpeed": 9,
    "windGust": null,
    "visibility": 0.75,
    "temperatureC": 18,
    "dewPointC": 17,
    "cloudCeiling": 4400,
    "altimeter": "A2970",
    "timestamp": "2026-04-27T18:45:00+00:00",
    "station": "KSTL"
  }
}