{
  "lastUpdated": "2026-05-02T04:20:30.795201+00:00",
  "kcps": {
    "metar": "KCPS 020353Z AUTO 00000KT 10SM FEW080 BKN110 11/05 A3004 RMK AO2 RAB0255E06 SLP172 P0000 T01110050 $",
    "windDirection": 0,
    "windSpeed": 0,
    "windGust": null,
    "visibility": 10,
    "temperatureC": 11,
    "dewPointC": 5,
    "cloudCeiling": 11000,
    "altimeter": "A3004",
    "timestamp": "2026-05-02T03:53:00+00:00",
    "station": "KCPS"
  },
  "kstl": {
    "metar": "KSTL 020351Z 00000KT 10SM BKN080 OVC095 13/04 A3004 RMK AO2 SLP172 T01280039",
    "windDirection": 0,
    "windSpeed": 0,
    "windGust": null,
    "visibility": 10,
    "temperatureC": 13,
    "dewPointC": 4,
    "cloudCeiling": 8000,
    "altimeter": "A3004",
    "timestamp": "2026-05-02T03:51:00+00:00",
    "station": "KSTL"
  }
}