{
  "lastUpdated": "2026-05-28T19:08:16.475368+00:00",
  "kcps": {
    "metar": "KCPS 281853Z 10010KT 10SM CLR 29/19 A3004 RMK AO2 SLP167 T02940189 $",
    "windDirection": 100,
    "windSpeed": 10,
    "windGust": null,
    "visibility": 10,
    "temperatureC": 29,
    "dewPointC": 19,
    "cloudCeiling": 99999,
    "altimeter": "A3004",
    "timestamp": "2026-05-28T18:53:00+00:00",
    "station": "KCPS"
  },
  "kstl": {
    "metar": "KSTL 281851Z 08012G22KT 10SM FEW049 FEW150 BKN250 29/17 A3004 RMK AO2 SLP163 T02940172 $",
    "windDirection": 80,
    "windSpeed": 12,
    "windGust": 22,
    "visibility": 10,
    "temperatureC": 29,
    "dewPointC": 17,
    "cloudCeiling": 25000,
    "altimeter": "A3004",
    "timestamp": "2026-05-28T18:51:00+00:00",
    "station": "KSTL"
  }
}