{
  "lastUpdated": "2026-05-26T13:42:06.450156+00:00",
  "kcps": {
    "metar": "KCPS 261253Z AUTO 03003KT 10SM BKN036 19/16 A3002 RMK AO2 SLP162 T01940161 $",
    "windDirection": 30,
    "windSpeed": 3,
    "windGust": null,
    "visibility": 10,
    "temperatureC": 19,
    "dewPointC": 16,
    "cloudCeiling": 3600,
    "altimeter": "A3002",
    "timestamp": "2026-05-26T12:53:00+00:00",
    "station": "KCPS"
  },
  "kstl": {
    "metar": "KSTL 261251Z 00000KT 10SM FEW028 FEW200 BKN250 20/16 A3003 RMK AO2 SLP161 T02000156 $",
    "windDirection": 0,
    "windSpeed": 0,
    "windGust": null,
    "visibility": 10,
    "temperatureC": 20,
    "dewPointC": 16,
    "cloudCeiling": 25000,
    "altimeter": "A3003",
    "timestamp": "2026-05-26T12:51:00+00:00",
    "station": "KSTL"
  }
}