{
  "lastUpdated": "2026-03-20T11:52:29.086080+00:00",
  "kcps": {
    "metar": "KCPS 201053Z AUTO 00000KT 10SM CLR 08/06 A2991 RMK AO2 SLP127 T00830061 PNO $",
    "windDirection": 0,
    "windSpeed": 0,
    "windGust": null,
    "visibility": 10,
    "temperatureC": 8,
    "dewPointC": 6,
    "cloudCeiling": 99999,
    "altimeter": "A2991",
    "timestamp": "2026-03-20T10:53:00+00:00",
    "station": "KCPS"
  },
  "kstl": {
    "metar": "KSTL 201051Z 00000KT 10SM BKN250 13/06 A2992 RMK AO2 SLP124 T01330061 $",
    "windDirection": 0,
    "windSpeed": 0,
    "windGust": null,
    "visibility": 10,
    "temperatureC": 13,
    "dewPointC": 6,
    "cloudCeiling": 25000,
    "altimeter": "A2992",
    "timestamp": "2026-03-20T10:51:00+00:00",
    "station": "KSTL"
  }
}