{
  "lastUpdated": "2025-12-20T21:20:57.397841+00:00",
  "kcps": {
    "metar": "KCPS 202053Z 33012KT 10SM CLR 13/M01 A2991 RMK AO2 SLP129 T01281011 53021 $",
    "windDirection": 330,
    "windSpeed": 12,
    "windGust": null,
    "visibility": 10,
    "temperatureC": 13,
    "dewPointC": -1,
    "cloudCeiling": 99999,
    "altimeter": "A2991",
    "timestamp": "2025-12-20T20:53:00+00:00",
    "station": "KCPS"
  },
  "kstl": {
    "metar": "KSTL 202051Z 33007KT 10SM FEW200 BKN250 11/M02 A2993 RMK AO2 SLP139 T01061017 53026 $",
    "windDirection": 330,
    "windSpeed": 7,
    "windGust": null,
    "visibility": 10,
    "temperatureC": 11,
    "dewPointC": -2,
    "cloudCeiling": 25000,
    "altimeter": "A2993",
    "timestamp": "2025-12-20T20:51:00+00:00",
    "station": "KSTL"
  }
}