{
  "lastUpdated": "2026-01-18T04:20:39.834385+00:00",
  "kcps": {
    "metar": "KCPS 180353Z 29008KT 10SM OVC110 M09/M15 A3030 RMK AO2 SLP268 T10891150 $",
    "windDirection": 290,
    "windSpeed": 8,
    "windGust": null,
    "visibility": 10,
    "temperatureC": -9,
    "dewPointC": -15,
    "cloudCeiling": 11000,
    "altimeter": "A3030",
    "timestamp": "2026-01-18T03:53:00+00:00",
    "station": "KCPS"
  },
  "kstl": {
    "metar": "KSTL 180351Z 28017G21KT 10SM BKN030 OVC036 M09/M17 A3029 RMK AO2 SLP274 T10891167 $",
    "windDirection": 280,
    "windSpeed": 17,
    "windGust": 21,
    "visibility": 10,
    "temperatureC": -9,
    "dewPointC": -17,
    "cloudCeiling": 3000,
    "altimeter": "A3029",
    "timestamp": "2026-01-18T03:51:00+00:00",
    "station": "KSTL"
  }
}