{
  "lastUpdated": "2025-11-23T04:26:12.146615+00:00",
  "kcps": {
    "metar": "KCPS 230353Z 25004KT 10SM CLR 08/07 A3015 RMK AO2 SLP211 T00780067",
    "windDirection": 250,
    "windSpeed": 4,
    "windGust": null,
    "visibility": 10,
    "temperatureC": 8,
    "dewPointC": 7,
    "cloudCeiling": 99999,
    "altimeter": "A3015",
    "timestamp": "2025-11-23T03:53:00+00:00",
    "station": "KCPS"
  },
  "kstl": {
    "metar": "KSTL 230351Z 26007KT 8SM FEW240 08/07 A3015 RMK AO2 SLP212 T00830072 $",
    "windDirection": 260,
    "windSpeed": 7,
    "windGust": null,
    "visibility": 8,
    "temperatureC": 8,
    "dewPointC": 7,
    "cloudCeiling": null,
    "altimeter": "A3015",
    "timestamp": "2025-11-23T03:51:00+00:00",
    "station": "KSTL"
  }
}