{
  "lastUpdated": "2026-05-31T19:07:40.488867+00:00",
  "kcps": {
    "metar": "KCPS 311853Z 13003KT 8SM -RA FEW055 BKN090 BKN110 26/17 A2997 RMK AO2 RAB51 PRESFR SLP144 P0001 T02560172 $",
    "windDirection": 130,
    "windSpeed": 3,
    "windGust": null,
    "visibility": 8,
    "temperatureC": 26,
    "dewPointC": 17,
    "cloudCeiling": 9000,
    "altimeter": "A2997",
    "timestamp": "2026-05-31T18:53:00+00:00",
    "station": "KCPS"
  },
  "kstl": {
    "metar": "KSTL 311851Z 13012G21KT 10SM FEW070 BKN095 BKN250 24/17 A2994 RMK AO2 RAB32E42 SLP129 P0000 T02440167 $",
    "windDirection": 130,
    "windSpeed": 12,
    "windGust": 21,
    "visibility": 10,
    "temperatureC": 24,
    "dewPointC": 17,
    "cloudCeiling": 9500,
    "altimeter": "A2994",
    "timestamp": "2026-05-31T18:51:00+00:00",
    "station": "KSTL"
  }
}