{
  "lastUpdated": "2026-03-27T00:12:58.290725+00:00",
  "kcps": {
    "metar": "KCPS 262353Z 20008G17KT 10SM CLR 32/12 A2969 RMK AO2 SLP048 T03170122 10339 20306 53008 $",
    "windDirection": 200,
    "windSpeed": 8,
    "windGust": 17,
    "visibility": 10,
    "temperatureC": 32,
    "dewPointC": 12,
    "cloudCeiling": 99999,
    "altimeter": "A2969",
    "timestamp": "2026-03-26T23:53:00+00:00",
    "station": "KCPS"
  },
  "kstl": {
    "metar": "KSTL 262351Z 22008KT 10SM BKN110 OVC250 31/13 A2969 RMK AO2 SLP042 T03110128 10339 20306 53005 $",
    "windDirection": 220,
    "windSpeed": 8,
    "windGust": null,
    "visibility": 10,
    "temperatureC": 31,
    "dewPointC": 13,
    "cloudCeiling": 11000,
    "altimeter": "A2969",
    "timestamp": "2026-03-26T23:51:00+00:00",
    "station": "KSTL"
  }
}