{
  "lastUpdated": "2026-06-09T15:44:31.150116+00:00",
  "kcps": {
    "metar": "KCPS 091453Z 25007KT 10SM CLR 29/23 A3001 RMK AO2 SLP156 T02890228 53019 $",
    "windDirection": 250,
    "windSpeed": 7,
    "windGust": null,
    "visibility": 10,
    "temperatureC": 29,
    "dewPointC": 23,
    "cloudCeiling": 99999,
    "altimeter": "A3001",
    "timestamp": "2026-06-09T14:53:00+00:00",
    "station": "KCPS"
  },
  "kstl": {
    "metar": "KSTL 091451Z 26011KT 10SM FEW044 FEW100 BKN250 29/22 A3002 RMK AO2 SLP150 T02940217 53021 $",
    "windDirection": 260,
    "windSpeed": 11,
    "windGust": null,
    "visibility": 10,
    "temperatureC": 29,
    "dewPointC": 22,
    "cloudCeiling": 25000,
    "altimeter": "A3002",
    "timestamp": "2026-06-09T14:51:00+00:00",
    "station": "KSTL"
  }
}