{
  "lastUpdated": "2026-05-10T13:07:35.933198+00:00",
  "kcps": {
    "metar": "KCPS 101253Z 01007KT 10SM SCT110 15/09 A3005 RMK AO2 SLP173 T01500089 $",
    "windDirection": 10,
    "windSpeed": 7,
    "windGust": null,
    "visibility": 10,
    "temperatureC": 15,
    "dewPointC": 9,
    "cloudCeiling": null,
    "altimeter": "A3005",
    "timestamp": "2026-05-10T12:53:00+00:00",
    "station": "KCPS"
  },
  "kstl": {
    "metar": "KSTL 101251Z 01008KT 10SM FEW090 SCT120 BKN250 14/06 A3007 RMK AO2 SLP174 T01440056 $",
    "windDirection": 10,
    "windSpeed": 8,
    "windGust": null,
    "visibility": 10,
    "temperatureC": 14,
    "dewPointC": 6,
    "cloudCeiling": 25000,
    "altimeter": "A3007",
    "timestamp": "2026-05-10T12:51:00+00:00",
    "station": "KSTL"
  }
}