{
  "lastUpdated": "2026-06-01T12:58:43.113467+00:00",
  "kcps": {
    "metar": "KCPS 011253Z 09011KT 8SM -RA FEW065 BKN090 BKN110 19/18 A2996 RMK AO2 LTG DSNT NE-S TSE02B21E36 PRESFR SLP142 P0022 T01890178 $",
    "windDirection": 90,
    "windSpeed": 11,
    "windGust": null,
    "visibility": 8,
    "temperatureC": 19,
    "dewPointC": 18,
    "cloudCeiling": 9000,
    "altimeter": "A2996",
    "timestamp": "2026-06-01T12:53:00+00:00",
    "station": "KCPS"
  },
  "kstl": {
    "metar": "KSTL 011251Z 11006KT 10SM -RA FEW005 SCT095 BKN120 OVC200 19/18 A2998 RMK AO2 TSE14B28E44 SLP143 P0014 T01890178 $",
    "windDirection": 110,
    "windSpeed": 6,
    "windGust": null,
    "visibility": 10,
    "temperatureC": 19,
    "dewPointC": 18,
    "cloudCeiling": 12000,
    "altimeter": "A2998",
    "timestamp": "2026-06-01T12:51:00+00:00",
    "station": "KSTL"
  }
}