{
  "lastUpdated": "2025-10-27T22:46:34.112079+00:00",
  "kcps": {
    "metar": "KCPS 272238Z 00000KT 10SM OVC030 12/10 A3001 RMK AO2 T01220100",
    "windDirection": 0,
    "windSpeed": 0,
    "windGust": null,
    "visibility": 10,
    "temperatureC": 12,
    "dewPointC": 10,
    "cloudCeiling": 3000,
    "altimeter": "A3001",
    "timestamp": "2025-10-27T22:38:00+00:00",
    "station": "KCPS"
  },
  "kstl": {
    "metar": "KSTL 272225Z 14004KT 10SM FEW015 SCT027 OVC037 13/09 A3001 RMK AO2 T01330094 $",
    "windDirection": 140,
    "windSpeed": 4,
    "windGust": null,
    "visibility": 10,
    "temperatureC": 13,
    "dewPointC": 9,
    "cloudCeiling": 3700,
    "altimeter": "A3001",
    "timestamp": "2025-10-27T22:25:00+00:00",
    "station": "KSTL"
  }
}