{
  "lastUpdated": "2026-05-02T22:25:07.666330+00:00",
  "kcps": {
    "metar": "KCPS 022153Z 02007KT 10SM BKN070 16/01 A3008 RMK AO2 SLP185 T01560011 $",
    "windDirection": 20,
    "windSpeed": 7,
    "windGust": null,
    "visibility": 10,
    "temperatureC": 16,
    "dewPointC": 1,
    "cloudCeiling": 7000,
    "altimeter": "A3008",
    "timestamp": "2026-05-02T21:53:00+00:00",
    "station": "KCPS"
  },
  "kstl": {
    "metar": "KSTL 022151Z 32010KT 10SM SCT060 BKN085 16/00 A3008 RMK AO2 SLP188 T01560000 $",
    "windDirection": 320,
    "windSpeed": 10,
    "windGust": null,
    "visibility": 10,
    "temperatureC": 16,
    "dewPointC": 0,
    "cloudCeiling": 8500,
    "altimeter": "A3008",
    "timestamp": "2026-05-02T21:51:00+00:00",
    "station": "KSTL"
  }
}