{
  "lastUpdated": "2026-01-15T06:23:24.739107+00:00",
  "kcps": {
    "metar": "KCPS 150553Z AUTO 33012G20KT 10SM CLR M04/M13 A3012 RMK AO2 SLP203 T10391133 10000 21044 400831044 50001",
    "windDirection": 330,
    "windSpeed": 12,
    "windGust": 20,
    "visibility": 10,
    "temperatureC": -4,
    "dewPointC": -13,
    "cloudCeiling": 99999,
    "altimeter": "A3012",
    "timestamp": "2026-01-15T05:53:00+00:00",
    "station": "KCPS"
  },
  "kstl": {
    "metar": "KSTL 150551Z 32009KT 10SM CLR M04/M13 A3012 RMK AO2 SLP210 T10441128 11006 21050 400831050 50001 $",
    "windDirection": 320,
    "windSpeed": 9,
    "windGust": null,
    "visibility": 10,
    "temperatureC": -4,
    "dewPointC": -13,
    "cloudCeiling": 99999,
    "altimeter": "A3012",
    "timestamp": "2026-01-15T05:51:00+00:00",
    "station": "KSTL"
  }
}