{
  "lastUpdated": "2026-03-22T08:57:14.963046+00:00",
  "kcps": {
    "metar": "KCPS 220753Z AUTO 16005KT 10SM CLR 17/13 A2969 RMK AO2 SLP050 T01670133 $",
    "windDirection": 160,
    "windSpeed": 5,
    "windGust": null,
    "visibility": 10,
    "temperatureC": 17,
    "dewPointC": 13,
    "cloudCeiling": 99999,
    "altimeter": "A2969",
    "timestamp": "2026-03-22T07:53:00+00:00",
    "station": "KCPS"
  },
  "kstl": {
    "metar": "KSTL 220851Z 22011KT 10SM CLR 22/13 A2967 RMK AO2 SLP033 T02170133 58022 $",
    "windDirection": 220,
    "windSpeed": 11,
    "windGust": null,
    "visibility": 10,
    "temperatureC": 22,
    "dewPointC": 13,
    "cloudCeiling": 99999,
    "altimeter": "A2967",
    "timestamp": "2026-03-22T08:51:00+00:00",
    "station": "KSTL"
  }
}