{
  "lastUpdated": "2026-01-07T01:10:01.137907+00:00",
  "kcps": {
    "metar": "KCPS 070053Z 24004KT 10SM CLR 14/02 A2979 RMK AO2 SLP089 T01390022 $",
    "windDirection": 240,
    "windSpeed": 4,
    "windGust": null,
    "visibility": 10,
    "temperatureC": 14,
    "dewPointC": 2,
    "cloudCeiling": 99999,
    "altimeter": "A2979",
    "timestamp": "2026-01-07T00:53:00+00:00",
    "station": "KCPS"
  },
  "kstl": {
    "metar": "KSTL 070051Z 29008KT 10SM SCT250 12/01 A2981 RMK AO2 SLP095 T01220011 $",
    "windDirection": 290,
    "windSpeed": 8,
    "windGust": null,
    "visibility": 10,
    "temperatureC": 12,
    "dewPointC": 1,
    "cloudCeiling": null,
    "altimeter": "A2981",
    "timestamp": "2026-01-07T00:51:00+00:00",
    "station": "KSTL"
  }
}