{
  "lastUpdated": "2026-01-24T15:21:43.007834+00:00",
  "kcps": {
    "metar": "KCPS 241453Z 04009KT 3SM -SN OVC036 M16/M24 A3063 RMK AO2 SNB46 SLP383 P0000 60000 T11561239 55010 $",
    "windDirection": 40,
    "windSpeed": 9,
    "windGust": null,
    "visibility": 3,
    "temperatureC": -16,
    "dewPointC": -24,
    "cloudCeiling": 3600,
    "altimeter": "A3063",
    "timestamp": "2026-01-24T14:53:00+00:00",
    "station": "KCPS"
  },
  "kstl": {
    "metar": "KSTL 241451Z 06011KT 9SM -SN BKN049 OVC070 M16/M26 A3061 RMK AO2 SNB17 SLP393 P0000 60000 T11611256 55012 $",
    "windDirection": 60,
    "windSpeed": 11,
    "windGust": null,
    "visibility": 9,
    "temperatureC": -16,
    "dewPointC": -26,
    "cloudCeiling": 4900,
    "altimeter": "A3061",
    "timestamp": "2026-01-24T14:51:00+00:00",
    "station": "KSTL"
  }
}