{
  "lastUpdated": "2026-04-12T21:16:04.721356+00:00",
  "kcps": {
    "metar": "KCPS 122053Z 18012G22KT 10SM SCT120 24/12 A2994 RMK AO2 RAB1956E09 SLP135 P0000 60000 T02390117 58023 $",
    "windDirection": 180,
    "windSpeed": 12,
    "windGust": 22,
    "visibility": 10,
    "temperatureC": 24,
    "dewPointC": 12,
    "cloudCeiling": null,
    "altimeter": "A2994",
    "timestamp": "2026-04-12T20:53:00+00:00",
    "station": "KCPS"
  },
  "kstl": {
    "metar": "KSTL 122051Z 18009G22KT 10SM FEW070 BKN095 OVC120 24/11 A2993 RMK AO2 PK WND 19028/2015 RAE1953 SLP128 P0000 60000 T02390106 58021 $",
    "windDirection": 180,
    "windSpeed": 9,
    "windGust": 22,
    "visibility": 10,
    "temperatureC": 24,
    "dewPointC": 11,
    "cloudCeiling": 9500,
    "altimeter": "A2993",
    "timestamp": "2026-04-12T20:51:00+00:00",
    "station": "KSTL"
  }
}