{
  "lastUpdated": "2025-11-05T19:20:49.263732+00:00",
  "kcps": {
    "metar": "KCPS 051853Z 32016KT 10SM CLR 22/09 A3010 RMK AO2 SLP189 T02170089 $",
    "windDirection": 320,
    "windSpeed": 16,
    "windGust": null,
    "visibility": 10,
    "temperatureC": 22,
    "dewPointC": 9,
    "cloudCeiling": 99999,
    "altimeter": "A3010",
    "timestamp": "2025-11-05T18:53:00+00:00",
    "station": "KCPS"
  },
  "kstl": {
    "metar": "KSTL 051851Z 32011G22KT 10SM CLR 21/07 A3010 RMK AO2 SLP189 T02110072 $",
    "windDirection": 320,
    "windSpeed": 11,
    "windGust": 22,
    "visibility": 10,
    "temperatureC": 21,
    "dewPointC": 7,
    "cloudCeiling": 99999,
    "altimeter": "A3010",
    "timestamp": "2025-11-05T18:51:00+00:00",
    "station": "KSTL"
  }
}