{
  "lastUpdated": "2026-04-30T10:16:58.793278+00:00",
  "kcps": {
    "metar": "KCPS 300953Z AUTO 00000KT 10SM CLR 05/04 A3006 RMK AO2 SLP180 T00500044 $",
    "windDirection": 0,
    "windSpeed": 0,
    "windGust": null,
    "visibility": 10,
    "temperatureC": 5,
    "dewPointC": 4,
    "cloudCeiling": 99999,
    "altimeter": "A3006",
    "timestamp": "2026-04-30T09:53:00+00:00",
    "station": "KCPS"
  },
  "kstl": {
    "metar": "KSTL 300951Z 00000KT 10SM FEW250 07/04 A3007 RMK AO2 SLP182 T00670044 $",
    "windDirection": 0,
    "windSpeed": 0,
    "windGust": null,
    "visibility": 10,
    "temperatureC": 7,
    "dewPointC": 4,
    "cloudCeiling": null,
    "altimeter": "A3007",
    "timestamp": "2026-04-30T09:51:00+00:00",
    "station": "KSTL"
  }
}