{
  "lastUpdated": "2025-11-30T20:21:54.543558+00:00",
  "kcps": {
    "metar": "KCPS 301953Z 30014G23KT 10SM CLR M02/M08 A3042 RMK AO2 SLP305 T10221083 $",
    "windDirection": 300,
    "windSpeed": 14,
    "windGust": 23,
    "visibility": 10,
    "temperatureC": -2,
    "dewPointC": -8,
    "cloudCeiling": 99999,
    "altimeter": "A3042",
    "timestamp": "2025-11-30T19:53:00+00:00",
    "station": "KCPS"
  },
  "kstl": {
    "metar": "KSTL 301951Z 32015G25KT 10SM BKN023 BKN250 M04/M09 A3042 RMK AO2 SLP313 T10391089 $",
    "windDirection": 320,
    "windSpeed": 15,
    "windGust": 25,
    "visibility": 10,
    "temperatureC": -4,
    "dewPointC": -9,
    "cloudCeiling": 2300,
    "altimeter": "A3042",
    "timestamp": "2025-11-30T19:51:00+00:00",
    "station": "KSTL"
  }
}