{
  "lastUpdated": "2026-06-01T15:13:49.110890+00:00",
  "kcps": {
    "metar": "KCPS 011504Z 03008KT 10SM FEW009 22/19 A2997 RMK AO2 T02170189 $",
    "windDirection": 30,
    "windSpeed": 8,
    "windGust": null,
    "visibility": 10,
    "temperatureC": 22,
    "dewPointC": 19,
    "cloudCeiling": null,
    "altimeter": "A2997",
    "timestamp": "2026-06-01T15:04:00+00:00",
    "station": "KCPS"
  },
  "kstl": {
    "metar": "KSTL 011451Z 10004KT 10SM FEW007 SCT120 BKN250 21/19 A2999 RMK AO2 SLP146 60015 T02110189 56023 $",
    "windDirection": 100,
    "windSpeed": 4,
    "windGust": null,
    "visibility": 10,
    "temperatureC": 21,
    "dewPointC": 19,
    "cloudCeiling": 25000,
    "altimeter": "A2999",
    "timestamp": "2026-06-01T14:51:00+00:00",
    "station": "KSTL"
  }
}