{
  "lastUpdated": "2026-01-28T20:56:02.726668+00:00",
  "kcps": {
    "metar": "KCPS 282053Z 28008KT 10SM OVC095 M01/M16 A3026 RMK AO2 SLP251 T10061161 56030",
    "windDirection": 280,
    "windSpeed": 8,
    "windGust": null,
    "visibility": 10,
    "temperatureC": -1,
    "dewPointC": -16,
    "cloudCeiling": 9500,
    "altimeter": "A3026",
    "timestamp": "2026-01-28T20:53:00+00:00",
    "station": "KCPS"
  },
  "kstl": {
    "metar": "KSTL 282051Z 00000KT 10SM FEW070 BKN090 M01/M14 A3025 RMK AO2 SLP259 T10111139 56031 $",
    "windDirection": 0,
    "windSpeed": 0,
    "windGust": null,
    "visibility": 10,
    "temperatureC": -1,
    "dewPointC": -14,
    "cloudCeiling": 9000,
    "altimeter": "A3025",
    "timestamp": "2026-01-28T20:51:00+00:00",
    "station": "KSTL"
  }
}