{
  "lastUpdated": "2026-02-17T19:55:44.926664+00:00",
  "kcps": {
    "metar": "KCPS 171853Z 17012G20KT 10SM CLR 13/08 A2983 RMK AO2 SLP102 T01280083 $",
    "windDirection": 170,
    "windSpeed": 12,
    "windGust": 20,
    "visibility": 10,
    "temperatureC": 13,
    "dewPointC": 8,
    "cloudCeiling": 99999,
    "altimeter": "A2983",
    "timestamp": "2026-02-17T18:53:00+00:00",
    "station": "KCPS"
  },
  "kstl": {
    "metar": "KSTL 171951Z 15014KT 10SM BKN180 BKN250 13/08 A2977 RMK AO2 PK WND 16026/1932 PRESFR SLP083 T01330083 $",
    "windDirection": 150,
    "windSpeed": 14,
    "windGust": null,
    "visibility": 10,
    "temperatureC": 13,
    "dewPointC": 8,
    "cloudCeiling": 18000,
    "altimeter": "A2977",
    "timestamp": "2026-02-17T19:51:00+00:00",
    "station": "KSTL"
  }
}