{
  "lastUpdated": "2026-04-13T12:07:50.790664+00:00",
  "kcps": {
    "metar": "KCPS 131153Z 17004KT 10SM BKN041 20/16 A2999 RMK AO2 SLP152 T02000161 10222 20200 53010 $",
    "windDirection": 170,
    "windSpeed": 4,
    "windGust": null,
    "visibility": 10,
    "temperatureC": 20,
    "dewPointC": 16,
    "cloudCeiling": 4100,
    "altimeter": "A2999",
    "timestamp": "2026-04-13T11:53:00+00:00",
    "station": "KCPS"
  },
  "kstl": {
    "metar": "KSTL 131151Z VRB06KT 10SM FEW033 FEW250 21/16 A2998 RMK AO2 SLP142 T02110161 10217 20200 51009 $",
    "windDirection": null,
    "windSpeed": null,
    "windGust": null,
    "visibility": 10,
    "temperatureC": 21,
    "dewPointC": 16,
    "cloudCeiling": null,
    "altimeter": "A2998",
    "timestamp": "2026-04-13T11:51:00+00:00",
    "station": "KSTL"
  }
}