{
  "lastUpdated": "2025-10-13T23:21:22.850434+00:00",
  "kcps": {
    "metar": "KCPS 132253Z 06004KT 10SM FEW080 25/15 A3005 RMK AO2 SLP175 T02500150 $",
    "windDirection": 60,
    "windSpeed": 4,
    "windGust": null,
    "visibility": 10,
    "temperatureC": 25,
    "dewPointC": 15,
    "cloudCeiling": null,
    "altimeter": "A3005",
    "timestamp": "2025-10-13T22:53:00+00:00",
    "station": "KCPS"
  },
  "kstl": {
    "metar": "KSTL 132251Z 08003KT 10SM FEW080 BKN210 26/15 A3007 RMK AO2 SLP173 T02560150 $",
    "windDirection": 80,
    "windSpeed": 3,
    "windGust": null,
    "visibility": 10,
    "temperatureC": 26,
    "dewPointC": 15,
    "cloudCeiling": 21000,
    "altimeter": "A3007",
    "timestamp": "2025-10-13T22:51:00+00:00",
    "station": "KSTL"
  }
}