{
  "lastUpdated": "2026-05-15T21:06:11.652703+00:00",
  "kcps": {
    "metar": "KCPS 152053Z 17011G17KT 10SM CLR 27/15 A2983 RMK AO2 SLP097 T02720150 56013 $",
    "windDirection": 170,
    "windSpeed": 11,
    "windGust": 17,
    "visibility": 10,
    "temperatureC": 27,
    "dewPointC": 15,
    "cloudCeiling": 99999,
    "altimeter": "A2983",
    "timestamp": "2026-05-15T20:53:00+00:00",
    "station": "KCPS"
  },
  "kstl": {
    "metar": "KSTL 152051Z 19013KT 10SM FEW055 FEW100 BKN250 28/16 A2983 RMK AO2 SLP093 T02830156 56011 $",
    "windDirection": 190,
    "windSpeed": 13,
    "windGust": null,
    "visibility": 10,
    "temperatureC": 28,
    "dewPointC": 16,
    "cloudCeiling": 25000,
    "altimeter": "A2983",
    "timestamp": "2026-05-15T20:51:00+00:00",
    "station": "KSTL"
  }
}