{
  "lastUpdated": "2026-06-03T12:49:35.127588+00:00",
  "kcps": {
    "metar": "KCPS 031153Z 00000KT 10SM CLR 14/13 A3029 RMK AO2 SLP256 T01390128 10172 20111 51012 $",
    "windDirection": 0,
    "windSpeed": 0,
    "windGust": null,
    "visibility": 10,
    "temperatureC": 14,
    "dewPointC": 13,
    "cloudCeiling": 99999,
    "altimeter": "A3029",
    "timestamp": "2026-06-03T11:53:00+00:00",
    "station": "KCPS"
  },
  "kstl": {
    "metar": "KSTL 031151Z 08003KT 10SM BKN250 16/11 A3030 RMK AO2 SLP254 T01610106 10189 20133 51010 $",
    "windDirection": 80,
    "windSpeed": 3,
    "windGust": null,
    "visibility": 10,
    "temperatureC": 16,
    "dewPointC": 11,
    "cloudCeiling": 25000,
    "altimeter": "A3030",
    "timestamp": "2026-06-03T11:51:00+00:00",
    "station": "KSTL"
  }
}