{
  "lastUpdated": "2026-01-02T22:21:33.918583+00:00",
  "kcps": {
    "metar": "KCPS 022153Z 06005KT 10SM SCT020 00/M04 A2993 RMK AO2 SLP138 T00001044",
    "windDirection": 60,
    "windSpeed": 5,
    "windGust": null,
    "visibility": 10,
    "temperatureC": 0,
    "dewPointC": -4,
    "cloudCeiling": null,
    "altimeter": "A2993",
    "timestamp": "2026-01-02T21:53:00+00:00",
    "station": "KCPS"
  },
  "kstl": {
    "metar": "KSTL 022151Z 32004KT 10SM SCT021 OVC150 01/M04 A2992 RMK AO2 SLP142 T00061039 $",
    "windDirection": 320,
    "windSpeed": 4,
    "windGust": null,
    "visibility": 10,
    "temperatureC": 1,
    "dewPointC": -4,
    "cloudCeiling": 15000,
    "altimeter": "A2992",
    "timestamp": "2026-01-02T21:51:00+00:00",
    "station": "KSTL"
  }
}