{
  "lastUpdated": "2026-03-12T03:59:34.263137+00:00",
  "kcps": {
    "metar": "KCPS 120353Z AUTO 33010KT 10SM CLR 04/M02 A3028 RMK AO2 PK WND 33028/0254 SLP253 T00441017 $",
    "windDirection": 330,
    "windSpeed": 10,
    "windGust": null,
    "visibility": 10,
    "temperatureC": 4,
    "dewPointC": -2,
    "cloudCeiling": 99999,
    "altimeter": "A3028",
    "timestamp": "2026-03-12T03:53:00+00:00",
    "station": "KCPS"
  },
  "kstl": {
    "metar": "KSTL 120351Z 30006KT 10SM FEW036 03/M01 A3028 RMK AO2 SLP257 T00331006 $",
    "windDirection": 300,
    "windSpeed": 6,
    "windGust": null,
    "visibility": 10,
    "temperatureC": 3,
    "dewPointC": -1,
    "cloudCeiling": null,
    "altimeter": "A3028",
    "timestamp": "2026-03-12T03:51:00+00:00",
    "station": "KSTL"
  }
}