{
  "lastUpdated": "2026-05-15T00:04:36.174373+00:00",
  "kcps": {
    "metar": "KCPS 142353Z 16008KT 10SM CLR 22/06 A2997 RMK AO2 SLP146 T02220056 10239 20206 56019 $",
    "windDirection": 160,
    "windSpeed": 8,
    "windGust": null,
    "visibility": 10,
    "temperatureC": 22,
    "dewPointC": 6,
    "cloudCeiling": 99999,
    "altimeter": "A2997",
    "timestamp": "2026-05-14T23:53:00+00:00",
    "station": "KCPS"
  },
  "kstl": {
    "metar": "KSTL 142351Z 14013KT 10SM FEW150 BKN250 22/05 A2996 RMK AO2 SLP142 ACC W T02170050 10233 20206 56021 $",
    "windDirection": 140,
    "windSpeed": 13,
    "windGust": null,
    "visibility": 10,
    "temperatureC": 22,
    "dewPointC": 5,
    "cloudCeiling": 25000,
    "altimeter": "A2996",
    "timestamp": "2026-05-14T23:51:00+00:00",
    "station": "KSTL"
  }
}