{
  "lastUpdated": "2026-06-10T05:46:45.703494+00:00",
  "kcps": {
    "metar": "KCPS 100453Z AUTO 18004KT 10SM CLR 28/24 A2991 RMK AO2 SLP122 T02780244 $",
    "windDirection": 180,
    "windSpeed": 4,
    "windGust": null,
    "visibility": 10,
    "temperatureC": 28,
    "dewPointC": 24,
    "cloudCeiling": 99999,
    "altimeter": "A2991",
    "timestamp": "2026-06-10T04:53:00+00:00",
    "station": "KCPS"
  },
  "kstl": {
    "metar": "KSTL 100451Z 19006KT 10SM FEW250 29/23 A2991 RMK AO2 SLP114 T02890233 $",
    "windDirection": 190,
    "windSpeed": 6,
    "windGust": null,
    "visibility": 10,
    "temperatureC": 29,
    "dewPointC": 23,
    "cloudCeiling": null,
    "altimeter": "A2991",
    "timestamp": "2026-06-10T04:51:00+00:00",
    "station": "KSTL"
  }
}