{
  "lastUpdated": "2025-12-12T11:47:04.218008+00:00",
  "kcps": {
    "metar": "KCPS 121140Z AUTO 05008KT 10SM OVC009 01/M01 A3000 RMK AO2 T00061011 $",
    "windDirection": 50,
    "windSpeed": 8,
    "windGust": null,
    "visibility": 10,
    "temperatureC": 1,
    "dewPointC": -1,
    "cloudCeiling": 900,
    "altimeter": "A3000",
    "timestamp": "2025-12-12T11:40:00+00:00",
    "station": "KCPS"
  },
  "kstl": {
    "metar": "KSTL 121051Z 07007KT 10SM OVC008 01/M01 A2999 RMK AO2 PRESRR SLP164 T00061011 $",
    "windDirection": 70,
    "windSpeed": 7,
    "windGust": null,
    "visibility": 10,
    "temperatureC": 1,
    "dewPointC": -1,
    "cloudCeiling": 800,
    "altimeter": "A2999",
    "timestamp": "2025-12-12T10:51:00+00:00",
    "station": "KSTL"
  }
}