{
  "lastUpdated": "2026-04-16T06:33:26.347804+00:00",
  "kcps": {
    "metar": "KCPS 160626Z AUTO 22007KT 6SM VCTS -RA BR FEW028 SCT050 OVC080 18/17 A2988 RMK AO2 LTG DSNT NE-S TSB04E20 P0020 T01780167 $",
    "windDirection": 220,
    "windSpeed": 7,
    "windGust": null,
    "visibility": 6,
    "temperatureC": 18,
    "dewPointC": 17,
    "cloudCeiling": 8000,
    "altimeter": "A2988",
    "timestamp": "2026-04-16T06:26:00+00:00",
    "station": "KCPS"
  },
  "kstl": {
    "metar": "KSTL 160557Z 22008KT 10SM -TSRA SCT065CB BKN090 OVC100 17/17 A2986 RMK AO2 TSB57 OCNL LTGCG SW TS SW MOV NE P0001 T01720167",
    "windDirection": 220,
    "windSpeed": 8,
    "windGust": null,
    "visibility": 10,
    "temperatureC": 17,
    "dewPointC": 17,
    "cloudCeiling": 9000,
    "altimeter": "A2986",
    "timestamp": "2026-04-16T05:57:00+00:00",
    "station": "KSTL"
  }
}