{
  "lastUpdated": "2026-04-29T05:35:18.685979+00:00",
  "kcps": {
    "metar": "KCPS 290522Z AUTO 34009KT 5SM -RA BR FEW008 BKN018 OVC026 14/13 A2995 RMK AO2 P0001 T01390128 $",
    "windDirection": 340,
    "windSpeed": 9,
    "windGust": null,
    "visibility": 5,
    "temperatureC": 14,
    "dewPointC": 13,
    "cloudCeiling": 1800,
    "altimeter": "A2995",
    "timestamp": "2026-04-29T05:22:00+00:00",
    "station": "KCPS"
  },
  "kstl": {
    "station": "KSTL",
    "metar": null,
    "error": "Failed to fetch METAR"
  }
}