{
  "lastUpdated": "2025-12-22T11:46:39.734904+00:00",
  "kcps": {
    "metar": "KCPS 221053Z AUTO 00000KT 10SM CLR M03/M07 A3032 RMK AO2 SLP270 T10281067 $",
    "windDirection": 0,
    "windSpeed": 0,
    "windGust": null,
    "visibility": 10,
    "temperatureC": -3,
    "dewPointC": -7,
    "cloudCeiling": 99999,
    "altimeter": "A3032",
    "timestamp": "2025-12-22T10:53:00+00:00",
    "station": "KCPS"
  },
  "kstl": {
    "metar": "KSTL 221051Z 10006KT 10SM FEW250 M02/M07 A3031 RMK AO2 SLP273 T10171072 $",
    "windDirection": 100,
    "windSpeed": 6,
    "windGust": null,
    "visibility": 10,
    "temperatureC": -2,
    "dewPointC": -7,
    "cloudCeiling": null,
    "altimeter": "A3031",
    "timestamp": "2025-12-22T10:51:00+00:00",
    "station": "KSTL"
  }
}