{
  "lastUpdated": "2026-02-10T10:17:02.771901+00:00",
  "kcps": {
    "metar": "KCPS 100853Z AUTO 00000KT 10SM 01/00 A2991 RMK AO2 SLP130 T00110000 $",
    "windDirection": 0,
    "windSpeed": 0,
    "windGust": null,
    "visibility": 10,
    "temperatureC": 1,
    "dewPointC": 0,
    "cloudCeiling": null,
    "altimeter": "A2991",
    "timestamp": "2026-02-10T08:53:00+00:00",
    "station": "KCPS"
  },
  "kstl": {
    "metar": "KSTL 100951Z 21008KT 10SM CLR 11/05 A2988 RMK AO2 SLP119 T01060050 $",
    "windDirection": 210,
    "windSpeed": 8,
    "windGust": null,
    "visibility": 10,
    "temperatureC": 11,
    "dewPointC": 5,
    "cloudCeiling": 99999,
    "altimeter": "A2988",
    "timestamp": "2026-02-10T09:51:00+00:00",
    "station": "KSTL"
  }
}