{
  "lastUpdated": "2026-06-03T17:54:00.093929+00:00",
  "kcps": {
    "metar": "KCPS 031653Z 12007KT 10SM CLR 26/09 A3028 RMK AO2 SLP251 T02610094 $",
    "windDirection": 120,
    "windSpeed": 7,
    "windGust": null,
    "visibility": 10,
    "temperatureC": 26,
    "dewPointC": 9,
    "cloudCeiling": 99999,
    "altimeter": "A3028",
    "timestamp": "2026-06-03T16:53:00+00:00",
    "station": "KCPS"
  },
  "kstl": {
    "metar": "KSTL 031751Z 16006KT 10SM SCT250 26/09 A3028 RMK AO2 SLP245 T02560089 10",
    "windDirection": 160,
    "windSpeed": 6,
    "windGust": null,
    "visibility": 10,
    "temperatureC": 26,
    "dewPointC": 9,
    "cloudCeiling": null,
    "altimeter": "A3028",
    "timestamp": "2026-06-03T17:51:00+00:00",
    "station": "KSTL"
  }
}