{
  "lastUpdated": "2026-06-04T22:28:23.573365+00:00",
  "kcps": {
    "metar": "KCPS 042153Z 17009KT 10SM SCT060 28/17 A3001 RMK AO2 SLP160 T02830172 $",
    "windDirection": 170,
    "windSpeed": 9,
    "windGust": null,
    "visibility": 10,
    "temperatureC": 28,
    "dewPointC": 17,
    "cloudCeiling": null,
    "altimeter": "A3001",
    "timestamp": "2026-06-04T21:53:00+00:00",
    "station": "KCPS"
  },
  "kstl": {
    "metar": "KSTL 042151Z 19013KT 10SM SCT060 SCT075 BKN250 28/17 A3001 RMK AO2 SLP154 T02830167 $",
    "windDirection": 190,
    "windSpeed": 13,
    "windGust": null,
    "visibility": 10,
    "temperatureC": 28,
    "dewPointC": 17,
    "cloudCeiling": 25000,
    "altimeter": "A3001",
    "timestamp": "2026-06-04T21:51:00+00:00",
    "station": "KSTL"
  }
}