{
  "lastUpdated": "2026-04-08T21:31:15.710367+00:00",
  "kcps": {
    "metar": "KCPS 082053Z 19011G21KT 10SM CLR 24/04 A3008 RMK AO2 PK WND 19026/2008 SLP184 T02440044 56030 $",
    "windDirection": 190,
    "windSpeed": 11,
    "windGust": 21,
    "visibility": 10,
    "temperatureC": 24,
    "dewPointC": 4,
    "cloudCeiling": 99999,
    "altimeter": "A3008",
    "timestamp": "2026-04-08T20:53:00+00:00",
    "station": "KCPS"
  },
  "kstl": {
    "metar": "KSTL 082051Z 19012G23KT 10SM BKN250 24/04 A3008 RMK AO2 SLP182 T02440044 56026 $",
    "windDirection": 190,
    "windSpeed": 12,
    "windGust": 23,
    "visibility": 10,
    "temperatureC": 24,
    "dewPointC": 4,
    "cloudCeiling": 25000,
    "altimeter": "A3008",
    "timestamp": "2026-04-08T20:51:00+00:00",
    "station": "KSTL"
  }
}