{
  "lastUpdated": "2026-03-18T05:15:41.539707+00:00",
  "kcps": {
    "metar": "KCPS 180453Z AUTO 15011KT 10SM SCT070 OVC080 01/M07 A3013 RMK AO2 SLP208 T00111072 $",
    "windDirection": 150,
    "windSpeed": 11,
    "windGust": null,
    "visibility": 10,
    "temperatureC": 1,
    "dewPointC": -7,
    "cloudCeiling": 8000,
    "altimeter": "A3013",
    "timestamp": "2026-03-18T04:53:00+00:00",
    "station": "KCPS"
  },
  "kstl": {
    "metar": "KSTL 180451Z 15013KT 10SM BKN080 BKN110 01/M08 A3011 RMK AO2 SLP209 T00111083 $",
    "windDirection": 150,
    "windSpeed": 13,
    "windGust": null,
    "visibility": 10,
    "temperatureC": 1,
    "dewPointC": -8,
    "cloudCeiling": 8000,
    "altimeter": "A3011",
    "timestamp": "2026-03-18T04:51:00+00:00",
    "station": "KSTL"
  }
}