{
  "lastUpdated": "2026-05-26T01:14:48.217315+00:00",
  "kcps": {
    "metar": "KCPS 260053Z 09004KT 10SM CLR 23/12 A3002 RMK AO2 SLP164 T02330117 $",
    "windDirection": 90,
    "windSpeed": 4,
    "windGust": null,
    "visibility": 10,
    "temperatureC": 23,
    "dewPointC": 12,
    "cloudCeiling": 99999,
    "altimeter": "A3002",
    "timestamp": "2026-05-26T00:53:00+00:00",
    "station": "KCPS"
  },
  "kstl": {
    "metar": "KSTL 260051Z 11007KT 10SM OVC250 23/10 A3003 RMK AO2 SLP163 T02330100 $",
    "windDirection": 110,
    "windSpeed": 7,
    "windGust": null,
    "visibility": 10,
    "temperatureC": 23,
    "dewPointC": 10,
    "cloudCeiling": 25000,
    "altimeter": "A3003",
    "timestamp": "2026-05-26T00:51:00+00:00",
    "station": "KSTL"
  }
}