{
  "lastUpdated": "2025-11-21T09:02:35.116527+00:00",
  "kcps": {
    "metar": "KCPS 210853Z AUTO 14003KT 5SM RA BR OVC005 12/12 A3001 RMK AO2 SLP163 P0007 60009 T01170117 55005",
    "windDirection": 140,
    "windSpeed": 3,
    "windGust": null,
    "visibility": 5,
    "temperatureC": 12,
    "dewPointC": 12,
    "cloudCeiling": 500,
    "altimeter": "A3001",
    "timestamp": "2025-11-21T08:53:00+00:00",
    "station": "KCPS"
  },
  "kstl": {
    "metar": "KSTL 210851Z 12003KT 3SM -RA BR OVC004 12/11 A3002 RMK AO2 SLP165 P0007 60010 T01170111 55004 $",
    "windDirection": 120,
    "windSpeed": 3,
    "windGust": null,
    "visibility": 3,
    "temperatureC": 12,
    "dewPointC": 11,
    "cloudCeiling": 400,
    "altimeter": "A3002",
    "timestamp": "2025-11-21T08:51:00+00:00",
    "station": "KSTL"
  }
}