{
  "lastUpdated": "2026-06-05T00:31:11.495373+00:00",
  "kcps": {
    "metar": "KCPS 042353Z 17010G17KT 10SM CLR 27/17 A3000 RMK AO2 SLP155 T02720172 10300 20272 55016 $",
    "windDirection": 170,
    "windSpeed": 10,
    "windGust": 17,
    "visibility": 10,
    "temperatureC": 27,
    "dewPointC": 17,
    "cloudCeiling": 99999,
    "altimeter": "A3000",
    "timestamp": "2026-06-04T23:53:00+00:00",
    "station": "KCPS"
  },
  "kstl": {
    "metar": "KSTL 042351Z 16013G19KT 10SM FEW050 SCT060 SCT250 28/17 A3000 RMK AO2 SLP150 T02780172 10289 20272 55014 $",
    "windDirection": 160,
    "windSpeed": 13,
    "windGust": 19,
    "visibility": 10,
    "temperatureC": 28,
    "dewPointC": 17,
    "cloudCeiling": null,
    "altimeter": "A3000",
    "timestamp": "2026-06-04T23:51:00+00:00",
    "station": "KSTL"
  }
}