{
  "lastUpdated": "2026-03-27T09:15:27.185612+00:00",
  "kcps": {
    "metar": "KCPS 270911Z AUTO 01022G30KT 4SM VCTS +RA BR SCT010 BKN020 OVC055 07/06 A3017 RMK AO2 PK WND 01030/0911 LTG DSNT N AND NE P0007 T00720056 $",
    "windDirection": 10,
    "windSpeed": 22,
    "windGust": 30,
    "visibility": 4,
    "temperatureC": 7,
    "dewPointC": 6,
    "cloudCeiling": 2000,
    "altimeter": "A3017",
    "timestamp": "2026-03-27T09:11:00+00:00",
    "station": "KCPS"
  },
  "kstl": {
    "metar": "KSTL 270858Z 04014G24KT 5SM TSRA BR BKN012 BKN024 OVC055CB 07/05 A3018 RMK AO2 PRESRR FRQ LTGCC ALQDS TS ALQDS MOV SE P0001 T00670050 $",
    "windDirection": 40,
    "windSpeed": 14,
    "windGust": 24,
    "visibility": 5,
    "temperatureC": 7,
    "dewPointC": 5,
    "cloudCeiling": 1200,
    "altimeter": "A3018",
    "timestamp": "2026-03-27T08:58:00+00:00",
    "station": "KSTL"
  }
}