{
  "lastUpdated": "2025-10-18T04:34:52.747973+00:00",
  "kcps": {
    "metar": "KCPS 180353Z AUTO 17007KT 10SM CLR 21/16 A2981 RMK AO2 SLP091 T02060156 PNO $",
    "windDirection": 170,
    "windSpeed": 7,
    "windGust": null,
    "visibility": 10,
    "temperatureC": 21,
    "dewPointC": 16,
    "cloudCeiling": 99999,
    "altimeter": "A2981",
    "timestamp": "2025-10-18T03:53:00+00:00",
    "station": "KCPS"
  },
  "kstl": {
    "metar": "KSTL 180351Z 16009KT 10SM FEW150 SCT250 23/15 A2981 RMK AO2 SLP085 T02280150 $",
    "windDirection": 160,
    "windSpeed": 9,
    "windGust": null,
    "visibility": 10,
    "temperatureC": 23,
    "dewPointC": 15,
    "cloudCeiling": null,
    "altimeter": "A2981",
    "timestamp": "2025-10-18T03:51:00+00:00",
    "station": "KSTL"
  }
}