{
  "lastUpdated": "2025-11-08T17:32:25.084939+00:00",
  "kcps": {
    "metar": "KCPS 081553Z 04004KT 10SM CLR 12/05 A2988 RMK AO2 SLP120 T01220050 $",
    "windDirection": 40,
    "windSpeed": 4,
    "windGust": null,
    "visibility": 10,
    "temperatureC": 12,
    "dewPointC": 5,
    "cloudCeiling": 99999,
    "altimeter": "A2988",
    "timestamp": "2025-11-08T15:53:00+00:00",
    "station": "KCPS"
  },
  "kstl": {
    "metar": "KSTL 081651Z 00000KT 10SM SCT140 BKN240 13/04 A2988 RMK AO2 SLP118 T01330044 $",
    "windDirection": 0,
    "windSpeed": 0,
    "windGust": null,
    "visibility": 10,
    "temperatureC": 13,
    "dewPointC": 4,
    "cloudCeiling": 24000,
    "altimeter": "A2988",
    "timestamp": "2025-11-08T16:51:00+00:00",
    "station": "KSTL"
  }
}