{
  "lastUpdated": "2025-12-10T09:37:58.150020+00:00",
  "kcps": {
    "metar": "KCPS 100853Z AUTO 23007KT 10SM FEW065 BKN080 BKN120 09/02 A2960 RMK AO2 SLP024 T00940017 55000",
    "windDirection": 230,
    "windSpeed": 7,
    "windGust": null,
    "visibility": 10,
    "temperatureC": 9,
    "dewPointC": 2,
    "cloudCeiling": 8000,
    "altimeter": "A2960",
    "timestamp": "2025-12-10T08:53:00+00:00",
    "station": "KCPS"
  },
  "kstl": {
    "metar": "KSTL 100851Z 25013KT 10SM FEW065 OVC085 11/02 A2960 RMK AO2 PK WND 25026/0758 SLP023 T01060022 53005 $",
    "windDirection": 250,
    "windSpeed": 13,
    "windGust": null,
    "visibility": 10,
    "temperatureC": 11,
    "dewPointC": 2,
    "cloudCeiling": 8500,
    "altimeter": "A2960",
    "timestamp": "2025-12-10T08:51:00+00:00",
    "station": "KSTL"
  }
}