{
  "lastUpdated": "2026-03-19T11:44:11.649568+00:00",
  "kcps": {
    "metar": "KCPS 191053Z AUTO 00000KT 10SM BKN110 04/03 A3003 RMK AO2 SLP170 T00440028 $",
    "windDirection": 0,
    "windSpeed": 0,
    "windGust": null,
    "visibility": 10,
    "temperatureC": 4,
    "dewPointC": 3,
    "cloudCeiling": 11000,
    "altimeter": "A3003",
    "timestamp": "2026-03-19T10:53:00+00:00",
    "station": "KCPS"
  },
  "kstl": {
    "metar": "KSTL 191051Z 00000KT 10SM BKN180 OVC250 08/03 A3004 RMK AO2 SLP169 T00780028 $",
    "windDirection": 0,
    "windSpeed": 0,
    "windGust": null,
    "visibility": 10,
    "temperatureC": 8,
    "dewPointC": 3,
    "cloudCeiling": 18000,
    "altimeter": "A3004",
    "timestamp": "2026-03-19T10:51:00+00:00",
    "station": "KSTL"
  }
}