{
  "lastUpdated": "2026-03-29T13:58:55.515524+00:00",
  "kcps": {
    "metar": "KCPS 291353Z 18010KT 9SM CLR 11/M01 A3026 RMK AO2 SLP249 T01061011 $",
    "windDirection": 180,
    "windSpeed": 10,
    "windGust": null,
    "visibility": 9,
    "temperatureC": 11,
    "dewPointC": -1,
    "cloudCeiling": 99999,
    "altimeter": "A3026",
    "timestamp": "2026-03-29T13:53:00+00:00",
    "station": "KCPS"
  },
  "kstl": {
    "metar": "KSTL 291351Z 17008KT 10SM FEW150 BKN250 11/M03 A3025 RMK AO2 SLP245 T01111028 $",
    "windDirection": 170,
    "windSpeed": 8,
    "windGust": null,
    "visibility": 10,
    "temperatureC": 11,
    "dewPointC": -3,
    "cloudCeiling": 25000,
    "altimeter": "A3025",
    "timestamp": "2026-03-29T13:51:00+00:00",
    "station": "KSTL"
  }
}