{
  "lastUpdated": "2026-04-25T08:45:09.897723+00:00",
  "kcps": {
    "metar": "KCPS 250753Z AUTO 36004KT 10SM CLR 15/12 A2984 RMK AO2 SLP103 T01500122 $",
    "windDirection": 360,
    "windSpeed": 4,
    "windGust": null,
    "visibility": 10,
    "temperatureC": 15,
    "dewPointC": 12,
    "cloudCeiling": 99999,
    "altimeter": "A2984",
    "timestamp": "2026-04-25T07:53:00+00:00",
    "station": "KCPS"
  },
  "kstl": {
    "metar": "KSTL 250751Z 00000KT 10SM OVC250 14/10 A2986 RMK AO2 SLP104 T01440100 $",
    "windDirection": 0,
    "windSpeed": 0,
    "windGust": null,
    "visibility": 10,
    "temperatureC": 14,
    "dewPointC": 10,
    "cloudCeiling": 25000,
    "altimeter": "A2986",
    "timestamp": "2026-04-25T07:51:00+00:00",
    "station": "KSTL"
  }
}