{
  "lastUpdated": "2025-12-08T16:02:40.104691+00:00",
  "kcps": {
    "metar": "KCPS 081553Z 36006KT 10SM FEW080 M02/M07 A3036 RMK AO2 SLP285 T10221072 $",
    "windDirection": 360,
    "windSpeed": 6,
    "windGust": null,
    "visibility": 10,
    "temperatureC": -2,
    "dewPointC": -7,
    "cloudCeiling": null,
    "altimeter": "A3036",
    "timestamp": "2025-12-08T15:53:00+00:00",
    "station": "KCPS"
  },
  "kstl": {
    "metar": "KSTL 081551Z 35003KT 10SM BKN070 BKN250 M03/M08 A3035 RMK AO2 SLP291 T10331078 $",
    "windDirection": 350,
    "windSpeed": 3,
    "windGust": null,
    "visibility": 10,
    "temperatureC": -3,
    "dewPointC": -8,
    "cloudCeiling": 7000,
    "altimeter": "A3035",
    "timestamp": "2025-12-08T15:51:00+00:00",
    "station": "KSTL"
  }
}