{
  "lastUpdated": "2026-04-18T07:38:37.065515+00:00",
  "kcps": {
    "metar": "KCPS 180653Z AUTO 00000KT 4SM RA BR SCT070 OVC095 17/16 A2980 RMK AO2 SLP086 P0015 T01720161 $",
    "windDirection": 0,
    "windSpeed": 0,
    "windGust": null,
    "visibility": 4,
    "temperatureC": 17,
    "dewPointC": 16,
    "cloudCeiling": 9500,
    "altimeter": "A2980",
    "timestamp": "2026-04-18T06:53:00+00:00",
    "station": "KCPS"
  },
  "kstl": {
    "metar": "KSTL 180651Z 21006KT 6SM +RA BR BKN080 OVC095 17/16 A2980 RMK AO2 SLP079 P0010 T01670156 $",
    "windDirection": 210,
    "windSpeed": 6,
    "windGust": null,
    "visibility": 6,
    "temperatureC": 17,
    "dewPointC": 16,
    "cloudCeiling": 8000,
    "altimeter": "A2980",
    "timestamp": "2026-04-18T06:51:00+00:00",
    "station": "KSTL"
  }
}