{
  "lastUpdated": "2026-03-18T23:23:27.812066+00:00",
  "kcps": {
    "metar": "KCPS 182253Z 00000KT 10SM CLR 21/02 A2999 RMK AO2 SLP154 T02060017 $",
    "windDirection": 0,
    "windSpeed": 0,
    "windGust": null,
    "visibility": 10,
    "temperatureC": 21,
    "dewPointC": 2,
    "cloudCeiling": 99999,
    "altimeter": "A2999",
    "timestamp": "2026-03-18T22:53:00+00:00",
    "station": "KCPS"
  },
  "kstl": {
    "metar": "KSTL 182251Z VRB04KT 10SM FEW140 BKN250 19/01 A3000 RMK AO2 SLP161 T01940011",
    "windDirection": null,
    "windSpeed": null,
    "windGust": null,
    "visibility": 10,
    "temperatureC": 19,
    "dewPointC": 1,
    "cloudCeiling": 25000,
    "altimeter": "A3000",
    "timestamp": "2026-03-18T22:51:00+00:00",
    "station": "KSTL"
  }
}