{
  "lastUpdated": "2025-12-15T01:55:12.638415+00:00",
  "kcps": {
    "station": "KCPS",
    "metar": "Data unavailable",
    "error": "Failed to fetch METAR"
  },
  "kstl": {
    "metar": "KSTL 150151Z 12005KT 10SM CLR M11/M17 A3066 RMK AO2 SLP404 T11061167 $",
    "windDirection": 120,
    "windSpeed": 5,
    "windGust": null,
    "visibility": 10,
    "temperatureC": -11,
    "dewPointC": -17,
    "cloudCeiling": 99999,
    "altimeter": "A3066",
    "timestamp": "2025-12-15T01:51:00+00:00",
    "station": "KSTL"
  }
}