{
  "lastUpdated": "2026-04-20T20:28:34.108719+00:00",
  "kcps": {
    "metar": "KCPS 201953Z 10007KT 10SM CLR 18/03 A3025 RMK AO2 SLP244 T01780033 $",
    "windDirection": 100,
    "windSpeed": 7,
    "windGust": null,
    "visibility": 10,
    "temperatureC": 18,
    "dewPointC": 3,
    "cloudCeiling": 99999,
    "altimeter": "A3025",
    "timestamp": "2026-04-20T19:53:00+00:00",
    "station": "KCPS"
  },
  "kstl": {
    "metar": "KSTL 201951Z 16008KT 10SM FEW250 17/02 A3025 RMK AO2 SLP244 T01720022 $",
    "windDirection": 160,
    "windSpeed": 8,
    "windGust": null,
    "visibility": 10,
    "temperatureC": 17,
    "dewPointC": 2,
    "cloudCeiling": null,
    "altimeter": "A3025",
    "timestamp": "2026-04-20T19:51:00+00:00",
    "station": "KSTL"
  }
}