{
  "lastUpdated": "2025-11-04T19:46:50.415804+00:00",
  "kcps": {
    "metar": "KCPS 041853Z 17009G18KT 10SM CLR 22/09 A3012 RMK AO2 SLP200 T02170089",
    "windDirection": 170,
    "windSpeed": 9,
    "windGust": 18,
    "visibility": 10,
    "temperatureC": 22,
    "dewPointC": 9,
    "cloudCeiling": 99999,
    "altimeter": "A3012",
    "timestamp": "2025-11-04T18:53:00+00:00",
    "station": "KCPS"
  },
  "kstl": {
    "metar": "KSTL 041851Z 16012G16KT 10SM FEW050 FEW150 BKN250 21/09 A3012 RMK AO2 SLP200 T02110089 $",
    "windDirection": 160,
    "windSpeed": 12,
    "windGust": 16,
    "visibility": 10,
    "temperatureC": 21,
    "dewPointC": 9,
    "cloudCeiling": 25000,
    "altimeter": "A3012",
    "timestamp": "2025-11-04T18:51:00+00:00",
    "station": "KSTL"
  }
}