{
  "lastUpdated": "2025-10-21T12:24:06.790177+00:00",
  "kcps": {
    "metar": "KCPS 211153Z 23004KT 10SM CLR 11/07 A2995 RMK AO2 SLP142 T01060067 10167 20106 50004",
    "windDirection": 230,
    "windSpeed": 4,
    "windGust": null,
    "visibility": 10,
    "temperatureC": 11,
    "dewPointC": 7,
    "cloudCeiling": 99999,
    "altimeter": "A2995",
    "timestamp": "2025-10-21T11:53:00+00:00",
    "station": "KCPS"
  },
  "kstl": {
    "metar": "KSTL 211151Z 25008KT 10SM CLR 11/07 A2995 RMK AO2 SLP138 T01110067 10156 20106 50004 $",
    "windDirection": 250,
    "windSpeed": 8,
    "windGust": null,
    "visibility": 10,
    "temperatureC": 11,
    "dewPointC": 7,
    "cloudCeiling": 99999,
    "altimeter": "A2995",
    "timestamp": "2025-10-21T11:51:00+00:00",
    "station": "KSTL"
  }
}