{
  "lastUpdated": "2026-04-23T13:31:04.030095+00:00",
  "kcps": {
    "metar": "KCPS 231253Z 00000KT 10SM CLR 18/14 A2994 RMK AO2 SLP134 T01780139 $",
    "windDirection": 0,
    "windSpeed": 0,
    "windGust": null,
    "visibility": 10,
    "temperatureC": 18,
    "dewPointC": 14,
    "cloudCeiling": 99999,
    "altimeter": "A2994",
    "timestamp": "2026-04-23T12:53:00+00:00",
    "station": "KCPS"
  },
  "kstl": {
    "metar": "KSTL 231251Z 17007KT 10SM FEW250 19/14 A2993 RMK AO2 SLP128 T01890139 $",
    "windDirection": 170,
    "windSpeed": 7,
    "windGust": null,
    "visibility": 10,
    "temperatureC": 19,
    "dewPointC": 14,
    "cloudCeiling": null,
    "altimeter": "A2993",
    "timestamp": "2026-04-23T12:51:00+00:00",
    "station": "KSTL"
  }
}