{
  "lastUpdated": "2025-11-05T13:02:57.087390+00:00",
  "kcps": {
    "metar": "KCPS 051253Z 23004KT 10SM CLR 14/07 A3002 RMK AO2 SLP163 T01390072",
    "windDirection": 230,
    "windSpeed": 4,
    "windGust": null,
    "visibility": 10,
    "temperatureC": 14,
    "dewPointC": 7,
    "cloudCeiling": 99999,
    "altimeter": "A3002",
    "timestamp": "2025-11-05T12:53:00+00:00",
    "station": "KCPS"
  },
  "kstl": {
    "metar": "KSTL 051251Z 25007KT 10SM SCT250 14/07 A3001 RMK AO2 SLP159 T01440067 $",
    "windDirection": 250,
    "windSpeed": 7,
    "windGust": null,
    "visibility": 10,
    "temperatureC": 14,
    "dewPointC": 7,
    "cloudCeiling": null,
    "altimeter": "A3001",
    "timestamp": "2025-11-05T12:51:00+00:00",
    "station": "KSTL"
  }
}