{
  "lastUpdated": "2026-03-15T02:37:03.938015+00:00",
  "kcps": {
    "metar": "KCPS 150153Z 14006KT 10SM CLR 14/05 A2980 RMK AO2 SLP091 T01390050 $",
    "windDirection": 140,
    "windSpeed": 6,
    "windGust": null,
    "visibility": 10,
    "temperatureC": 14,
    "dewPointC": 5,
    "cloudCeiling": 99999,
    "altimeter": "A2980",
    "timestamp": "2026-03-15T01:53:00+00:00",
    "station": "KCPS"
  },
  "kstl": {
    "metar": "KSTL 150151Z 11012KT 10SM FEW150 BKN250 14/04 A2980 RMK AO2 SLP092 T01440039 $",
    "windDirection": 110,
    "windSpeed": 12,
    "windGust": null,
    "visibility": 10,
    "temperatureC": 14,
    "dewPointC": 4,
    "cloudCeiling": 25000,
    "altimeter": "A2980",
    "timestamp": "2026-03-15T01:51:00+00:00",
    "station": "KSTL"
  }
}