{
  "lastUpdated": "2026-03-29T17:13:58.353932+00:00",
  "kcps": {
    "metar": "KCPS 291653Z 19009G16KT 10SM OVC060 17/M01 A3021 RMK AO2 SLP230 T01671006 $",
    "windDirection": 190,
    "windSpeed": 9,
    "windGust": 16,
    "visibility": 10,
    "temperatureC": 17,
    "dewPointC": -1,
    "cloudCeiling": 6000,
    "altimeter": "A3021",
    "timestamp": "2026-03-29T16:53:00+00:00",
    "station": "KCPS"
  },
  "kstl": {
    "metar": "KSTL 291651Z 19010KT 10SM BKN050 17/M02 A3021 RMK AO2 SLP229 T01671017 $",
    "windDirection": 190,
    "windSpeed": 10,
    "windGust": null,
    "visibility": 10,
    "temperatureC": 17,
    "dewPointC": -2,
    "cloudCeiling": 5000,
    "altimeter": "A3021",
    "timestamp": "2026-03-29T16:51:00+00:00",
    "station": "KSTL"
  }
}