{
  "lastUpdated": "2026-03-10T12:06:50.092541+00:00",
  "kcps": {
    "metar": "KCPS 101153Z 00000KT 7SM CLR 15/15 A2985 RMK AO2 SLP107 T01500150 10194 20139 50002 $",
    "windDirection": 0,
    "windSpeed": 0,
    "windGust": null,
    "visibility": 7,
    "temperatureC": 15,
    "dewPointC": 15,
    "cloudCeiling": 99999,
    "altimeter": "A2985",
    "timestamp": "2026-03-10T11:53:00+00:00",
    "station": "KCPS"
  },
  "kstl": {
    "metar": "KSTL 101151Z 20007KT 10SM FEW250 18/16 A2985 RMK AO2 SLP100 T01830161 10194 20178 50002 $",
    "windDirection": 200,
    "windSpeed": 7,
    "windGust": null,
    "visibility": 10,
    "temperatureC": 18,
    "dewPointC": 16,
    "cloudCeiling": null,
    "altimeter": "A2985",
    "timestamp": "2026-03-10T11:51:00+00:00",
    "station": "KSTL"
  }
}