{
  "lastUpdated": "2026-02-23T02:36:13.970531+00:00",
  "kcps": {
    "metar": "KCPS 230153Z 33014G21KT 10SM CLR M02/M13 A3049 RMK AO2 SLP329 T10171133 PNO $",
    "windDirection": 330,
    "windSpeed": 14,
    "windGust": 21,
    "visibility": 10,
    "temperatureC": -2,
    "dewPointC": -13,
    "cloudCeiling": 99999,
    "altimeter": "A3049",
    "timestamp": "2026-02-23T01:53:00+00:00",
    "station": "KCPS"
  },
  "kstl": {
    "metar": "KSTL 230151Z 32015G23KT 10SM CLR M02/M13 A3048 RMK AO2 SLP338 T10221133 $",
    "windDirection": 320,
    "windSpeed": 15,
    "windGust": 23,
    "visibility": 10,
    "temperatureC": -2,
    "dewPointC": -13,
    "cloudCeiling": 99999,
    "altimeter": "A3048",
    "timestamp": "2026-02-23T01:51:00+00:00",
    "station": "KSTL"
  }
}