{
  "lastUpdated": "2025-12-08T12:02:57.351530+00:00",
  "kcps": {
    "metar": "KCPS 081153Z AUTO 36008KT 10SM OVC030 M04/M08 A3034 RMK AO2 SLP279 T10441078 11028 21044 53008 $",
    "windDirection": 360,
    "windSpeed": 8,
    "windGust": null,
    "visibility": 10,
    "temperatureC": -4,
    "dewPointC": -8,
    "cloudCeiling": 3000,
    "altimeter": "A3034",
    "timestamp": "2025-12-08T11:53:00+00:00",
    "station": "KCPS"
  },
  "kstl": {
    "metar": "KSTL 081151Z 02005KT 10SM OVC025 M04/M08 A3033 RMK AO2 SLP284 T10441078 11033 21044 51007 $",
    "windDirection": 20,
    "windSpeed": 5,
    "windGust": null,
    "visibility": 10,
    "temperatureC": -4,
    "dewPointC": -8,
    "cloudCeiling": 2500,
    "altimeter": "A3033",
    "timestamp": "2025-12-08T11:51:00+00:00",
    "station": "KSTL"
  }
}