{
  "lastUpdated": "2026-05-22T15:29:46.637845+00:00",
  "kcps": {
    "metar": "KCPS 221453Z 05007KT 10SM OVC020 18/13 A2996 RMK AO2 SLP144 6//// T01780133 58004 $",
    "windDirection": 50,
    "windSpeed": 7,
    "windGust": null,
    "visibility": 10,
    "temperatureC": 18,
    "dewPointC": 13,
    "cloudCeiling": 2000,
    "altimeter": "A2996",
    "timestamp": "2026-05-22T14:53:00+00:00",
    "station": "KCPS"
  },
  "kstl": {
    "metar": "KSTL 221451Z AUTO 08007KT 10SM OVC016 18/13 A2997 RMK AO2 SLP143 T01780133 58003 $",
    "windDirection": 80,
    "windSpeed": 7,
    "windGust": null,
    "visibility": 10,
    "temperatureC": 18,
    "dewPointC": 13,
    "cloudCeiling": 1600,
    "altimeter": "A2997",
    "timestamp": "2026-05-22T14:51:00+00:00",
    "station": "KSTL"
  }
}