{
  "lastUpdated": "2026-04-21T13:30:58.844068+00:00",
  "kcps": {
    "metar": "KCPS 211253Z 18004KT 10SM CLR 15/06 A3013 RMK AO2 SLP203 T01500061 $",
    "windDirection": 180,
    "windSpeed": 4,
    "windGust": null,
    "visibility": 10,
    "temperatureC": 15,
    "dewPointC": 6,
    "cloudCeiling": 99999,
    "altimeter": "A3013",
    "timestamp": "2026-04-21T12:53:00+00:00",
    "station": "KCPS"
  },
  "kstl": {
    "metar": "KSTL 211251Z 22010KT 10SM BKN250 15/05 A3013 RMK AO2 SLP199 T01500050 $",
    "windDirection": 220,
    "windSpeed": 10,
    "windGust": null,
    "visibility": 10,
    "temperatureC": 15,
    "dewPointC": 5,
    "cloudCeiling": 25000,
    "altimeter": "A3013",
    "timestamp": "2026-04-21T12:51:00+00:00",
    "station": "KSTL"
  }
}