{
  "lastUpdated": "2025-12-07T16:48:09.325890+00:00",
  "kcps": {
    "metar": "KCPS 071553Z 31010KT 9SM OVC022 07/03 A3004 RMK AO2 SLP175 T00670028 $",
    "windDirection": 310,
    "windSpeed": 10,
    "windGust": null,
    "visibility": 9,
    "temperatureC": 7,
    "dewPointC": 3,
    "cloudCeiling": 2200,
    "altimeter": "A3004",
    "timestamp": "2025-12-07T15:53:00+00:00",
    "station": "KCPS"
  },
  "kstl": {
    "metar": "KSTL 071551Z 31011KT 10SM BKN018 BKN023 OVC044 05/02 A3005 RMK AO2 SLP182 T00500017 $",
    "windDirection": 310,
    "windSpeed": 11,
    "windGust": null,
    "visibility": 10,
    "temperatureC": 5,
    "dewPointC": 2,
    "cloudCeiling": 1800,
    "altimeter": "A3005",
    "timestamp": "2025-12-07T15:51:00+00:00",
    "station": "KSTL"
  }
}