{
  "lastUpdated": "2025-12-22T12:23:58.126420+00:00",
  "kcps": {
    "metar": "KCPS 221153Z AUTO 00000KT 10SM CLR M03/M07 A3032 RMK AO2 SLP273 T10281072 10011 21044 55010 $",
    "windDirection": 0,
    "windSpeed": 0,
    "windGust": null,
    "visibility": 10,
    "temperatureC": -3,
    "dewPointC": -7,
    "cloudCeiling": 99999,
    "altimeter": "A3032",
    "timestamp": "2025-12-22T11:53:00+00:00",
    "station": "KCPS"
  },
  "kstl": {
    "metar": "KSTL 221151Z 11006KT 10SM FEW250 M02/M07 A3031 RMK AO2 SLP274 T10171067 10028 21022 55010 $",
    "windDirection": 110,
    "windSpeed": 6,
    "windGust": null,
    "visibility": 10,
    "temperatureC": -2,
    "dewPointC": -7,
    "cloudCeiling": null,
    "altimeter": "A3031",
    "timestamp": "2025-12-22T11:51:00+00:00",
    "station": "KSTL"
  }
}