{
  "lastUpdated": "2025-11-10T11:32:48.146253+00:00",
  "kcps": {
    "metar": "KCPS 101053Z AUTO 32017G24KT 10SM FEW034 OVC060 M02/M08 A3034 RMK AO2 PK WND 32026/1026 SLP277 T10171083 TSNO $",
    "windDirection": 320,
    "windSpeed": 17,
    "windGust": 24,
    "visibility": 10,
    "temperatureC": -2,
    "dewPointC": -8,
    "cloudCeiling": 6000,
    "altimeter": "A3034",
    "timestamp": "2025-11-10T10:53:00+00:00",
    "station": "KCPS"
  },
  "kstl": {
    "metar": "KSTL 101051Z 31010G20KT 10SM SCT055 M02/M08 A3033 RMK AO2 SNB0956E12 SLP282 P0000 T10221083 $",
    "windDirection": 310,
    "windSpeed": 10,
    "windGust": 20,
    "visibility": 10,
    "temperatureC": -2,
    "dewPointC": -8,
    "cloudCeiling": null,
    "altimeter": "A3033",
    "timestamp": "2025-11-10T10:51:00+00:00",
    "station": "KSTL"
  }
}