{
  "lastUpdated": "2026-04-21T02:38:59.430703+00:00",
  "kcps": {
    "metar": "KCPS 210153Z 12004KT 10SM CLR 14/06 A3017 RMK AO2 SLP216 T01440061 $",
    "windDirection": 120,
    "windSpeed": 4,
    "windGust": null,
    "visibility": 10,
    "temperatureC": 14,
    "dewPointC": 6,
    "cloudCeiling": 99999,
    "altimeter": "A3017",
    "timestamp": "2026-04-21T01:53:00+00:00",
    "station": "KCPS"
  },
  "kstl": {
    "metar": "KSTL 210151Z 12009KT 10SM CLR 16/06 A3016 RMK AO2 SLP214 T01610056 $",
    "windDirection": 120,
    "windSpeed": 9,
    "windGust": null,
    "visibility": 10,
    "temperatureC": 16,
    "dewPointC": 6,
    "cloudCeiling": 99999,
    "altimeter": "A3016",
    "timestamp": "2026-04-21T01:51:00+00:00",
    "station": "KSTL"
  }
}