{
  "lastUpdated": "2025-12-14T08:49:44.707789+00:00",
  "kcps": {
    "metar": "KCPS 140753Z 33014KT 10SM CLR M13/M18 A3057 RMK AO2 SLP359 T11281178 $",
    "windDirection": 330,
    "windSpeed": 14,
    "windGust": null,
    "visibility": 10,
    "temperatureC": -13,
    "dewPointC": -18,
    "cloudCeiling": 99999,
    "altimeter": "A3057",
    "timestamp": "2025-12-14T07:53:00+00:00",
    "station": "KCPS"
  },
  "kstl": {
    "metar": "KSTL 140751Z 32011G19KT 10SM FEW250 M13/M18 A3056 RMK AO2 SLP369 T11331183 $",
    "windDirection": 320,
    "windSpeed": 11,
    "windGust": 19,
    "visibility": 10,
    "temperatureC": -13,
    "dewPointC": -18,
    "cloudCeiling": null,
    "altimeter": "A3056",
    "timestamp": "2025-12-14T07:51:00+00:00",
    "station": "KSTL"
  }
}