{
  "lastUpdated": "2026-05-09T16:45:22.288277+00:00",
  "kcps": {
    "metar": "KCPS 091553Z 23006KT 10SM CLR 19/14 A2982 RMK AO2 SLP094 T01940144 $",
    "windDirection": 230,
    "windSpeed": 6,
    "windGust": null,
    "visibility": 10,
    "temperatureC": 19,
    "dewPointC": 14,
    "cloudCeiling": 99999,
    "altimeter": "A2982",
    "timestamp": "2026-05-09T15:53:00+00:00",
    "station": "KCPS"
  },
  "kstl": {
    "metar": "KSTL 091551Z 23009KT 10SM CLR 21/13 A2981 RMK AO2 SLP090 T02060133 $",
    "windDirection": 230,
    "windSpeed": 9,
    "windGust": null,
    "visibility": 10,
    "temperatureC": 21,
    "dewPointC": 13,
    "cloudCeiling": 99999,
    "altimeter": "A2981",
    "timestamp": "2026-05-09T15:51:00+00:00",
    "station": "KSTL"
  }
}