{
  "lastUpdated": "2026-02-08T18:59:35.621373+00:00",
  "kcps": {
    "metar": "KCPS 081853Z 13009KT 10SM CLR 04/M06 A3015 RMK AO2 SLP211 T00391056 $",
    "windDirection": 130,
    "windSpeed": 9,
    "windGust": null,
    "visibility": 10,
    "temperatureC": 4,
    "dewPointC": -6,
    "cloudCeiling": 99999,
    "altimeter": "A3015",
    "timestamp": "2026-02-08T18:53:00+00:00",
    "station": "KCPS"
  },
  "kstl": {
    "metar": "KSTL 081851Z 14009KT 10SM SCT200 BKN250 04/M06 A3014 RMK AO2 SLP215 T00391056 $",
    "windDirection": 140,
    "windSpeed": 9,
    "windGust": null,
    "visibility": 10,
    "temperatureC": 4,
    "dewPointC": -6,
    "cloudCeiling": 25000,
    "altimeter": "A3014",
    "timestamp": "2026-02-08T18:51:00+00:00",
    "station": "KSTL"
  }
}