{
  "lastUpdated": "2026-02-06T22:22:07.691116+00:00",
  "kcps": {
    "metar": "KCPS 062153Z 36010KT 10SM FEW031 07/01 A3007 RMK AO2 SLP183 T00670011 $",
    "windDirection": 360,
    "windSpeed": 10,
    "windGust": null,
    "visibility": 10,
    "temperatureC": 7,
    "dewPointC": 1,
    "cloudCeiling": null,
    "altimeter": "A3007",
    "timestamp": "2026-02-06T21:53:00+00:00",
    "station": "KCPS"
  },
  "kstl": {
    "metar": "KSTL 062151Z 33011G23KT 10SM FEW033 07/01 A3007 RMK AO2 SLP189 T00720006 $",
    "windDirection": 330,
    "windSpeed": 11,
    "windGust": 23,
    "visibility": 10,
    "temperatureC": 7,
    "dewPointC": 1,
    "cloudCeiling": null,
    "altimeter": "A3007",
    "timestamp": "2026-02-06T21:51:00+00:00",
    "station": "KSTL"
  }
}