{
  "lastUpdated": "2025-12-02T21:02:35.909625+00:00",
  "kcps": {
    "metar": "KCPS 022053Z 24004KT 10SM OVC015 M03/M07 A3011 RMK AO2 SLP200 T10331067 56010",
    "windDirection": 240,
    "windSpeed": 4,
    "windGust": null,
    "visibility": 10,
    "temperatureC": -3,
    "dewPointC": -7,
    "cloudCeiling": 1500,
    "altimeter": "A3011",
    "timestamp": "2025-12-02T20:53:00+00:00",
    "station": "KCPS"
  },
  "kstl": {
    "metar": "KSTL 022051Z 27006KT 10SM OVC014 M04/M07 A3009 RMK AO2 SLP204 60000 T10391067 56010 $",
    "windDirection": 270,
    "windSpeed": 6,
    "windGust": null,
    "visibility": 10,
    "temperatureC": -4,
    "dewPointC": -7,
    "cloudCeiling": 1400,
    "altimeter": "A3009",
    "timestamp": "2025-12-02T20:51:00+00:00",
    "station": "KSTL"
  }
}