{
  "lastUpdated": "2026-01-02T03:19:07.775656+00:00",
  "kcps": {
    "metar": "KCPS 020253Z 00000KT 5SM BR OVC006 01/00 A2990 RMK AO2 SLP128 T00110000 58007 $",
    "windDirection": 0,
    "windSpeed": 0,
    "windGust": null,
    "visibility": 5,
    "temperatureC": 1,
    "dewPointC": 0,
    "cloudCeiling": 600,
    "altimeter": "A2990",
    "timestamp": "2026-01-02T02:53:00+00:00",
    "station": "KCPS"
  },
  "kstl": {
    "metar": "KSTL 020251Z 00000KT 5SM BR OVC006 01/00 A2990 RMK AO2 SLP134 T00110000 56008 $",
    "windDirection": 0,
    "windSpeed": 0,
    "windGust": null,
    "visibility": 5,
    "temperatureC": 1,
    "dewPointC": 0,
    "cloudCeiling": 600,
    "altimeter": "A2990",
    "timestamp": "2026-01-02T02:51:00+00:00",
    "station": "KSTL"
  }
}