{
  "lastUpdated": "2026-01-27T23:48:43.521705+00:00",
  "kcps": {
    "metar": "KCPS 272253Z 33013KT 10SM CLR M03/M12 A3035 RMK AO2 SLP284 T10331122 $",
    "windDirection": 330,
    "windSpeed": 13,
    "windGust": null,
    "visibility": 10,
    "temperatureC": -3,
    "dewPointC": -12,
    "cloudCeiling": 99999,
    "altimeter": "A3035",
    "timestamp": "2026-01-27T22:53:00+00:00",
    "station": "KCPS"
  },
  "kstl": {
    "metar": "KSTL 272251Z 30009KT 10SM FEW180 BKN250 M04/M13 A3035 RMK AO2 SLP293 T10441133 $",
    "windDirection": 300,
    "windSpeed": 9,
    "windGust": null,
    "visibility": 10,
    "temperatureC": -4,
    "dewPointC": -13,
    "cloudCeiling": 25000,
    "altimeter": "A3035",
    "timestamp": "2026-01-27T22:51:00+00:00",
    "station": "KSTL"
  }
}