{
  "lastUpdated": "2026-02-02T00:09:53.603993+00:00",
  "kcps": {
    "metar": "KCPS 012253Z 18004KT 10SM OVC055 M02/M10 A3020 RMK AO2 SLP234 T10221100 $",
    "windDirection": 180,
    "windSpeed": 4,
    "windGust": null,
    "visibility": 10,
    "temperatureC": -2,
    "dewPointC": -10,
    "cloudCeiling": 5500,
    "altimeter": "A3020",
    "timestamp": "2026-02-01T22:53:00+00:00",
    "station": "KCPS"
  },
  "kstl": {
    "metar": "KSTL 012351Z 18010KT 10SM BKN049 M02/M11 A3018 RMK AO2 SLP238 4/004 T10221106 11022 21056 56013 $",
    "windDirection": 180,
    "windSpeed": 10,
    "windGust": null,
    "visibility": 10,
    "temperatureC": -2,
    "dewPointC": -11,
    "cloudCeiling": 4900,
    "altimeter": "A3018",
    "timestamp": "2026-02-01T23:51:00+00:00",
    "station": "KSTL"
  }
}