{
  "lastUpdated": "2026-02-06T06:31:45.898489+00:00",
  "kcps": {
    "metar": "KCPS 060553Z 00000KT 9SM CLR M04/M06 A2989 RMK AO2 SLP127 T10391056 10011 21050 400281128 58008 $",
    "windDirection": 0,
    "windSpeed": 0,
    "windGust": null,
    "visibility": 9,
    "temperatureC": -4,
    "dewPointC": -6,
    "cloudCeiling": 99999,
    "altimeter": "A2989",
    "timestamp": "2026-02-06T05:53:00+00:00",
    "station": "KCPS"
  },
  "kstl": {
    "metar": "KSTL 060551Z 00000KT 10SM FEW250 M01/M04 A2989 RMK AO2 SLP132 4/002 T10061039 10022 21017 400391089 58007 $",
    "windDirection": 0,
    "windSpeed": 0,
    "windGust": null,
    "visibility": 10,
    "temperatureC": -1,
    "dewPointC": -4,
    "cloudCeiling": null,
    "altimeter": "A2989",
    "timestamp": "2026-02-06T05:51:00+00:00",
    "station": "KSTL"
  }
}