{
  "lastUpdated": "2025-11-25T15:22:04.587352+00:00",
  "kcps": {
    "metar": "KCPS 251453Z 28004KT 10SM BKN010 BKN060 OVC090 13/12 A2983 RMK AO2 SLP102 60000 T01330117 53009",
    "windDirection": 280,
    "windSpeed": 4,
    "windGust": null,
    "visibility": 10,
    "temperatureC": 13,
    "dewPointC": 12,
    "cloudCeiling": 1000,
    "altimeter": "A2983",
    "timestamp": "2025-11-25T14:53:00+00:00",
    "station": "KCPS"
  },
  "kstl": {
    "metar": "KSTL 251451Z 31006KT 6SM BR OVC005 13/12 A2984 RMK AO2 SLP105 T01280117 53011 $",
    "windDirection": 310,
    "windSpeed": 6,
    "windGust": null,
    "visibility": 6,
    "temperatureC": 13,
    "dewPointC": 12,
    "cloudCeiling": 500,
    "altimeter": "A2984",
    "timestamp": "2025-11-25T14:51:00+00:00",
    "station": "KSTL"
  }
}