{
  "lastUpdated": "2026-04-06T11:45:19.534544+00:00",
  "kcps": {
    "metar": "KCPS 061053Z AUTO 24004KT 10SM CLR 06/01 A3027 RMK AO2 SLP251 T00610011 $",
    "windDirection": 240,
    "windSpeed": 4,
    "windGust": null,
    "visibility": 10,
    "temperatureC": 6,
    "dewPointC": 1,
    "cloudCeiling": 99999,
    "altimeter": "A3027",
    "timestamp": "2026-04-06T10:53:00+00:00",
    "station": "KCPS"
  },
  "kstl": {
    "metar": "KSTL 061051Z 27004KT 10SM CLR 06/01 A3027 RMK AO2 SLP252 T00610011 $",
    "windDirection": 270,
    "windSpeed": 4,
    "windGust": null,
    "visibility": 10,
    "temperatureC": 6,
    "dewPointC": 1,
    "cloudCeiling": 99999,
    "altimeter": "A3027",
    "timestamp": "2026-04-06T10:51:00+00:00",
    "station": "KSTL"
  }
}