{
  "lastUpdated": "2026-01-23T03:20:47.546875+00:00",
  "kcps": {
    "metar": "KCPS 230253Z 00000KT 10SM CLR M03/M12 A3032 RMK AO2 SLP273 T10281122 51012 $",
    "windDirection": 0,
    "windSpeed": 0,
    "windGust": null,
    "visibility": 10,
    "temperatureC": -3,
    "dewPointC": -12,
    "cloudCeiling": 99999,
    "altimeter": "A3032",
    "timestamp": "2026-01-23T02:53:00+00:00",
    "station": "KCPS"
  },
  "kstl": {
    "metar": "KSTL 230251Z 00000KT 10SM SCT250 M02/M12 A3032 RMK AO2 SLP281 T10221117 52012 $",
    "windDirection": 0,
    "windSpeed": 0,
    "windGust": null,
    "visibility": 10,
    "temperatureC": -2,
    "dewPointC": -12,
    "cloudCeiling": null,
    "altimeter": "A3032",
    "timestamp": "2026-01-23T02:51:00+00:00",
    "station": "KSTL"
  }
}