{
  "lastUpdated": "2026-04-23T09:04:51.776667+00:00",
  "kcps": {
    "metar": "KCPS 230853Z AUTO 16004KT 10SM CLR 14/13 A2994 RMK AO2 SLP136 T01390128 55006 $",
    "windDirection": 160,
    "windSpeed": 4,
    "windGust": null,
    "visibility": 10,
    "temperatureC": 14,
    "dewPointC": 13,
    "cloudCeiling": 99999,
    "altimeter": "A2994",
    "timestamp": "2026-04-23T08:53:00+00:00",
    "station": "KCPS"
  },
  "kstl": {
    "metar": "KSTL 230851Z 19004KT 10SM CLR 17/13 A2994 RMK AO2 SLP130 T01720133 56008 $",
    "windDirection": 190,
    "windSpeed": 4,
    "windGust": null,
    "visibility": 10,
    "temperatureC": 17,
    "dewPointC": 13,
    "cloudCeiling": 99999,
    "altimeter": "A2994",
    "timestamp": "2026-04-23T08:51:00+00:00",
    "station": "KSTL"
  }
}