{
  "lastUpdated": "2025-12-28T21:33:55.713512+00:00",
  "kcps": {
    "metar": "KCPS 282125Z 31028G37KT 10SM -RA BKN065 BKN080 OVC100 19/13 A2956 RMK AO2 PK WND 31037/2116 WSHFT 2105 RAB14 PRESRR P0000 T01890128 $",
    "windDirection": 310,
    "windSpeed": 28,
    "windGust": 37,
    "visibility": 10,
    "temperatureC": 19,
    "dewPointC": 13,
    "cloudCeiling": 6500,
    "altimeter": "A2956",
    "timestamp": "2025-12-28T21:25:00+00:00",
    "station": "KCPS"
  },
  "kstl": {
    "metar": "KSTL 282051Z 30023G38KT 10SM BKN055 BKN075 18/13 A2955 RMK AO2 PK WND 27047/2034 WSHFT 2028 RAB26E37 PRESRR SLP001 P0000 60000 T01830128 53011 $",
    "windDirection": 300,
    "windSpeed": 23,
    "windGust": 38,
    "visibility": 10,
    "temperatureC": 18,
    "dewPointC": 13,
    "cloudCeiling": 5500,
    "altimeter": "A2955",
    "timestamp": "2025-12-28T20:51:00+00:00",
    "station": "KSTL"
  }
}