{
  "lastUpdated": "2026-02-27T09:01:43.015382+00:00",
  "kcps": {
    "metar": "KCPS 270853Z AUTO 00000KT 6SM BR CLR 00/M01 A2995 RMK AO2 SLP142 T00001006 50004 $",
    "windDirection": 0,
    "windSpeed": 0,
    "windGust": null,
    "visibility": 6,
    "temperatureC": 0,
    "dewPointC": -1,
    "cloudCeiling": 99999,
    "altimeter": "A2995",
    "timestamp": "2026-02-27T08:53:00+00:00",
    "station": "KCPS"
  },
  "kstl": {
    "metar": "KSTL 270851Z 00000KT 10SM CLR 03/01 A2995 RMK AO2 SLP142 T00280011 50003 $",
    "windDirection": 0,
    "windSpeed": 0,
    "windGust": null,
    "visibility": 10,
    "temperatureC": 3,
    "dewPointC": 1,
    "cloudCeiling": 99999,
    "altimeter": "A2995",
    "timestamp": "2026-02-27T08:51:00+00:00",
    "station": "KSTL"
  }
}