{
  "lastUpdated": "2026-06-12T02:38:28.122451+00:00",
  "kstl": {
    "metar": "SPECI KSTL 120235Z 29012KT 3SM -TSRA BR SCT038 BKN055CB OVC090 27/24 A2984 RMK AO2 RAB18 CONS LTGICCCCG ALQDS TS ALQDS MOV E P0008 T02670244 $",
    "windDirection": 290,
    "windSpeed": 12,
    "windGust": null,
    "visibility": 3.0,
    "temperatureC": 26.7,
    "dewPointC": 24.4,
    "cloudCeiling": 5500,
    "altimeter": "A2984",
    "timestamp": "2026-06-12T02:35:00.000Z",
    "station": "KSTL"
  },
  "kcps": {
    "metar": "SPECI KCPS 120234Z 23007KT 10SM TS BKN048 BKN060 30/22 A2979 RMK AO2 LTG DSNT ALQDS TSB28 T03000222 $",
    "windDirection": 230,
    "windSpeed": 7,
    "windGust": null,
    "visibility": 10.0,
    "temperatureC": 30,
    "dewPointC": 22.2,
    "cloudCeiling": 4800,
    "altimeter": "A2979",
    "timestamp": "2026-06-12T02:34:00.000Z",
    "station": "KCPS"
  }
}