{
  "lastUpdated": "2026-01-31T20:50:34.399629+00:00",
  "kcps": {
    "metar": "KCPS 311953Z 32012KT 10SM CLR M08/M15 A3050 RMK AO2 SLP336 T10781150 $",
    "windDirection": 320,
    "windSpeed": 12,
    "windGust": null,
    "visibility": 10,
    "temperatureC": -8,
    "dewPointC": -15,
    "cloudCeiling": 99999,
    "altimeter": "A3050",
    "timestamp": "2026-01-31T19:53:00+00:00",
    "station": "KCPS"
  },
  "kstl": {
    "metar": "KSTL 311951Z 30009KT 10SM CLR M08/M16 A3050 RMK AO2 SLP347 T10781156 $",
    "windDirection": 300,
    "windSpeed": 9,
    "windGust": null,
    "visibility": 10,
    "temperatureC": -8,
    "dewPointC": -16,
    "cloudCeiling": 99999,
    "altimeter": "A3050",
    "timestamp": "2026-01-31T19:51:00+00:00",
    "station": "KSTL"
  }
}