{
  "lastUpdated": "2025-10-24T00:34:45.889942+00:00",
  "kcps": {
    "metar": "KCPS 232353Z 00000KT 10SM CLR 09/03 A3019 RMK AO2 SLP226 T00890033 10172 20089 53003 $",
    "windDirection": 0,
    "windSpeed": 0,
    "windGust": null,
    "visibility": 10,
    "temperatureC": 9,
    "dewPointC": 3,
    "cloudCeiling": 99999,
    "altimeter": "A3019",
    "timestamp": "2025-10-23T23:53:00+00:00",
    "station": "KCPS"
  },
  "kstl": {
    "metar": "KSTL 232351Z 00000KT 10SM SCT250 12/02 A3020 RMK AO2 SLP228 T01170017 10178 20117 53003 $",
    "windDirection": 0,
    "windSpeed": 0,
    "windGust": null,
    "visibility": 10,
    "temperatureC": 12,
    "dewPointC": 2,
    "cloudCeiling": null,
    "altimeter": "A3020",
    "timestamp": "2025-10-23T23:51:00+00:00",
    "station": "KSTL"
  }
}