{
  "lastUpdated": "2026-01-12T05:52:30.259247+00:00",
  "kcps": {
    "metar": "KCPS 120453Z AUTO 00000KT 10SM CLR M04/M07 A3045 RMK AO2 SLP316 T10441072 $",
    "windDirection": 0,
    "windSpeed": 0,
    "windGust": null,
    "visibility": 10,
    "temperatureC": -4,
    "dewPointC": -7,
    "cloudCeiling": 99999,
    "altimeter": "A3045",
    "timestamp": "2026-01-12T04:53:00+00:00",
    "station": "KCPS"
  },
  "kstl": {
    "metar": "KSTL 120451Z 22003KT 10SM CLR M01/M09 A3044 RMK AO2 SLP319 T10061089 $",
    "windDirection": 220,
    "windSpeed": 3,
    "windGust": null,
    "visibility": 10,
    "temperatureC": -1,
    "dewPointC": -9,
    "cloudCeiling": 99999,
    "altimeter": "A3044",
    "timestamp": "2026-01-12T04:51:00+00:00",
    "station": "KSTL"
  }
}