{
  "lastUpdated": "2026-04-18T10:26:47.002792+00:00",
  "kcps": {
    "metar": "KCPS 181017Z AUTO 31013KT 10SM -RA BKN010 BKN023 OVC070 10/09 A2986 RMK AO2 PRESRR P0003 T01000089 $",
    "windDirection": 310,
    "windSpeed": 13,
    "windGust": null,
    "visibility": 10,
    "temperatureC": 10,
    "dewPointC": 9,
    "cloudCeiling": 1000,
    "altimeter": "A2986",
    "timestamp": "2026-04-18T10:17:00+00:00",
    "station": "KCPS"
  },
  "kstl": {
    "metar": "KSTL 181009Z 31015G24KT 10SM -RA FEW017 BKN026 OVC085 09/07 A2988 RMK AO2 WSHFT 0955 P0002 T00890072 $",
    "windDirection": 310,
    "windSpeed": 15,
    "windGust": 24,
    "visibility": 10,
    "temperatureC": 9,
    "dewPointC": 7,
    "cloudCeiling": 2600,
    "altimeter": "A2988",
    "timestamp": "2026-04-18T10:09:00+00:00",
    "station": "KSTL"
  }
}