{
  "lastUpdated": "2025-12-04T03:39:17.006302+00:00",
  "kcps": {
    "metar": "KCPS 040253Z 00000KT 10SM OVC100 01/M01 A3020 RMK AO2 SLP232 T00061006 53019 $",
    "windDirection": 0,
    "windSpeed": 0,
    "windGust": null,
    "visibility": 10,
    "temperatureC": 1,
    "dewPointC": -1,
    "cloudCeiling": 10000,
    "altimeter": "A3020",
    "timestamp": "2025-12-04T02:53:00+00:00",
    "station": "KCPS"
  },
  "kstl": {
    "metar": "KSTL 040251Z 33006KT 10SM OVC021 02/M01 A3020 RMK AO2 SLP239 T00171006 53019 $",
    "windDirection": 330,
    "windSpeed": 6,
    "windGust": null,
    "visibility": 10,
    "temperatureC": 2,
    "dewPointC": -1,
    "cloudCeiling": 2100,
    "altimeter": "A3020",
    "timestamp": "2025-12-04T02:51:00+00:00",
    "station": "KSTL"
  }
}