{
  "lastUpdated": "2026-04-13T17:08:22.464070+00:00",
  "kcps": {
    "metar": "KCPS 131653Z 22009G18KT 180V250 10SM OVC038 26/17 A2999 RMK AO2 SLP152 T02610172 $",
    "windDirection": 220,
    "windSpeed": 9,
    "windGust": 18,
    "visibility": 10,
    "temperatureC": 26,
    "dewPointC": 17,
    "cloudCeiling": 3800,
    "altimeter": "A2999",
    "timestamp": "2026-04-13T16:53:00+00:00",
    "station": "KCPS"
  },
  "kstl": {
    "metar": "KSTL 131651Z 21014KT 10SM BKN037 26/17 A2999 RMK AO2 SLP146 T02560172 $",
    "windDirection": 210,
    "windSpeed": 14,
    "windGust": null,
    "visibility": 10,
    "temperatureC": 26,
    "dewPointC": 17,
    "cloudCeiling": 3700,
    "altimeter": "A2999",
    "timestamp": "2026-04-13T16:51:00+00:00",
    "station": "KSTL"
  }
}