{
  "lastUpdated": "2026-05-21T23:20:16.861982+00:00",
  "kcps": {
    "metar": "KCPS 212253Z 08007KT 10SM OVC024 19/14 A3006 RMK AO2 SLP179 T01940144 PNO $",
    "windDirection": 80,
    "windSpeed": 7,
    "windGust": null,
    "visibility": 10,
    "temperatureC": 19,
    "dewPointC": 14,
    "cloudCeiling": 2400,
    "altimeter": "A3006",
    "timestamp": "2026-05-21T22:53:00+00:00",
    "station": "KCPS"
  },
  "kstl": {
    "metar": "KSTL 212251Z AUTO 08011KT 10SM OVC028 19/14 A3007 RMK AO2 SLP179 T01940144 $",
    "windDirection": 80,
    "windSpeed": 11,
    "windGust": null,
    "visibility": 10,
    "temperatureC": 19,
    "dewPointC": 14,
    "cloudCeiling": 2800,
    "altimeter": "A3007",
    "timestamp": "2026-05-21T22:51:00+00:00",
    "station": "KSTL"
  }
}