{
  "lastUpdated": "2025-10-25T11:31:53.291135+00:00",
  "kcps": {
    "metar": "KCPS 251053Z AUTO 10006KT 10SM OVC090 11/05 A3025 RMK AO2 SLP242 T01110050 $",
    "windDirection": 100,
    "windSpeed": 6,
    "windGust": null,
    "visibility": 10,
    "temperatureC": 11,
    "dewPointC": 5,
    "cloudCeiling": 9000,
    "altimeter": "A3025",
    "timestamp": "2025-10-25T10:53:00+00:00",
    "station": "KCPS"
  },
  "kstl": {
    "metar": "KSTL 251051Z 11007KT 10SM OVC085 12/04 A3025 RMK AO2 SLP241 T01220044 $",
    "windDirection": 110,
    "windSpeed": 7,
    "windGust": null,
    "visibility": 10,
    "temperatureC": 12,
    "dewPointC": 4,
    "cloudCeiling": 8500,
    "altimeter": "A3025",
    "timestamp": "2025-10-25T10:51:00+00:00",
    "station": "KSTL"
  }
}