{
  "lastUpdated": "2026-04-05T04:04:52.955077+00:00",
  "kcps": {
    "metar": "KCPS 050353Z AUTO 32007KT 10SM CLR 07/01 A3022 RMK AO2 SLP232 T00720006 $",
    "windDirection": 320,
    "windSpeed": 7,
    "windGust": null,
    "visibility": 10,
    "temperatureC": 7,
    "dewPointC": 1,
    "cloudCeiling": 99999,
    "altimeter": "A3022",
    "timestamp": "2026-04-05T03:53:00+00:00",
    "station": "KCPS"
  },
  "kstl": {
    "metar": "KSTL 050351Z 29006KT 10SM BKN250 06/01 A3021 RMK AO2 SLP233 T00610006 $",
    "windDirection": 290,
    "windSpeed": 6,
    "windGust": null,
    "visibility": 10,
    "temperatureC": 6,
    "dewPointC": 1,
    "cloudCeiling": 25000,
    "altimeter": "A3021",
    "timestamp": "2026-04-05T03:51:00+00:00",
    "station": "KSTL"
  }
}