{
  "lastUpdated": "2025-12-06T04:36:05.426463+00:00",
  "kcps": {
    "metar": "KCPS 060353Z 21004KT 10SM CLR 03/M04 A2990 RMK AO2 SLP128 T00331044 $",
    "windDirection": 210,
    "windSpeed": 4,
    "windGust": null,
    "visibility": 10,
    "temperatureC": 3,
    "dewPointC": -4,
    "cloudCeiling": 99999,
    "altimeter": "A2990",
    "timestamp": "2025-12-06T03:53:00+00:00",
    "station": "KCPS"
  },
  "kstl": {
    "metar": "KSTL 060351Z 22007KT 10SM BKN150 OVC250 03/M03 A2989 RMK AO2 SLP131 T00331033 $",
    "windDirection": 220,
    "windSpeed": 7,
    "windGust": null,
    "visibility": 10,
    "temperatureC": 3,
    "dewPointC": -3,
    "cloudCeiling": 15000,
    "altimeter": "A2989",
    "timestamp": "2025-12-06T03:51:00+00:00",
    "station": "KSTL"
  }
}