{
  "lastUpdated": "2025-12-10T18:02:51.574098+00:00",
  "kcps": {
    "metar": "KCPS 101753Z 32026G38KT 10SM OVC035 03/M04 A2983 RMK AO2 PK WND 31038/1656 RAE48SNB48E50 SLP103 P0000 60000 T00331039 10106 20033 51044",
    "windDirection": 320,
    "windSpeed": 26,
    "windGust": 38,
    "visibility": 10,
    "temperatureC": 3,
    "dewPointC": -4,
    "cloudCeiling": 3500,
    "altimeter": "A2983",
    "timestamp": "2025-12-10T17:53:00+00:00",
    "station": "KCPS"
  },
  "kstl": {
    "metar": "KSTL 101751Z 31026G37KT 10SM OVC029 02/M04 A2983 RMK AO2 PK WND 31037/1750 SLP105 60000 T00221044 10094 20022 51043 $",
    "windDirection": 310,
    "windSpeed": 26,
    "windGust": 37,
    "visibility": 10,
    "temperatureC": 2,
    "dewPointC": -4,
    "cloudCeiling": 2900,
    "altimeter": "A2983",
    "timestamp": "2025-12-10T17:51:00+00:00",
    "station": "KSTL"
  }
}