{
  "lastUpdated": "2026-05-24T19:42:06.906823+00:00",
  "kcps": {
    "metar": "KCPS 241853Z 35008KT 10SM FEW032 SCT043 26/18 A3005 RMK AO2 SLP171 T02560178 $",
    "windDirection": 350,
    "windSpeed": 8,
    "windGust": null,
    "visibility": 10,
    "temperatureC": 26,
    "dewPointC": 18,
    "cloudCeiling": null,
    "altimeter": "A3005",
    "timestamp": "2026-05-24T18:53:00+00:00",
    "station": "KCPS"
  },
  "kstl": {
    "metar": "KSTL 241935Z 31005KT 10SM BKN045 BKN250 27/16 A3005 RMK AO2 T02670156 $",
    "windDirection": 310,
    "windSpeed": 5,
    "windGust": null,
    "visibility": 10,
    "temperatureC": 27,
    "dewPointC": 16,
    "cloudCeiling": 4500,
    "altimeter": "A3005",
    "timestamp": "2026-05-24T19:35:00+00:00",
    "station": "KSTL"
  }
}