{
  "lastUpdated": "2026-04-12T18:16:41.883117+00:00",
  "kcps": {
    "metar": "KCPS 121753Z 19017G31KT 10SM FEW060 26/12 A3001 RMK AO2 PK WND 18031/1751 SLP158 T02560122 10267 20161 58019 $",
    "windDirection": 190,
    "windSpeed": 17,
    "windGust": 31,
    "visibility": 10,
    "temperatureC": 26,
    "dewPointC": 12,
    "cloudCeiling": null,
    "altimeter": "A3001",
    "timestamp": "2026-04-12T17:53:00+00:00",
    "station": "KCPS"
  },
  "kstl": {
    "metar": "KSTL 121751Z 20019G31KT 10SM FEW040 BKN100 OVC250 26/12 A3000 RMK AO2 PK WND 20031/1745 SLP149 T02560122 10267 20178 58020 $",
    "windDirection": 200,
    "windSpeed": 19,
    "windGust": 31,
    "visibility": 10,
    "temperatureC": 26,
    "dewPointC": 12,
    "cloudCeiling": 10000,
    "altimeter": "A3000",
    "timestamp": "2026-04-12T17:51:00+00:00",
    "station": "KSTL"
  }
}