{
  "lastUpdated": "2026-04-01T22:23:57.456225+00:00",
  "kcps": {
    "metar": "KCPS 012210Z 34010KT 10SM BKN010 BKN120 14/12 A2997 RMK AO2 PRESRR T01440122 $",
    "windDirection": 340,
    "windSpeed": 10,
    "windGust": null,
    "visibility": 10,
    "temperatureC": 14,
    "dewPointC": 12,
    "cloudCeiling": 1000,
    "altimeter": "A2997",
    "timestamp": "2026-04-01T22:10:00+00:00",
    "station": "KCPS"
  },
  "kstl": {
    "metar": "KSTL 012151Z 05006KT 7SM OVC006 12/11 A2997 RMK AO2 SLP148 T01220106 $",
    "windDirection": 50,
    "windSpeed": 6,
    "windGust": null,
    "visibility": 7,
    "temperatureC": 12,
    "dewPointC": 11,
    "cloudCeiling": 600,
    "altimeter": "A2997",
    "timestamp": "2026-04-01T21:51:00+00:00",
    "station": "KSTL"
  }
}