{
  "lastUpdated": "2026-04-30T14:39:30.893320+00:00",
  "kcps": {
    "metar": "KCPS 301353Z VRB03KT 10SM CLR 12/04 A3010 RMK AO2 SLP192 T01170044 $",
    "windDirection": null,
    "windSpeed": null,
    "windGust": null,
    "visibility": 10,
    "temperatureC": 12,
    "dewPointC": 4,
    "cloudCeiling": 99999,
    "altimeter": "A3010",
    "timestamp": "2026-04-30T13:53:00+00:00",
    "station": "KCPS"
  },
  "kstl": {
    "metar": "KSTL 301351Z 00000KT 10SM FEW250 12/04 A3009 RMK AO2 SLP190 T01220039",
    "windDirection": 0,
    "windSpeed": 0,
    "windGust": null,
    "visibility": 10,
    "temperatureC": 12,
    "dewPointC": 4,
    "cloudCeiling": null,
    "altimeter": "A3009",
    "timestamp": "2026-04-30T13:51:00+00:00",
    "station": "KSTL"
  }
}