{
  "lastUpdated": "2025-12-09T11:46:51.361734+00:00",
  "kcps": {
    "metar": "KCPS 091053Z AUTO 20010G18KT 10SM CLR 03/M03 A3001 RMK AO2 SLP166 T00281033 $",
    "windDirection": 200,
    "windSpeed": 10,
    "windGust": 18,
    "visibility": 10,
    "temperatureC": 3,
    "dewPointC": -3,
    "cloudCeiling": 99999,
    "altimeter": "A3001",
    "timestamp": "2025-12-09T10:53:00+00:00",
    "station": "KCPS"
  },
  "kstl": {
    "metar": "KSTL 091051Z 20012KT 10SM BKN170 OVC250 02/M03 A2999 RMK AO2 SLP165 T00221028 $",
    "windDirection": 200,
    "windSpeed": 12,
    "windGust": null,
    "visibility": 10,
    "temperatureC": 2,
    "dewPointC": -3,
    "cloudCeiling": 17000,
    "altimeter": "A2999",
    "timestamp": "2025-12-09T10:51:00+00:00",
    "station": "KSTL"
  }
}