{
  "lastUpdated": "2025-11-30T12:23:33.118555+00:00",
  "kcps": {
    "metar": "KCPS 301153Z AUTO 30011KT 10SM SCT030 M03/M08 A3028 RMK AO2 PK WND 31026/1054 SLP258 60000 70096 T10281078 10011 21028 51026 $",
    "windDirection": 300,
    "windSpeed": 11,
    "windGust": null,
    "visibility": 10,
    "temperatureC": -3,
    "dewPointC": -8,
    "cloudCeiling": null,
    "altimeter": "A3028",
    "timestamp": "2025-11-30T11:53:00+00:00",
    "station": "KCPS"
  },
  "kstl": {
    "metar": "KSTL 301151Z 29017G25KT 10SM SCT029 M04/M09 A3028 RMK AO2 PK WND 28033/1122 SLP263 4/003 70075 T10391089 10000 21039 51025 $",
    "windDirection": 290,
    "windSpeed": 17,
    "windGust": 25,
    "visibility": 10,
    "temperatureC": -4,
    "dewPointC": -9,
    "cloudCeiling": null,
    "altimeter": "A3028",
    "timestamp": "2025-11-30T11:51:00+00:00",
    "station": "KSTL"
  }
}