{
  "lastUpdated": "2025-11-28T15:02:18.833356+00:00",
  "kcps": {
    "metar": "KCPS 281453Z 35005KT 10SM CLR M02/M08 A3050 RMK AO2 SLP333 T10171078 51010",
    "windDirection": 350,
    "windSpeed": 5,
    "windGust": null,
    "visibility": 10,
    "temperatureC": -2,
    "dewPointC": -8,
    "cloudCeiling": 99999,
    "altimeter": "A3050",
    "timestamp": "2025-11-28T14:53:00+00:00",
    "station": "KCPS"
  },
  "kstl": {
    "metar": "KSTL 281451Z 33005KT 10SM FEW250 M02/M07 A3049 RMK AO2 SLP338 T10221072 52010 $",
    "windDirection": 330,
    "windSpeed": 5,
    "windGust": null,
    "visibility": 10,
    "temperatureC": -2,
    "dewPointC": -7,
    "cloudCeiling": null,
    "altimeter": "A3049",
    "timestamp": "2025-11-28T14:51:00+00:00",
    "station": "KSTL"
  }
}