{
  "lastUpdated": "2025-11-22T02:28:43.203600+00:00",
  "kcps": {
    "metar": "KCPS 220223Z 36007KT 6SM BR OVC003 12/12 A2991 RMK AO2 T01220117",
    "windDirection": 360,
    "windSpeed": 7,
    "windGust": null,
    "visibility": 6,
    "temperatureC": 12,
    "dewPointC": 12,
    "cloudCeiling": 300,
    "altimeter": "A2991",
    "timestamp": "2025-11-22T02:23:00+00:00",
    "station": "KCPS"
  },
  "kstl": {
    "metar": "\u0000\u0000\u0000\u0000\u0000\u0000\u0000\u0000\u0000\u0000\u0000\u0000\u0000",
    "windDirection": null,
    "windSpeed": null,
    "windGust": null,
    "visibility": null,
    "temperatureC": null,
    "dewPointC": null,
    "cloudCeiling": null,
    "altimeter": null,
    "timestamp": null
  }
}