{
  "lastUpdated": "2026-04-08T02:36:29.613202+00:00",
  "kcps": {
    "metar": "KCPS 080153Z 08004KT 10SM CLR 09/03 A3029 RMK AO2 SLP258 T00890028 $",
    "windDirection": 80,
    "windSpeed": 4,
    "windGust": null,
    "visibility": 10,
    "temperatureC": 9,
    "dewPointC": 3,
    "cloudCeiling": 99999,
    "altimeter": "A3029",
    "timestamp": "2026-04-08T01:53:00+00:00",
    "station": "KCPS"
  },
  "kstl": {
    "metar": "KSTL 080151Z 10011KT 10SM FEW130 BKN250 10/01 A3028 RMK AO2 SLP259 T01000006 $",
    "windDirection": 100,
    "windSpeed": 11,
    "windGust": null,
    "visibility": 10,
    "temperatureC": 10,
    "dewPointC": 1,
    "cloudCeiling": 25000,
    "altimeter": "A3028",
    "timestamp": "2026-04-08T01:51:00+00:00",
    "station": "KSTL"
  }
}