{
  "lastUpdated": "2026-03-23T21:56:05.122463+00:00",
  "kcps": {
    "metar": "KCPS 232153Z 03010G15KT 10SM CLR 12/M02 A3036 RMK AO2 SLP282 T01171022 $",
    "windDirection": 30,
    "windSpeed": 10,
    "windGust": 15,
    "visibility": 10,
    "temperatureC": 12,
    "dewPointC": -2,
    "cloudCeiling": 99999,
    "altimeter": "A3036",
    "timestamp": "2026-03-23T21:53:00+00:00",
    "station": "KCPS"
  },
  "kstl": {
    "metar": "KSTL 232151Z 01006KT 10SM FEW120 SCT250 12/M04 A3036 RMK AO2 SLP286 T01171044 $",
    "windDirection": 10,
    "windSpeed": 6,
    "windGust": null,
    "visibility": 10,
    "temperatureC": 12,
    "dewPointC": -4,
    "cloudCeiling": null,
    "altimeter": "A3036",
    "timestamp": "2026-03-23T21:51:00+00:00",
    "station": "KSTL"
  }
}