{
  "lastUpdated": "2026-05-12T15:48:46.185600+00:00",
  "kcps": {
    "metar": "KCPS 121453Z 22007KT 10SM CLR 21/10 A3012 RMK AO2 SLP198 T02110100 58002 $",
    "windDirection": 220,
    "windSpeed": 7,
    "windGust": null,
    "visibility": 10,
    "temperatureC": 21,
    "dewPointC": 10,
    "cloudCeiling": 99999,
    "altimeter": "A3012",
    "timestamp": "2026-05-12T14:53:00+00:00",
    "station": "KCPS"
  },
  "kstl": {
    "metar": "KSTL 121451Z 24008KT 10SM CLR 23/09 A3012 RMK AO2 SLP193 T02280089 58000 $",
    "windDirection": 240,
    "windSpeed": 8,
    "windGust": null,
    "visibility": 10,
    "temperatureC": 23,
    "dewPointC": 9,
    "cloudCeiling": 99999,
    "altimeter": "A3012",
    "timestamp": "2026-05-12T14:51:00+00:00",
    "station": "KSTL"
  }
}