{
  "lastUpdated": "2026-03-28T04:28:37.078993+00:00",
  "kcps": {
    "metar": "KCPS 280353Z 35009KT 10SM CLR 07/M06 A3059 RMK AO2 SLP362 T00721056 $",
    "windDirection": 350,
    "windSpeed": 9,
    "windGust": null,
    "visibility": 10,
    "temperatureC": 7,
    "dewPointC": -6,
    "cloudCeiling": 99999,
    "altimeter": "A3059",
    "timestamp": "2026-03-28T03:53:00+00:00",
    "station": "KCPS"
  },
  "kstl": {
    "metar": "KSTL 280351Z 33009KT 10SM FEW250 07/M06 A3060 RMK AO2 SLP367 T00671056 $",
    "windDirection": 330,
    "windSpeed": 9,
    "windGust": null,
    "visibility": 10,
    "temperatureC": 7,
    "dewPointC": -6,
    "cloudCeiling": null,
    "altimeter": "A3060",
    "timestamp": "2026-03-28T03:51:00+00:00",
    "station": "KSTL"
  }
}