{
  "lastUpdated": "2025-11-16T04:48:19.492243+00:00",
  "kcps": {
    "metar": "KCPS 160353Z 35009KT 10SM CLR 17/07 A2981 RMK AO2 SLP092 T01720072 $",
    "windDirection": 350,
    "windSpeed": 9,
    "windGust": null,
    "visibility": 10,
    "temperatureC": 17,
    "dewPointC": 7,
    "cloudCeiling": 99999,
    "altimeter": "A2981",
    "timestamp": "2025-11-16T03:53:00+00:00",
    "station": "KCPS"
  },
  "kstl": {
    "metar": "KSTL 160351Z 34007KT 10SM SCT250 16/07 A2982 RMK AO2 SLP092 T01610072 $",
    "windDirection": 340,
    "windSpeed": 7,
    "windGust": null,
    "visibility": 10,
    "temperatureC": 16,
    "dewPointC": 7,
    "cloudCeiling": null,
    "altimeter": "A2982",
    "timestamp": "2025-11-16T03:51:00+00:00",
    "station": "KSTL"
  }
}