{
  "lastUpdated": "2026-01-25T15:47:43.535669+00:00",
  "kcps": {
    "metar": "KCPS 251526Z 35013G22KT 4SM -SN BKN027 OVC034 M13/M16 A3010 RMK AO2 PRESFR P0000 T11281161 $",
    "windDirection": 350,
    "windSpeed": 13,
    "windGust": 22,
    "visibility": 4,
    "temperatureC": -13,
    "dewPointC": -16,
    "cloudCeiling": 2700,
    "altimeter": "A3010",
    "timestamp": "2026-01-25T15:26:00+00:00",
    "station": "KCPS"
  },
  "kstl": {
    "metar": "KSTL 251451Z 36011KT 1 1/2SM -SN OVC023 M13/M17 A3010 RMK AO2 SLP216 P0001 60004 T11331167 50003 $",
    "windDirection": 360,
    "windSpeed": 11,
    "windGust": null,
    "visibility": 0.5,
    "temperatureC": -13,
    "dewPointC": -17,
    "cloudCeiling": 2300,
    "altimeter": "A3010",
    "timestamp": "2026-01-25T14:51:00+00:00",
    "station": "KSTL"
  }
}