{
  "lastUpdated": "2026-04-18T05:21:31.844489+00:00",
  "kcps": {
    "metar": "KCPS 180453Z AUTO 29009KT 10SM -RA OVC070 18/16 A2978 RMK AO2 PK WND 24029/0358 WSHFT 0341 SLP080 P0006 T01830161 $",
    "windDirection": 290,
    "windSpeed": 9,
    "windGust": null,
    "visibility": 10,
    "temperatureC": 18,
    "dewPointC": 16,
    "cloudCeiling": 7000,
    "altimeter": "A2978",
    "timestamp": "2026-04-18T04:53:00+00:00",
    "station": "KCPS"
  },
  "kstl": {
    "metar": "KSTL 180451Z 23008KT 6SM -RA BR SCT070 OVC090 17/16 A2977 RMK AO2 WSHFT 0338 RAB0355 SLP073 P0012 T01720161 $",
    "windDirection": 230,
    "windSpeed": 8,
    "windGust": null,
    "visibility": 6,
    "temperatureC": 17,
    "dewPointC": 16,
    "cloudCeiling": 9000,
    "altimeter": "A2977",
    "timestamp": "2026-04-18T04:51:00+00:00",
    "station": "KSTL"
  }
}