{
  "lastUpdated": "2026-05-13T09:19:02.431967+00:00",
  "kcps": {
    "metar": "KCPS 130853Z AUTO 35010KT 10SM CLR 19/07 A2998 RMK AO2 SLP149 T01940072 53012 $",
    "windDirection": 350,
    "windSpeed": 10,
    "windGust": null,
    "visibility": 10,
    "temperatureC": 19,
    "dewPointC": 7,
    "cloudCeiling": 99999,
    "altimeter": "A2998",
    "timestamp": "2026-05-13T08:53:00+00:00",
    "station": "KCPS"
  },
  "kstl": {
    "metar": "KSTL 130851Z 33006KT 10SM FEW090 18/07 A3000 RMK AO2 SLP148 T01830072 53012 $",
    "windDirection": 330,
    "windSpeed": 6,
    "windGust": null,
    "visibility": 10,
    "temperatureC": 18,
    "dewPointC": 7,
    "cloudCeiling": null,
    "altimeter": "A3000",
    "timestamp": "2026-05-13T08:51:00+00:00",
    "station": "KSTL"
  }
}