{
  "lastUpdated": "2026-05-18T02:17:11.447389+00:00",
  "kcps": {
    "metar": "KCPS 180153Z 17006KT 10SM CLR 27/18 A2985 RMK AO2 SLP103 T02720178 $",
    "windDirection": 170,
    "windSpeed": 6,
    "windGust": null,
    "visibility": 10,
    "temperatureC": 27,
    "dewPointC": 18,
    "cloudCeiling": 99999,
    "altimeter": "A2985",
    "timestamp": "2026-05-18T01:53:00+00:00",
    "station": "KCPS"
  },
  "kstl": {
    "metar": "KSTL 180151Z 17012KT 10SM FEW250 28/18 A2984 RMK AO2 SLP095 T02780178 $",
    "windDirection": 170,
    "windSpeed": 12,
    "windGust": null,
    "visibility": 10,
    "temperatureC": 28,
    "dewPointC": 18,
    "cloudCeiling": null,
    "altimeter": "A2984",
    "timestamp": "2026-05-18T01:51:00+00:00",
    "station": "KSTL"
  }
}