{
  "lastUpdated": "2025-11-16T20:46:36.138616+00:00",
  "kcps": {
    "metar": "KCPS 161953Z 03006KT 10SM CLR 14/M08 A3002 RMK AO2 SLP165 T01391078 $",
    "windDirection": 30,
    "windSpeed": 6,
    "windGust": null,
    "visibility": 10,
    "temperatureC": 14,
    "dewPointC": -8,
    "cloudCeiling": 99999,
    "altimeter": "A3002",
    "timestamp": "2025-11-16T19:53:00+00:00",
    "station": "KCPS"
  },
  "kstl": {
    "metar": "KSTL 161951Z 32004KT 10SM SCT250 14/M09 A3002 RMK AO2 SLP166 T01391089 $",
    "windDirection": 320,
    "windSpeed": 4,
    "windGust": null,
    "visibility": 10,
    "temperatureC": 14,
    "dewPointC": -9,
    "cloudCeiling": null,
    "altimeter": "A3002",
    "timestamp": "2025-11-16T19:51:00+00:00",
    "station": "KSTL"
  }
}