{
  "lastUpdated": "2026-04-02T00:24:12.354265+00:00",
  "kcps": {
    "metar": "KCPS 020001Z 07009KT 5SM -RA BR SCT008 SCT055 OVC090 13/13 A2992 RMK AO2 P0000 T01330128 $",
    "windDirection": 70,
    "windSpeed": 9,
    "windGust": null,
    "visibility": 5,
    "temperatureC": 13,
    "dewPointC": 13,
    "cloudCeiling": 9000,
    "altimeter": "A2992",
    "timestamp": "2026-04-02T00:01:00+00:00",
    "station": "KCPS"
  },
  "kstl": {
    "metar": "KSTL 012351Z 07009KT 10SM BKN006 OVC100 12/11 A2993 RMK AO2 RAE48 SLP134 P0008 60014 T01220111 10128 20111 58016 $",
    "windDirection": 70,
    "windSpeed": 9,
    "windGust": null,
    "visibility": 10,
    "temperatureC": 12,
    "dewPointC": 11,
    "cloudCeiling": 600,
    "altimeter": "A2993",
    "timestamp": "2026-04-01T23:51:00+00:00",
    "station": "KSTL"
  }
}