{
  "lastUpdated": "2025-11-16T06:22:47.774637+00:00",
  "kcps": {
    "metar": "KCPS 160553Z AUTO 35009KT 10SM CLR 15/06 A2984 RMK AO2 SLP101 T01500056 10200 20150 402670150 51019 $",
    "windDirection": 350,
    "windSpeed": 9,
    "windGust": null,
    "visibility": 10,
    "temperatureC": 15,
    "dewPointC": 6,
    "cloudCeiling": 99999,
    "altimeter": "A2984",
    "timestamp": "2025-11-16T05:53:00+00:00",
    "station": "KCPS"
  },
  "kstl": {
    "metar": "KSTL 160551Z 34007KT 10SM SCT250 14/06 A2985 RMK AO2 SLP101 T01390056 10206 20139 402610139 51017 $",
    "windDirection": 340,
    "windSpeed": 7,
    "windGust": null,
    "visibility": 10,
    "temperatureC": 14,
    "dewPointC": 6,
    "cloudCeiling": null,
    "altimeter": "A2985",
    "timestamp": "2025-11-16T05:51:00+00:00",
    "station": "KSTL"
  }
}