{
  "lastUpdated": "2025-11-05T20:22:23.371937+00:00",
  "kcps": {
    "metar": "KCPS 051953Z 31012KT 10SM CLR 21/08 A3010 RMK AO2 SLP192 T02110078 $",
    "windDirection": 310,
    "windSpeed": 12,
    "windGust": null,
    "visibility": 10,
    "temperatureC": 21,
    "dewPointC": 8,
    "cloudCeiling": 99999,
    "altimeter": "A3010",
    "timestamp": "2025-11-05T19:53:00+00:00",
    "station": "KCPS"
  },
  "kstl": {
    "metar": "KSTL 051951Z 32013KT 10SM CLR 21/07 A3012 RMK AO2 SLP194 T02060067 $",
    "windDirection": 320,
    "windSpeed": 13,
    "windGust": null,
    "visibility": 10,
    "temperatureC": 21,
    "dewPointC": 7,
    "cloudCeiling": 99999,
    "altimeter": "A3012",
    "timestamp": "2025-11-05T19:51:00+00:00",
    "station": "KSTL"
  }
}