{
  "lastUpdated": "2026-03-23T06:51:11.927472+00:00",
  "kcps": {
    "metar": "KCPS 230553Z AUTO 36014KT 10SM BKN036 08/01 A3016 RMK AO2 SLP211 T00830011 10150 20083 403390083 51041 $",
    "windDirection": 360,
    "windSpeed": 14,
    "windGust": null,
    "visibility": 10,
    "temperatureC": 8,
    "dewPointC": 1,
    "cloudCeiling": 3600,
    "altimeter": "A3016",
    "timestamp": "2026-03-23T05:53:00+00:00",
    "station": "KCPS"
  },
  "kstl": {
    "metar": "KSTL 230551Z 35012KT 10SM BKN033 BKN250 08/02 A3017 RMK AO2 SLP208 T00780017 10150 20078 403220078 52037 $",
    "windDirection": 350,
    "windSpeed": 12,
    "windGust": null,
    "visibility": 10,
    "temperatureC": 8,
    "dewPointC": 2,
    "cloudCeiling": 3300,
    "altimeter": "A3017",
    "timestamp": "2026-03-23T05:51:00+00:00",
    "station": "KSTL"
  }
}