{
  "lastUpdated": "2026-05-15T07:25:17.561960+00:00",
  "kcps": {
    "metar": "KCPS 150653Z AUTO 16006KT 10SM CLR 15/07 A2994 RMK AO2 SLP138 T01500072 $",
    "windDirection": 160,
    "windSpeed": 6,
    "windGust": null,
    "visibility": 10,
    "temperatureC": 15,
    "dewPointC": 7,
    "cloudCeiling": 99999,
    "altimeter": "A2994",
    "timestamp": "2026-05-15T06:53:00+00:00",
    "station": "KCPS"
  },
  "kstl": {
    "metar": "KSTL 150651Z 15009KT 10SM FEW200 FEW250 18/05 A2994 RMK AO2 SLP130 T01780050 $",
    "windDirection": 150,
    "windSpeed": 9,
    "windGust": null,
    "visibility": 10,
    "temperatureC": 18,
    "dewPointC": 5,
    "cloudCeiling": null,
    "altimeter": "A2994",
    "timestamp": "2026-05-15T06:51:00+00:00",
    "station": "KSTL"
  }
}