{
  "lastUpdated": "2025-11-26T15:47:32.712281+00:00",
  "kcps": {
    "metar": "KCPS 261453Z 29017G26KT 10SM OVC048 04/M06 A3017 RMK AO2 PK WND 29030/1435 SLP218 60000 T00391056 51016",
    "windDirection": 290,
    "windSpeed": 17,
    "windGust": 26,
    "visibility": 10,
    "temperatureC": 4,
    "dewPointC": -6,
    "cloudCeiling": 4800,
    "altimeter": "A3017",
    "timestamp": "2025-11-26T14:53:00+00:00",
    "station": "KCPS"
  },
  "kstl": {
    "metar": "KSTL 261451Z 28021G29KT 10SM BKN048 04/M05 A3016 RMK AO2 PK WND 29033/1439 SLP217 T00391050 51016 $",
    "windDirection": 280,
    "windSpeed": 21,
    "windGust": 29,
    "visibility": 10,
    "temperatureC": 4,
    "dewPointC": -5,
    "cloudCeiling": 4800,
    "altimeter": "A3016",
    "timestamp": "2025-11-26T14:51:00+00:00",
    "station": "KSTL"
  }
}