{
  "lastUpdated": "2026-04-18T13:50:10.427018+00:00",
  "kcps": {
    "metar": "KCPS 181343Z 34014G20KT 10SM BKN024 BKN031 OVC044 10/06 A2997 RMK AO2 T01000056 $",
    "windDirection": 340,
    "windSpeed": 14,
    "windGust": 20,
    "visibility": 10,
    "temperatureC": 10,
    "dewPointC": 6,
    "cloudCeiling": 2400,
    "altimeter": "A2997",
    "timestamp": "2026-04-18T13:43:00+00:00",
    "station": "KCPS"
  },
  "kstl": {
    "metar": "KSTL 181251Z 30009KT 10SM BKN044 OVC080 09/06 A2995 RMK AO2 SLP135 T00940061 $",
    "windDirection": 300,
    "windSpeed": 9,
    "windGust": null,
    "visibility": 10,
    "temperatureC": 9,
    "dewPointC": 6,
    "cloudCeiling": 4400,
    "altimeter": "A2995",
    "timestamp": "2026-04-18T12:51:00+00:00",
    "station": "KSTL"
  }
}