{
  "lastUpdated": "2026-01-25T07:04:28.365201+00:00",
  "kcps": {
    "metar": "KCPS 250700Z AUTO 01011KT 1 1/4SM -SN BR OVC016 M13/M15 A3017 RMK AO2 PRESFR P0000 T11281150 $",
    "windDirection": 10,
    "windSpeed": 11,
    "windGust": null,
    "visibility": 0.25,
    "temperatureC": -13,
    "dewPointC": -15,
    "cloudCeiling": 1600,
    "altimeter": "A3017",
    "timestamp": "2026-01-25T07:00:00+00:00",
    "station": "KCPS"
  },
  "kstl": {
    "metar": "KSTL 250651Z 01009KT 3/4SM R30R/P6000FT -SN BR VV010 M13/M15 A3019 RMK AO2 SLP248 P0005 T11281150 $",
    "windDirection": 10,
    "windSpeed": 9,
    "windGust": null,
    "visibility": 0.75,
    "temperatureC": -13,
    "dewPointC": -15,
    "cloudCeiling": 1000,
    "altimeter": "A3019",
    "timestamp": "2026-01-25T06:51:00+00:00",
    "station": "KSTL"
  }
}