{
  "lastUpdated": "2026-04-17T11:05:23.959296+00:00",
  "kcps": {
    "metar": "KCPS 171053Z AUTO 16005KT 10SM CLR 16/14 A2991 RMK AO2 SLP125 T01560144 $",
    "windDirection": 160,
    "windSpeed": 5,
    "windGust": null,
    "visibility": 10,
    "temperatureC": 16,
    "dewPointC": 14,
    "cloudCeiling": 99999,
    "altimeter": "A2991",
    "timestamp": "2026-04-17T10:53:00+00:00",
    "station": "KCPS"
  },
  "kstl": {
    "metar": "KSTL 171051Z 18006KT 10SM FEW043 BKN250 18/15 A2990 RMK AO2 SLP116 T01780150 $",
    "windDirection": 180,
    "windSpeed": 6,
    "windGust": null,
    "visibility": 10,
    "temperatureC": 18,
    "dewPointC": 15,
    "cloudCeiling": 25000,
    "altimeter": "A2990",
    "timestamp": "2026-04-17T10:51:00+00:00",
    "station": "KSTL"
  }
}