{
  "lastUpdated": "2026-05-28T11:43:18.769713+00:00",
  "kcps": {
    "metar": "KCPS 281132Z 00000KT 5SM BR CLR 18/18 A3004 RMK AO2 T01830178 $",
    "windDirection": 0,
    "windSpeed": 0,
    "windGust": null,
    "visibility": 5,
    "temperatureC": 18,
    "dewPointC": 18,
    "cloudCeiling": 99999,
    "altimeter": "A3004",
    "timestamp": "2026-05-28T11:32:00+00:00",
    "station": "KCPS"
  },
  "kstl": {
    "metar": "KSTL 281051Z 00000KT 8SM BKN250 20/19 A3004 RMK AO2 SLP162 T02000189 $",
    "windDirection": 0,
    "windSpeed": 0,
    "windGust": null,
    "visibility": 8,
    "temperatureC": 20,
    "dewPointC": 19,
    "cloudCeiling": 25000,
    "altimeter": "A3004",
    "timestamp": "2026-05-28T10:51:00+00:00",
    "station": "KSTL"
  }
}