{
  "lastUpdated": "2025-12-04T14:49:55.991915+00:00",
  "kcps": {
    "metar": "KCPS 041353Z 36009KT 10SM OVC120 M07/M11 A3044 RMK AO2 SLP313 T10721111 $",
    "windDirection": 360,
    "windSpeed": 9,
    "windGust": null,
    "visibility": 10,
    "temperatureC": -7,
    "dewPointC": -11,
    "cloudCeiling": 12000,
    "altimeter": "A3044",
    "timestamp": "2025-12-04T13:53:00+00:00",
    "station": "KCPS"
  },
  "kstl": {
    "metar": "KSTL 041351Z 01007KT 10SM BKN120 BKN250 M08/M12 A3043 RMK AO2 SLP318 T10831122 $",
    "windDirection": 10,
    "windSpeed": 7,
    "windGust": null,
    "visibility": 10,
    "temperatureC": -8,
    "dewPointC": -12,
    "cloudCeiling": 12000,
    "altimeter": "A3043",
    "timestamp": "2025-12-04T13:51:00+00:00",
    "station": "KSTL"
  }
}