{
  "lastUpdated": "2025-12-15T23:34:00.063115+00:00",
  "kcps": {
    "metar": "KCPS 152253Z 19003KT 7SM CLR 05/M13 A3011 RMK AO2 SLP201 T00501128 $",
    "windDirection": 190,
    "windSpeed": 3,
    "windGust": null,
    "visibility": 7,
    "temperatureC": 5,
    "dewPointC": -13,
    "cloudCeiling": 99999,
    "altimeter": "A3011",
    "timestamp": "2025-12-15T22:53:00+00:00",
    "station": "KCPS"
  },
  "kstl": {
    "metar": "KSTL 152251Z 21004KT 10SM FEW250 05/M12 A3011 RMK AO2 SLP209 T00501122 $",
    "windDirection": 210,
    "windSpeed": 4,
    "windGust": null,
    "visibility": 10,
    "temperatureC": 5,
    "dewPointC": -12,
    "cloudCeiling": null,
    "altimeter": "A3011",
    "timestamp": "2025-12-15T22:51:00+00:00",
    "station": "KSTL"
  }
}