{
  "lastUpdated": "2025-11-09T10:21:25.561186+00:00",
  "kcps": {
    "metar": "KCPS 090953Z AUTO 33023G30KT 10SM OVC030 06/M01 A3002 RMK AO2 PK WND 32034/0908 SLP164 T00561006 TSNO $",
    "windDirection": 330,
    "windSpeed": 23,
    "windGust": 30,
    "visibility": 10,
    "temperatureC": 6,
    "dewPointC": -1,
    "cloudCeiling": 3000,
    "altimeter": "A3002",
    "timestamp": "2025-11-09T09:53:00+00:00",
    "station": "KCPS"
  },
  "kstl": {
    "metar": "KSTL 090951Z 34016G31KT 10SM BKN028 05/M01 A3002 RMK AO2 PK WND 32032/0937 SLP168 T00501006 $",
    "windDirection": 340,
    "windSpeed": 16,
    "windGust": 31,
    "visibility": 10,
    "temperatureC": 5,
    "dewPointC": -1,
    "cloudCeiling": 2800,
    "altimeter": "A3002",
    "timestamp": "2025-11-09T09:51:00+00:00",
    "station": "KSTL"
  }
}