{
  "lastUpdated": "2026-01-24T14:48:20.213650+00:00",
  "kcps": {
    "metar": "KCPS 241353Z 04014KT 10SM BKN060 OVC070 M16/M25 A3062 RMK AO2 SLP380 T11611250 $",
    "windDirection": 40,
    "windSpeed": 14,
    "windGust": null,
    "visibility": 10,
    "temperatureC": -16,
    "dewPointC": -25,
    "cloudCeiling": 6000,
    "altimeter": "A3062",
    "timestamp": "2026-01-24T13:53:00+00:00",
    "station": "KCPS"
  },
  "kstl": {
    "metar": "KSTL 241417Z 03010KT 10SM -SN OVC050 M17/M26 A3060 RMK AO2 SNB17 P0000 T11671261 $",
    "windDirection": 30,
    "windSpeed": 10,
    "windGust": null,
    "visibility": 10,
    "temperatureC": -17,
    "dewPointC": -26,
    "cloudCeiling": 5000,
    "altimeter": "A3060",
    "timestamp": "2026-01-24T14:17:00+00:00",
    "station": "KSTL"
  }
}