{
  "lastUpdated": "2026-01-28T19:52:31.501967+00:00",
  "kcps": {
    "metar": "KCPS 281853Z VRB06KT 10SM BKN100 M02/M16 A3031 RMK AO2 SLP269 T10171156 $",
    "windDirection": null,
    "windSpeed": null,
    "windGust": null,
    "visibility": 10,
    "temperatureC": -2,
    "dewPointC": -16,
    "cloudCeiling": 10000,
    "altimeter": "A3031",
    "timestamp": "2026-01-28T18:53:00+00:00",
    "station": "KCPS"
  },
  "kstl": {
    "metar": "KSTL 281851Z 36004KT 10SM BKN095 BKN200 M02/M13 A3029 RMK AO2 SLP275 T10221133 $",
    "windDirection": 360,
    "windSpeed": 4,
    "windGust": null,
    "visibility": 10,
    "temperatureC": -2,
    "dewPointC": -13,
    "cloudCeiling": 9500,
    "altimeter": "A3029",
    "timestamp": "2026-01-28T18:51:00+00:00",
    "station": "KSTL"
  }
}