{
  "lastUpdated": "2025-12-25T07:21:50.234216+00:00",
  "kcps": {
    "metar": "KCPS 250653Z AUTO 23006KT 10SM BR FEW047 18/15 A3003 RMK AO2 SLP165 T01780150 $",
    "windDirection": 230,
    "windSpeed": 6,
    "windGust": null,
    "visibility": 10,
    "temperatureC": 18,
    "dewPointC": 15,
    "cloudCeiling": null,
    "altimeter": "A3003",
    "timestamp": "2025-12-25T06:53:00+00:00",
    "station": "KCPS"
  },
  "kstl": {
    "metar": "KSTL 250651Z 28005KT 10SM BKN044 16/14 A3003 RMK AO2 SLP167 T01610139 $",
    "windDirection": 280,
    "windSpeed": 5,
    "windGust": null,
    "visibility": 10,
    "temperatureC": 16,
    "dewPointC": 14,
    "cloudCeiling": 4400,
    "altimeter": "A3003",
    "timestamp": "2025-12-25T06:51:00+00:00",
    "station": "KSTL"
  }
}