{
  "lastUpdated": "2026-01-26T06:23:40.496833+00:00",
  "kcps": {
    "metar": "KCPS 260553Z AUTO 31010KT 10SM CLR M14/M19 A3039 RMK AO2 SLP298 T11441194 11111 21144 411001144 51028 $",
    "windDirection": 310,
    "windSpeed": 10,
    "windGust": null,
    "visibility": 10,
    "temperatureC": -14,
    "dewPointC": -19,
    "cloudCeiling": 99999,
    "altimeter": "A3039",
    "timestamp": "2026-01-26T05:53:00+00:00",
    "station": "KCPS"
  },
  "kstl": {
    "metar": "KSTL 260551Z 29006KT 10SM FEW230 M16/M20 A3037 RMK AO2 SLP310 4/006 T11611200 11117 21161 411061161 51027 $",
    "windDirection": 290,
    "windSpeed": 6,
    "windGust": null,
    "visibility": 10,
    "temperatureC": -16,
    "dewPointC": -20,
    "cloudCeiling": null,
    "altimeter": "A3037",
    "timestamp": "2026-01-26T05:51:00+00:00",
    "station": "KSTL"
  }
}