{
  "lastUpdated": "2025-12-25T14:02:14.780356+00:00",
  "kcps": {
    "metar": "KCPS 251342Z 04003KT 2 1/2SM BR OVC014 13/13 A3007 RMK AO2 T01330128 $",
    "windDirection": 40,
    "windSpeed": 3,
    "windGust": null,
    "visibility": 0.5,
    "temperatureC": 13,
    "dewPointC": 13,
    "cloudCeiling": 1400,
    "altimeter": "A3007",
    "timestamp": "2025-12-25T13:42:00+00:00",
    "station": "KCPS"
  },
  "kstl": {
    "metar": "KSTL 251351Z 35004KT 2SM BR OVC003 12/12 A3008 RMK AO2 SLP184 T01170117 $",
    "windDirection": 350,
    "windSpeed": 4,
    "windGust": null,
    "visibility": 2,
    "temperatureC": 12,
    "dewPointC": 12,
    "cloudCeiling": 300,
    "altimeter": "A3008",
    "timestamp": "2025-12-25T13:51:00+00:00",
    "station": "KSTL"
  }
}