{
  "lastUpdated": "2026-02-05T07:06:05.519089+00:00",
  "kcps": {
    "metar": "KCPS 050653Z AUTO 00000KT 6SM BR CLR M11/M12 A3037 RMK AO2 SLP289 I1000 T11061117 $",
    "windDirection": 0,
    "windSpeed": 0,
    "windGust": null,
    "visibility": 6,
    "temperatureC": -11,
    "dewPointC": -12,
    "cloudCeiling": 99999,
    "altimeter": "A3037",
    "timestamp": "2026-02-05T06:53:00+00:00",
    "station": "KCPS"
  },
  "kstl": {
    "metar": "KSTL 050651Z 00000KT 9SM CLR M08/M10 A3035 RMK AO2 SLP293 T10781100",
    "windDirection": 0,
    "windSpeed": 0,
    "windGust": null,
    "visibility": 9,
    "temperatureC": -8,
    "dewPointC": -10,
    "cloudCeiling": 99999,
    "altimeter": "A3035",
    "timestamp": "2026-02-05T06:51:00+00:00",
    "station": "KSTL"
  }
}