{
  "lastUpdated": "2025-12-26T14:02:22.036777+00:00",
  "kcps": {
    "metar": "KCPS 261353Z 24004KT 10SM OVC031 16/14 A2978 RMK AO2 SLP081 T01610144 $",
    "windDirection": 240,
    "windSpeed": 4,
    "windGust": null,
    "visibility": 10,
    "temperatureC": 16,
    "dewPointC": 14,
    "cloudCeiling": 3100,
    "altimeter": "A2978",
    "timestamp": "2025-12-26T13:53:00+00:00",
    "station": "KCPS"
  },
  "kstl": {
    "metar": "KSTL 261351Z 24011KT 10SM BKN028 17/14 A2977 RMK AO2 SLP076 T01670144 $",
    "windDirection": 240,
    "windSpeed": 11,
    "windGust": null,
    "visibility": 10,
    "temperatureC": 17,
    "dewPointC": 14,
    "cloudCeiling": 2800,
    "altimeter": "A2977",
    "timestamp": "2025-12-26T13:51:00+00:00",
    "station": "KSTL"
  }
}