{
  "lastUpdated": "2026-02-09T03:38:26.039683+00:00",
  "kcps": {
    "metar": "KCPS 090253Z 12004KT 10SM CLR M01/M06 A3017 RMK AO2 SLP221 T10061061 51008 $",
    "windDirection": 120,
    "windSpeed": 4,
    "windGust": null,
    "visibility": 10,
    "temperatureC": -1,
    "dewPointC": -6,
    "cloudCeiling": 99999,
    "altimeter": "A3017",
    "timestamp": "2026-02-09T02:53:00+00:00",
    "station": "KCPS"
  },
  "kstl": {
    "metar": "KSTL 090251Z 11007KT 10SM FEW250 M01/M06 A3017 RMK AO2 SLP227 T10061056 51010 $",
    "windDirection": 110,
    "windSpeed": 7,
    "windGust": null,
    "visibility": 10,
    "temperatureC": -1,
    "dewPointC": -6,
    "cloudCeiling": null,
    "altimeter": "A3017",
    "timestamp": "2026-02-09T02:51:00+00:00",
    "station": "KSTL"
  }
}