{
  "lastUpdated": "2026-05-10T03:43:27.431832+00:00",
  "kcps": {
    "metar": "KCPS 100253Z 13004KT 10SM CLR 18/14 A2982 RMK AO2 SLP095 T01830139 53019 $",
    "windDirection": 130,
    "windSpeed": 4,
    "windGust": null,
    "visibility": 10,
    "temperatureC": 18,
    "dewPointC": 14,
    "cloudCeiling": 99999,
    "altimeter": "A2982",
    "timestamp": "2026-05-10T02:53:00+00:00",
    "station": "KCPS"
  },
  "kstl": {
    "metar": "KSTL 100251Z 00000KT 10SM SCT100 21/12 A2983 RMK AO2 LTG DSNT N SLP094 T02060122 53017 $",
    "windDirection": 0,
    "windSpeed": 0,
    "windGust": null,
    "visibility": 10,
    "temperatureC": 21,
    "dewPointC": 12,
    "cloudCeiling": null,
    "altimeter": "A2983",
    "timestamp": "2026-05-10T02:51:00+00:00",
    "station": "KSTL"
  }
}