{
  "lastUpdated": "2026-03-16T17:06:13.912981+00:00",
  "kcps": {
    "metar": "KCPS 161653Z 31023G32KT 9SM -SN OVC033 M04/M11 A2999 RMK AO2 PK WND 31033/1613 SNB16 SLP161 P0000 T10441111 $",
    "windDirection": 310,
    "windSpeed": 23,
    "windGust": 32,
    "visibility": 9,
    "temperatureC": -4,
    "dewPointC": -11,
    "cloudCeiling": 3300,
    "altimeter": "A2999",
    "timestamp": "2026-03-16T16:53:00+00:00",
    "station": "KCPS"
  },
  "kstl": {
    "metar": "KSTL 161651Z 29017G33KT 10SM BKN028 M05/M12 A2999 RMK AO2 PK WND 29036/1637 SLP167 T10501117 $",
    "windDirection": 290,
    "windSpeed": 17,
    "windGust": 33,
    "visibility": 10,
    "temperatureC": -5,
    "dewPointC": -12,
    "cloudCeiling": 2800,
    "altimeter": "A2999",
    "timestamp": "2026-03-16T16:51:00+00:00",
    "station": "KSTL"
  }
}