{
  "lastUpdated": "2025-11-25T06:54:26.986236+00:00",
  "kcps": {
    "metar": "KCPS 250648Z AUTO 16004KT 4SM RA BR SCT009 BKN049 OVC080 11/11 A2982 RMK AO2 RAB16 P0003 $",
    "windDirection": 160,
    "windSpeed": 4,
    "windGust": null,
    "visibility": 4,
    "temperatureC": 11,
    "dewPointC": 11,
    "cloudCeiling": 4900,
    "altimeter": "A2982",
    "timestamp": "2025-11-25T06:48:00+00:00",
    "station": "KCPS"
  },
  "kstl": {
    "metar": "KSTL 250651Z 18004KT 5SM -RA BR OVC005 11/10 A2982 RMK AO2 RAB04 SLP098 P0001 T01110100 $",
    "windDirection": 180,
    "windSpeed": 4,
    "windGust": null,
    "visibility": 5,
    "temperatureC": 11,
    "dewPointC": 10,
    "cloudCeiling": 500,
    "altimeter": "A2982",
    "timestamp": "2025-11-25T06:51:00+00:00",
    "station": "KSTL"
  }
}