{
  "lastUpdated": "2026-01-14T04:28:22.375652+00:00",
  "kcps": {
    "metar": "KCPS 140353Z 27006KT 8SM -RA OVC047 09/07 A2983 RMK AO2 SLP103 P0005 T00890067 $",
    "windDirection": 270,
    "windSpeed": 6,
    "windGust": null,
    "visibility": 8,
    "temperatureC": 9,
    "dewPointC": 7,
    "cloudCeiling": 4700,
    "altimeter": "A2983",
    "timestamp": "2026-01-14T03:53:00+00:00",
    "station": "KCPS"
  },
  "kstl": {
    "metar": "KSTL 140351Z 25010KT 9SM -RA OVC042 08/07 A2983 RMK AO2 SLP101 P0005 T00830067 $",
    "windDirection": 250,
    "windSpeed": 10,
    "windGust": null,
    "visibility": 9,
    "temperatureC": 8,
    "dewPointC": 7,
    "cloudCeiling": 4200,
    "altimeter": "A2983",
    "timestamp": "2026-01-14T03:51:00+00:00",
    "station": "KSTL"
  }
}