{
  "lastUpdated": "2026-03-13T05:28:25.340392+00:00",
  "kcps": {
    "metar": "KCPS 130453Z 17009KT 10SM CLR 08/M03 A2991 RMK AO2 SLP130 T00831028 $",
    "windDirection": 170,
    "windSpeed": 9,
    "windGust": null,
    "visibility": 10,
    "temperatureC": 8,
    "dewPointC": -3,
    "cloudCeiling": 99999,
    "altimeter": "A2991",
    "timestamp": "2026-03-13T04:53:00+00:00",
    "station": "KCPS"
  },
  "kstl": {
    "metar": "KSTL 130451Z 18013G20KT 10SM FEW120 FEW200 BKN250 09/M02 A2990 RMK AO2 SLP126 T00891022 $",
    "windDirection": 180,
    "windSpeed": 13,
    "windGust": 20,
    "visibility": 10,
    "temperatureC": 9,
    "dewPointC": -2,
    "cloudCeiling": 25000,
    "altimeter": "A2990",
    "timestamp": "2026-03-13T04:51:00+00:00",
    "station": "KSTL"
  }
}