{
  "lastUpdated": "2026-05-16T12:16:58.466470+00:00",
  "kcps": {
    "metar": "KCPS 161053Z AUTO 15005KT 10SM FEW095 FEW120 22/18 A2983 RMK AO2 SLP097 T02220178 $",
    "windDirection": 150,
    "windSpeed": 5,
    "windGust": null,
    "visibility": 10,
    "temperatureC": 22,
    "dewPointC": 18,
    "cloudCeiling": null,
    "altimeter": "A2983",
    "timestamp": "2026-05-16T10:53:00+00:00",
    "station": "KCPS"
  },
  "kstl": {
    "metar": "KSTL 161151Z 06005KT 10SM -RA FEW055 SCT095 BKN110 22/18 A2989 RMK AO2 RAB28 SLP111 P0001 60001 70001 T02220183 10256 20222 53023 $",
    "windDirection": 60,
    "windSpeed": 5,
    "windGust": null,
    "visibility": 10,
    "temperatureC": 22,
    "dewPointC": 18,
    "cloudCeiling": 11000,
    "altimeter": "A2989",
    "timestamp": "2026-05-16T11:51:00+00:00",
    "station": "KSTL"
  }
}