{
  "lastUpdated": "2025-12-08T17:35:47.687556+00:00",
  "kcps": {
    "metar": "KCPS 081653Z 02004KT 10SM CLR M01/M07 A3035 RMK AO2 SLP281 T10111072 $",
    "windDirection": 20,
    "windSpeed": 4,
    "windGust": null,
    "visibility": 10,
    "temperatureC": -1,
    "dewPointC": -7,
    "cloudCeiling": 99999,
    "altimeter": "A3035",
    "timestamp": "2025-12-08T16:53:00+00:00",
    "station": "KCPS"
  },
  "kstl": {
    "metar": "KSTL 081651Z 32004KT 10SM SCT070 SCT250 M02/M07 A3034 RMK AO2 SLP289 T10221072 $",
    "windDirection": 320,
    "windSpeed": 4,
    "windGust": null,
    "visibility": 10,
    "temperatureC": -2,
    "dewPointC": -7,
    "cloudCeiling": null,
    "altimeter": "A3034",
    "timestamp": "2025-12-08T16:51:00+00:00",
    "station": "KSTL"
  }
}