{
  "lastUpdated": "2026-05-19T17:13:54.123788+00:00",
  "kcps": {
    "metar": "KCPS 191653Z 17009G17KT 10SM FEW110 24/18 A2998 RMK AO2 SLP150 T02440178 $",
    "windDirection": 170,
    "windSpeed": 9,
    "windGust": 17,
    "visibility": 10,
    "temperatureC": 24,
    "dewPointC": 18,
    "cloudCeiling": null,
    "altimeter": "A2998",
    "timestamp": "2026-05-19T16:53:00+00:00",
    "station": "KCPS"
  },
  "kstl": {
    "metar": "KSTL 191651Z 18012G19KT 10SM SCT120 BKN170 OVC200 25/18 A2998 RMK AO2 SLP143 T02500178 $",
    "windDirection": 180,
    "windSpeed": 12,
    "windGust": 19,
    "visibility": 10,
    "temperatureC": 25,
    "dewPointC": 18,
    "cloudCeiling": 17000,
    "altimeter": "A2998",
    "timestamp": "2026-05-19T16:51:00+00:00",
    "station": "KSTL"
  }
}