{
  "lastUpdated": "2025-12-10T03:13:14.063015+00:00",
  "kcps": {
    "metar": "KCPS 100253Z 18007KT 10SM CLR 07/01 A2964 RMK AO2 SLP039 T00670006 56014",
    "windDirection": 180,
    "windSpeed": 7,
    "windGust": null,
    "visibility": 10,
    "temperatureC": 7,
    "dewPointC": 1,
    "cloudCeiling": 99999,
    "altimeter": "A2964",
    "timestamp": "2025-12-10T02:53:00+00:00",
    "station": "KCPS"
  },
  "kstl": {
    "metar": "KSTL 100251Z 19009KT 10SM OVC220 09/01 A2962 RMK AO2 SLP035 T00890006 56012 $",
    "windDirection": 190,
    "windSpeed": 9,
    "windGust": null,
    "visibility": 10,
    "temperatureC": 9,
    "dewPointC": 1,
    "cloudCeiling": 22000,
    "altimeter": "A2962",
    "timestamp": "2025-12-10T02:51:00+00:00",
    "station": "KSTL"
  }
}