{
  "lastUpdated": "2026-02-23T12:10:46.308334+00:00",
  "kcps": {
    "metar": "KCPS 231153Z AUTO 35013KT 10SM OVC033 M09/M16 A3056 RMK AO2 SLP353 6//// 7//// T10891156 11056 21089 51014 PNO $",
    "windDirection": 350,
    "windSpeed": 13,
    "windGust": null,
    "visibility": 10,
    "temperatureC": -9,
    "dewPointC": -16,
    "cloudCeiling": 3300,
    "altimeter": "A3056",
    "timestamp": "2026-02-23T11:53:00+00:00",
    "station": "KCPS"
  },
  "kstl": {
    "metar": "KSTL 231151Z 32014KT 9SM -SN OVC032 M09/M15 A3055 RMK AO2 SNB51 SLP361 P0000 60000 T10891150 11056 21094 51013 $",
    "windDirection": 320,
    "windSpeed": 14,
    "windGust": null,
    "visibility": 9,
    "temperatureC": -9,
    "dewPointC": -15,
    "cloudCeiling": 3200,
    "altimeter": "A3055",
    "timestamp": "2026-02-23T11:51:00+00:00",
    "station": "KSTL"
  }
}