{
  "lastUpdated": "2026-04-10T18:28:00.288998+00:00",
  "kcps": {
    "metar": "KCPS 101753Z 33012KT 10SM FEW034 OVC044 20/13 A3025 RMK AO2 SLP242 T02000133 10228 20172 51015 $",
    "windDirection": 330,
    "windSpeed": 12,
    "windGust": null,
    "visibility": 10,
    "temperatureC": 20,
    "dewPointC": 13,
    "cloudCeiling": 4400,
    "altimeter": "A3025",
    "timestamp": "2026-04-10T17:53:00+00:00",
    "station": "KCPS"
  },
  "kstl": {
    "metar": "KSTL 101751Z 29006KT 10SM FEW039 OVC047 19/13 A3027 RMK AO2 RAB03E18 SLP242 P0000 60000 T01890133 10200 20178 51014 $",
    "windDirection": 290,
    "windSpeed": 6,
    "windGust": null,
    "visibility": 10,
    "temperatureC": 19,
    "dewPointC": 13,
    "cloudCeiling": 4700,
    "altimeter": "A3027",
    "timestamp": "2026-04-10T17:51:00+00:00",
    "station": "KSTL"
  }
}