{
  "lastUpdated": "2026-02-25T22:23:38.301178+00:00",
  "kcps": {
    "metar": "KCPS 252153Z 13006KT 10SM OVC110 12/M02 A2974 RMK AO2 SLP071 T01171017 $",
    "windDirection": 130,
    "windSpeed": 6,
    "windGust": null,
    "visibility": 10,
    "temperatureC": 12,
    "dewPointC": -2,
    "cloudCeiling": 11000,
    "altimeter": "A2974",
    "timestamp": "2026-02-25T21:53:00+00:00",
    "station": "KCPS"
  },
  "kstl": {
    "metar": "KSTL 252151Z 00000KT 10SM SCT110 BKN150 BKN250 12/M03 A2974 RMK AO2 SLP075 T01171028 $",
    "windDirection": 0,
    "windSpeed": 0,
    "windGust": null,
    "visibility": 10,
    "temperatureC": 12,
    "dewPointC": -3,
    "cloudCeiling": 15000,
    "altimeter": "A2974",
    "timestamp": "2026-02-25T21:51:00+00:00",
    "station": "KSTL"
  }
}