{
  "lastUpdated": "2026-05-21T06:35:48.517158+00:00",
  "kcps": {
    "metar": "KCPS 210553Z AUTO 05007KT 10SM FEW060 17/12 A3015 RMK AO2 SLP206 6//// T01670122 10189 20167 401940128 58002 PNO $",
    "windDirection": 50,
    "windSpeed": 7,
    "windGust": null,
    "visibility": 10,
    "temperatureC": 17,
    "dewPointC": 12,
    "cloudCeiling": null,
    "altimeter": "A3015",
    "timestamp": "2026-05-21T05:53:00+00:00",
    "station": "KCPS"
  },
  "kstl": {
    "metar": "KSTL 210551Z 07010KT 10SM OVC100 17/09 A3016 RMK AO2 SLP207 T01670094 10189 20167 401890133 58002 $",
    "windDirection": 70,
    "windSpeed": 10,
    "windGust": null,
    "visibility": 10,
    "temperatureC": 17,
    "dewPointC": 9,
    "cloudCeiling": 10000,
    "altimeter": "A3016",
    "timestamp": "2026-05-21T05:51:00+00:00",
    "station": "KSTL"
  }
}