{
  "lastUpdated": "2026-06-10T00:45:56.260119+00:00",
  "kcps": {
    "metar": "KCPS 092353Z 22006KT 10SM CLR 32/24 A2989 RMK AO2 SLP115 T03220239 10333 20294 56009 $",
    "windDirection": 220,
    "windSpeed": 6,
    "windGust": null,
    "visibility": 10,
    "temperatureC": 32,
    "dewPointC": 24,
    "cloudCeiling": 99999,
    "altimeter": "A2989",
    "timestamp": "2026-06-09T23:53:00+00:00",
    "station": "KCPS"
  },
  "kstl": {
    "metar": "KSTL 092351Z 22010KT 10SM FEW045 SCT180 SCT250 32/23 A2990 RMK AO2 SLP111 T03170233 10333 20294 56008 $",
    "windDirection": 220,
    "windSpeed": 10,
    "windGust": null,
    "visibility": 10,
    "temperatureC": 32,
    "dewPointC": 23,
    "cloudCeiling": null,
    "altimeter": "A2990",
    "timestamp": "2026-06-09T23:51:00+00:00",
    "station": "KSTL"
  }
}