{
  "lastUpdated": "2026-01-24T21:21:05.787544+00:00",
  "kcps": {
    "metar": "KCPS 242108Z 02008KT 3/4SM -SN OVC022 M14/M17 A3046 RMK AO2 P0000 T11391172 $",
    "windDirection": 20,
    "windSpeed": 8,
    "windGust": null,
    "visibility": 0.75,
    "temperatureC": -14,
    "dewPointC": -17,
    "cloudCeiling": 2200,
    "altimeter": "A3046",
    "timestamp": "2026-01-24T21:08:00+00:00",
    "station": "KCPS"
  },
  "kstl": {
    "metar": "KSTL 242110Z 06008KT 1SM R30R/4500VP6000FT -SN BKN023 OVC037 M14/M17 A3044 RMK AO2 P0001 T11391172 $",
    "windDirection": 60,
    "windSpeed": 8,
    "windGust": null,
    "visibility": 1,
    "temperatureC": -14,
    "dewPointC": -17,
    "cloudCeiling": 2300,
    "altimeter": "A3044",
    "timestamp": "2026-01-24T21:10:00+00:00",
    "station": "KSTL"
  }
}