{
  "lastUpdated": "2025-11-06T00:07:17.745610+00:00",
  "kcps": {
    "metar": "KCPS 052353Z 34006KT 10SM CLR 14/05 A3020 RMK AO2 SLP227 T01390050 10217 20139 51026 $",
    "windDirection": 340,
    "windSpeed": 6,
    "windGust": null,
    "visibility": 10,
    "temperatureC": 14,
    "dewPointC": 5,
    "cloudCeiling": 99999,
    "altimeter": "A3020",
    "timestamp": "2025-11-05T23:53:00+00:00",
    "station": "KCPS"
  },
  "kstl": {
    "metar": "KSTL 052351Z 35006KT 10SM CLR 14/04 A3021 RMK AO2 SLP229 T01390039 10211 20139 53023 $",
    "windDirection": 350,
    "windSpeed": 6,
    "windGust": null,
    "visibility": 10,
    "temperatureC": 14,
    "dewPointC": 4,
    "cloudCeiling": 99999,
    "altimeter": "A3021",
    "timestamp": "2025-11-05T23:51:00+00:00",
    "station": "KSTL"
  }
}