{
  "lastUpdated": "2025-11-07T16:02:43.597119+00:00",
  "kcps": {
    "metar": "KCPS 071553Z 30009KT 10SM CLR 19/13 A2973 RMK AO2 SLP065 T01890128",
    "windDirection": 300,
    "windSpeed": 9,
    "windGust": null,
    "visibility": 10,
    "temperatureC": 19,
    "dewPointC": 13,
    "cloudCeiling": 99999,
    "altimeter": "A2973",
    "timestamp": "2025-11-07T15:53:00+00:00",
    "station": "KCPS"
  },
  "kstl": {
    "metar": "KSTL 071551Z 28007KT 10SM FEW025 FEW170 SCT250 19/11 A2974 RMK AO2 SLP065 T01890111 $",
    "windDirection": 280,
    "windSpeed": 7,
    "windGust": null,
    "visibility": 10,
    "temperatureC": 19,
    "dewPointC": 11,
    "cloudCeiling": null,
    "altimeter": "A2974",
    "timestamp": "2025-11-07T15:51:00+00:00",
    "station": "KSTL"
  }
}