{
  "lastUpdated": "2025-11-28T06:23:07.858656+00:00",
  "kcps": {
    "metar": "KCPS 280553Z AUTO 36009G19KT 10SM CLR 00/M08 A3041 RMK AO2 SLP301 T00001078 10011 21033 400391033 51011 $",
    "windDirection": 360,
    "windSpeed": 9,
    "windGust": 19,
    "visibility": 10,
    "temperatureC": 0,
    "dewPointC": -8,
    "cloudCeiling": 99999,
    "altimeter": "A3041",
    "timestamp": "2025-11-28T05:53:00+00:00",
    "station": "KCPS"
  },
  "kstl": {
    "metar": "KSTL 280551Z 01009KT 10SM SCT070 M01/M07 A3041 RMK AO2 SLP307 T10111072 10011 21011 400391017 51012 $",
    "windDirection": 10,
    "windSpeed": 9,
    "windGust": null,
    "visibility": 10,
    "temperatureC": -1,
    "dewPointC": -7,
    "cloudCeiling": null,
    "altimeter": "A3041",
    "timestamp": "2025-11-28T05:51:00+00:00",
    "station": "KSTL"
  }
}