{
  "lastUpdated": "2025-11-27T23:33:05.321544+00:00",
  "kcps": {
    "metar": "KCPS 272253Z 28005KT 10SM CLR 02/M08 A3039 RMK AO2 SLP294 T00221083 $",
    "windDirection": 280,
    "windSpeed": 5,
    "windGust": null,
    "visibility": 10,
    "temperatureC": 2,
    "dewPointC": -8,
    "cloudCeiling": 99999,
    "altimeter": "A3039",
    "timestamp": "2025-11-27T22:53:00+00:00",
    "station": "KCPS"
  },
  "kstl": {
    "metar": "KSTL 272251Z 28006KT 10SM FEW250 02/M08 A3039 RMK AO2 SLP300 T00221083 $",
    "windDirection": 280,
    "windSpeed": 6,
    "windGust": null,
    "visibility": 10,
    "temperatureC": 2,
    "dewPointC": -8,
    "cloudCeiling": null,
    "altimeter": "A3039",
    "timestamp": "2025-11-27T22:51:00+00:00",
    "station": "KSTL"
  }
}