{
  "lastUpdated": "2026-03-24T02:35:58.394954+00:00",
  "kcps": {
    "metar": "KCPS 240153Z 08006KT 10SM CLR 07/M02 A3037 RMK AO2 SLP286 T00671022 $",
    "windDirection": 80,
    "windSpeed": 6,
    "windGust": null,
    "visibility": 10,
    "temperatureC": 7,
    "dewPointC": -2,
    "cloudCeiling": 99999,
    "altimeter": "A3037",
    "timestamp": "2026-03-24T01:53:00+00:00",
    "station": "KCPS"
  },
  "kstl": {
    "metar": "KSTL 240151Z 08007KT 10SM FEW120 BKN220 08/M04 A3037 RMK AO2 SLP291 T00781039 $",
    "windDirection": 80,
    "windSpeed": 7,
    "windGust": null,
    "visibility": 10,
    "temperatureC": 8,
    "dewPointC": -4,
    "cloudCeiling": 22000,
    "altimeter": "A3037",
    "timestamp": "2026-03-24T01:51:00+00:00",
    "station": "KSTL"
  }
}