{
  "lastUpdated": "2026-04-03T02:39:41.772327+00:00",
  "kcps": {
    "metar": "KCPS 030153Z 18007KT 10SM CLR 22/17 A2978 RMK AO2 SLP082 T02220167 $",
    "windDirection": 180,
    "windSpeed": 7,
    "windGust": null,
    "visibility": 10,
    "temperatureC": 22,
    "dewPointC": 17,
    "cloudCeiling": 99999,
    "altimeter": "A2978",
    "timestamp": "2026-04-03T01:53:00+00:00",
    "station": "KCPS"
  },
  "kstl": {
    "metar": "KSTL 030151Z 19015G24KT 10SM FEW060 FEW090 SCT250 24/16 A2977 RMK AO2 PK WND 18026/0134 SLP072 T02390156 $",
    "windDirection": 190,
    "windSpeed": 15,
    "windGust": 24,
    "visibility": 10,
    "temperatureC": 24,
    "dewPointC": 16,
    "cloudCeiling": null,
    "altimeter": "A2977",
    "timestamp": "2026-04-03T01:51:00+00:00",
    "station": "KSTL"
  }
}