{
  "lastUpdated": "2026-05-06T21:27:56.533620+00:00",
  "kcps": {
    "metar": "KCPS 062053Z 30007KT 270V350 10SM FEW070 17/03 A2999 RMK AO2 SLP157 T01670033 58008 $",
    "windDirection": 300,
    "windSpeed": 7,
    "windGust": null,
    "visibility": 10,
    "temperatureC": 17,
    "dewPointC": 3,
    "cloudCeiling": null,
    "altimeter": "A2999",
    "timestamp": "2026-05-06T20:53:00+00:00",
    "station": "KCPS"
  },
  "kstl": {
    "metar": "KSTL 062051Z 36009KT 10SM SCT060 SCT110 SCT250 16/02 A3000 RMK AO2 SLP160 T01610022 58007 $",
    "windDirection": 360,
    "windSpeed": 9,
    "windGust": null,
    "visibility": 10,
    "temperatureC": 16,
    "dewPointC": 2,
    "cloudCeiling": null,
    "altimeter": "A3000",
    "timestamp": "2026-05-06T20:51:00+00:00",
    "station": "KSTL"
  }
}