{
  "lastUpdated": "2026-02-26T20:59:22.258157+00:00",
  "kcps": {
    "metar": "KCPS 261953Z 11004KT 10SM CLR 15/04 A2985 RMK AO2 SLP108 T01500039 $",
    "windDirection": 110,
    "windSpeed": 4,
    "windGust": null,
    "visibility": 10,
    "temperatureC": 15,
    "dewPointC": 4,
    "cloudCeiling": 99999,
    "altimeter": "A2985",
    "timestamp": "2026-02-26T19:53:00+00:00",
    "station": "KCPS"
  },
  "kstl": {
    "metar": "KSTL 262051Z 00000KT 10SM FEW060 16/02 A2986 RMK AO2 SLP111 T01560022 56009 $",
    "windDirection": 0,
    "windSpeed": 0,
    "windGust": null,
    "visibility": 10,
    "temperatureC": 16,
    "dewPointC": 2,
    "cloudCeiling": null,
    "altimeter": "A2986",
    "timestamp": "2026-02-26T20:51:00+00:00",
    "station": "KSTL"
  }
}