{
  "lastUpdated": "2026-05-27T09:26:24.147404+00:00",
  "kcps": {
    "metar": "KCPS 270853Z AUTO 00000KT 9SM SCT026 OVC036 21/20 A2994 RMK AO2 SLP133 60000 T02110200 53003 $",
    "windDirection": 0,
    "windSpeed": 0,
    "windGust": null,
    "visibility": 9,
    "temperatureC": 21,
    "dewPointC": 20,
    "cloudCeiling": 3600,
    "altimeter": "A2994",
    "timestamp": "2026-05-27T08:53:00+00:00",
    "station": "KCPS"
  },
  "kstl": {
    "metar": "KSTL 270851Z 29003KT 10SM FEW055 OVC070 21/19 A2995 RMK AO2 SLP129 T02110194 53001 $",
    "windDirection": 290,
    "windSpeed": 3,
    "windGust": null,
    "visibility": 10,
    "temperatureC": 21,
    "dewPointC": 19,
    "cloudCeiling": 7000,
    "altimeter": "A2995",
    "timestamp": "2026-05-27T08:51:00+00:00",
    "station": "KSTL"
  }
}