{
  "lastUpdated": "2025-12-02T06:02:57.499614+00:00",
  "kcps": {
    "metar": "KCPS 020553Z AUTO 31008KT 4SM -SN BR BKN013 OVC029 M03/M05 A3008 RMK AO2 SLP191 P0000 60007 T10331050 11033 21033 410331050 58001 $",
    "windDirection": 310,
    "windSpeed": 8,
    "windGust": null,
    "visibility": 4,
    "temperatureC": -3,
    "dewPointC": -5,
    "cloudCeiling": 1300,
    "altimeter": "A3008",
    "timestamp": "2025-12-02T05:53:00+00:00",
    "station": "KCPS"
  },
  "kstl": {
    "metar": "KSTL 020600Z 30005KT 9SM SCT011 BKN023 BKN095 M05/M06 A3007 RMK AO2 SNE00 P0000 T10501061 $",
    "windDirection": 300,
    "windSpeed": 5,
    "windGust": null,
    "visibility": 9,
    "temperatureC": -5,
    "dewPointC": -6,
    "cloudCeiling": 2300,
    "altimeter": "A3007",
    "timestamp": "2025-12-02T06:00:00+00:00",
    "station": "KSTL"
  }
}