{
  "lastUpdated": "2026-03-21T20:22:20.357333+00:00",
  "kcps": {
    "metar": "KCPS 211953Z 17003KT 10SM CLR 29/11 A2980 RMK AO2 SLP087 T02890111 $",
    "windDirection": 170,
    "windSpeed": 3,
    "windGust": null,
    "visibility": 10,
    "temperatureC": 29,
    "dewPointC": 11,
    "cloudCeiling": 99999,
    "altimeter": "A2980",
    "timestamp": "2026-03-21T19:53:00+00:00",
    "station": "KCPS"
  },
  "kstl": {
    "metar": "KSTL 211951Z VRB03KT 10SM SCT250 29/09 A2981 RMK AO2 SLP085 T02940089 $",
    "windDirection": null,
    "windSpeed": null,
    "windGust": null,
    "visibility": 10,
    "temperatureC": 29,
    "dewPointC": 9,
    "cloudCeiling": null,
    "altimeter": "A2981",
    "timestamp": "2026-03-21T19:51:00+00:00",
    "station": "KSTL"
  }
}