{
  "lastUpdated": "2026-04-07T03:00:00.336028+00:00",
  "kcps": {
    "metar": "KCPS 070253Z AUTO 36008KT 10SM OVC100 12/01 A3031 RMK AO2 SLP264 T01220006 53021 $",
    "windDirection": 360,
    "windSpeed": 8,
    "windGust": null,
    "visibility": 10,
    "temperatureC": 12,
    "dewPointC": 1,
    "cloudCeiling": 10000,
    "altimeter": "A3031",
    "timestamp": "2026-04-07T02:53:00+00:00",
    "station": "KCPS"
  },
  "kstl": {
    "metar": "KSTL 070251Z 36005KT 10SM BKN100 12/01 A3032 RMK AO2 SLP267 T01170006 53019 $",
    "windDirection": 360,
    "windSpeed": 5,
    "windGust": null,
    "visibility": 10,
    "temperatureC": 12,
    "dewPointC": 1,
    "cloudCeiling": 10000,
    "altimeter": "A3032",
    "timestamp": "2026-04-07T02:51:00+00:00",
    "station": "KSTL"
  }
}