{
  "lastUpdated": "2026-03-28T02:36:08.926030+00:00",
  "kcps": {
    "metar": "KCPS 280153Z 35010KT 10SM CLR 08/M03 A3056 RMK AO2 SLP350 T00831033 $",
    "windDirection": 350,
    "windSpeed": 10,
    "windGust": null,
    "visibility": 10,
    "temperatureC": 8,
    "dewPointC": -3,
    "cloudCeiling": 99999,
    "altimeter": "A3056",
    "timestamp": "2026-03-28T01:53:00+00:00",
    "station": "KCPS"
  },
  "kstl": {
    "metar": "KSTL 280151Z 34005KT 10SM FEW200 SCT250 07/M03 A3056 RMK AO2 SLP356 T00721033 $",
    "windDirection": 340,
    "windSpeed": 5,
    "windGust": null,
    "visibility": 10,
    "temperatureC": 7,
    "dewPointC": -3,
    "cloudCeiling": null,
    "altimeter": "A3056",
    "timestamp": "2026-03-28T01:51:00+00:00",
    "station": "KSTL"
  }
}