{
  "lastUpdated": "2025-12-18T15:02:38.640080+00:00",
  "kcps": {
    "metar": "KCPS 181455Z 18007G18KT 3SM -RA BR BKN007 BKN013 OVC070 13/12 A2957 RMK AO2 P0000 T01280117",
    "windDirection": 180,
    "windSpeed": 7,
    "windGust": 18,
    "visibility": 3,
    "temperatureC": 13,
    "dewPointC": 12,
    "cloudCeiling": 700,
    "altimeter": "A2957",
    "timestamp": "2025-12-18T14:55:00+00:00",
    "station": "KCPS"
  },
  "kstl": {
    "metar": "KSTL 181451Z 17013KT 10SM SCT013 BKN020 OVC100 13/12 A2954 RMK AO2 SLP002 60000 T01330117 57024 $",
    "windDirection": 170,
    "windSpeed": 13,
    "windGust": null,
    "visibility": 10,
    "temperatureC": 13,
    "dewPointC": 12,
    "cloudCeiling": 2000,
    "altimeter": "A2954",
    "timestamp": "2025-12-18T14:51:00+00:00",
    "station": "KSTL"
  }
}