{
  "lastUpdated": "2026-04-05T20:43:03.305096+00:00",
  "kcps": {
    "metar": "KCPS 051953Z 31013G22KT 10SM CLR 14/00 A3030 RMK AO2 SLP259 T01440000 $",
    "windDirection": 310,
    "windSpeed": 13,
    "windGust": 22,
    "visibility": 10,
    "temperatureC": 14,
    "dewPointC": 0,
    "cloudCeiling": 99999,
    "altimeter": "A3030",
    "timestamp": "2026-04-05T19:53:00+00:00",
    "station": "KCPS"
  },
  "kstl": {
    "metar": "KSTL 051951Z 29012G20KT 10SM FEW040 14/00 A3031 RMK AO2 SLP264 T01440000 $",
    "windDirection": 290,
    "windSpeed": 12,
    "windGust": 20,
    "visibility": 10,
    "temperatureC": 14,
    "dewPointC": 0,
    "cloudCeiling": null,
    "altimeter": "A3031",
    "timestamp": "2026-04-05T19:51:00+00:00",
    "station": "KSTL"
  }
}