{
  "lastUpdated": "2025-11-29T13:27:51.483770+00:00",
  "kcps": {
    "metar": "KCPS 291322Z 13011KT 1/2SM SN FG VV004 00/M01 A3022 RMK AO2 P0011 T00001006 $",
    "windDirection": 130,
    "windSpeed": 11,
    "windGust": null,
    "visibility": 0.5,
    "temperatureC": 0,
    "dewPointC": -1,
    "cloudCeiling": 400,
    "altimeter": "A3022",
    "timestamp": "2025-11-29T13:22:00+00:00",
    "station": "KCPS"
  },
  "kstl": {
    "metar": "KSTL 291306Z 13015KT 1/2SM R30R/3000V5000FT SN FG OVC004 00/M01 A3020 RMK AO2 P0003 T00001006 $",
    "windDirection": 130,
    "windSpeed": 15,
    "windGust": null,
    "visibility": 0.5,
    "temperatureC": 0,
    "dewPointC": -1,
    "cloudCeiling": 400,
    "altimeter": "A3020",
    "timestamp": "2025-11-29T13:06:00+00:00",
    "station": "KSTL"
  }
}