{
  "lastUpdated": "2026-04-04T12:05:58.064969+00:00",
  "kcps": {
    "metar": "KCPS 041153Z 28004KT 6SM -RA BR SCT090 OVC110 17/16 A2992 RMK AO2 LTG DSNT E SLP127 P0015 60039 70039 T01720161 10239 20172 55006 $",
    "windDirection": 280,
    "windSpeed": 4,
    "windGust": null,
    "visibility": 6,
    "temperatureC": 17,
    "dewPointC": 16,
    "cloudCeiling": 11000,
    "altimeter": "A2992",
    "timestamp": "2026-04-04T11:53:00+00:00",
    "station": "KCPS"
  },
  "kstl": {
    "metar": "KSTL 041151Z 30009G19KT 10SM SCT009 BKN020 BKN095 16/14 A2992 RMK AO2 RAE50 SLP125 P0010 60033 70033 T01560139 10244 20156 58002 $",
    "windDirection": 300,
    "windSpeed": 9,
    "windGust": 19,
    "visibility": 10,
    "temperatureC": 16,
    "dewPointC": 14,
    "cloudCeiling": 2000,
    "altimeter": "A2992",
    "timestamp": "2026-04-04T11:51:00+00:00",
    "station": "KSTL"
  }
}