{
  "lastUpdated": "2025-12-12T23:21:30.281891+00:00",
  "kcps": {
    "metar": "KCPS 122253Z 32006KT 10SM OVC016 02/M01 A3018 RMK AO2 SLP223 T00221011",
    "windDirection": 320,
    "windSpeed": 6,
    "windGust": null,
    "visibility": 10,
    "temperatureC": 2,
    "dewPointC": -1,
    "cloudCeiling": 1600,
    "altimeter": "A3018",
    "timestamp": "2025-12-12T22:53:00+00:00",
    "station": "KCPS"
  },
  "kstl": {
    "metar": "KSTL 122251Z 30005KT 9SM OVC015 02/M01 A3018 RMK AO2 SLP231 T00171011 $",
    "windDirection": 300,
    "windSpeed": 5,
    "windGust": null,
    "visibility": 9,
    "temperatureC": 2,
    "dewPointC": -1,
    "cloudCeiling": 1500,
    "altimeter": "A3018",
    "timestamp": "2025-12-12T22:51:00+00:00",
    "station": "KSTL"
  }
}