{
  "lastUpdated": "2025-12-09T04:51:42.626030+00:00",
  "kcps": {
    "metar": "KCPS 090353Z 17007KT 10SM FEW120 M02/M06 A3019 RMK AO2 SLP226 T10171061 $",
    "windDirection": 170,
    "windSpeed": 7,
    "windGust": null,
    "visibility": 10,
    "temperatureC": -2,
    "dewPointC": -6,
    "cloudCeiling": null,
    "altimeter": "A3019",
    "timestamp": "2025-12-09T03:53:00+00:00",
    "station": "KCPS"
  },
  "kstl": {
    "metar": "KSTL 090351Z 16008KT 10SM OVC130 M01/M06 A3016 RMK AO2 SLP227 T10061061 $",
    "windDirection": 160,
    "windSpeed": 8,
    "windGust": null,
    "visibility": 10,
    "temperatureC": -1,
    "dewPointC": -6,
    "cloudCeiling": 13000,
    "altimeter": "A3016",
    "timestamp": "2025-12-09T03:51:00+00:00",
    "station": "KSTL"
  }
}