{
  "lastUpdated": "2026-06-06T00:07:40.194895+00:00",
  "kcps": {
    "metar": "KCPS 052353Z 21005G15KT 10SM FEW046 29/21 A2991 RMK AO2 SLP123 T02940206 10306 20278 55003 $",
    "windDirection": 210,
    "windSpeed": 5,
    "windGust": 15,
    "visibility": 10,
    "temperatureC": 29,
    "dewPointC": 21,
    "cloudCeiling": null,
    "altimeter": "A2991",
    "timestamp": "2026-06-05T23:53:00+00:00",
    "station": "KCPS"
  },
  "kstl": {
    "metar": "KSTL 052351Z 21009KT 10SM SCT042 BKN250 29/21 A2990 RMK AO2 SLP115 T02890206 10300 20278 56006 $",
    "windDirection": 210,
    "windSpeed": 9,
    "windGust": null,
    "visibility": 10,
    "temperatureC": 29,
    "dewPointC": 21,
    "cloudCeiling": 25000,
    "altimeter": "A2990",
    "timestamp": "2026-06-05T23:51:00+00:00",
    "station": "KSTL"
  }
}