{
  "lastUpdated": "2025-11-09T08:21:59.005522+00:00",
  "kcps": {
    "metar": "KCPS 090753Z AUTO 32021G32KT 10SM -RA OVC027 06/00 A2998 RMK AO2 PK WND 33034/0720 RAB14 SLP150 P0000 T00610000 TSNO $",
    "windDirection": 320,
    "windSpeed": 21,
    "windGust": 32,
    "visibility": 10,
    "temperatureC": 6,
    "dewPointC": 0,
    "cloudCeiling": 2700,
    "altimeter": "A2998",
    "timestamp": "2025-11-09T07:53:00+00:00",
    "station": "KCPS"
  },
  "kstl": {
    "metar": "KSTL 090751Z 32019G28KT 10SM BKN025 06/00 A2997 RMK AO2 PK WND 31038/0719 SLP150 T00560000 $",
    "windDirection": 320,
    "windSpeed": 19,
    "windGust": 28,
    "visibility": 10,
    "temperatureC": 6,
    "dewPointC": 0,
    "cloudCeiling": 2500,
    "altimeter": "A2997",
    "timestamp": "2025-11-09T07:51:00+00:00",
    "station": "KSTL"
  }
}