{
  "lastUpdated": "2026-04-07T04:59:26.206142+00:00",
  "kcps": {
    "metar": "KCPS 070453Z AUTO 01008KT 10SM CLR 11/02 A3029 RMK AO2 SLP257 T01060017 $",
    "windDirection": 10,
    "windSpeed": 8,
    "windGust": null,
    "visibility": 10,
    "temperatureC": 11,
    "dewPointC": 2,
    "cloudCeiling": 99999,
    "altimeter": "A3029",
    "timestamp": "2026-04-07T04:53:00+00:00",
    "station": "KCPS"
  },
  "kstl": {
    "metar": "KSTL 070451Z 01009KT 10SM SCT110 11/00 A3030 RMK AO2 SLP260 T01110000 $",
    "windDirection": 10,
    "windSpeed": 9,
    "windGust": null,
    "visibility": 10,
    "temperatureC": 11,
    "dewPointC": 0,
    "cloudCeiling": null,
    "altimeter": "A3030",
    "timestamp": "2026-04-07T04:51:00+00:00",
    "station": "KSTL"
  }
}