{
  "lastUpdated": "2026-05-14T15:08:24.677302+00:00",
  "kcps": {
    "metar": "KCPS 141453Z 15008KT 10SM CLR 18/07 A3014 RMK AO2 SLP204 T01780067 50006 $",
    "windDirection": 150,
    "windSpeed": 8,
    "windGust": null,
    "visibility": 10,
    "temperatureC": 18,
    "dewPointC": 7,
    "cloudCeiling": 99999,
    "altimeter": "A3014",
    "timestamp": "2026-05-14T14:53:00+00:00",
    "station": "KCPS"
  },
  "kstl": {
    "metar": "KSTL 141451Z 12007KT 10SM FEW250 18/07 A3014 RMK AO2 SLP200 T01780067 50006 $",
    "windDirection": 120,
    "windSpeed": 7,
    "windGust": null,
    "visibility": 10,
    "temperatureC": 18,
    "dewPointC": 7,
    "cloudCeiling": null,
    "altimeter": "A3014",
    "timestamp": "2026-05-14T14:51:00+00:00",
    "station": "KSTL"
  }
}