{
  "lastUpdated": "2026-05-19T14:45:36.345630+00:00",
  "kcps": {
    "metar": "KCPS 191353Z 24005G16KT 10SM -RA FEW039 BKN085 21/18 A3003 RMK AO2 RAB51 SLP168 P0000 T02060178 $",
    "windDirection": 240,
    "windSpeed": 5,
    "windGust": 16,
    "visibility": 10,
    "temperatureC": 21,
    "dewPointC": 18,
    "cloudCeiling": 8500,
    "altimeter": "A3003",
    "timestamp": "2026-05-19T13:53:00+00:00",
    "station": "KCPS"
  },
  "kstl": {
    "metar": "KSTL 191351Z 20008KT 10SM FEW050 BKN110 OVC200 21/18 A3003 RMK AO2 SLP161 T02060178 $",
    "windDirection": 200,
    "windSpeed": 8,
    "windGust": null,
    "visibility": 10,
    "temperatureC": 21,
    "dewPointC": 18,
    "cloudCeiling": 11000,
    "altimeter": "A3003",
    "timestamp": "2026-05-19T13:51:00+00:00",
    "station": "KSTL"
  }
}