{
  "lastUpdated": "2025-11-11T17:46:38.638296+00:00",
  "kcps": {
    "metar": "KCPS 111653Z 18012G21KT 10SM CLR 06/M08 A2999 RMK AO2 SLP157 T00611083 $",
    "windDirection": 180,
    "windSpeed": 12,
    "windGust": 21,
    "visibility": 10,
    "temperatureC": 6,
    "dewPointC": -8,
    "cloudCeiling": 99999,
    "altimeter": "A2999",
    "timestamp": "2025-11-11T16:53:00+00:00",
    "station": "KCPS"
  },
  "kstl": {
    "metar": "KSTL 111651Z 20010G18KT 10SM SCT140 OVC210 06/M08 A2999 RMK AO2 SLP164 T00611078 $",
    "windDirection": 200,
    "windSpeed": 10,
    "windGust": 18,
    "visibility": 10,
    "temperatureC": 6,
    "dewPointC": -8,
    "cloudCeiling": 21000,
    "altimeter": "A2999",
    "timestamp": "2025-11-11T16:51:00+00:00",
    "station": "KSTL"
  }
}