{
  "lastUpdated": "2025-12-10T17:22:05.869120+00:00",
  "kcps": {
    "metar": "KCPS 101653Z 31024G40KT 10SM -RA SCT043 BKN055 OVC070 04/M02 A2981 RMK AO2 PK WND 32041/1641 SLP095 P0000 T00441022",
    "windDirection": 310,
    "windSpeed": 24,
    "windGust": 40,
    "visibility": 10,
    "temperatureC": 4,
    "dewPointC": -2,
    "cloudCeiling": 5500,
    "altimeter": "A2981",
    "timestamp": "2025-12-10T16:53:00+00:00",
    "station": "KCPS"
  },
  "kstl": {
    "metar": "KSTL 101651Z 31020G29KT 10SM BKN029 OVC050 03/M03 A2981 RMK AO2 PK WND 31039/1552 SLP099 SNB00E10 P0000 T00331028 $",
    "windDirection": 310,
    "windSpeed": 20,
    "windGust": 29,
    "visibility": 10,
    "temperatureC": 3,
    "dewPointC": -3,
    "cloudCeiling": 2900,
    "altimeter": "A2981",
    "timestamp": "2025-12-10T16:51:00+00:00",
    "station": "KSTL"
  }
}