{
  "lastUpdated": "2025-11-01T04:21:57.429595+00:00",
  "kcps": {
    "metar": "KCPS 010353Z AUTO 00000KT 10SM CLR 06/04 A3003 RMK AO2 SLP169 T00610044 TSNO",
    "windDirection": 0,
    "windSpeed": 0,
    "windGust": null,
    "visibility": 10,
    "temperatureC": 6,
    "dewPointC": 4,
    "cloudCeiling": 99999,
    "altimeter": "A3003",
    "timestamp": "2025-11-01T03:53:00+00:00",
    "station": "KCPS"
  },
  "kstl": {
    "metar": "KSTL 010351Z 30009KT 10SM SCT110 11/01 A3003 RMK AO2 SLP170 T01110006 $",
    "windDirection": 300,
    "windSpeed": 9,
    "windGust": null,
    "visibility": 10,
    "temperatureC": 11,
    "dewPointC": 1,
    "cloudCeiling": null,
    "altimeter": "A3003",
    "timestamp": "2025-11-01T03:51:00+00:00",
    "station": "KSTL"
  }
}