{
  "lastUpdated": "2025-12-24T14:48:20.927143+00:00",
  "kcps": {
    "metar": "KCPS 241408Z 12003KT 5SM BR OVC014 11/09 A3023 RMK AO2 T01060094 $",
    "windDirection": 120,
    "windSpeed": 3,
    "windGust": null,
    "visibility": 5,
    "temperatureC": 11,
    "dewPointC": 9,
    "cloudCeiling": 1400,
    "altimeter": "A3023",
    "timestamp": "2025-12-24T14:08:00+00:00",
    "station": "KCPS"
  },
  "kstl": {
    "metar": "KSTL 241438Z 10008KT 4SM BR OVC011 09/08 A3022 RMK AO2 T00940083 $",
    "windDirection": 100,
    "windSpeed": 8,
    "windGust": null,
    "visibility": 4,
    "temperatureC": 9,
    "dewPointC": 8,
    "cloudCeiling": 1100,
    "altimeter": "A3022",
    "timestamp": "2025-12-24T14:38:00+00:00",
    "station": "KSTL"
  }
}