{
  "lastUpdated": "2026-01-12T18:02:42.900347+00:00",
  "kcps": {
    "metar": "KCPS 121753Z 23006KT 7SM CLR 09/M06 A3024 RMK AO2 SLP243 T00891056 10089 21050 58026 $",
    "windDirection": 230,
    "windSpeed": 6,
    "windGust": null,
    "visibility": 7,
    "temperatureC": 9,
    "dewPointC": -6,
    "cloudCeiling": 99999,
    "altimeter": "A3024",
    "timestamp": "2026-01-12T17:53:00+00:00",
    "station": "KCPS"
  },
  "kstl": {
    "metar": "KSTL 121751Z 23010KT 10SM FEW250 09/M06 A3022 RMK AO2 PRESFR SLP243 T00941056 10094 21006 58025",
    "windDirection": 230,
    "windSpeed": 10,
    "windGust": null,
    "visibility": 10,
    "temperatureC": 9,
    "dewPointC": -6,
    "cloudCeiling": null,
    "altimeter": "A3022",
    "timestamp": "2026-01-12T17:51:00+00:00",
    "station": "KSTL"
  }
}