{
  "lastUpdated": "2026-03-23T19:32:20.078723+00:00",
  "kcps": {
    "metar": "KCPS 231853Z 06010G19KT 10SM CLR 10/M02 A3042 RMK AO2 SLP304 T01001022 $",
    "windDirection": 60,
    "windSpeed": 10,
    "windGust": 19,
    "visibility": 10,
    "temperatureC": 10,
    "dewPointC": -2,
    "cloudCeiling": 99999,
    "altimeter": "A3042",
    "timestamp": "2026-03-23T18:53:00+00:00",
    "station": "KCPS"
  },
  "kstl": {
    "metar": "KSTL 231851Z 01004KT 10SM BKN240 09/M03 A3043 RMK AO2 SLP307 T00941033 $",
    "windDirection": 10,
    "windSpeed": 4,
    "windGust": null,
    "visibility": 10,
    "temperatureC": 9,
    "dewPointC": -3,
    "cloudCeiling": 24000,
    "altimeter": "A3043",
    "timestamp": "2026-03-23T18:51:00+00:00",
    "station": "KSTL"
  }
}