{
  "lastUpdated": "2026-02-20T20:54:48.584863+00:00",
  "kcps": {
    "metar": "KCPS 202053Z 25007KT 10SM CLR 07/M06 A2994 RMK AO2 SLP140 6//// T00721056 530",
    "windDirection": 250,
    "windSpeed": 7,
    "windGust": null,
    "visibility": 10,
    "temperatureC": 7,
    "dewPointC": -6,
    "cloudCeiling": 99999,
    "altimeter": "A2994",
    "timestamp": "2026-02-20T20:53:00+00:00",
    "station": "KCPS"
  },
  "kstl": {
    "metar": "KSTL 202051Z 30010G17KT 10SM CLR 07/M06 A2994 RMK AO2 SLP144 T00671056 53002 $",
    "windDirection": 300,
    "windSpeed": 10,
    "windGust": 17,
    "visibility": 10,
    "temperatureC": 7,
    "dewPointC": -6,
    "cloudCeiling": 99999,
    "altimeter": "A2994",
    "timestamp": "2026-02-20T20:51:00+00:00",
    "station": "KSTL"
  }
}