{
  "lastUpdated": "2026-02-05T08:44:34.232613+00:00",
  "kcps": {
    "metar": "KCPS 050753Z AUTO 00000KT 7SM CLR M11/M12 A3035 RMK AO2 SLP283 T11111122 $",
    "windDirection": 0,
    "windSpeed": 0,
    "windGust": null,
    "visibility": 7,
    "temperatureC": -11,
    "dewPointC": -12,
    "cloudCeiling": 99999,
    "altimeter": "A3035",
    "timestamp": "2026-02-05T07:53:00+00:00",
    "station": "KCPS"
  },
  "kstl": {
    "metar": "KSTL 050751Z 00000KT 8SM CLR M08/M10 A3034 RMK AO2 SLP289 T10781100 $",
    "windDirection": 0,
    "windSpeed": 0,
    "windGust": null,
    "visibility": 8,
    "temperatureC": -8,
    "dewPointC": -10,
    "cloudCeiling": 99999,
    "altimeter": "A3034",
    "timestamp": "2026-02-05T07:51:00+00:00",
    "station": "KSTL"
  }
}