{
  "lastUpdated": "2026-01-08T23:02:17.860951+00:00",
  "kcps": {
    "metar": "KCPS 082219Z 16015G29KT 10SM SCT020 BKN031 OVC048 18/16 A2952 RMK AO2 PK WND 17029/2210 T01780156",
    "windDirection": 160,
    "windSpeed": 15,
    "windGust": 29,
    "visibility": 10,
    "temperatureC": 18,
    "dewPointC": 16,
    "cloudCeiling": 3100,
    "altimeter": "A2952",
    "timestamp": "2026-01-08T22:19:00+00:00",
    "station": "KCPS"
  },
  "kstl": {
    "metar": "KSTL 082251Z 17016G23KT 10SM BKN022 OVC029 18/15 A2950 RMK AO2 PK WND 17026/2233 SLP987 T01780150 $",
    "windDirection": 170,
    "windSpeed": 16,
    "windGust": 23,
    "visibility": 10,
    "temperatureC": 18,
    "dewPointC": 15,
    "cloudCeiling": 2200,
    "altimeter": "A2950",
    "timestamp": "2026-01-08T22:51:00+00:00",
    "station": "KSTL"
  }
}