{
  "lastUpdated": "2026-01-05T23:02:30.203278+00:00",
  "kcps": {
    "metar": "KCPS 052253Z 15009KT 10SM CLR 13/04 A2977 RMK AO2 SLP084 T01330039",
    "windDirection": 150,
    "windSpeed": 9,
    "windGust": null,
    "visibility": 10,
    "temperatureC": 13,
    "dewPointC": 4,
    "cloudCeiling": 99999,
    "altimeter": "A2977",
    "timestamp": "2026-01-05T22:53:00+00:00",
    "station": "KCPS"
  },
  "kstl": {
    "metar": "KSTL 052251Z 13010KT 10SM FEW150 BKN250 13/04 A2976 RMK AO2 SLP081 T01280044 $",
    "windDirection": 130,
    "windSpeed": 10,
    "windGust": null,
    "visibility": 10,
    "temperatureC": 13,
    "dewPointC": 4,
    "cloudCeiling": 25000,
    "altimeter": "A2976",
    "timestamp": "2026-01-05T22:51:00+00:00",
    "station": "KSTL"
  }
}