{
  "lastUpdated": "2026-04-22T03:49:23.360192+00:00",
  "kcps": {
    "metar": "KCPS 220253Z AUTO 22008KT 10SM CLR 22/07 A3001 RMK AO2 SLP159 T02220067 53013 $",
    "windDirection": 220,
    "windSpeed": 8,
    "windGust": null,
    "visibility": 10,
    "temperatureC": 22,
    "dewPointC": 7,
    "cloudCeiling": 99999,
    "altimeter": "A3001",
    "timestamp": "2026-04-22T02:53:00+00:00",
    "station": "KCPS"
  },
  "kstl": {
    "metar": "KSTL 220251Z 23009KT 10SM FEW090 FEW250 22/07 A3001 RMK AO2 SLP156 T02220072 53014 $",
    "windDirection": 230,
    "windSpeed": 9,
    "windGust": null,
    "visibility": 10,
    "temperatureC": 22,
    "dewPointC": 7,
    "cloudCeiling": null,
    "altimeter": "A3001",
    "timestamp": "2026-04-22T02:51:00+00:00",
    "station": "KSTL"
  }
}