{
  "lastUpdated": "2026-04-11T15:41:55.798388+00:00",
  "kcps": {
    "metar": "KCPS 111453Z 09006KT 10SM FEW090 14/09 A3035 RMK AO2 SLP278 T01440089 50004 $",
    "windDirection": 90,
    "windSpeed": 6,
    "windGust": null,
    "visibility": 10,
    "temperatureC": 14,
    "dewPointC": 9,
    "cloudCeiling": null,
    "altimeter": "A3035",
    "timestamp": "2026-04-11T14:53:00+00:00",
    "station": "KCPS"
  },
  "kstl": {
    "metar": "KSTL 111451Z 13007KT 10SM BKN085 BKN250 13/08 A3035 RMK AO2 SLP278 T01330083 50004 $",
    "windDirection": 130,
    "windSpeed": 7,
    "windGust": null,
    "visibility": 10,
    "temperatureC": 13,
    "dewPointC": 8,
    "cloudCeiling": 8500,
    "altimeter": "A3035",
    "timestamp": "2026-04-11T14:51:00+00:00",
    "station": "KSTL"
  }
}