{
  "lastUpdated": "2025-10-18T08:02:31.089526+00:00",
  "kcps": {
    "metar": "KCPS 180753Z AUTO 18003KT 10SM CLR 18/15 A2976 RMK AO2 SLP074 T01830150 PNO $",
    "windDirection": 180,
    "windSpeed": 3,
    "windGust": null,
    "visibility": 10,
    "temperatureC": 18,
    "dewPointC": 15,
    "cloudCeiling": 99999,
    "altimeter": "A2976",
    "timestamp": "2025-10-18T07:53:00+00:00",
    "station": "KCPS"
  },
  "kstl": {
    "metar": "KSTL 180751Z 18006KT 10SM CLR 20/15 A2975 RMK AO2 SLP065 T02000150 $",
    "windDirection": 180,
    "windSpeed": 6,
    "windGust": null,
    "visibility": 10,
    "temperatureC": 20,
    "dewPointC": 15,
    "cloudCeiling": 99999,
    "altimeter": "A2975",
    "timestamp": "2025-10-18T07:51:00+00:00",
    "station": "KSTL"
  }
}