{
  "lastUpdated": "2025-11-06T16:51:47.075892+00:00",
  "kcps": {
    "metar": "KCPS 061553Z 16010KT 10SM CLR 14/02 A3020 RMK AO2 SLP229 T01390017",
    "windDirection": 160,
    "windSpeed": 10,
    "windGust": null,
    "visibility": 10,
    "temperatureC": 14,
    "dewPointC": 2,
    "cloudCeiling": 99999,
    "altimeter": "A3020",
    "timestamp": "2025-11-06T15:53:00+00:00",
    "station": "KCPS"
  },
  "kstl": {
    "metar": "KSTL 061551Z 14013KT 10SM FEW250 13/02 A3020 RMK AO2 SLP226 T01330022 $",
    "windDirection": 140,
    "windSpeed": 13,
    "windGust": null,
    "visibility": 10,
    "temperatureC": 13,
    "dewPointC": 2,
    "cloudCeiling": null,
    "altimeter": "A3020",
    "timestamp": "2025-11-06T15:51:00+00:00",
    "station": "KSTL"
  }
}