{
  "lastUpdated": "2025-11-25T05:21:49.270440+00:00",
  "kcps": {
    "metar": "KCPS 250513Z AUTO 00000KT 2 1/2SM -RA BR OVC006 11/10 A2984 RMK AO2 RAB01 P0000 T01060100 $",
    "windDirection": 0,
    "windSpeed": 0,
    "windGust": null,
    "visibility": 0.5,
    "temperatureC": 11,
    "dewPointC": 10,
    "cloudCeiling": 600,
    "altimeter": "A2984",
    "timestamp": "2025-11-25T05:13:00+00:00",
    "station": "KCPS"
  },
  "kstl": {
    "metar": "KSTL 250451Z 17009KT 8SM BKN005 BKN013 OVC027 11/10 A2984 RMK AO2 RAE32 SLP105 P0004 T01060100 $",
    "windDirection": 170,
    "windSpeed": 9,
    "windGust": null,
    "visibility": 8,
    "temperatureC": 11,
    "dewPointC": 10,
    "cloudCeiling": 500,
    "altimeter": "A2984",
    "timestamp": "2025-11-25T04:51:00+00:00",
    "station": "KSTL"
  }
}