{
  "lastUpdated": "2026-04-20T08:28:23.947541+00:00",
  "kcps": {
    "metar": "KCPS 200753Z AUTO 05005KT 10SM BKN085 09/01 A3027 RMK AO2 SLP250 T00890011 $",
    "windDirection": 50,
    "windSpeed": 5,
    "windGust": null,
    "visibility": 10,
    "temperatureC": 9,
    "dewPointC": 1,
    "cloudCeiling": 8500,
    "altimeter": "A3027",
    "timestamp": "2026-04-20T07:53:00+00:00",
    "station": "KCPS"
  },
  "kstl": {
    "metar": "KSTL 200751Z 06006KT 10SM BKN090 BKN100 09/00 A3028 RMK AO2 SLP252 T00890000 $",
    "windDirection": 60,
    "windSpeed": 6,
    "windGust": null,
    "visibility": 10,
    "temperatureC": 9,
    "dewPointC": 0,
    "cloudCeiling": 9000,
    "altimeter": "A3028",
    "timestamp": "2026-04-20T07:51:00+00:00",
    "station": "KSTL"
  }
}