{
  "lastUpdated": "2025-12-29T18:42:19.009312+00:00",
  "kcps": {
    "metar": "KCPS 291753Z 30016G25KT 10SM FEW033 OVC047 M06/M14 A3032 RMK AO2 PK WND 29030/1708 SLP273 60000 T10561139 11056 21089 50001",
    "windDirection": 300,
    "windSpeed": 16,
    "windGust": 25,
    "visibility": 10,
    "temperatureC": -6,
    "dewPointC": -14,
    "cloudCeiling": 4700,
    "altimeter": "A3032",
    "timestamp": "2025-12-29T17:53:00+00:00",
    "station": "KCPS"
  },
  "kstl": {
    "metar": "KSTL 291751Z 28018G27KT 10SM SCT030 BKN046 M06/M14 A3032 RMK AO2 PK WND 28032/1703 SLP281 T10561139 11056 21094 50007 $",
    "windDirection": 280,
    "windSpeed": 18,
    "windGust": 27,
    "visibility": 10,
    "temperatureC": -6,
    "dewPointC": -14,
    "cloudCeiling": 4600,
    "altimeter": "A3032",
    "timestamp": "2025-12-29T17:51:00+00:00",
    "station": "KSTL"
  }
}