{
  "lastUpdated": "2026-01-17T09:47:01.280307+00:00",
  "kcps": {
    "metar": "KCPS 170853Z AUTO 30011KT 10SM FEW065 M04/M14 A2998 RMK AO2 SLP156 T10441144 53012 $",
    "windDirection": 300,
    "windSpeed": 11,
    "windGust": null,
    "visibility": 10,
    "temperatureC": -4,
    "dewPointC": -14,
    "cloudCeiling": null,
    "altimeter": "A2998",
    "timestamp": "2026-01-17T08:53:00+00:00",
    "station": "KCPS"
  },
  "kstl": {
    "metar": "KSTL 170851Z 29010KT 10SM SCT100 M05/M14 A2997 RMK AO2 SLP158 T10501144 53010 $",
    "windDirection": 290,
    "windSpeed": 10,
    "windGust": null,
    "visibility": 10,
    "temperatureC": -5,
    "dewPointC": -14,
    "cloudCeiling": null,
    "altimeter": "A2997",
    "timestamp": "2026-01-17T08:51:00+00:00",
    "station": "KSTL"
  }
}