{
  "lastUpdated": "2026-02-22T21:22:03.340094+00:00",
  "kcps": {
    "metar": "KCPS 222053Z 31020G27KT 10SM CLR 00/M12 A3046 RMK AO2 PK WND 31031/2010 SNB30E40 SLP318 6//// T00001117 56010 PNO $",
    "windDirection": 310,
    "windSpeed": 20,
    "windGust": 27,
    "visibility": 10,
    "temperatureC": 0,
    "dewPointC": -12,
    "cloudCeiling": 99999,
    "altimeter": "A3046",
    "timestamp": "2026-02-22T20:53:00+00:00",
    "station": "KCPS"
  },
  "kstl": {
    "metar": "KSTL 222051Z 30014G24KT 10SM FEW040 00/M12 A3045 RMK AO2 PK WND 31031/2005 SLP325 T00001122 56010 $",
    "windDirection": 300,
    "windSpeed": 14,
    "windGust": 24,
    "visibility": 10,
    "temperatureC": 0,
    "dewPointC": -12,
    "cloudCeiling": null,
    "altimeter": "A3045",
    "timestamp": "2026-02-22T20:51:00+00:00",
    "station": "KSTL"
  }
}