{
  "lastUpdated": "2026-06-09T19:14:08.452401+00:00",
  "kcps": {
    "metar": "KCPS 091853Z 18006KT 10SM CLR 31/23 A2993 RMK AO2 SLP130 T03110228 $",
    "windDirection": 180,
    "windSpeed": 6,
    "windGust": null,
    "visibility": 10,
    "temperatureC": 31,
    "dewPointC": 23,
    "cloudCeiling": 99999,
    "altimeter": "A2993",
    "timestamp": "2026-06-09T18:53:00+00:00",
    "station": "KCPS"
  },
  "kstl": {
    "metar": "KSTL 091851Z 20011G21KT 10SM FEW034 FEW100 SCT250 31/23 A2995 RMK AO2 SLP127 T03060228 $",
    "windDirection": 200,
    "windSpeed": 11,
    "windGust": 21,
    "visibility": 10,
    "temperatureC": 31,
    "dewPointC": 23,
    "cloudCeiling": null,
    "altimeter": "A2995",
    "timestamp": "2026-06-09T18:51:00+00:00",
    "station": "KSTL"
  }
}