{
  "lastUpdated": "2025-12-11T21:46:54.375129+00:00",
  "kcps": {
    "metar": "KCPS 111953Z 11003KT 10SM BKN080 BKN095 OVC110 02/M04 A2997 RMK AO2 SLP151 T00221039",
    "windDirection": 110,
    "windSpeed": 3,
    "windGust": null,
    "visibility": 10,
    "temperatureC": 2,
    "dewPointC": -4,
    "cloudCeiling": 8000,
    "altimeter": "A2997",
    "timestamp": "2025-12-11T19:53:00+00:00",
    "station": "KCPS"
  },
  "kstl": {
    "metar": "KSTL 112138Z 09009KT 5SM -SN BKN046 OVC070 02/M04 A2993 RMK AO2 SNB38 P0000 T00171044 $",
    "windDirection": 90,
    "windSpeed": 9,
    "windGust": null,
    "visibility": 5,
    "temperatureC": 2,
    "dewPointC": -4,
    "cloudCeiling": 4600,
    "altimeter": "A2993",
    "timestamp": "2025-12-11T21:38:00+00:00",
    "station": "KSTL"
  }
}