{
  "lastUpdated": "2026-04-27T18:24:46.204129+00:00",
  "kcps": {
    "metar": "KCPS 271753Z 14010G20KT 10SM SCT038 BKN049 25/21 A2967 RMK AO2 LTG DSNT W-N SLP044 60000 T02500206 10250 20172 58005 $",
    "windDirection": 140,
    "windSpeed": 10,
    "windGust": 20,
    "visibility": 10,
    "temperatureC": 25,
    "dewPointC": 21,
    "cloudCeiling": 4900,
    "altimeter": "A2967",
    "timestamp": "2026-04-27T17:53:00+00:00",
    "station": "KCPS"
  },
  "kstl": {
    "metar": "KSTL 271811Z 05009KT 3SM R30R/2000VP6000FT +TSRA BR SCT015CB BKN044 OVC075 17/17 A2969 RMK AO2 OCNL LTGICCG ALQDS TS ALQDS MOV E P0007 T01720167 $",
    "windDirection": 50,
    "windSpeed": 9,
    "windGust": null,
    "visibility": 3,
    "temperatureC": 17,
    "dewPointC": 17,
    "cloudCeiling": 4400,
    "altimeter": "A2969",
    "timestamp": "2026-04-27T18:11:00+00:00",
    "station": "KSTL"
  }
}