{
  "lastUpdated": "2025-11-14T12:23:52.364558+00:00",
  "kcps": {
    "metar": "KCPS 141153Z AUTO 17003KT 10SM CLR 09/07 A3005 RMK AO2 SLP176 T00940072 10106 20061 58007",
    "windDirection": 170,
    "windSpeed": 3,
    "windGust": null,
    "visibility": 10,
    "temperatureC": 9,
    "dewPointC": 7,
    "cloudCeiling": 99999,
    "altimeter": "A3005",
    "timestamp": "2025-11-14T11:53:00+00:00",
    "station": "KCPS"
  },
  "kstl": {
    "metar": "KSTL 141151Z 16003KT 10SM FEW055 11/08 A3005 RMK AO2 SLP172 T01110083 10133 20106 58006",
    "windDirection": 160,
    "windSpeed": 3,
    "windGust": null,
    "visibility": 10,
    "temperatureC": 11,
    "dewPointC": 8,
    "cloudCeiling": null,
    "altimeter": "A3005",
    "timestamp": "2025-11-14T11:51:00+00:00",
    "station": "KSTL"
  }
}