{
  "lastUpdated": "2026-04-23T14:20:04.282661+00:00",
  "kcps": {
    "metar": "KCPS 231353Z 17007KT 10SM CLR 21/14 A2993 RMK AO2 SLP133 T02060139 $",
    "windDirection": 170,
    "windSpeed": 7,
    "windGust": null,
    "visibility": 10,
    "temperatureC": 21,
    "dewPointC": 14,
    "cloudCeiling": 99999,
    "altimeter": "A2993",
    "timestamp": "2026-04-23T13:53:00+00:00",
    "station": "KCPS"
  },
  "kstl": {
    "metar": "KSTL 231351Z 18009KT 10SM FEW041 SCT250 21/14 A2993 RMK AO2 SLP126 T02110144 $",
    "windDirection": 180,
    "windSpeed": 9,
    "windGust": null,
    "visibility": 10,
    "temperatureC": 21,
    "dewPointC": 14,
    "cloudCeiling": null,
    "altimeter": "A2993",
    "timestamp": "2026-04-23T13:51:00+00:00",
    "station": "KSTL"
  }
}