{
  "lastUpdated": "2026-01-30T09:24:59.129335+00:00",
  "kcps": {
    "metar": "KCPS 300853Z AUTO 02005KT 10SM CLR M11/M16 A3035 RMK AO2 SLP284 T11111161 56005 $",
    "windDirection": 20,
    "windSpeed": 5,
    "windGust": null,
    "visibility": 10,
    "temperatureC": -11,
    "dewPointC": -16,
    "cloudCeiling": 99999,
    "altimeter": "A3035",
    "timestamp": "2026-01-30T08:53:00+00:00",
    "station": "KCPS"
  },
  "kstl": {
    "metar": "KSTL 300851Z 02004KT 10SM FEW120 SCT170 M12/M16 A3034 RMK AO2 SLP292 T11221161 56005 $",
    "windDirection": 20,
    "windSpeed": 4,
    "windGust": null,
    "visibility": 10,
    "temperatureC": -12,
    "dewPointC": -16,
    "cloudCeiling": null,
    "altimeter": "A3034",
    "timestamp": "2026-01-30T08:51:00+00:00",
    "station": "KSTL"
  }
}