{
  "lastUpdated": "2026-04-09T14:20:48.342720+00:00",
  "kcps": {
    "metar": "KCPS 091353Z 22007KT 10SM CLR 19/06 A3021 RMK AO2 SLP229 T01890056 $",
    "windDirection": 220,
    "windSpeed": 7,
    "windGust": null,
    "visibility": 10,
    "temperatureC": 19,
    "dewPointC": 6,
    "cloudCeiling": 99999,
    "altimeter": "A3021",
    "timestamp": "2026-04-09T13:53:00+00:00",
    "station": "KCPS"
  },
  "kstl": {
    "metar": "KSTL 091351Z 21014G20KT 10SM FEW090 FEW150 FEW250 20/04 A3021 RMK AO2 SLP221 ACC N T02000044 $",
    "windDirection": 210,
    "windSpeed": 14,
    "windGust": 20,
    "visibility": 10,
    "temperatureC": 20,
    "dewPointC": 4,
    "cloudCeiling": null,
    "altimeter": "A3021",
    "timestamp": "2026-04-09T13:51:00+00:00",
    "station": "KSTL"
  }
}