{
  "lastUpdated": "2026-02-05T09:29:02.273796+00:00",
  "kcps": {
    "metar": "KCPS 050853Z AUTO 00000KT 6SM BR CLR M12/M13 A3033 RMK AO2 SLP276 I3000 T11171128 58015 $",
    "windDirection": 0,
    "windSpeed": 0,
    "windGust": null,
    "visibility": 6,
    "temperatureC": -12,
    "dewPointC": -13,
    "cloudCeiling": 99999,
    "altimeter": "A3033",
    "timestamp": "2026-02-05T08:53:00+00:00",
    "station": "KCPS"
  },
  "kstl": {
    "metar": "KSTL 050851Z 00000KT 8SM CLR M09/M11 A3031 RMK AO2 SLP277 T10891106 58018 $",
    "windDirection": 0,
    "windSpeed": 0,
    "windGust": null,
    "visibility": 8,
    "temperatureC": -9,
    "dewPointC": -11,
    "cloudCeiling": 99999,
    "altimeter": "A3031",
    "timestamp": "2026-02-05T08:51:00+00:00",
    "station": "KSTL"
  }
}