{
  "lastUpdated": "2025-12-26T23:33:50.660608+00:00",
  "kcps": {
    "metar": "KCPS 262253Z 35006KT 10SM CLR 14/10 A2988 RMK AO2 SLP116 T01440100 $",
    "windDirection": 350,
    "windSpeed": 6,
    "windGust": null,
    "visibility": 10,
    "temperatureC": 14,
    "dewPointC": 10,
    "cloudCeiling": 99999,
    "altimeter": "A2988",
    "timestamp": "2025-12-26T22:53:00+00:00",
    "station": "KCPS"
  },
  "kstl": {
    "metar": "KSTL 262251Z 31006KT 10SM SCT022 SCT250 13/10 A2989 RMK AO2 SLP118 T01330100 $",
    "windDirection": 310,
    "windSpeed": 6,
    "windGust": null,
    "visibility": 10,
    "temperatureC": 13,
    "dewPointC": 10,
    "cloudCeiling": null,
    "altimeter": "A2989",
    "timestamp": "2025-12-26T22:51:00+00:00",
    "station": "KSTL"
  }
}