{
  "lastUpdated": "2026-02-18T14:18:16.790897+00:00",
  "kcps": {
    "metar": "KCPS 181353Z 23006KT 10SM CLR 16/11 A2966 RMK AO2 SLP042 T01560111 $",
    "windDirection": 230,
    "windSpeed": 6,
    "windGust": null,
    "visibility": 10,
    "temperatureC": 16,
    "dewPointC": 11,
    "cloudCeiling": 99999,
    "altimeter": "A2966",
    "timestamp": "2026-02-18T13:53:00+00:00",
    "station": "KCPS"
  },
  "kstl": {
    "metar": "KSTL 181351Z 24009KT 10SM FEW250 15/11 A2966 RMK AO2 SLP042 T01500111 $",
    "windDirection": 240,
    "windSpeed": 9,
    "windGust": null,
    "visibility": 10,
    "temperatureC": 15,
    "dewPointC": 11,
    "cloudCeiling": null,
    "altimeter": "A2966",
    "timestamp": "2026-02-18T13:51:00+00:00",
    "station": "KSTL"
  }
}