{
  "lastUpdated": "2026-05-02T00:01:24.728705+00:00",
  "kcps": {
    "metar": "KCPS 012353Z 31007KT 10SM FEW080 16/00 A2999 RMK AO2 SLP155 T01610000 10178 20144 55014 $",
    "windDirection": 310,
    "windSpeed": 7,
    "windGust": null,
    "visibility": 10,
    "temperatureC": 16,
    "dewPointC": 0,
    "cloudCeiling": null,
    "altimeter": "A2999",
    "timestamp": "2026-05-01T23:53:00+00:00",
    "station": "KCPS"
  },
  "kstl": {
    "metar": "KSTL 012351Z 26007KT 10SM SCT085 SCT110 BKN250 16/M01 A2999 RMK AO2 SLP156 T01611006 10172 20150 56015",
    "windDirection": 260,
    "windSpeed": 7,
    "windGust": null,
    "visibility": 10,
    "temperatureC": 16,
    "dewPointC": -1,
    "cloudCeiling": 25000,
    "altimeter": "A2999",
    "timestamp": "2026-05-01T23:51:00+00:00",
    "station": "KSTL"
  }
}