{
  "lastUpdated": "2026-01-11T17:34:29.214865+00:00",
  "kcps": {
    "metar": "KCPS 111653Z 28007KT 10SM CLR 00/M08 A3054 RMK AO2 SLP344 T00001083 $",
    "windDirection": 280,
    "windSpeed": 7,
    "windGust": null,
    "visibility": 10,
    "temperatureC": 0,
    "dewPointC": -8,
    "cloudCeiling": 99999,
    "altimeter": "A3054",
    "timestamp": "2026-01-11T16:53:00+00:00",
    "station": "KCPS"
  },
  "kstl": {
    "metar": "KSTL 111651Z 29009KT 10SM FEW038 00/M08 A3053 RMK AO2 SLP349 T00001083 $",
    "windDirection": 290,
    "windSpeed": 9,
    "windGust": null,
    "visibility": 10,
    "temperatureC": 0,
    "dewPointC": -8,
    "cloudCeiling": null,
    "altimeter": "A3053",
    "timestamp": "2026-01-11T16:51:00+00:00",
    "station": "KSTL"
  }
}