{
  "lastUpdated": "2025-10-25T15:02:21.344744+00:00",
  "kcps": {
    "metar": "KCPS 251453Z 15006KT 10SM OVC085 13/05 A3028 RMK AO2 SLP255 T01330050 53013 $",
    "windDirection": 150,
    "windSpeed": 6,
    "windGust": null,
    "visibility": 10,
    "temperatureC": 13,
    "dewPointC": 5,
    "cloudCeiling": 8500,
    "altimeter": "A3028",
    "timestamp": "2025-10-25T14:53:00+00:00",
    "station": "KCPS"
  },
  "kstl": {
    "metar": "KSTL 251451Z 13008KT 10SM OVC075 13/04 A3028 RMK AO2 SLP252 T01280044 53014 $",
    "windDirection": 130,
    "windSpeed": 8,
    "windGust": null,
    "visibility": 10,
    "temperatureC": 13,
    "dewPointC": 4,
    "cloudCeiling": 7500,
    "altimeter": "A3028",
    "timestamp": "2025-10-25T14:51:00+00:00",
    "station": "KSTL"
  }
}