{
  "lastUpdated": "2025-10-27T07:02:41.159378+00:00",
  "kcps": {
    "metar": "KCPS 270653Z AUTO 08005KT 10SM -RA OVC013 11/09 A3008 RMK AO2 SLP187 P0001 T01110094 $",
    "windDirection": 80,
    "windSpeed": 5,
    "windGust": null,
    "visibility": 10,
    "temperatureC": 11,
    "dewPointC": 9,
    "cloudCeiling": 1300,
    "altimeter": "A3008",
    "timestamp": "2025-10-27T06:53:00+00:00",
    "station": "KCPS"
  },
  "kstl": {
    "metar": "KSTL 270651Z 09007KT 10SM -RA SCT010 OVC014 11/09 A3009 RMK AO2 SLP189 P0000 T01060094 $",
    "windDirection": 90,
    "windSpeed": 7,
    "windGust": null,
    "visibility": 10,
    "temperatureC": 11,
    "dewPointC": 9,
    "cloudCeiling": 1400,
    "altimeter": "A3009",
    "timestamp": "2025-10-27T06:51:00+00:00",
    "station": "KSTL"
  }
}