{
  "lastUpdated": "2025-12-26T17:21:07.085704+00:00",
  "kcps": {
    "metar": "KCPS 261653Z 30008KT 10SM BKN022 20/15 A2978 RMK AO2 SLP083 T02000150 $",
    "windDirection": 300,
    "windSpeed": 8,
    "windGust": null,
    "visibility": 10,
    "temperatureC": 20,
    "dewPointC": 15,
    "cloudCeiling": 2200,
    "altimeter": "A2978",
    "timestamp": "2025-12-26T16:53:00+00:00",
    "station": "KCPS"
  },
  "kstl": {
    "metar": "KSTL 261651Z 29012KT 10SM BKN016 19/14 A2980 RMK AO2 SLP086 T01890144 $",
    "windDirection": 290,
    "windSpeed": 12,
    "windGust": null,
    "visibility": 10,
    "temperatureC": 19,
    "dewPointC": 14,
    "cloudCeiling": 1600,
    "altimeter": "A2980",
    "timestamp": "2025-12-26T16:51:00+00:00",
    "station": "KSTL"
  }
}