{
  "lastUpdated": "2026-06-11T20:39:38.935423+00:00",
  "kcps": {
    "metar": "KCPS 111953Z 22011G27KT 10SM FEW048 33/23 A2976 RMK AO2 PK WND 23027/1949 SLP074 T03330228 $",
    "windDirection": 220,
    "windSpeed": 11,
    "windGust": 27,
    "visibility": 10.0,
    "temperatureC": 33.3,
    "dewPointC": 22.8,
    "cloudCeiling": null,
    "altimeter": "A2976",
    "timestamp": "2026-06-11T20:00:00.000Z",
    "station": "KCPS"
  },
  "kstl": {
    "metar": "KSTL 111951Z 19016G29KT 10SM FEW046 FEW070 BKN250 33/23 A2975 RMK AO2 PK WND 21029/1942 SLP058 T03330233 $",
    "windDirection": 190,
    "windSpeed": 16,
    "windGust": 29,
    "visibility": 10.0,
    "temperatureC": 33.3,
    "dewPointC": 23.3,
    "cloudCeiling": 25000,
    "altimeter": "A2975",
    "timestamp": "2026-06-11T20:00:00.000Z",
    "station": "KSTL"
  }
}