{
  "lastUpdated": "2026-03-16T02:39:42.472364+00:00",
  "kcps": {
    "metar": "KCPS 160053Z 29015G30KT 10SM -RA BKN018 OVC029 04/02 A2956 RMK AO2 PK WND 29036/0024 RAE05B21 SLP010 P0002 T00440017 $",
    "windDirection": 290,
    "windSpeed": 15,
    "windGust": 30,
    "visibility": 10,
    "temperatureC": 4,
    "dewPointC": 2,
    "cloudCeiling": 1800,
    "altimeter": "A2956",
    "timestamp": "2026-03-16T00:53:00+00:00",
    "station": "KCPS"
  },
  "kstl": {
    "metar": "KSTL 160151Z 28021G30KT 10SM -RA BKN013 OVC019 02/01 A2957 RMK AO2 PK WND 28032/0055 SLP013 P0003 T00220006 $",
    "windDirection": 280,
    "windSpeed": 21,
    "windGust": 30,
    "visibility": 10,
    "temperatureC": 2,
    "dewPointC": 1,
    "cloudCeiling": 1300,
    "altimeter": "A2957",
    "timestamp": "2026-03-16T01:51:00+00:00",
    "station": "KSTL"
  }
}