{
  "lastUpdated": "2026-02-21T09:23:09.574280+00:00",
  "kcps": {
    "metar": "KCPS 210853Z AUTO 02006KT 10SM SCT085 M01/M06 A3011 RMK AO2 SLP198 6//// T10061056 53017 PNO $",
    "windDirection": 20,
    "windSpeed": 6,
    "windGust": null,
    "visibility": 10,
    "temperatureC": -1,
    "dewPointC": -6,
    "cloudCeiling": null,
    "altimeter": "A3011",
    "timestamp": "2026-02-21T08:53:00+00:00",
    "station": "KCPS"
  },
  "kstl": {
    "metar": "KSTL 210851Z 34004KT 10SM FEW075 SCT120 M02/M06 A3012 RMK AO2 SLP205 T10171061 53020 $",
    "windDirection": 340,
    "windSpeed": 4,
    "windGust": null,
    "visibility": 10,
    "temperatureC": -2,
    "dewPointC": -6,
    "cloudCeiling": null,
    "altimeter": "A3012",
    "timestamp": "2026-02-21T08:51:00+00:00",
    "station": "KSTL"
  }
}