{
  "lastUpdated": "2026-02-23T04:31:27.567622+00:00",
  "kcps": {
    "metar": "KCPS 230353Z 34016G23KT 10SM CLR M04/M13 A3051 RMK AO2 PK WND 33028/0256 SLP337 T10391133 PNO $",
    "windDirection": 340,
    "windSpeed": 16,
    "windGust": 23,
    "visibility": 10,
    "temperatureC": -4,
    "dewPointC": -13,
    "cloudCeiling": 99999,
    "altimeter": "A3051",
    "timestamp": "2026-02-23T03:53:00+00:00",
    "station": "KCPS"
  },
  "kstl": {
    "metar": "KSTL 230351Z 33012KT 10SM CLR M04/M13 A3051 RMK AO2 SLP347 T10441133 $",
    "windDirection": 330,
    "windSpeed": 12,
    "windGust": null,
    "visibility": 10,
    "temperatureC": -4,
    "dewPointC": -13,
    "cloudCeiling": 99999,
    "altimeter": "A3051",
    "timestamp": "2026-02-23T03:51:00+00:00",
    "station": "KSTL"
  }
}