{
  "lastUpdated": "2026-03-23T10:45:37.436943+00:00",
  "kcps": {
    "metar": "KCPS 230953Z AUTO 01015G23KT 10SM OVC032 05/M02 A3026 RMK AO2 PK WND 03027/0859 SLP247 T00501017 $",
    "windDirection": 10,
    "windSpeed": 15,
    "windGust": 23,
    "visibility": 10,
    "temperatureC": 5,
    "dewPointC": -2,
    "cloudCeiling": 3200,
    "altimeter": "A3026",
    "timestamp": "2026-03-23T09:53:00+00:00",
    "station": "KCPS"
  },
  "kstl": {
    "metar": "KSTL 230951Z 01014KT 10SM OVC025 05/M01 A3026 RMK AO2 SLP244 T00501006 $",
    "windDirection": 10,
    "windSpeed": 14,
    "windGust": null,
    "visibility": 10,
    "temperatureC": 5,
    "dewPointC": -1,
    "cloudCeiling": 2500,
    "altimeter": "A3026",
    "timestamp": "2026-03-23T09:51:00+00:00",
    "station": "KSTL"
  }
}