{
  "lastUpdated": "2026-02-19T20:06:31.041789+00:00",
  "kcps": {
    "metar": "KCPS 191953Z 13009KT 10SM CLR 19/15 A2944 RMK AO2 RAE07 SLP967 P0000 T01890150 $",
    "windDirection": 130,
    "windSpeed": 9,
    "windGust": null,
    "visibility": 10,
    "temperatureC": 19,
    "dewPointC": 15,
    "cloudCeiling": 99999,
    "altimeter": "A2944",
    "timestamp": "2026-02-19T19:53:00+00:00",
    "station": "KCPS"
  },
  "kstl": {
    "metar": "KSTL 191951Z 07007KT 10SM SCT012 SCT019 BKN065 BKN250 16/14 A2945 RMK AO2 SLP971 T01610139 $",
    "windDirection": 70,
    "windSpeed": 7,
    "windGust": null,
    "visibility": 10,
    "temperatureC": 16,
    "dewPointC": 14,
    "cloudCeiling": 6500,
    "altimeter": "A2945",
    "timestamp": "2026-02-19T19:51:00+00:00",
    "station": "KSTL"
  }
}