{
  "lastUpdated": "2026-05-14T23:32:47.694859+00:00",
  "kcps": {
    "metar": "KCPS 142253Z 15009KT 10SM CLR 23/05 A2998 RMK AO2 SLP152 T02280050 $",
    "windDirection": 150,
    "windSpeed": 9,
    "windGust": null,
    "visibility": 10,
    "temperatureC": 23,
    "dewPointC": 5,
    "cloudCeiling": 99999,
    "altimeter": "A2998",
    "timestamp": "2026-05-14T22:53:00+00:00",
    "station": "KCPS"
  },
  "kstl": {
    "metar": "KSTL 142251Z 16009KT 10SM BKN250 23/06 A2998 RMK AO2 SLP149 T02280056 $",
    "windDirection": 160,
    "windSpeed": 9,
    "windGust": null,
    "visibility": 10,
    "temperatureC": 23,
    "dewPointC": 6,
    "cloudCeiling": 25000,
    "altimeter": "A2998",
    "timestamp": "2026-05-14T22:51:00+00:00",
    "station": "KSTL"
  }
}