{
  "lastUpdated": "2026-05-09T18:33:40.676391+00:00",
  "kcps": {
    "metar": "KCPS 091753Z 27007G15KT 10SM CLR 24/12 A2979 RMK AO2 SLP086 T02390117 10244 20139 58006 $",
    "windDirection": 270,
    "windSpeed": 7,
    "windGust": 15,
    "visibility": 10,
    "temperatureC": 24,
    "dewPointC": 12,
    "cloudCeiling": 99999,
    "altimeter": "A2979",
    "timestamp": "2026-05-09T17:53:00+00:00",
    "station": "KCPS"
  },
  "kstl": {
    "metar": "KSTL 091751Z 27015G21KT 10SM CLR 24/12 A2980 RMK AO2 SLP086 T02390122 10239 20139 58003 $",
    "windDirection": 270,
    "windSpeed": 15,
    "windGust": 21,
    "visibility": 10,
    "temperatureC": 24,
    "dewPointC": 12,
    "cloudCeiling": 99999,
    "altimeter": "A2980",
    "timestamp": "2026-05-09T17:51:00+00:00",
    "station": "KSTL"
  }
}