{
  "lastUpdated": "2025-11-17T07:33:49.078704+00:00",
  "kcps": {
    "metar": "KCPS 170653Z AUTO 00000KT 10SM CLR 01/M02 A3004 RMK AO2 SLP175 T00061017 $",
    "windDirection": 0,
    "windSpeed": 0,
    "windGust": null,
    "visibility": 10,
    "temperatureC": 1,
    "dewPointC": -2,
    "cloudCeiling": 99999,
    "altimeter": "A3004",
    "timestamp": "2025-11-17T06:53:00+00:00",
    "station": "KCPS"
  },
  "kstl": {
    "metar": "KSTL 170651Z 00000KT 10SM CLR 04/M04 A3004 RMK AO2 SLP175 T00441039 $",
    "windDirection": 0,
    "windSpeed": 0,
    "windGust": null,
    "visibility": 10,
    "temperatureC": 4,
    "dewPointC": -4,
    "cloudCeiling": 99999,
    "altimeter": "A3004",
    "timestamp": "2025-11-17T06:51:00+00:00",
    "station": "KSTL"
  }
}