{
  "lastUpdated": "2026-02-19T11:45:36.428812+00:00",
  "kcps": {
    "metar": "KCPS 191053Z AUTO 16003KT 1/4SM FG VV001 06/06 A2957 RMK AO2 SLP010 T00610061 $",
    "windDirection": 160,
    "windSpeed": 3,
    "windGust": null,
    "visibility": 0.25,
    "temperatureC": 6,
    "dewPointC": 6,
    "cloudCeiling": 100,
    "altimeter": "A2957",
    "timestamp": "2026-02-19T10:53:00+00:00",
    "station": "KCPS"
  },
  "kstl": {
    "metar": "KSTL 191051Z 10005KT 8SM FEW200 BKN250 08/07 A2957 RMK AO2 SLP008 T00780072 $",
    "windDirection": 100,
    "windSpeed": 5,
    "windGust": null,
    "visibility": 8,
    "temperatureC": 8,
    "dewPointC": 7,
    "cloudCeiling": 25000,
    "altimeter": "A2957",
    "timestamp": "2026-02-19T10:51:00+00:00",
    "station": "KSTL"
  }
}