{
  "lastUpdated": "2026-01-07T03:53:22.898689+00:00",
  "kcps": {
    "metar": "KCPS 070253Z 33005KT 10SM CLR 10/03 A2985 RMK AO2 SLP108 T01000028 51028 $",
    "windDirection": 330,
    "windSpeed": 5,
    "windGust": null,
    "visibility": 10,
    "temperatureC": 10,
    "dewPointC": 3,
    "cloudCeiling": 99999,
    "altimeter": "A2985",
    "timestamp": "2026-01-07T02:53:00+00:00",
    "station": "KCPS"
  },
  "kstl": {
    "station": "KSTL",
    "metar": "Data unavailable",
    "error": "Failed to fetch METAR"
  }
}