{
  "lastUpdated": "2026-01-10T18:02:35.947226+00:00",
  "kcps": {
    "metar": "KCPS 101753Z 32014KT 10SM BKN020 BKN060 06/M01 A3014 RMK AO2 SLP209 60001 T00561006 10061 20028 50016 $",
    "windDirection": 320,
    "windSpeed": 14,
    "windGust": null,
    "visibility": 10,
    "temperatureC": 6,
    "dewPointC": -1,
    "cloudCeiling": 2000,
    "altimeter": "A3014",
    "timestamp": "2026-01-10T17:53:00+00:00",
    "station": "KCPS"
  },
  "kstl": {
    "metar": "KSTL 101751Z 28018G28KT 10SM BKN024 06/M01 A3015 RMK AO2 PK WND 28028/1742 SLP214 60002 T00561006 10061 20022 51019 $",
    "windDirection": 280,
    "windSpeed": 18,
    "windGust": 28,
    "visibility": 10,
    "temperatureC": 6,
    "dewPointC": -1,
    "cloudCeiling": 2400,
    "altimeter": "A3015",
    "timestamp": "2026-01-10T17:51:00+00:00",
    "station": "KSTL"
  }
}