{
  "lastUpdated": "2026-02-15T01:31:41.926668+00:00",
  "kcps": {
    "metar": "KCPS 150129Z 09009KT 6SM -RA BR SCT009 OVC014 08/07 A2991 RMK AO2 P0004 T00780067 $",
    "windDirection": 90,
    "windSpeed": 9,
    "windGust": null,
    "visibility": 6,
    "temperatureC": 8,
    "dewPointC": 7,
    "cloudCeiling": 1400,
    "altimeter": "A2991",
    "timestamp": "2026-02-15T01:29:00+00:00",
    "station": "KCPS"
  },
  "kstl": {
    "metar": "KSTL 150051Z 10009KT 3SM RA BR SCT006 BKN010 OVC015 08/07 A2992 RMK AO2 CIG 007V011 SLP134 P0010 T00830072 $",
    "windDirection": 100,
    "windSpeed": 9,
    "windGust": null,
    "visibility": 3,
    "temperatureC": 8,
    "dewPointC": 7,
    "cloudCeiling": 1000,
    "altimeter": "A2992",
    "timestamp": "2026-02-15T00:51:00+00:00",
    "station": "KSTL"
  }
}