{
  "lastUpdated": "2026-01-12T01:14:27.084289+00:00",
  "kcps": {
    "metar": "KCPS 120053Z 19003KT 10SM CLR M02/M07 A3050 RMK AO2 SLP333 T10171072 $",
    "windDirection": 190,
    "windSpeed": 3,
    "windGust": null,
    "visibility": 10,
    "temperatureC": -2,
    "dewPointC": -7,
    "cloudCeiling": 99999,
    "altimeter": "A3050",
    "timestamp": "2026-01-12T00:53:00+00:00",
    "station": "KCPS"
  },
  "kstl": {
    "metar": "KSTL 120051Z 23004KT 10SM SCT250 01/M08 A3049 RMK AO2 SLP337 T00061083 $",
    "windDirection": 230,
    "windSpeed": 4,
    "windGust": null,
    "visibility": 10,
    "temperatureC": 1,
    "dewPointC": -8,
    "cloudCeiling": null,
    "altimeter": "A3049",
    "timestamp": "2026-01-12T00:51:00+00:00",
    "station": "KSTL"
  }
}