{
  "lastUpdated": "2026-01-22T19:10:06.011451+00:00",
  "kcps": {
    "metar": "KCPS 221853Z 03004KT 10SM CLR 03/M13 A3031 RMK AO2 SLP267 T00331133 $",
    "windDirection": 30,
    "windSpeed": 4,
    "windGust": null,
    "visibility": 10,
    "temperatureC": 3,
    "dewPointC": -13,
    "cloudCeiling": 99999,
    "altimeter": "A3031",
    "timestamp": "2026-01-22T18:53:00+00:00",
    "station": "KCPS"
  },
  "kstl": {
    "metar": "KSTL 221851Z VRB03KT 10SM FEW150 BKN250 03/M14 A3031 RMK AO2 SLP273 T00331139 $",
    "windDirection": null,
    "windSpeed": null,
    "windGust": null,
    "visibility": 10,
    "temperatureC": 3,
    "dewPointC": -14,
    "cloudCeiling": 25000,
    "altimeter": "A3031",
    "timestamp": "2026-01-22T18:51:00+00:00",
    "station": "KSTL"
  }
}