{
  "lastUpdated": "2026-06-04T01:29:49.748188+00:00",
  "kcps": {
    "metar": "KCPS 040053Z 15003KT 10SM CLR 25/12 A3015 RMK AO2 SLP205 T02500122 $",
    "windDirection": 150,
    "windSpeed": 3,
    "windGust": null,
    "visibility": 10,
    "temperatureC": 25,
    "dewPointC": 12,
    "cloudCeiling": 99999,
    "altimeter": "A3015",
    "timestamp": "2026-06-04T00:53:00+00:00",
    "station": "KCPS"
  },
  "kstl": {
    "metar": "KSTL 040051Z 14009KT 10SM BKN250 26/10 A3015 RMK AO2 SLP203 T02560100 $",
    "windDirection": 140,
    "windSpeed": 9,
    "windGust": null,
    "visibility": 10,
    "temperatureC": 26,
    "dewPointC": 10,
    "cloudCeiling": 25000,
    "altimeter": "A3015",
    "timestamp": "2026-06-04T00:51:00+00:00",
    "station": "KSTL"
  }
}