{
  "lastUpdated": "2025-12-14T03:30:06.694046+00:00",
  "kcps": {
    "metar": "KCPS 140253Z 35015G20KT 10SM BKN022 M10/M14 A3047 RMK AO2 SLP324 T11001144 53023 $",
    "windDirection": 350,
    "windSpeed": 15,
    "windGust": 20,
    "visibility": 10,
    "temperatureC": -10,
    "dewPointC": -14,
    "cloudCeiling": 2200,
    "altimeter": "A3047",
    "timestamp": "2025-12-14T02:53:00+00:00",
    "station": "KCPS"
  },
  "kstl": {
    "metar": "KSTL 140251Z 34011KT 10SM SCT070 M11/M16 A3046 RMK AO2 SLP333 60000 T11111156 53028 $",
    "windDirection": 340,
    "windSpeed": 11,
    "windGust": null,
    "visibility": 10,
    "temperatureC": -11,
    "dewPointC": -16,
    "cloudCeiling": null,
    "altimeter": "A3046",
    "timestamp": "2025-12-14T02:51:00+00:00",
    "station": "KSTL"
  }
}