{
  "lastUpdated": "2026-02-09T01:32:01.927914+00:00",
  "kcps": {
    "metar": "KCPS 090053Z 10006KT 10SM CLR 01/M06 A3016 RMK AO2 SLP219 T00061056 $",
    "windDirection": 100,
    "windSpeed": 6,
    "windGust": null,
    "visibility": 10,
    "temperatureC": 1,
    "dewPointC": -6,
    "cloudCeiling": 99999,
    "altimeter": "A3016",
    "timestamp": "2026-02-09T00:53:00+00:00",
    "station": "KCPS"
  },
  "kstl": {
    "metar": "KSTL 090051Z 10010KT 10SM FEW150 FEW250 02/M05 A3016 RMK AO2 SLP224 T00171050 $",
    "windDirection": 100,
    "windSpeed": 10,
    "windGust": null,
    "visibility": 10,
    "temperatureC": 2,
    "dewPointC": -5,
    "cloudCeiling": null,
    "altimeter": "A3016",
    "timestamp": "2026-02-09T00:51:00+00:00",
    "station": "KSTL"
  }
}