{
  "lastUpdated": "2025-12-07T10:46:27.494150+00:00",
  "kcps": {
    "metar": "KCPS 071038Z AUTO 18003KT 8SM OVC015 03/02 A2993 RMK AO2 T00330017 $",
    "windDirection": 180,
    "windSpeed": 3,
    "windGust": null,
    "visibility": 8,
    "temperatureC": 3,
    "dewPointC": 2,
    "cloudCeiling": 1500,
    "altimeter": "A2993",
    "timestamp": "2025-12-07T10:38:00+00:00",
    "station": "KCPS"
  },
  "kstl": {
    "metar": "KSTL 070951Z 17004KT 10SM OVC015 03/01 A2992 RMK AO2 SLP136 T00330011 $",
    "windDirection": 170,
    "windSpeed": 4,
    "windGust": null,
    "visibility": 10,
    "temperatureC": 3,
    "dewPointC": 1,
    "cloudCeiling": 1500,
    "altimeter": "A2992",
    "timestamp": "2025-12-07T09:51:00+00:00",
    "station": "KSTL"
  }
}