{
  "lastUpdated": "2026-01-01T01:31:16.454763+00:00",
  "kcps": {
    "metar": "KCPS 010053Z 00000KT 9SM CLR M02/M03 A3000 RMK AO2 SLP162 T10171028",
    "windDirection": 0,
    "windSpeed": 0,
    "windGust": null,
    "visibility": 9,
    "temperatureC": -2,
    "dewPointC": -3,
    "cloudCeiling": 99999,
    "altimeter": "A3000",
    "timestamp": "2026-01-01T00:53:00+00:00",
    "station": "KCPS"
  },
  "kstl": {
    "metar": "KSTL 010051Z 22003KT 10SM FEW250 M01/M03 A2999 RMK AO2 SLP166 T10061028 $",
    "windDirection": 220,
    "windSpeed": 3,
    "windGust": null,
    "visibility": 10,
    "temperatureC": -1,
    "dewPointC": -3,
    "cloudCeiling": null,
    "altimeter": "A2999",
    "timestamp": "2026-01-01T00:51:00+00:00",
    "station": "KSTL"
  }
}