{
  "lastUpdated": "2026-01-12T23:46:48.686508+00:00",
  "kcps": {
    "metar": "KCPS 122153Z 23004KT 10SM CLR 15/M04 A3016 RMK AO2 SLP216 T01501039 $",
    "windDirection": 230,
    "windSpeed": 4,
    "windGust": null,
    "visibility": 10,
    "temperatureC": 15,
    "dewPointC": -4,
    "cloudCeiling": 99999,
    "altimeter": "A3016",
    "timestamp": "2026-01-12T21:53:00+00:00",
    "station": "KCPS"
  },
  "kstl": {
    "metar": "KSTL 122251Z 26005KT 10SM FEW200 BKN250 13/M03 A3016 RMK AO2 SLP219 T01281033",
    "windDirection": 260,
    "windSpeed": 5,
    "windGust": null,
    "visibility": 10,
    "temperatureC": 13,
    "dewPointC": -3,
    "cloudCeiling": 25000,
    "altimeter": "A3016",
    "timestamp": "2026-01-12T22:51:00+00:00",
    "station": "KSTL"
  }
}