{
  "lastUpdated": "2026-02-03T16:02:05.245605+00:00",
  "kcps": {
    "metar": "KCPS 031553Z 02008KT 10SM CLR 01/M03 A3014 RMK AO2 SLP209 T00061033 $",
    "windDirection": 20,
    "windSpeed": 8,
    "windGust": null,
    "visibility": 10,
    "temperatureC": 1,
    "dewPointC": -3,
    "cloudCeiling": 99999,
    "altimeter": "A3014",
    "timestamp": "2026-02-03T15:53:00+00:00",
    "station": "KCPS"
  },
  "kstl": {
    "metar": "KSTL 031551Z 02009KT 10SM SCT070 BKN140 BKN250 01/M03 A3014 RMK AO2 SLP216 T00061033 $",
    "windDirection": 20,
    "windSpeed": 9,
    "windGust": null,
    "visibility": 10,
    "temperatureC": 1,
    "dewPointC": -3,
    "cloudCeiling": 14000,
    "altimeter": "A3014",
    "timestamp": "2026-02-03T15:51:00+00:00",
    "station": "KSTL"
  }
}