{
  "lastUpdated": "2026-03-28T12:45:02.987503+00:00",
  "kcps": {
    "metar": "KCPS 281153Z 01005KT 10SM CLR 00/M06 A3065 RMK AO2 SLP383 T00001056 10061 20000 53008 $",
    "windDirection": 10,
    "windSpeed": 5,
    "windGust": null,
    "visibility": 10,
    "temperatureC": 0,
    "dewPointC": -6,
    "cloudCeiling": 99999,
    "altimeter": "A3065",
    "timestamp": "2026-03-28T11:53:00+00:00",
    "station": "KCPS"
  },
  "kstl": {
    "metar": "KSTL 281151Z 35004KT 10SM CLR M01/M06 A3065 RMK AO2 SLP386 T10061061 10056 21006 53007 $",
    "windDirection": 350,
    "windSpeed": 4,
    "windGust": null,
    "visibility": 10,
    "temperatureC": -1,
    "dewPointC": -6,
    "cloudCeiling": 99999,
    "altimeter": "A3065",
    "timestamp": "2026-03-28T11:51:00+00:00",
    "station": "KSTL"
  }
}