{
  "lastUpdated": "2026-01-14T07:37:25.030844+00:00",
  "kcps": {
    "metar": "KCPS 140653Z AUTO 24005KT 10SM SCT100 08/07 A2975 RMK AO2 SLP074 T00780067 $",
    "windDirection": 240,
    "windSpeed": 5,
    "windGust": null,
    "visibility": 10,
    "temperatureC": 8,
    "dewPointC": 7,
    "cloudCeiling": null,
    "altimeter": "A2975",
    "timestamp": "2026-01-14T06:53:00+00:00",
    "station": "KCPS"
  },
  "kstl": {
    "metar": "KSTL 140651Z 26013KT 10SM FEW100 BKN120 OVC200 08/06 A2976 RMK AO2 SLP075 T00830061 $",
    "windDirection": 260,
    "windSpeed": 13,
    "windGust": null,
    "visibility": 10,
    "temperatureC": 8,
    "dewPointC": 6,
    "cloudCeiling": 12000,
    "altimeter": "A2976",
    "timestamp": "2026-01-14T06:51:00+00:00",
    "station": "KSTL"
  }
}