{
  "lastUpdated": "2026-04-04T10:42:58.243233+00:00",
  "kcps": {
    "metar": "KCPS 041019Z AUTO 27003KT 3SM +RA BR FEW024 BKN030 OVC039 19/17 A2993 RMK AO2 LTG DSNT SW RAB0954 P0007 T01890172 $",
    "windDirection": 270,
    "windSpeed": 3,
    "windGust": null,
    "visibility": 3,
    "temperatureC": 19,
    "dewPointC": 17,
    "cloudCeiling": 3000,
    "altimeter": "A2993",
    "timestamp": "2026-04-04T10:19:00+00:00",
    "station": "KCPS"
  },
  "kstl": {
    "metar": "KSTL 041029Z 26009KT 6SM RA BR FEW047 BKN060 OVC090 17/16 A2993 RMK AO2 P0015 T01720161 $",
    "windDirection": 260,
    "windSpeed": 9,
    "windGust": null,
    "visibility": 6,
    "temperatureC": 17,
    "dewPointC": 16,
    "cloudCeiling": 6000,
    "altimeter": "A2993",
    "timestamp": "2026-04-04T10:29:00+00:00",
    "station": "KSTL"
  }
}