{
  "lastUpdated": "2026-04-28T11:11:44.047951+00:00",
  "kcps": {
    "metar": "KCPS 281053Z AUTO 30007KT 10SM CLR 13/10 A2993 RMK AO2 SLP132 T01330100 $",
    "windDirection": 300,
    "windSpeed": 7,
    "windGust": null,
    "visibility": 10,
    "temperatureC": 13,
    "dewPointC": 10,
    "cloudCeiling": 99999,
    "altimeter": "A2993",
    "timestamp": "2026-04-28T10:53:00+00:00",
    "station": "KCPS"
  },
  "kstl": {
    "metar": "KSTL 281051Z 30006KT 10SM BKN033 13/10 A2994 RMK AO2 SLP130 T01330100 $",
    "windDirection": 300,
    "windSpeed": 6,
    "windGust": null,
    "visibility": 10,
    "temperatureC": 13,
    "dewPointC": 10,
    "cloudCeiling": 3300,
    "altimeter": "A2994",
    "timestamp": "2026-04-28T10:51:00+00:00",
    "station": "KSTL"
  }
}