{
  "lastUpdated": "2025-11-26T02:31:51.106790+00:00",
  "kcps": {
    "metar": "KCPS 260210Z 27008KT 10SM BKN027 OVC070 13/09 A2992 RMK AO2 T01330094",
    "windDirection": 270,
    "windSpeed": 8,
    "windGust": null,
    "visibility": 10,
    "temperatureC": 13,
    "dewPointC": 9,
    "cloudCeiling": 2700,
    "altimeter": "A2992",
    "timestamp": "2025-11-26T02:10:00+00:00",
    "station": "KCPS"
  },
  "kstl": {
    "metar": "KSTL 260205Z 29017G29KT 10SM FEW022 OVC033 12/06 A2993 RMK AO2 PK WND 29030/0155 RAE04 P0000 T01170056 $",
    "windDirection": 290,
    "windSpeed": 17,
    "windGust": 29,
    "visibility": 10,
    "temperatureC": 12,
    "dewPointC": 6,
    "cloudCeiling": 3300,
    "altimeter": "A2993",
    "timestamp": "2025-11-26T02:05:00+00:00",
    "station": "KSTL"
  }
}