{
  "lastUpdated": "2025-11-18T03:08:00.784503+00:00",
  "kcps": {
    "metar": "KCPS 180304Z 13012KT 10SM OVC045 12/01 A2992 RMK AO2 LTG DSNT NE AND E T01220011",
    "windDirection": 130,
    "windSpeed": 12,
    "windGust": null,
    "visibility": 10,
    "temperatureC": 12,
    "dewPointC": 1,
    "cloudCeiling": 4500,
    "altimeter": "A2992",
    "timestamp": "2025-11-18T03:04:00+00:00",
    "station": "KCPS"
  },
  "kstl": {
    "metar": "KSTL 180251Z 12012KT 10SM OVC044 09/04 A2992 RMK AO2 RAE28 TSE25 SLP133 FRQ LTGICCC DSNT E CB DSNT E MOV E P0017 60018 T00940044 58007 $",
    "windDirection": 120,
    "windSpeed": 12,
    "windGust": null,
    "visibility": 10,
    "temperatureC": 9,
    "dewPointC": 4,
    "cloudCeiling": 4400,
    "altimeter": "A2992",
    "timestamp": "2025-11-18T02:51:00+00:00",
    "station": "KSTL"
  }
}