{
  "lastUpdated": "2026-03-19T08:17:10.015321+00:00",
  "kcps": {
    "metar": "KCPS 190753Z AUTO 18003KT 10SM CLR 06/02 A3003 RMK AO2 SLP169 T00610022 $",
    "windDirection": 180,
    "windSpeed": 3,
    "windGust": null,
    "visibility": 10,
    "temperatureC": 6,
    "dewPointC": 2,
    "cloudCeiling": 99999,
    "altimeter": "A3003",
    "timestamp": "2026-03-19T07:53:00+00:00",
    "station": "KCPS"
  },
  "kstl": {
    "metar": "KSTL 190751Z 00000KT 10SM BKN250 10/02 A3003 RMK AO2 SLP167 T01000022 $",
    "windDirection": 0,
    "windSpeed": 0,
    "windGust": null,
    "visibility": 10,
    "temperatureC": 10,
    "dewPointC": 2,
    "cloudCeiling": 25000,
    "altimeter": "A3003",
    "timestamp": "2026-03-19T07:51:00+00:00",
    "station": "KSTL"
  }
}