{
  "lastUpdated": "2025-11-08T10:35:00.494791+00:00",
  "kcps": {
    "metar": "KCPS 080953Z AUTO 35003KT 10SM CLR 08/03 A2985 RMK AO2 SLP107 T00830033 TSNO $",
    "windDirection": 350,
    "windSpeed": 3,
    "windGust": null,
    "visibility": 10,
    "temperatureC": 8,
    "dewPointC": 3,
    "cloudCeiling": 99999,
    "altimeter": "A2985",
    "timestamp": "2025-11-08T09:53:00+00:00",
    "station": "KCPS"
  },
  "kstl": {
    "metar": "KSTL 080951Z 00000KT 10SM BKN250 08/04 A2985 RMK AO2 SLP106 T00830039 $",
    "windDirection": 0,
    "windSpeed": 0,
    "windGust": null,
    "visibility": 10,
    "temperatureC": 8,
    "dewPointC": 4,
    "cloudCeiling": 25000,
    "altimeter": "A2985",
    "timestamp": "2025-11-08T09:51:00+00:00",
    "station": "KSTL"
  }
}