{
  "lastUpdated": "2026-03-13T03:33:53.349392+00:00",
  "kcps": {
    "metar": "KCPS 130253Z 17008KT 10SM CLR 09/M01 A2997 RMK AO2 SLP151 T00891011 56020 $",
    "windDirection": 170,
    "windSpeed": 8,
    "windGust": null,
    "visibility": 10,
    "temperatureC": 9,
    "dewPointC": -1,
    "cloudCeiling": 99999,
    "altimeter": "A2997",
    "timestamp": "2026-03-13T02:53:00+00:00",
    "station": "KCPS"
  },
  "kstl": {
    "metar": "KSTL 130251Z 17014G22KT 10SM BKN240 11/M04 A2996 RMK AO2 SLP147 T01061044 56017 $",
    "windDirection": 170,
    "windSpeed": 14,
    "windGust": 22,
    "visibility": 10,
    "temperatureC": 11,
    "dewPointC": -4,
    "cloudCeiling": 24000,
    "altimeter": "A2996",
    "timestamp": "2026-03-13T02:51:00+00:00",
    "station": "KSTL"
  }
}