{
  "lastUpdated": "2025-12-27T21:46:32.402111+00:00",
  "kcps": {
    "metar": "KCPS 272053Z 14009KT 2SM BR OVC003 13/12 A2981 RMK AO2 SLP093 T01280122 56034 $",
    "windDirection": 140,
    "windSpeed": 9,
    "windGust": null,
    "visibility": 2,
    "temperatureC": 13,
    "dewPointC": 12,
    "cloudCeiling": 300,
    "altimeter": "A2981",
    "timestamp": "2025-12-27T20:53:00+00:00",
    "station": "KCPS"
  },
  "kstl": {
    "metar": "KSTL 272051Z 13012KT 3/4SM R30R/3500V5000FT BR OVC002 12/12 A2980 RMK AO2 SLP091 T01220117 56036 $",
    "windDirection": 130,
    "windSpeed": 12,
    "windGust": null,
    "visibility": 0.75,
    "temperatureC": 12,
    "dewPointC": 12,
    "cloudCeiling": 200,
    "altimeter": "A2980",
    "timestamp": "2025-12-27T20:51:00+00:00",
    "station": "KSTL"
  }
}