{
  "lastUpdated": "2026-02-26T23:41:02.009227+00:00",
  "kcps": {
    "metar": "KCPS 262253Z 08003KT 10SM CLR 16/03 A2986 RMK AO2 SLP112 T01610033 $",
    "windDirection": 80,
    "windSpeed": 3,
    "windGust": null,
    "visibility": 10,
    "temperatureC": 16,
    "dewPointC": 3,
    "cloudCeiling": 99999,
    "altimeter": "A2986",
    "timestamp": "2026-02-26T22:53:00+00:00",
    "station": "KCPS"
  },
  "kstl": {
    "metar": "KSTL 262251Z 07005KT 10SM FEW060 16/02 A2986 RMK AO2 SLP116 T01560022 $",
    "windDirection": 70,
    "windSpeed": 5,
    "windGust": null,
    "visibility": 10,
    "temperatureC": 16,
    "dewPointC": 2,
    "cloudCeiling": null,
    "altimeter": "A2986",
    "timestamp": "2026-02-26T22:51:00+00:00",
    "station": "KSTL"
  }
}