{
  "lastUpdated": "2025-12-31T22:02:20.889591+00:00",
  "kcps": {
    "metar": "KCPS 312153Z 28010KT 10SM BKN023 04/M02 A3001 RMK AO2 SLP167 T00391017",
    "windDirection": 280,
    "windSpeed": 10,
    "windGust": null,
    "visibility": 10,
    "temperatureC": 4,
    "dewPointC": -2,
    "cloudCeiling": 2300,
    "altimeter": "A3001",
    "timestamp": "2025-12-31T21:53:00+00:00",
    "station": "KCPS"
  },
  "kstl": {
    "metar": "KSTL 312151Z 27013KT 10SM BKN020 OVC250 03/M01 A3001 RMK AO2 SLP173 T00331011 $",
    "windDirection": 270,
    "windSpeed": 13,
    "windGust": null,
    "visibility": 10,
    "temperatureC": 3,
    "dewPointC": -1,
    "cloudCeiling": 2000,
    "altimeter": "A3001",
    "timestamp": "2025-12-31T21:51:00+00:00",
    "station": "KSTL"
  }
}