{
  "lastUpdated": "2026-02-07T10:53:01.753989+00:00",
  "kcps": {
    "metar": "KCPS 070953Z AUTO 35008KT 10SM CLR M01/M04 A3031 RMK AO2 SLP267 T10061044 $",
    "windDirection": 350,
    "windSpeed": 8,
    "windGust": null,
    "visibility": 10,
    "temperatureC": -1,
    "dewPointC": -4,
    "cloudCeiling": 99999,
    "altimeter": "A3031",
    "timestamp": "2026-02-07T09:53:00+00:00",
    "station": "KCPS"
  },
  "kstl": {
    "metar": "KSTL 070951Z 36007KT 10SM CLR M01/M05 A3031 RMK AO2 SLP271 T10111050 $",
    "windDirection": 360,
    "windSpeed": 7,
    "windGust": null,
    "visibility": 10,
    "temperatureC": -1,
    "dewPointC": -5,
    "cloudCeiling": 99999,
    "altimeter": "A3031",
    "timestamp": "2026-02-07T09:51:00+00:00",
    "station": "KSTL"
  }
}