{
  "lastUpdated": "2026-01-01T16:02:33.727824+00:00",
  "kcps": {
    "metar": "KCPS 011453Z 05004KT 3SM BR OVC009 01/M01 A3004 RMK AO2 SLP176 I3000 T00061006 53004 $",
    "windDirection": 50,
    "windSpeed": 4,
    "windGust": null,
    "visibility": 3,
    "temperatureC": 1,
    "dewPointC": -1,
    "cloudCeiling": 900,
    "altimeter": "A3004",
    "timestamp": "2026-01-01T14:53:00+00:00",
    "station": "KCPS"
  },
  "kstl": {
    "metar": "KSTL 011551Z 04006KT 6SM BR OVC007 01/M01 A3005 RMK AO2 SLP185 T00061006 $",
    "windDirection": 40,
    "windSpeed": 6,
    "windGust": null,
    "visibility": 6,
    "temperatureC": 1,
    "dewPointC": -1,
    "cloudCeiling": 700,
    "altimeter": "A3005",
    "timestamp": "2026-01-01T15:51:00+00:00",
    "station": "KSTL"
  }
}