{
  "lastUpdated": "2026-03-22T17:22:25.057193+00:00",
  "kcps": {
    "metar": "KCPS 221653Z VRB03KT 10SM CLR 29/14 A2966 RMK AO2 SLP038 T02940139 $",
    "windDirection": null,
    "windSpeed": null,
    "windGust": null,
    "visibility": 10,
    "temperatureC": 29,
    "dewPointC": 14,
    "cloudCeiling": 99999,
    "altimeter": "A2966",
    "timestamp": "2026-03-22T16:53:00+00:00",
    "station": "KCPS"
  },
  "kstl": {
    "metar": "KSTL 221651Z 29006KT 10SM FEW055 BKN250 29/14 A2967 RMK AO2 SLP034 T02940139 $",
    "windDirection": 290,
    "windSpeed": 6,
    "windGust": null,
    "visibility": 10,
    "temperatureC": 29,
    "dewPointC": 14,
    "cloudCeiling": 25000,
    "altimeter": "A2967",
    "timestamp": "2026-03-22T16:51:00+00:00",
    "station": "KSTL"
  }
}