{
  "lastUpdated": "2025-12-31T16:02:32.640971+00:00",
  "kcps": {
    "metar": "KCPS 311553Z 28005KT 10SM OVC019 02/M03 A3011 RMK AO2 SLP197 T00221028",
    "windDirection": 280,
    "windSpeed": 5,
    "windGust": null,
    "visibility": 10,
    "temperatureC": 2,
    "dewPointC": -3,
    "cloudCeiling": 1900,
    "altimeter": "A3011",
    "timestamp": "2025-12-31T15:53:00+00:00",
    "station": "KCPS"
  },
  "kstl": {
    "metar": "KSTL 311551Z 25010KT 10SM OVC020 02/M03 A3010 RMK AO2 SLP202 T00171028 $",
    "windDirection": 250,
    "windSpeed": 10,
    "windGust": null,
    "visibility": 10,
    "temperatureC": 2,
    "dewPointC": -3,
    "cloudCeiling": 2000,
    "altimeter": "A3010",
    "timestamp": "2025-12-31T15:51:00+00:00",
    "station": "KSTL"
  }
}