{
  "lastUpdated": "2026-02-19T18:01:41.216899+00:00",
  "kcps": {
    "metar": "KCPS 191753Z 13009KT 10SM -RA SCT008 SCT095 BKN120 15/13 A2953 RMK AO2 LTG DSNT NW SLP999 P0005 60005 T01500133 10161 20089 55014 $",
    "windDirection": 130,
    "windSpeed": 9,
    "windGust": null,
    "visibility": 10,
    "temperatureC": 15,
    "dewPointC": 13,
    "cloudCeiling": 12000,
    "altimeter": "A2953",
    "timestamp": "2026-02-19T17:53:00+00:00",
    "station": "KCPS"
  },
  "kstl": {
    "metar": "KSTL 191751Z COR 11008KT 5SM TSRA BR FEW002 BKN055CB OVC085 14/13 A2953 RMK AO2 RAB12 TSB1659 SLP998 OCNL LTGIC E-S TS E-S MOV NE P0011 60011 T01390128 10144 20089 58016 $",
    "windDirection": 110,
    "windSpeed": 8,
    "windGust": null,
    "visibility": 5,
    "temperatureC": 14,
    "dewPointC": 13,
    "cloudCeiling": 5500,
    "altimeter": "A2953",
    "timestamp": "2026-02-19T17:51:00+00:00",
    "station": "KSTL"
  }
}