{
  "lastUpdated": "2026-01-16T16:02:46.182273+00:00",
  "kcps": {
    "metar": "KCPS 161553Z 29009KT 10SM SCT033 BKN100 04/M03 A2978 RMK AO2 SLP086 T00441028 $",
    "windDirection": 290,
    "windSpeed": 9,
    "windGust": null,
    "visibility": 10,
    "temperatureC": 4,
    "dewPointC": -3,
    "cloudCeiling": 10000,
    "altimeter": "A2978",
    "timestamp": "2026-01-16T15:53:00+00:00",
    "station": "KCPS"
  },
  "kstl": {
    "metar": "KSTL 161551Z 28013KT 10SM FEW030 SCT065 BKN110 OVC250 04/M02 A2977 RMK AO2 SLP088 T00441022 $",
    "windDirection": 280,
    "windSpeed": 13,
    "windGust": null,
    "visibility": 10,
    "temperatureC": 4,
    "dewPointC": -2,
    "cloudCeiling": 11000,
    "altimeter": "A2977",
    "timestamp": "2026-01-16T15:51:00+00:00",
    "station": "KSTL"
  }
}