{
  "lastUpdated": "2026-04-20T03:54:21.710779+00:00",
  "kcps": {
    "metar": "KCPS 200253Z 03006KT 10SM CLR 13/03 A3021 RMK AO2 SLP230 T01280033 53020 $",
    "windDirection": 30,
    "windSpeed": 6,
    "windGust": null,
    "visibility": 10,
    "temperatureC": 13,
    "dewPointC": 3,
    "cloudCeiling": 99999,
    "altimeter": "A3021",
    "timestamp": "2026-04-20T02:53:00+00:00",
    "station": "KCPS"
  },
  "kstl": {
    "metar": "KSTL 200351Z 04013G20KT 10SM CLR 13/02 A3024 RMK AO2 SLP237 T01280017 $",
    "windDirection": 40,
    "windSpeed": 13,
    "windGust": 20,
    "visibility": 10,
    "temperatureC": 13,
    "dewPointC": 2,
    "cloudCeiling": 99999,
    "altimeter": "A3024",
    "timestamp": "2026-04-20T03:51:00+00:00",
    "station": "KSTL"
  }
}