{
  "lastUpdated": "2025-12-11T10:39:26.582617+00:00",
  "kcps": {
    "metar": "KCPS 110953Z AUTO 32008KT 10SM OVC026 00/M05 A3006 RMK AO2 SLP182 T00001050 $",
    "windDirection": 320,
    "windSpeed": 8,
    "windGust": null,
    "visibility": 10,
    "temperatureC": 0,
    "dewPointC": -5,
    "cloudCeiling": 2600,
    "altimeter": "A3006",
    "timestamp": "2025-12-11T09:53:00+00:00",
    "station": "KCPS"
  },
  "kstl": {
    "metar": "KSTL 110951Z 32006KT 10SM BKN026 M01/M06 A3006 RMK AO2 SLP188 T10061056 $",
    "windDirection": 320,
    "windSpeed": 6,
    "windGust": null,
    "visibility": 10,
    "temperatureC": -1,
    "dewPointC": -6,
    "cloudCeiling": 2600,
    "altimeter": "A3006",
    "timestamp": "2025-12-11T09:51:00+00:00",
    "station": "KSTL"
  }
}