{
  "lastUpdated": "2026-04-20T14:20:25.460396+00:00",
  "kcps": {
    "metar": "KCPS 201353Z 14007KT 10SM CLR 11/00 A3035 RMK AO2 SLP278 T01110000 $",
    "windDirection": 140,
    "windSpeed": 7,
    "windGust": null,
    "visibility": 10,
    "temperatureC": 11,
    "dewPointC": 0,
    "cloudCeiling": 99999,
    "altimeter": "A3035",
    "timestamp": "2026-04-20T13:53:00+00:00",
    "station": "KCPS"
  },
  "kstl": {
    "metar": "KSTL 201351Z 10008KT 10SM CLR 11/M02 A3035 RMK AO2 SLP277 T01061022 $",
    "windDirection": 100,
    "windSpeed": 8,
    "windGust": null,
    "visibility": 10,
    "temperatureC": 11,
    "dewPointC": -2,
    "cloudCeiling": 99999,
    "altimeter": "A3035",
    "timestamp": "2026-04-20T13:51:00+00:00",
    "station": "KSTL"
  }
}