{
  "lastUpdated": "2025-11-20T03:53:08.465948+00:00",
  "kcps": {
    "metar": "KCPS 200253Z 11003KT 7SM OVC008 09/07 A3019 RMK AO2 SLP225 T00890072 51000",
    "windDirection": 110,
    "windSpeed": 3,
    "windGust": null,
    "visibility": 7,
    "temperatureC": 9,
    "dewPointC": 7,
    "cloudCeiling": 800,
    "altimeter": "A3019",
    "timestamp": "2025-11-20T02:53:00+00:00",
    "station": "KCPS"
  },
  "kstl": {
    "metar": "KSTL 200251Z 10005KT 4SM BR OVC007 09/07 A3019 RMK AO2 SLP226 T00890072 56002 $",
    "windDirection": 100,
    "windSpeed": 5,
    "windGust": null,
    "visibility": 4,
    "temperatureC": 9,
    "dewPointC": 7,
    "cloudCeiling": 700,
    "altimeter": "A3019",
    "timestamp": "2025-11-20T02:51:00+00:00",
    "station": "KSTL"
  }
}