{
  "lastUpdated": "2025-12-11T23:02:37.227445+00:00",
  "kcps": {
    "metar": "KCPS 112253Z 10009KT 10SM OVC070 02/M03 A2994 RMK AO2 SNE2157 SLP141 P0000 T00171033",
    "windDirection": 100,
    "windSpeed": 9,
    "windGust": null,
    "visibility": 10,
    "temperatureC": 2,
    "dewPointC": -3,
    "cloudCeiling": 7000,
    "altimeter": "A2994",
    "timestamp": "2025-12-11T22:53:00+00:00",
    "station": "KCPS"
  },
  "kstl": {
    "metar": "KSTL 112251Z 09012KT 10SM OVC070 01/M03 A2992 RMK AO2 SNE02 SLP143 P0000 T00111033 $",
    "windDirection": 90,
    "windSpeed": 12,
    "windGust": null,
    "visibility": 10,
    "temperatureC": 1,
    "dewPointC": -3,
    "cloudCeiling": 7000,
    "altimeter": "A2992",
    "timestamp": "2025-12-11T22:51:00+00:00",
    "station": "KSTL"
  }
}