{
  "lastUpdated": "2026-02-02T12:46:20.165079+00:00",
  "kcps": {
    "metar": "KCPS 021053Z AUTO 00000KT 10SM OVC037 M03/M09 A3017 RMK AO2 SLP221 T10281089 $",
    "windDirection": 0,
    "windSpeed": 0,
    "windGust": null,
    "visibility": 10,
    "temperatureC": -3,
    "dewPointC": -9,
    "cloudCeiling": 3700,
    "altimeter": "A3017",
    "timestamp": "2026-02-02T10:53:00+00:00",
    "station": "KCPS"
  },
  "kstl": {
    "metar": "KSTL 021151Z 31005KT 10SM OVC041 M01/M07 A3018 RMK AO2 SLP231 4/004 T10111067 11011 21022 53004 $",
    "windDirection": 310,
    "windSpeed": 5,
    "windGust": null,
    "visibility": 10,
    "temperatureC": -1,
    "dewPointC": -7,
    "cloudCeiling": 4100,
    "altimeter": "A3018",
    "timestamp": "2026-02-02T11:51:00+00:00",
    "station": "KSTL"
  }
}