{
  "lastUpdated": "2026-04-13T22:00:29.429672+00:00",
  "kcps": {
    "metar": "KCPS 132153Z 18009G20KT 10SM SCT055 28/17 A2989 RMK AO2 SLP118 T02830172 $",
    "windDirection": 180,
    "windSpeed": 9,
    "windGust": 20,
    "visibility": 10,
    "temperatureC": 28,
    "dewPointC": 17,
    "cloudCeiling": null,
    "altimeter": "A2989",
    "timestamp": "2026-04-13T21:53:00+00:00",
    "station": "KCPS"
  },
  "kstl": {
    "metar": "KSTL 132151Z 21018G24KT 10SM SCT050 BKN250 28/17 A2989 RMK AO2 PK WND 21030/2138 SLP109 T02830167 $",
    "windDirection": 210,
    "windSpeed": 18,
    "windGust": 24,
    "visibility": 10,
    "temperatureC": 28,
    "dewPointC": 17,
    "cloudCeiling": 25000,
    "altimeter": "A2989",
    "timestamp": "2026-04-13T21:51:00+00:00",
    "station": "KSTL"
  }
}