{
  "lastUpdated": "2026-01-18T05:22:13.998120+00:00",
  "kcps": {
    "metar": "KCPS 180453Z 29009KT 10SM BKN035 OVC110 M09/M15 A3031 RMK AO2 SLP268 T10891150 $",
    "windDirection": 290,
    "windSpeed": 9,
    "windGust": null,
    "visibility": 10,
    "temperatureC": -9,
    "dewPointC": -15,
    "cloudCeiling": 3500,
    "altimeter": "A3031",
    "timestamp": "2026-01-18T04:53:00+00:00",
    "station": "KCPS"
  },
  "kstl": {
    "metar": "KSTL 180451Z 29012G20KT 10SM OVC100 M09/M17 A3029 RMK AO2 SLP276 T10941172 $",
    "windDirection": 290,
    "windSpeed": 12,
    "windGust": 20,
    "visibility": 10,
    "temperatureC": -9,
    "dewPointC": -17,
    "cloudCeiling": 10000,
    "altimeter": "A3029",
    "timestamp": "2026-01-18T04:51:00+00:00",
    "station": "KSTL"
  }
}