{
  "lastUpdated": "2026-06-05T05:28:24.675411+00:00",
  "kcps": {
    "metar": "KCPS 050453Z AUTO 16007KT 10SM CLR 23/16 A3002 RMK AO2 SLP161 T02280161 $",
    "windDirection": 160,
    "windSpeed": 7,
    "windGust": null,
    "visibility": 10,
    "temperatureC": 23,
    "dewPointC": 16,
    "cloudCeiling": 99999,
    "altimeter": "A3002",
    "timestamp": "2026-06-05T04:53:00+00:00",
    "station": "KCPS"
  },
  "kstl": {
    "metar": "KSTL 050451Z 18009KT 10SM FEW250 24/16 A3002 RMK AO2 SLP153 T02440161 $",
    "windDirection": 180,
    "windSpeed": 9,
    "windGust": null,
    "visibility": 10,
    "temperatureC": 24,
    "dewPointC": 16,
    "cloudCeiling": null,
    "altimeter": "A3002",
    "timestamp": "2026-06-05T04:51:00+00:00",
    "station": "KSTL"
  }
}