{
  "lastUpdated": "2026-03-25T08:24:23.325539+00:00",
  "kcps": {
    "metar": "KCPS 250753Z AUTO 00000KT 10SM CLR 08/M01 A3012 RMK AO2 SLP198 T00831011 $",
    "windDirection": 0,
    "windSpeed": 0,
    "windGust": null,
    "visibility": 10,
    "temperatureC": 8,
    "dewPointC": -1,
    "cloudCeiling": 99999,
    "altimeter": "A3012",
    "timestamp": "2026-03-25T07:53:00+00:00",
    "station": "KCPS"
  },
  "kstl": {
    "metar": "KSTL 250751Z 15009KT 10SM OVC080 12/M02 A3012 RMK AO2 SLP195 T01221022",
    "windDirection": 150,
    "windSpeed": 9,
    "windGust": null,
    "visibility": 10,
    "temperatureC": 12,
    "dewPointC": -2,
    "cloudCeiling": 8000,
    "altimeter": "A3012",
    "timestamp": "2026-03-25T07:51:00+00:00",
    "station": "KSTL"
  }
}