{
  "lastUpdated": "2026-05-13T13:01:51.467008+00:00",
  "kcps": {
    "metar": "KCPS 131253Z 30006KT 10SM CLR 19/07 A3004 RMK AO2 SLP169 T01940067 $",
    "windDirection": 300,
    "windSpeed": 6,
    "windGust": null,
    "visibility": 10,
    "temperatureC": 19,
    "dewPointC": 7,
    "cloudCeiling": 99999,
    "altimeter": "A3004",
    "timestamp": "2026-05-13T12:53:00+00:00",
    "station": "KCPS"
  },
  "kstl": {
    "metar": "KSTL 131251Z 29008KT 10SM CLR 18/07 A3005 RMK AO2 SLP167 T01780072 $",
    "windDirection": 290,
    "windSpeed": 8,
    "windGust": null,
    "visibility": 10,
    "temperatureC": 18,
    "dewPointC": 7,
    "cloudCeiling": 99999,
    "altimeter": "A3005",
    "timestamp": "2026-05-13T12:51:00+00:00",
    "station": "KSTL"
  }
}