{
  "lastUpdated": "2026-04-19T10:47:16.336832+00:00",
  "kcps": {
    "metar": "KCPS 190953Z AUTO 26007KT 10SM CLR 03/02 A3022 RMK AO2 SLP235 T00330022 $",
    "windDirection": 260,
    "windSpeed": 7,
    "windGust": null,
    "visibility": 10,
    "temperatureC": 3,
    "dewPointC": 2,
    "cloudCeiling": 99999,
    "altimeter": "A3022",
    "timestamp": "2026-04-19T09:53:00+00:00",
    "station": "KCPS"
  },
  "kstl": {
    "metar": "KSTL 190951Z 25004KT 10SM FEW100 06/00 A3022 RMK AO2 SLP235 T00610000 $",
    "windDirection": 250,
    "windSpeed": 4,
    "windGust": null,
    "visibility": 10,
    "temperatureC": 6,
    "dewPointC": 0,
    "cloudCeiling": null,
    "altimeter": "A3022",
    "timestamp": "2026-04-19T09:51:00+00:00",
    "station": "KSTL"
  }
}