{
  "lastUpdated": "2026-05-25T08:28:30.444684+00:00",
  "kcps": {
    "metar": "KCPS 250753Z AUTO 00000KT 10SM CLR 13/13 A3007 RMK AO2 SLP179 T01330128 $",
    "windDirection": 0,
    "windSpeed": 0,
    "windGust": null,
    "visibility": 10,
    "temperatureC": 13,
    "dewPointC": 13,
    "cloudCeiling": 99999,
    "altimeter": "A3007",
    "timestamp": "2026-05-25T07:53:00+00:00",
    "station": "KCPS"
  },
  "kstl": {
    "metar": "KSTL 250751Z 00000KT 10SM CLR 17/12 A3008 RMK AO2 SLP177 T01670122 $",
    "windDirection": 0,
    "windSpeed": 0,
    "windGust": null,
    "visibility": 10,
    "temperatureC": 17,
    "dewPointC": 12,
    "cloudCeiling": 99999,
    "altimeter": "A3008",
    "timestamp": "2026-05-25T07:51:00+00:00",
    "station": "KSTL"
  }
}