{
  "lastUpdated": "2026-05-07T14:35:51.105465+00:00",
  "kcps": {
    "metar": "KCPS 071353Z 24004KT 10SM CLR 12/04 A3007 RMK AO2 SLP181 T01170044 $",
    "windDirection": 240,
    "windSpeed": 4,
    "windGust": null,
    "visibility": 10,
    "temperatureC": 12,
    "dewPointC": 4,
    "cloudCeiling": 99999,
    "altimeter": "A3007",
    "timestamp": "2026-05-07T13:53:00+00:00",
    "station": "KCPS"
  },
  "kstl": {
    "metar": "KSTL 071351Z 20008KT 10SM FEW140 13/02 A3006 RMK AO2 SLP180 T01330022 $",
    "windDirection": 200,
    "windSpeed": 8,
    "windGust": null,
    "visibility": 10,
    "temperatureC": 13,
    "dewPointC": 2,
    "cloudCeiling": null,
    "altimeter": "A3006",
    "timestamp": "2026-05-07T13:51:00+00:00",
    "station": "KSTL"
  }
}