{
  "lastUpdated": "2025-11-18T09:22:02.205947+00:00",
  "kcps": {
    "metar": "KCPS 180911Z 15005KT 10SM SCT026 BKN048 13/00 A2985 RMK AO2 T01280000",
    "windDirection": 150,
    "windSpeed": 5,
    "windGust": null,
    "visibility": 10,
    "temperatureC": 13,
    "dewPointC": 0,
    "cloudCeiling": 4800,
    "altimeter": "A2985",
    "timestamp": "2025-11-18T09:11:00+00:00",
    "station": "KCPS"
  },
  "kstl": {
    "metar": "KSTL 180851Z 12007KT 10SM FEW048 BKN110 11/02 A2985 RMK AO2 SLP105 T01060022 58024 $",
    "windDirection": 120,
    "windSpeed": 7,
    "windGust": null,
    "visibility": 10,
    "temperatureC": 11,
    "dewPointC": 2,
    "cloudCeiling": 11000,
    "altimeter": "A2985",
    "timestamp": "2025-11-18T08:51:00+00:00",
    "station": "KSTL"
  }
}