{
  "lastUpdated": "2025-12-04T05:02:22.098047+00:00",
  "kcps": {
    "metar": "KCPS 040453Z AUTO 36011KT 9SM OVC016 02/M01 A3023 RMK AO2 SLP238 T00171006 $",
    "windDirection": 360,
    "windSpeed": 11,
    "windGust": null,
    "visibility": 9,
    "temperatureC": 2,
    "dewPointC": -1,
    "cloudCeiling": 1600,
    "altimeter": "A3023",
    "timestamp": "2025-12-04T04:53:00+00:00",
    "station": "KCPS"
  },
  "kstl": {
    "metar": "KSTL 040451Z 35011KT 7SM OVC010 01/M02 A3023 RMK AO2 SLP249 T00061017 $",
    "windDirection": 350,
    "windSpeed": 11,
    "windGust": null,
    "visibility": 7,
    "temperatureC": 1,
    "dewPointC": -2,
    "cloudCeiling": 1000,
    "altimeter": "A3023",
    "timestamp": "2025-12-04T04:51:00+00:00",
    "station": "KSTL"
  }
}