{
  "lastUpdated": "2025-12-11T17:22:41.213450+00:00",
  "kcps": {
    "metar": "KCPS 111653Z VRB04KT 10SM OVC090 01/M06 A3006 RMK AO2 SLP184 T00061056 $",
    "windDirection": null,
    "windSpeed": null,
    "windGust": null,
    "visibility": 10,
    "temperatureC": 1,
    "dewPointC": -6,
    "cloudCeiling": 9000,
    "altimeter": "A3006",
    "timestamp": "2025-12-11T16:53:00+00:00",
    "station": "KCPS"
  },
  "kstl": {
    "metar": "KSTL 111651Z VRB04KT 10SM OVC085 01/M06 A3005 RMK AO2 SLP186 T00061056 $",
    "windDirection": null,
    "windSpeed": null,
    "windGust": null,
    "visibility": 10,
    "temperatureC": 1,
    "dewPointC": -6,
    "cloudCeiling": 8500,
    "altimeter": "A3005",
    "timestamp": "2025-12-11T16:51:00+00:00",
    "station": "KSTL"
  }
}