{
  "lastUpdated": "2026-01-01T11:33:17.975765+00:00",
  "kcps": {
    "metar": "KCPS 011053Z AUTO 00000KT 5SM BR CLR M06/M06 A2999 RMK AO2 SLP158 I1000 T10561061 $",
    "windDirection": 0,
    "windSpeed": 0,
    "windGust": null,
    "visibility": 5,
    "temperatureC": -6,
    "dewPointC": -6,
    "cloudCeiling": 99999,
    "altimeter": "A2999",
    "timestamp": "2026-01-01T10:53:00+00:00",
    "station": "KCPS"
  },
  "kstl": {
    "metar": "KSTL 011051Z 00000KT 10SM CLR M03/M04 A2998 RMK AO2 SLP164 T10281039 $",
    "windDirection": 0,
    "windSpeed": 0,
    "windGust": null,
    "visibility": 10,
    "temperatureC": -3,
    "dewPointC": -4,
    "cloudCeiling": 99999,
    "altimeter": "A2998",
    "timestamp": "2026-01-01T10:51:00+00:00",
    "station": "KSTL"
  }
}