{
  "lastUpdated": "2026-04-17T14:24:58.497353+00:00",
  "kcps": {
    "metar": "KCPS 171353Z 14005KT 10SM CLR 19/16 A2992 RMK AO2 SLP128 T01940161 $",
    "windDirection": 140,
    "windSpeed": 5,
    "windGust": null,
    "visibility": 10,
    "temperatureC": 19,
    "dewPointC": 16,
    "cloudCeiling": 99999,
    "altimeter": "A2992",
    "timestamp": "2026-04-17T13:53:00+00:00",
    "station": "KCPS"
  },
  "kstl": {
    "metar": "KSTL 171351Z 19010G18KT 10SM FEW045 SCT250 21/16 A2991 RMK AO2 SLP119 T02110161 $",
    "windDirection": 190,
    "windSpeed": 10,
    "windGust": 18,
    "visibility": 10,
    "temperatureC": 21,
    "dewPointC": 16,
    "cloudCeiling": null,
    "altimeter": "A2991",
    "timestamp": "2026-04-17T13:51:00+00:00",
    "station": "KSTL"
  }
}