{
  "lastUpdated": "2026-03-22T00:10:33.774137+00:00",
  "kcps": {
    "metar": "KCPS 212353Z 15005KT 10SM CLR 26/12 A2975 RMK AO2 SLP071 T02610122 10300 20261 56010 $",
    "windDirection": 150,
    "windSpeed": 5,
    "windGust": null,
    "visibility": 10,
    "temperatureC": 26,
    "dewPointC": 12,
    "cloudCeiling": 99999,
    "altimeter": "A2975",
    "timestamp": "2026-03-21T23:53:00+00:00",
    "station": "KCPS"
  },
  "kstl": {
    "metar": "KSTL 212351Z 16010KT 10SM FEW250 28/10 A2975 RMK AO2 SLP068 T02830100 10306 20267 56012 $",
    "windDirection": 160,
    "windSpeed": 10,
    "windGust": null,
    "visibility": 10,
    "temperatureC": 28,
    "dewPointC": 10,
    "cloudCeiling": null,
    "altimeter": "A2975",
    "timestamp": "2026-03-21T23:51:00+00:00",
    "station": "KSTL"
  }
}