{
  "lastUpdated": "2026-01-13T06:23:21.137881+00:00",
  "kcps": {
    "metar": "KCPS 130553Z AUTO 18003KT 10SM CLR 01/M03 A3008 RMK AO2 SLP189 T00061033 10100 20000 401501067 58013 $",
    "windDirection": 180,
    "windSpeed": 3,
    "windGust": null,
    "visibility": 10,
    "temperatureC": 1,
    "dewPointC": -3,
    "cloudCeiling": 99999,
    "altimeter": "A3008",
    "timestamp": "2026-01-13T05:53:00+00:00",
    "station": "KCPS"
  },
  "kstl": {
    "metar": "KSTL 130551Z 21008KT 10SM FEW250 07/M03 A3006 RMK AO2 SLP182 T00721028 10094 20028 401441028 58021 $",
    "windDirection": 210,
    "windSpeed": 8,
    "windGust": null,
    "visibility": 10,
    "temperatureC": 7,
    "dewPointC": -3,
    "cloudCeiling": null,
    "altimeter": "A3006",
    "timestamp": "2026-01-13T05:51:00+00:00",
    "station": "KSTL"
  }
}