{
  "lastUpdated": "2026-06-04T08:37:17.348776+00:00",
  "kcps": {
    "metar": "KCPS 040753Z AUTO 00000KT 10SM CLR 15/13 A3015 RMK AO2 SLP205 T01500133 $",
    "windDirection": 0,
    "windSpeed": 0,
    "windGust": null,
    "visibility": 10,
    "temperatureC": 15,
    "dewPointC": 13,
    "cloudCeiling": 99999,
    "altimeter": "A3015",
    "timestamp": "2026-06-04T07:53:00+00:00",
    "station": "KCPS"
  },
  "kstl": {
    "metar": "KSTL 040751Z 00000KT 10SM BKN250 19/11 A3015 RMK AO2 SLP200 T01890111 $",
    "windDirection": 0,
    "windSpeed": 0,
    "windGust": null,
    "visibility": 10,
    "temperatureC": 19,
    "dewPointC": 11,
    "cloudCeiling": 25000,
    "altimeter": "A3015",
    "timestamp": "2026-06-04T07:51:00+00:00",
    "station": "KSTL"
  }
}