{
  "lastUpdated": "2025-10-14T20:34:21.064428+00:00",
  "kcps": {
    "metar": "KCPS 141953Z VRB03KT 10SM CLR 28/11 A3021 RMK AO2 SLP226 T02830111",
    "windDirection": null,
    "windSpeed": null,
    "windGust": null,
    "visibility": 10,
    "temperatureC": 28,
    "dewPointC": 11,
    "cloudCeiling": 99999,
    "altimeter": "A3021",
    "timestamp": "2025-10-14T19:53:00+00:00",
    "station": "KCPS"
  },
  "kstl": {
    "metar": "KSTL 141951Z 18005KT 10SM BKN160 28/12 A3022 RMK AO2 SLP223 T02780117 $",
    "windDirection": 180,
    "windSpeed": 5,
    "windGust": null,
    "visibility": 10,
    "temperatureC": 28,
    "dewPointC": 12,
    "cloudCeiling": 16000,
    "altimeter": "A3022",
    "timestamp": "2025-10-14T19:51:00+00:00",
    "station": "KSTL"
  }
}