{
  "lastUpdated": "2025-11-24T10:38:17.972147+00:00",
  "kcps": {
    "metar": "KCPS 241012Z AUTO 15006KT 1 1/4SM BR OVC003 08/07 A3012 RMK AO2 T00780072 $",
    "windDirection": 150,
    "windSpeed": 6,
    "windGust": null,
    "visibility": 0.25,
    "temperatureC": 8,
    "dewPointC": 7,
    "cloudCeiling": 300,
    "altimeter": "A3012",
    "timestamp": "2025-11-24T10:12:00+00:00",
    "station": "KCPS"
  },
  "kstl": {
    "metar": "KSTL 240951Z 13009KT 1/2SM R30R/4000V5500FT FG OVC001 08/08 A3012 RMK AO2 SLP202 T00780078 $",
    "windDirection": 130,
    "windSpeed": 9,
    "windGust": null,
    "visibility": 0.5,
    "temperatureC": 8,
    "dewPointC": 8,
    "cloudCeiling": 100,
    "altimeter": "A3012",
    "timestamp": "2025-11-24T09:51:00+00:00",
    "station": "KSTL"
  }
}