{
  "lastUpdated": "2025-11-22T08:48:19.651795+00:00",
  "kcps": {
    "metar": "KCPS 220753Z AUTO 01008KT 5SM BR OVC006 09/09 A3000 RMK AO2 SLP160 T00940089",
    "windDirection": 10,
    "windSpeed": 8,
    "windGust": null,
    "visibility": 5,
    "temperatureC": 9,
    "dewPointC": 9,
    "cloudCeiling": 600,
    "altimeter": "A3000",
    "timestamp": "2025-11-22T07:53:00+00:00",
    "station": "KCPS"
  },
  "kstl": {
    "metar": "KSTL 220818Z 07006KT 9SM SCT008 OVC021 09/08 A3000 RMK AO2 T00940083 $",
    "windDirection": 70,
    "windSpeed": 6,
    "windGust": null,
    "visibility": 9,
    "temperatureC": 9,
    "dewPointC": 8,
    "cloudCeiling": 2100,
    "altimeter": "A3000",
    "timestamp": "2025-11-22T08:18:00+00:00",
    "station": "KSTL"
  }
}