{
  "lastUpdated": "2026-01-07T09:22:59.599154+00:00",
  "kcps": {
    "metar": "KCPS 070853Z AUTO 00000KT 8SM CLR 00/M01 A2990 RMK AO2 SLP126 T00001011 51006 $",
    "windDirection": 0,
    "windSpeed": 0,
    "windGust": null,
    "visibility": 8,
    "temperatureC": 0,
    "dewPointC": -1,
    "cloudCeiling": 99999,
    "altimeter": "A2990",
    "timestamp": "2026-01-07T08:53:00+00:00",
    "station": "KCPS"
  },
  "kstl": {
    "metar": "KSTL 070851Z 00000KT 10SM CLR 03/01 A2990 RMK AO2 SLP126 T00280006 51004 $",
    "windDirection": 0,
    "windSpeed": 0,
    "windGust": null,
    "visibility": 10,
    "temperatureC": 3,
    "dewPointC": 1,
    "cloudCeiling": 99999,
    "altimeter": "A2990",
    "timestamp": "2026-01-07T08:51:00+00:00",
    "station": "KSTL"
  }
}