{
  "lastUpdated": "2026-01-04T12:44:13.455155+00:00",
  "kcps": {
    "metar": "KCPS 041153Z AUTO 00000KT 8SM CLR M07/M08 A3021 RMK AO2 SLP235 I1000 I6000 T10671078 11044 21067 53016 $",
    "windDirection": 0,
    "windSpeed": 0,
    "windGust": null,
    "visibility": 8,
    "temperatureC": -7,
    "dewPointC": -8,
    "cloudCeiling": 99999,
    "altimeter": "A3021",
    "timestamp": "2026-01-04T11:53:00+00:00",
    "station": "KCPS"
  },
  "kstl": {
    "metar": "KSTL 041151Z 29004KT 10SM CLR M05/M07 A3020 RMK AO2 SLP240 T10501072 11017 21056 53016 $",
    "windDirection": 290,
    "windSpeed": 4,
    "windGust": null,
    "visibility": 10,
    "temperatureC": -5,
    "dewPointC": -7,
    "cloudCeiling": 99999,
    "altimeter": "A3020",
    "timestamp": "2026-01-04T11:51:00+00:00",
    "station": "KSTL"
  }
}