{
  "lastUpdated": "2026-01-03T18:51:43.608104+00:00",
  "kcps": {
    "metar": "KCPS 031753Z 33005KT 10SM CLR 02/M05 A3010 RMK AO2 SLP194 T00171050 10022 21017 51012 $",
    "windDirection": 330,
    "windSpeed": 5,
    "windGust": null,
    "visibility": 10,
    "temperatureC": 2,
    "dewPointC": -5,
    "cloudCeiling": 99999,
    "altimeter": "A3010",
    "timestamp": "2026-01-03T17:53:00+00:00",
    "station": "KCPS"
  },
  "kstl": {
    "metar": "KSTL 031751Z 34009KT 10SM FEW110 SCT250 01/M06 A3010 RMK AO2 SLP203 T00111061 10017 21022 51013 $",
    "windDirection": 340,
    "windSpeed": 9,
    "windGust": null,
    "visibility": 10,
    "temperatureC": 1,
    "dewPointC": -6,
    "cloudCeiling": null,
    "altimeter": "A3010",
    "timestamp": "2026-01-03T17:51:00+00:00",
    "station": "KSTL"
  }
}