{
  "lastUpdated": "2026-04-30T20:37:23.686646+00:00",
  "kcps": {
    "metar": "KCPS 301953Z 28005KT 10SM CLR 18/01 A3002 RMK AO2 SLP166 T01780011 $",
    "windDirection": 280,
    "windSpeed": 5,
    "windGust": null,
    "visibility": 10,
    "temperatureC": 18,
    "dewPointC": 1,
    "cloudCeiling": 99999,
    "altimeter": "A3002",
    "timestamp": "2026-04-30T19:53:00+00:00",
    "station": "KCPS"
  },
  "kstl": {
    "metar": "KSTL 301951Z VRB05KT 10SM FEW070 BKN095 BKN250 18/M01 A3002 RMK AO2 SLP167 T01831006",
    "windDirection": null,
    "windSpeed": null,
    "windGust": null,
    "visibility": 10,
    "temperatureC": 18,
    "dewPointC": -1,
    "cloudCeiling": 9500,
    "altimeter": "A3002",
    "timestamp": "2026-04-30T19:51:00+00:00",
    "station": "KSTL"
  }
}