{
  "lastUpdated": "2025-10-27T03:11:19.386305+00:00",
  "kcps": {
    "metar": "KCPS 270300Z AUTO 08010KT 10SM OVC035 11/09 A3012 RMK AO2 T01110094 $",
    "windDirection": 80,
    "windSpeed": 10,
    "windGust": null,
    "visibility": 10,
    "temperatureC": 11,
    "dewPointC": 9,
    "cloudCeiling": 3500,
    "altimeter": "A3012",
    "timestamp": "2025-10-27T03:00:00+00:00",
    "station": "KCPS"
  },
  "kstl": {
    "metar": "KSTL 270251Z COR 09011KT 9SM -RA FEW008 OVC033 11/09 A3013 RMK AO2 SLP203 P0000 60016 T01110094 58006 $",
    "windDirection": 90,
    "windSpeed": 11,
    "windGust": null,
    "visibility": 9,
    "temperatureC": 11,
    "dewPointC": 9,
    "cloudCeiling": 3300,
    "altimeter": "A3013",
    "timestamp": "2025-10-27T02:51:00+00:00",
    "station": "KSTL"
  }
}