{
  "lastUpdated": "2026-05-03T23:13:33.806266+00:00",
  "kcps": {
    "metar": "KCPS 032253Z VRB05G15KT 10SM CLR 26/05 A2980 RMK AO2 SLP089 T02560050 $",
    "windDirection": null,
    "windSpeed": null,
    "windGust": null,
    "visibility": 10,
    "temperatureC": 26,
    "dewPointC": 5,
    "cloudCeiling": 99999,
    "altimeter": "A2980",
    "timestamp": "2026-05-03T22:53:00+00:00",
    "station": "KCPS"
  },
  "kstl": {
    "metar": "KSTL 032251Z 23014G20KT 10SM FEW060 FEW120 BKN250 25/06 A2980 RMK AO2 SLP089 T02500061 $",
    "windDirection": 230,
    "windSpeed": 14,
    "windGust": 20,
    "visibility": 10,
    "temperatureC": 25,
    "dewPointC": 6,
    "cloudCeiling": 25000,
    "altimeter": "A2980",
    "timestamp": "2026-05-03T22:51:00+00:00",
    "station": "KSTL"
  }
}