{
  "lastUpdated": "2025-11-05T12:03:03.665023+00:00",
  "kcps": {
    "metar": "KCPS 051153Z AUTO 22007KT 10SM CLR 14/08 A3000 RMK AO2 SLP157 T01390078 10161 20139 55000 TSNO",
    "windDirection": 220,
    "windSpeed": 7,
    "windGust": null,
    "visibility": 10,
    "temperatureC": 14,
    "dewPointC": 8,
    "cloudCeiling": 99999,
    "altimeter": "A3000",
    "timestamp": "2025-11-05T11:53:00+00:00",
    "station": "KCPS"
  },
  "kstl": {
    "metar": "KSTL 051151Z 24014KT 10SM BKN250 15/07 A2999 RMK AO2 SLP151 T01500072 10156 20139 58001 $",
    "windDirection": 240,
    "windSpeed": 14,
    "windGust": null,
    "visibility": 10,
    "temperatureC": 15,
    "dewPointC": 7,
    "cloudCeiling": 25000,
    "altimeter": "A2999",
    "timestamp": "2025-11-05T11:51:00+00:00",
    "station": "KSTL"
  }
}