{
  "lastUpdated": "2026-01-18T11:01:59.375217+00:00",
  "kcps": {
    "metar": "KCPS 181053Z 25005KT 10SM CLR M11/M17 A3021 RMK AO2 SLP238 T11111167 $",
    "windDirection": 250,
    "windSpeed": 5,
    "windGust": null,
    "visibility": 10,
    "temperatureC": -11,
    "dewPointC": -17,
    "cloudCeiling": 99999,
    "altimeter": "A3021",
    "timestamp": "2026-01-18T10:53:00+00:00",
    "station": "KCPS"
  },
  "kstl": {
    "metar": "KSTL 181051Z 22008KT 10SM OVC027 M11/M16 A3019 RMK AO2 SLP240 T11061156 $",
    "windDirection": 220,
    "windSpeed": 8,
    "windGust": null,
    "visibility": 10,
    "temperatureC": -11,
    "dewPointC": -16,
    "cloudCeiling": 2700,
    "altimeter": "A3019",
    "timestamp": "2026-01-18T10:51:00+00:00",
    "station": "KSTL"
  }
}