{
  "lastUpdated": "2026-03-27T11:48:08.427738+00:00",
  "kcps": {
    "metar": "KCPS 271100Z AUTO 02028G38KT 4SM +RA BR SCT014 BKN055 OVC095 04/03 A3009 RMK AO2 PK WND 01038/1059 PRESFR P0002 T00440028 $",
    "windDirection": 20,
    "windSpeed": 28,
    "windGust": 38,
    "visibility": 4,
    "temperatureC": 4,
    "dewPointC": 3,
    "cloudCeiling": 5500,
    "altimeter": "A3009",
    "timestamp": "2026-03-27T11:00:00+00:00",
    "station": "KCPS"
  },
  "kstl": {
    "metar": "KSTL 271051Z 02019G27KT 10SM -RA FEW015 BKN030 OVC110 04/02 A3017 RMK AO2 PK WND 02027/1048 SLP211 P0010 T00440022 $",
    "windDirection": 20,
    "windSpeed": 19,
    "windGust": 27,
    "visibility": 10,
    "temperatureC": 4,
    "dewPointC": 2,
    "cloudCeiling": 3000,
    "altimeter": "A3017",
    "timestamp": "2026-03-27T10:51:00+00:00",
    "station": "KSTL"
  }
}