{
  "lastUpdated": "2026-02-07T19:48:52.065381+00:00",
  "kcps": {
    "metar": "KCPS 071853Z 12006KT 10SM CLR 03/M08 A3038 RMK AO2 SLP292 T00281078 $",
    "windDirection": 120,
    "windSpeed": 6,
    "windGust": null,
    "visibility": 10,
    "temperatureC": 3,
    "dewPointC": -8,
    "cloudCeiling": 99999,
    "altimeter": "A3038",
    "timestamp": "2026-02-07T18:53:00+00:00",
    "station": "KCPS"
  },
  "kstl": {
    "metar": "KSTL 071851Z 10008KT 10SM FEW250 02/M09 A3038 RMK AO2 SLP299 T00171089 $",
    "windDirection": 100,
    "windSpeed": 8,
    "windGust": null,
    "visibility": 10,
    "temperatureC": 2,
    "dewPointC": -9,
    "cloudCeiling": null,
    "altimeter": "A3038",
    "timestamp": "2026-02-07T18:51:00+00:00",
    "station": "KSTL"
  }
}