{
  "lastUpdated": "2026-02-01T10:41:07.280591+00:00",
  "kcps": {
    "metar": "KCPS 010953Z AUTO 25003KT 10SM CLR M13/M17 A3045 RMK AO2 SLP319 T11281167 $",
    "windDirection": 250,
    "windSpeed": 3,
    "windGust": null,
    "visibility": 10,
    "temperatureC": -13,
    "dewPointC": -17,
    "cloudCeiling": 99999,
    "altimeter": "A3045",
    "timestamp": "2026-02-01T09:53:00+00:00",
    "station": "KCPS"
  },
  "kstl": {
    "metar": "KSTL 010951Z 25003KT 10SM CLR M13/M17 A3044 RMK AO2 SLP327 T11331172 $",
    "windDirection": 250,
    "windSpeed": 3,
    "windGust": null,
    "visibility": 10,
    "temperatureC": -13,
    "dewPointC": -17,
    "cloudCeiling": 99999,
    "altimeter": "A3044",
    "timestamp": "2026-02-01T09:51:00+00:00",
    "station": "KSTL"
  }
}