{
  "lastUpdated": "2026-01-06T15:49:10.720819+00:00",
  "kcps": {
    "metar": "KCPS 061453Z 25005KT 10SM CLR 11/08 A2973 RMK AO2 SLP066 T01060083 51014",
    "windDirection": 250,
    "windSpeed": 5,
    "windGust": null,
    "visibility": 10,
    "temperatureC": 11,
    "dewPointC": 8,
    "cloudCeiling": 99999,
    "altimeter": "A2973",
    "timestamp": "2026-01-06T14:53:00+00:00",
    "station": "KCPS"
  },
  "kstl": {
    "metar": "KSTL 061451Z 26014KT 10SM SCT018 BKN250 11/08 A2974 RMK AO2 SLP070 T01110078 51017 $",
    "windDirection": 260,
    "windSpeed": 14,
    "windGust": null,
    "visibility": 10,
    "temperatureC": 11,
    "dewPointC": 8,
    "cloudCeiling": 25000,
    "altimeter": "A2974",
    "timestamp": "2026-01-06T14:51:00+00:00",
    "station": "KSTL"
  }
}