{
  "lastUpdated": "2026-02-14T15:03:44.050827+00:00",
  "kcps": {
    "metar": "KCPS 141453Z 17005KT 10SM BKN080 08/01 A3006 RMK AO2 SLP181 T00830006 50000 $",
    "windDirection": 170,
    "windSpeed": 5,
    "windGust": null,
    "visibility": 10,
    "temperatureC": 8,
    "dewPointC": 1,
    "cloudCeiling": 8000,
    "altimeter": "A3006",
    "timestamp": "2026-02-14T14:53:00+00:00",
    "station": "KCPS"
  },
  "kstl": {
    "metar": "KSTL 141451Z 00000KT 10SM BKN080 OVC120 09/00 A3006 RMK AO2 SLP181 T00940000 50002 $",
    "windDirection": 0,
    "windSpeed": 0,
    "windGust": null,
    "visibility": 10,
    "temperatureC": 9,
    "dewPointC": 0,
    "cloudCeiling": 8000,
    "altimeter": "A3006",
    "timestamp": "2026-02-14T14:51:00+00:00",
    "station": "KSTL"
  }
}