{
  "lastUpdated": "2025-11-23T07:46:39.132974+00:00",
  "kcps": {
    "metar": "KCPS 230653Z 26006KT 9SM OVC008 08/07 A3016 RMK AO2 SLP212 T00830072",
    "windDirection": 260,
    "windSpeed": 6,
    "windGust": null,
    "visibility": 9,
    "temperatureC": 8,
    "dewPointC": 7,
    "cloudCeiling": 800,
    "altimeter": "A3016",
    "timestamp": "2025-11-23T06:53:00+00:00",
    "station": "KCPS"
  },
  "kstl": {
    "metar": "KSTL 230651Z 26009KT 8SM BKN005 08/07 A3016 RMK AO2 SLP213 T00830072 $",
    "windDirection": 260,
    "windSpeed": 9,
    "windGust": null,
    "visibility": 8,
    "temperatureC": 8,
    "dewPointC": 7,
    "cloudCeiling": 500,
    "altimeter": "A3016",
    "timestamp": "2025-11-23T06:51:00+00:00",
    "station": "KSTL"
  }
}