{
  "lastUpdated": "2026-03-22T07:27:56.906879+00:00",
  "kcps": {
    "metar": "KCPS 220653Z AUTO 00000KT 10SM CLR 16/13 A2972 RMK AO2 SLP059 T01560128 $",
    "windDirection": 0,
    "windSpeed": 0,
    "windGust": null,
    "visibility": 10,
    "temperatureC": 16,
    "dewPointC": 13,
    "cloudCeiling": 99999,
    "altimeter": "A2972",
    "timestamp": "2026-03-22T06:53:00+00:00",
    "station": "KCPS"
  },
  "kstl": {
    "metar": "KSTL 220651Z 21006KT 10SM CLR 21/13 A2972 RMK AO2 SLP051 T02110133 $",
    "windDirection": 210,
    "windSpeed": 6,
    "windGust": null,
    "visibility": 10,
    "temperatureC": 21,
    "dewPointC": 13,
    "cloudCeiling": 99999,
    "altimeter": "A2972",
    "timestamp": "2026-03-22T06:51:00+00:00",
    "station": "KSTL"
  }
}