{
  "lastUpdated": "2026-01-29T18:45:22.952325+00:00",
  "kcps": {
    "metar": "KCPS 291753Z 03005KT 10SM CLR M04/M13 A3030 RMK AO2 SLP266 T10391133 11033 21072 58004 $",
    "windDirection": 30,
    "windSpeed": 5,
    "windGust": null,
    "visibility": 10,
    "temperatureC": -4,
    "dewPointC": -13,
    "cloudCeiling": 99999,
    "altimeter": "A3030",
    "timestamp": "2026-01-29T17:53:00+00:00",
    "station": "KCPS"
  },
  "kstl": {
    "metar": "KSTL 291751Z 03004KT 10SM FEW070 FEW130 BKN200 BKN250 M04/M14 A3030 RMK AO2 SLP276 4/004 933006 T10441139 11044 21072 58000 $",
    "windDirection": 30,
    "windSpeed": 4,
    "windGust": null,
    "visibility": 10,
    "temperatureC": -4,
    "dewPointC": -14,
    "cloudCeiling": 20000,
    "altimeter": "A3030",
    "timestamp": "2026-01-29T17:51:00+00:00",
    "station": "KSTL"
  }
}