{
  "lastUpdated": "2026-04-27T13:02:15.359475+00:00",
  "kcps": {
    "metar": "KCPS 271253Z 15011G20KT 10SM SCT028 BKN044 18/16 A2974 RMK AO2 LTG DSNT NE RAE02 SLP068 P0000 T01780156 $",
    "windDirection": 150,
    "windSpeed": 11,
    "windGust": 20,
    "visibility": 10,
    "temperatureC": 18,
    "dewPointC": 16,
    "cloudCeiling": 4400,
    "altimeter": "A2974",
    "timestamp": "2026-04-27T12:53:00+00:00",
    "station": "KCPS"
  },
  "kstl": {
    "metar": "KSTL 271251Z 15015KT 10SM FEW028 BKN047 OVC110 18/16 A2973 RMK AO2 RAB22E35 SLP059 P0001 T01830156 $",
    "windDirection": 150,
    "windSpeed": 15,
    "windGust": null,
    "visibility": 10,
    "temperatureC": 18,
    "dewPointC": 16,
    "cloudCeiling": 4700,
    "altimeter": "A2973",
    "timestamp": "2026-04-27T12:51:00+00:00",
    "station": "KSTL"
  }
}