{
  "lastUpdated": "2026-06-06T01:15:14.359866+00:00",
  "kcps": {
    "metar": "KCPS 060053Z 19006KT 10SM CLR 28/21 A2990 RMK AO2 SLP122 T02780206 $",
    "windDirection": 190,
    "windSpeed": 6,
    "windGust": null,
    "visibility": 10,
    "temperatureC": 28,
    "dewPointC": 21,
    "cloudCeiling": 99999,
    "altimeter": "A2990",
    "timestamp": "2026-06-06T00:53:00+00:00",
    "station": "KCPS"
  },
  "kstl": {
    "metar": "KSTL 060051Z 20010KT 10SM FEW040 SCT150 BKN250 28/21 A2991 RMK AO2 SLP118 T02830206 $",
    "windDirection": 200,
    "windSpeed": 10,
    "windGust": null,
    "visibility": 10,
    "temperatureC": 28,
    "dewPointC": 21,
    "cloudCeiling": 25000,
    "altimeter": "A2991",
    "timestamp": "2026-06-06T00:51:00+00:00",
    "station": "KSTL"
  }
}