{
  "lastUpdated": "2025-12-14T05:21:44.611820+00:00",
  "kcps": {
    "metar": "KCPS 140515Z 32012KT 10SM BKN022 M12/M16 A3053 RMK AO2 T11171156 $",
    "windDirection": 320,
    "windSpeed": 12,
    "windGust": null,
    "visibility": 10,
    "temperatureC": -12,
    "dewPointC": -16,
    "cloudCeiling": 2200,
    "altimeter": "A3053",
    "timestamp": "2025-12-14T05:15:00+00:00",
    "station": "KCPS"
  },
  "kstl": {
    "metar": "KSTL 140451Z 33010G19KT 10SM FEW019 M12/M17 A3051 RMK AO2 SLP352 T11221167 $",
    "windDirection": 330,
    "windSpeed": 10,
    "windGust": 19,
    "visibility": 10,
    "temperatureC": -12,
    "dewPointC": -17,
    "cloudCeiling": null,
    "altimeter": "A3051",
    "timestamp": "2025-12-14T04:51:00+00:00",
    "station": "KSTL"
  }
}