{
  "lastUpdated": "2025-12-19T17:46:21.551392+00:00",
  "kcps": {
    "metar": "KCPS 191653Z 24005KT 10SM CLR M01/M11 A3010 RMK AO2 SLP197 T10061111",
    "windDirection": 240,
    "windSpeed": 5,
    "windGust": null,
    "visibility": 10,
    "temperatureC": -1,
    "dewPointC": -11,
    "cloudCeiling": 99999,
    "altimeter": "A3010",
    "timestamp": "2025-12-19T16:53:00+00:00",
    "station": "KCPS"
  },
  "kstl": {
    "metar": "KSTL 191651Z 27010KT 10SM FEW250 M01/M12 A3010 RMK AO2 SLP203 T10111117 $",
    "windDirection": 270,
    "windSpeed": 10,
    "windGust": null,
    "visibility": 10,
    "temperatureC": -1,
    "dewPointC": -12,
    "cloudCeiling": null,
    "altimeter": "A3010",
    "timestamp": "2025-12-19T16:51:00+00:00",
    "station": "KSTL"
  }
}