{
  "lastUpdated": "2026-02-10T05:57:26.414197+00:00",
  "kcps": {
    "metar": "KCPS 100553Z AUTO 16005KT 10SM CLR 05/02 A2996 RMK AO2 SLP146 T00500022 10094 20033 401441067 57007 $",
    "windDirection": 160,
    "windSpeed": 5,
    "windGust": null,
    "visibility": 10,
    "temperatureC": 5,
    "dewPointC": 2,
    "cloudCeiling": 99999,
    "altimeter": "A2996",
    "timestamp": "2026-02-10T05:53:00+00:00",
    "station": "KCPS"
  },
  "kstl": {
    "metar": "KSTL 100551Z 17005KT 10SM CLR 08/02 A2995 RMK AO2 SLP145 T00780022 10100 20078 401441044 56005 $",
    "windDirection": 170,
    "windSpeed": 5,
    "windGust": null,
    "visibility": 10,
    "temperatureC": 8,
    "dewPointC": 2,
    "cloudCeiling": 99999,
    "altimeter": "A2995",
    "timestamp": "2026-02-10T05:51:00+00:00",
    "station": "KSTL"
  }
}