{
  "lastUpdated": "2026-01-10T07:02:25.410414+00:00",
  "kcps": {
    "metar": "KCPS 100653Z AUTO 00000KT 10SM CLR 05/03 A3007 RMK AO2 SLP184 T00500033 $",
    "windDirection": 0,
    "windSpeed": 0,
    "windGust": null,
    "visibility": 10,
    "temperatureC": 5,
    "dewPointC": 3,
    "cloudCeiling": 99999,
    "altimeter": "A3007",
    "timestamp": "2026-01-10T06:53:00+00:00",
    "station": "KCPS"
  },
  "kstl": {
    "metar": "KSTL 100651Z 00000KT 10SM SCT150 OVC250 06/03 A3008 RMK AO2 SLP191 T00560033 $",
    "windDirection": 0,
    "windSpeed": 0,
    "windGust": null,
    "visibility": 10,
    "temperatureC": 6,
    "dewPointC": 3,
    "cloudCeiling": 25000,
    "altimeter": "A3008",
    "timestamp": "2026-01-10T06:51:00+00:00",
    "station": "KSTL"
  }
}