{
  "lastUpdated": "2025-11-24T21:02:33.015876+00:00",
  "kcps": {
    "metar": "KCPS 242053Z 11007KT 10SM FEW037 OVC070 11/08 A2994 RMK AO2 SLP140 T01110083 58027",
    "windDirection": 110,
    "windSpeed": 7,
    "windGust": null,
    "visibility": 10,
    "temperatureC": 11,
    "dewPointC": 8,
    "cloudCeiling": 7000,
    "altimeter": "A2994",
    "timestamp": "2025-11-24T20:53:00+00:00",
    "station": "KCPS"
  },
  "kstl": {
    "metar": "KSTL 242051Z 11010KT 10SM FEW015 OVC070 12/08 A2994 RMK AO2 SLP141 T01170083 58021 $",
    "windDirection": 110,
    "windSpeed": 10,
    "windGust": null,
    "visibility": 10,
    "temperatureC": 12,
    "dewPointC": 8,
    "cloudCeiling": 7000,
    "altimeter": "A2994",
    "timestamp": "2025-11-24T20:51:00+00:00",
    "station": "KSTL"
  }
}