{
  "lastUpdated": "2026-04-28T13:17:26.421331+00:00",
  "kcps": {
    "metar": "KCPS 281253Z 32007KT 10SM OVC028 14/10 A2999 RMK AO2 SLP155 T01440100 $",
    "windDirection": 320,
    "windSpeed": 7,
    "windGust": null,
    "visibility": 10,
    "temperatureC": 14,
    "dewPointC": 10,
    "cloudCeiling": 2800,
    "altimeter": "A2999",
    "timestamp": "2026-04-28T12:53:00+00:00",
    "station": "KCPS"
  },
  "kstl": {
    "metar": "KSTL 281251Z 31007KT 10SM BKN026 13/09 A3000 RMK AO2 SLP155 T01330094 $",
    "windDirection": 310,
    "windSpeed": 7,
    "windGust": null,
    "visibility": 10,
    "temperatureC": 13,
    "dewPointC": 9,
    "cloudCeiling": 2600,
    "altimeter": "A3000",
    "timestamp": "2026-04-28T12:51:00+00:00",
    "station": "KSTL"
  }
}