{
  "lastUpdated": "2026-03-26T14:53:52.458620+00:00",
  "kcps": {
    "metar": "KCPS 261353Z 22005KT 10SM CLR 23/14 A2983 RMK AO2 SLP099 T02280144 $",
    "windDirection": 220,
    "windSpeed": 5,
    "windGust": null,
    "visibility": 10,
    "temperatureC": 23,
    "dewPointC": 14,
    "cloudCeiling": 99999,
    "altimeter": "A2983",
    "timestamp": "2026-03-26T13:53:00+00:00",
    "station": "KCPS"
  },
  "kstl": {
    "metar": "KSTL 261451Z 24017G24KT 10SM FEW250 25/15 A2982 RMK AO2 PK WND 23027/1353 SLP088 T02500150 50001 $",
    "windDirection": 240,
    "windSpeed": 17,
    "windGust": 24,
    "visibility": 10,
    "temperatureC": 25,
    "dewPointC": 15,
    "cloudCeiling": null,
    "altimeter": "A2982",
    "timestamp": "2026-03-26T14:51:00+00:00",
    "station": "KSTL"
  }
}