{
  "lastUpdated": "2026-05-02T03:00:46.775963+00:00",
  "kcps": {
    "metar": "KCPS 020253Z 00000KT 10SM FEW055 BKN080 OVC110 12/04 A3005 RMK AO2 SLP174 T01220039 53019 $",
    "windDirection": 0,
    "windSpeed": 0,
    "windGust": null,
    "visibility": 10,
    "temperatureC": 12,
    "dewPointC": 4,
    "cloudCeiling": 8000,
    "altimeter": "A3005",
    "timestamp": "2026-05-02T02:53:00+00:00",
    "station": "KCPS"
  },
  "kstl": {
    "metar": "KSTL 020251Z 11004KT 10SM FEW080 BKN100 13/02 A3005 RMK AO2 RAB26E44 SLP174 P0000 60000 T01330022 53019",
    "windDirection": 110,
    "windSpeed": 4,
    "windGust": null,
    "visibility": 10,
    "temperatureC": 13,
    "dewPointC": 2,
    "cloudCeiling": 10000,
    "altimeter": "A3005",
    "timestamp": "2026-05-02T02:51:00+00:00",
    "station": "KSTL"
  }
}