{
  "lastUpdated": "2025-11-23T22:02:17.226050+00:00",
  "kcps": {
    "metar": "KCPS 232153Z 00000KT 3SM BR OVC009 10/08 A3018 RMK AO2 SLP221 T01000078",
    "windDirection": 0,
    "windSpeed": 0,
    "windGust": null,
    "visibility": 3,
    "temperatureC": 10,
    "dewPointC": 8,
    "cloudCeiling": 900,
    "altimeter": "A3018",
    "timestamp": "2025-11-23T21:53:00+00:00",
    "station": "KCPS"
  },
  "kstl": {
    "metar": "KSTL 232151Z 00000KT 8SM OVC009 10/08 A3017 RMK AO2 SLP220 T01000078 $",
    "windDirection": 0,
    "windSpeed": 0,
    "windGust": null,
    "visibility": 8,
    "temperatureC": 10,
    "dewPointC": 8,
    "cloudCeiling": 900,
    "altimeter": "A3017",
    "timestamp": "2025-11-23T21:51:00+00:00",
    "station": "KSTL"
  }
}