{
  "lastUpdated": "2025-11-09T18:36:34.279793+00:00",
  "kcps": {
    "metar": "KCPS 091753Z 31021G33KT 10SM -SN BKN043 03/M07 A3025 RMK AO2 PK WND 32033/1750 RAB09E18SNB52 SLP246 P0000 60000 T00331067 10050 20028 51019 $",
    "windDirection": 310,
    "windSpeed": 21,
    "windGust": 33,
    "visibility": 10,
    "temperatureC": 3,
    "dewPointC": -7,
    "cloudCeiling": 4300,
    "altimeter": "A3025",
    "timestamp": "2025-11-09T17:53:00+00:00",
    "station": "KCPS"
  },
  "kstl": {
    "metar": "KSTL 091751Z 31016G27KT 10SM BKN041 04/M07 A3025 RMK AO2 PK WND 31032/1712 SLP249 T00391067 10044 20022 51018 $",
    "windDirection": 310,
    "windSpeed": 16,
    "windGust": 27,
    "visibility": 10,
    "temperatureC": 4,
    "dewPointC": -7,
    "cloudCeiling": 4100,
    "altimeter": "A3025",
    "timestamp": "2025-11-09T17:51:00+00:00",
    "station": "KSTL"
  }
}