{
  "lastUpdated": "2026-01-17T20:21:49.966416+00:00",
  "kcps": {
    "metar": "KCPS 171953Z 33012KT 10SM FEW027 FEW034 BKN049 M06/M10 A3018 RMK AO2 SNE1856 SLP224 P0000 T10561100 $",
    "windDirection": 330,
    "windSpeed": 12,
    "windGust": null,
    "visibility": 10,
    "temperatureC": -6,
    "dewPointC": -10,
    "cloudCeiling": 4900,
    "altimeter": "A3018",
    "timestamp": "2026-01-17T19:53:00+00:00",
    "station": "KCPS"
  },
  "kstl": {
    "metar": "KSTL 172003Z 29014KT 9SM -SN BKN030 OVC050 M06/M12 A3017 RMK AO2 P0000 T10611122 $",
    "windDirection": 290,
    "windSpeed": 14,
    "windGust": null,
    "visibility": 9,
    "temperatureC": -6,
    "dewPointC": -12,
    "cloudCeiling": 3000,
    "altimeter": "A3017",
    "timestamp": "2026-01-17T20:03:00+00:00",
    "station": "KSTL"
  }
}