{
  "lastUpdated": "2025-10-14T02:53:35.067169+00:00",
  "kcps": {
    "metar": "KCPS 140153Z 00000KT 10SM FEW090 18/16 A3011 RMK AO2 SLP193 T01830161 $",
    "windDirection": 0,
    "windSpeed": 0,
    "windGust": null,
    "visibility": 10,
    "temperatureC": 18,
    "dewPointC": 16,
    "cloudCeiling": null,
    "altimeter": "A3011",
    "timestamp": "2025-10-14T01:53:00+00:00",
    "station": "KCPS"
  },
  "kstl": {
    "metar": "KSTL 140151Z 00000KT 10SM FEW080 SCT200 22/16 A3011 RMK AO2 SLP190 T02170156 $",
    "windDirection": 0,
    "windSpeed": 0,
    "windGust": null,
    "visibility": 10,
    "temperatureC": 22,
    "dewPointC": 16,
    "cloudCeiling": null,
    "altimeter": "A3011",
    "timestamp": "2025-10-14T01:51:00+00:00",
    "station": "KSTL"
  }
}