{
  "lastUpdated": "2026-01-31T02:35:41.447843+00:00",
  "kcps": {
    "metar": "KCPS 310153Z 35015G20KT 10SM OVC041 M09/M16 A3047 RMK AO2 SLP327 T10891156 $",
    "windDirection": 350,
    "windSpeed": 15,
    "windGust": 20,
    "visibility": 10,
    "temperatureC": -9,
    "dewPointC": -16,
    "cloudCeiling": 4100,
    "altimeter": "A3047",
    "timestamp": "2026-01-31T01:53:00+00:00",
    "station": "KCPS"
  },
  "kstl": {
    "metar": "KSTL 310151Z 35011KT 9SM -SN SCT034 BKN041 OVC075 M09/M14 A3047 RMK AO2 SNB08 SLP340 P0000 T10941144 $",
    "windDirection": 350,
    "windSpeed": 11,
    "windGust": null,
    "visibility": 9,
    "temperatureC": -9,
    "dewPointC": -14,
    "cloudCeiling": 4100,
    "altimeter": "A3047",
    "timestamp": "2026-01-31T01:51:00+00:00",
    "station": "KSTL"
  }
}