{
  "lastUpdated": "2025-12-09T16:51:58.555710+00:00",
  "kcps": {
    "metar": "KCPS 091453Z 21008G17KT 10SM CLR 05/M01 A2996 RMK AO2 SLP148 T00501011 55013",
    "windDirection": 210,
    "windSpeed": 8,
    "windGust": 17,
    "visibility": 10,
    "temperatureC": 5,
    "dewPointC": -1,
    "cloudCeiling": 99999,
    "altimeter": "A2996",
    "timestamp": "2025-12-09T14:53:00+00:00",
    "station": "KCPS"
  },
  "kstl": {
    "metar": "KSTL 091551Z 24012KT 10SM FEW050 SCT110 SCT250 07/00 A2993 RMK AO2 SLP142 T00720000 $",
    "windDirection": 240,
    "windSpeed": 12,
    "windGust": null,
    "visibility": 10,
    "temperatureC": 7,
    "dewPointC": 0,
    "cloudCeiling": null,
    "altimeter": "A2993",
    "timestamp": "2025-12-09T15:51:00+00:00",
    "station": "KSTL"
  }
}