{
  "lastUpdated": "2026-03-12T17:31:18.512955+00:00",
  "kcps": {
    "metar": "KCPS 121653Z 29008KT 10SM CLR 08/M03 A3033 RMK AO2 SLP274 T00831028 $",
    "windDirection": 290,
    "windSpeed": 8,
    "windGust": null,
    "visibility": 10,
    "temperatureC": 8,
    "dewPointC": -3,
    "cloudCeiling": 99999,
    "altimeter": "A3033",
    "timestamp": "2026-03-12T16:53:00+00:00",
    "station": "KCPS"
  },
  "kstl": {
    "metar": "KSTL 121651Z 28008KT 10SM SCT250 09/M02 A3033 RMK AO2 SLP277 T00891017 $",
    "windDirection": 280,
    "windSpeed": 8,
    "windGust": null,
    "visibility": 10,
    "temperatureC": 9,
    "dewPointC": -2,
    "cloudCeiling": null,
    "altimeter": "A3033",
    "timestamp": "2026-03-12T16:51:00+00:00",
    "station": "KSTL"
  }
}