{
  "lastUpdated": "2026-05-26T17:22:45.874118+00:00",
  "kcps": {
    "metar": "KCPS 261653Z 06008KT 10SM FEW025 27/19 A3000 RMK AO2 SLP156 T02670194 $",
    "windDirection": 60,
    "windSpeed": 8,
    "windGust": null,
    "visibility": 10,
    "temperatureC": 27,
    "dewPointC": 19,
    "cloudCeiling": null,
    "altimeter": "A3000",
    "timestamp": "2026-05-26T16:53:00+00:00",
    "station": "KCPS"
  },
  "kstl": {
    "metar": "KSTL 261651Z 08011G18KT 10SM SCT033 SCT150 BKN250 26/19 A3001 RMK AO2 SLP154 T02610189 $",
    "windDirection": 80,
    "windSpeed": 11,
    "windGust": 18,
    "visibility": 10,
    "temperatureC": 26,
    "dewPointC": 19,
    "cloudCeiling": 25000,
    "altimeter": "A3001",
    "timestamp": "2026-05-26T16:51:00+00:00",
    "station": "KSTL"
  }
}