{
  "lastUpdated": "2026-02-22T20:22:49.174570+00:00",
  "kcps": {
    "metar": "KCPS 221953Z 31017G28KT 10SM CLR M01/M12 A3046 RMK AO2 PK WND 33035/1930 SNB1857E07 SLP319 T10061122 PNO $",
    "windDirection": 310,
    "windSpeed": 17,
    "windGust": 28,
    "visibility": 10,
    "temperatureC": -1,
    "dewPointC": -12,
    "cloudCeiling": 99999,
    "altimeter": "A3046",
    "timestamp": "2026-02-22T19:53:00+00:00",
    "station": "KCPS"
  },
  "kstl": {
    "metar": "KSTL 221951Z 30016G27KT 10SM FEW040 M01/M12 A3046 RMK AO2 PK WND 32032/1900 SLP327 T10061122 $",
    "windDirection": 300,
    "windSpeed": 16,
    "windGust": 27,
    "visibility": 10,
    "temperatureC": -1,
    "dewPointC": -12,
    "cloudCeiling": null,
    "altimeter": "A3046",
    "timestamp": "2026-02-22T19:51:00+00:00",
    "station": "KSTL"
  }
}