{
  "lastUpdated": "2026-04-18T19:08:09.686439+00:00",
  "kcps": {
    "metar": "KCPS 181853Z 32014G21KT 10SM CLR 13/01 A3010 RMK AO2 SLP191 T01280006 $",
    "windDirection": 320,
    "windSpeed": 14,
    "windGust": 21,
    "visibility": 10,
    "temperatureC": 13,
    "dewPointC": 1,
    "cloudCeiling": 99999,
    "altimeter": "A3010",
    "timestamp": "2026-04-18T18:53:00+00:00",
    "station": "KCPS"
  },
  "kstl": {
    "metar": "KSTL 181851Z 29011KT 10SM SCT200 13/02 A3010 RMK AO2 PK WND 31027/1753 SLP191 T01280022 $",
    "windDirection": 290,
    "windSpeed": 11,
    "windGust": null,
    "visibility": 10,
    "temperatureC": 13,
    "dewPointC": 2,
    "cloudCeiling": null,
    "altimeter": "A3010",
    "timestamp": "2026-04-18T18:51:00+00:00",
    "station": "KSTL"
  }
}