{
  "lastUpdated": "2026-05-18T22:08:35.790643+00:00",
  "kcps": {
    "station": "KCPS",
    "metar": null,
    "error": "Failed to fetch METAR"
  },
  "kstl": {
    "metar": "KSTL 182201Z 21006KT 1 1/4SM +TSRA BR FEW037 OVC080CB 19/18 A3000 RMK AO2 TSB2156 PRESRR OCNL LTGICCC ALQDS TS ALQDS MOV NE P0002 T01890178 $",
    "windDirection": 210,
    "windSpeed": 6,
    "windGust": null,
    "visibility": 0.25,
    "temperatureC": 19,
    "dewPointC": 18,
    "cloudCeiling": 8000,
    "altimeter": "A3000",
    "timestamp": "2026-05-18T22:01:00+00:00",
    "station": "KSTL"
  }
}