{
  "lastUpdated": "2025-11-08T22:46:45.656775+00:00",
  "kcps": {
    "metar": "KCPS 082153Z 36005KT 10SM SCT120 16/07 A2979 RMK AO2 SLP089 T01560067 $",
    "windDirection": 360,
    "windSpeed": 5,
    "windGust": null,
    "visibility": 10,
    "temperatureC": 16,
    "dewPointC": 7,
    "cloudCeiling": null,
    "altimeter": "A2979",
    "timestamp": "2025-11-08T21:53:00+00:00",
    "station": "KCPS"
  },
  "kstl": {
    "metar": "KSTL 082151Z 12005KT 10SM R30R/2600VP6000FT BKN110 OVC140 15/06 A2980 RMK AO2 SLP090 T01500056 $",
    "windDirection": 120,
    "windSpeed": 5,
    "windGust": null,
    "visibility": 10,
    "temperatureC": 15,
    "dewPointC": 6,
    "cloudCeiling": 11000,
    "altimeter": "A2980",
    "timestamp": "2025-11-08T21:51:00+00:00",
    "station": "KSTL"
  }
}