{
  "lastUpdated": "2026-05-08T15:48:18.006484+00:00",
  "kcps": {
    "metar": "KCPS 081453Z 24005G17KT 10SM BKN110 18/09 A2992 RMK AO2 SLP130 T01780089 53001 $",
    "windDirection": 240,
    "windSpeed": 5,
    "windGust": 17,
    "visibility": 10,
    "temperatureC": 18,
    "dewPointC": 9,
    "cloudCeiling": 11000,
    "altimeter": "A2992",
    "timestamp": "2026-05-08T14:53:00+00:00",
    "station": "KCPS"
  },
  "kstl": {
    "metar": "KSTL 081451Z 22012G20KT 10SM BKN100 BKN250 18/07 A2990 RMK AO2 SLP123 T01780072 58001 $",
    "windDirection": 220,
    "windSpeed": 12,
    "windGust": 20,
    "visibility": 10,
    "temperatureC": 18,
    "dewPointC": 7,
    "cloudCeiling": 10000,
    "altimeter": "A2990",
    "timestamp": "2026-05-08T14:51:00+00:00",
    "station": "KSTL"
  }
}