{
  "lastUpdated": "2025-11-16T10:21:20.816318+00:00",
  "kcps": {
    "metar": "KCPS 160953Z AUTO 34007KT 10SM CLR 10/01 A2993 RMK AO2 SLP133 T01000011 $",
    "windDirection": 340,
    "windSpeed": 7,
    "windGust": null,
    "visibility": 10,
    "temperatureC": 10,
    "dewPointC": 1,
    "cloudCeiling": 99999,
    "altimeter": "A2993",
    "timestamp": "2025-11-16T09:53:00+00:00",
    "station": "KCPS"
  },
  "kstl": {
    "metar": "KSTL 160951Z 34007KT 10SM CLR 09/01 A2994 RMK AO2 SLP132 T00940006 $",
    "windDirection": 340,
    "windSpeed": 7,
    "windGust": null,
    "visibility": 10,
    "temperatureC": 9,
    "dewPointC": 1,
    "cloudCeiling": 99999,
    "altimeter": "A2994",
    "timestamp": "2025-11-16T09:51:00+00:00",
    "station": "KSTL"
  }
}