{
  "lastUpdated": "2026-04-24T03:00:44.593527+00:00",
  "kcps": {
    "metar": "KCPS 240253Z 16006KT 10SM CLR 22/15 A2975 RMK AO2 SLP069 T02220150 53007 $",
    "windDirection": 160,
    "windSpeed": 6,
    "windGust": null,
    "visibility": 10,
    "temperatureC": 22,
    "dewPointC": 15,
    "cloudCeiling": 99999,
    "altimeter": "A2975",
    "timestamp": "2026-04-24T02:53:00+00:00",
    "station": "KCPS"
  },
  "kstl": {
    "metar": "KSTL 240251Z 19007KT 10SM FEW050 BKN180 BKN250 23/14 A2975 RMK AO2 SLP063 T02330144 53008 $",
    "windDirection": 190,
    "windSpeed": 7,
    "windGust": null,
    "visibility": 10,
    "temperatureC": 23,
    "dewPointC": 14,
    "cloudCeiling": 18000,
    "altimeter": "A2975",
    "timestamp": "2026-04-24T02:51:00+00:00",
    "station": "KSTL"
  }
}