{
  "lastUpdated": "2026-02-14T22:02:19.154286+00:00",
  "kcps": {
    "metar": "KCPS 142153Z 09008KT 3SM +RA BR OVC038 08/07 A2989 RMK AO2 SLP123 P0022 T00780072 $",
    "windDirection": 90,
    "windSpeed": 8,
    "windGust": null,
    "visibility": 3,
    "temperatureC": 8,
    "dewPointC": 7,
    "cloudCeiling": 3800,
    "altimeter": "A2989",
    "timestamp": "2026-02-14T21:53:00+00:00",
    "station": "KCPS"
  },
  "kstl": {
    "metar": "KSTL 142158Z 09010KT 2 1/2SM RA BR BKN005 OVC024 08/07 A2989 RMK AO2 P0002 T00780072 $",
    "windDirection": 90,
    "windSpeed": 10,
    "windGust": null,
    "visibility": 0.5,
    "temperatureC": 8,
    "dewPointC": 7,
    "cloudCeiling": 500,
    "altimeter": "A2989",
    "timestamp": "2026-02-14T21:58:00+00:00",
    "station": "KSTL"
  }
}