{
  "lastUpdated": "2026-02-18T21:56:40.452183+00:00",
  "kcps": {
    "metar": "KCPS 182153Z 00000KT 10SM CLR 22/M02 A2963 RMK AO2 SLP030 T02221017 $",
    "windDirection": 0,
    "windSpeed": 0,
    "windGust": null,
    "visibility": 10,
    "temperatureC": 22,
    "dewPointC": -2,
    "cloudCeiling": 99999,
    "altimeter": "A2963",
    "timestamp": "2026-02-18T21:53:00+00:00",
    "station": "KCPS"
  },
  "kstl": {
    "metar": "KSTL 182151Z 28008KT 10SM FEW050 FEW250 22/M04 A2963 RMK AO2 SLP027 T02221039 $",
    "windDirection": 280,
    "windSpeed": 8,
    "windGust": null,
    "visibility": 10,
    "temperatureC": 22,
    "dewPointC": -4,
    "cloudCeiling": null,
    "altimeter": "A2963",
    "timestamp": "2026-02-18T21:51:00+00:00",
    "station": "KSTL"
  }
}