{
  "lastUpdated": "2025-11-01T21:31:39.715205+00:00",
  "kcps": {
    "metar": "KCPS 012053Z AUTO 28007KT 250V310 10SM BKN055 OVC075 12/M01 A3009 RMK AO2 SLP191 T01171006 55005 TSNO",
    "windDirection": 280,
    "windSpeed": 7,
    "windGust": null,
    "visibility": 10,
    "temperatureC": 12,
    "dewPointC": -1,
    "cloudCeiling": 5500,
    "altimeter": "A3009",
    "timestamp": "2025-11-01T20:53:00+00:00",
    "station": "KCPS"
  },
  "kstl": {
    "metar": "KSTL 012051Z 25010KT 10SM BKN048 OVC150 10/01 A3010 RMK AO2 RAB1956E07B37E51 SLP195 P0000 60000 T01000006 55007 $",
    "windDirection": 250,
    "windSpeed": 10,
    "windGust": null,
    "visibility": 10,
    "temperatureC": 10,
    "dewPointC": 1,
    "cloudCeiling": 4800,
    "altimeter": "A3010",
    "timestamp": "2025-11-01T20:51:00+00:00",
    "station": "KSTL"
  }
}