{
  "lastUpdated": "2025-11-01T01:51:29.314401+00:00",
  "kcps": {
    "metar": "KCPS 010053Z 21003KT 10SM CLR 12/01 A2999 RMK AO2 SLP157 T01170011",
    "windDirection": 210,
    "windSpeed": 3,
    "windGust": null,
    "visibility": 10,
    "temperatureC": 12,
    "dewPointC": 1,
    "cloudCeiling": 99999,
    "altimeter": "A2999",
    "timestamp": "2025-11-01T00:53:00+00:00",
    "station": "KCPS"
  },
  "kstl": {
    "metar": "KSTL 010051Z 25004KT 10SM BKN250 12/01 A2999 RMK AO2 SLP159 T01220006 $",
    "windDirection": 250,
    "windSpeed": 4,
    "windGust": null,
    "visibility": 10,
    "temperatureC": 12,
    "dewPointC": 1,
    "cloudCeiling": 25000,
    "altimeter": "A2999",
    "timestamp": "2025-11-01T00:51:00+00:00",
    "station": "KSTL"
  }
}