{
  "lastUpdated": "2026-04-30T12:27:27.905260+00:00",
  "kcps": {
    "metar": "KCPS 301153Z 00000KT 10SM CLR 06/04 A3008 RMK AO2 SLP187 T00560044 10106 20044 53007 $",
    "windDirection": 0,
    "windSpeed": 0,
    "windGust": null,
    "visibility": 10,
    "temperatureC": 6,
    "dewPointC": 4,
    "cloudCeiling": 99999,
    "altimeter": "A3008",
    "timestamp": "2026-04-30T11:53:00+00:00",
    "station": "KCPS"
  },
  "kstl": {
    "metar": "KSTL 301151Z 00000KT 10SM FEW250 07/05 A3009 RMK AO2 SLP191 T00670050 10089 20056 53007 $",
    "windDirection": 0,
    "windSpeed": 0,
    "windGust": null,
    "visibility": 10,
    "temperatureC": 7,
    "dewPointC": 5,
    "cloudCeiling": null,
    "altimeter": "A3009",
    "timestamp": "2026-04-30T11:51:00+00:00",
    "station": "KSTL"
  }
}