{
  "lastUpdated": "2025-12-29T06:03:37.071205+00:00",
  "kcps": {
    "metar": "KCPS 290553Z AUTO 29017G26KT 10SM CLR M04/M11 A3007 RMK AO2 PK WND 31036/0455 SNE08 SLP183 P0000 60000 T10441111 10067 21044 402561044 51036 $",
    "windDirection": 290,
    "windSpeed": 17,
    "windGust": 26,
    "visibility": 10,
    "temperatureC": -4,
    "dewPointC": -11,
    "cloudCeiling": 99999,
    "altimeter": "A3007",
    "timestamp": "2025-12-29T05:53:00+00:00",
    "station": "KCPS"
  },
  "kstl": {
    "metar": "KSTL 290551Z 28020G29KT 10SM FEW028 M05/M12 A3006 RMK AO2 PK WND 26038/0511 SLP181 T10501122 10039 21056 402561056 51036 $",
    "windDirection": 280,
    "windSpeed": 20,
    "windGust": 29,
    "visibility": 10,
    "temperatureC": -5,
    "dewPointC": -12,
    "cloudCeiling": null,
    "altimeter": "A3006",
    "timestamp": "2025-12-29T05:51:00+00:00",
    "station": "KSTL"
  }
}