{
  "lastUpdated": "2025-12-19T02:33:59.242837+00:00",
  "kcps": {
    "metar": "KCPS 190153Z 30018G28KT 10SM BKN055 OVC080 03/M02 A2969 RMK AO2 PK WND 28033/0126 RAE33 SLP055 P0000 T00331022",
    "windDirection": 300,
    "windSpeed": 18,
    "windGust": 28,
    "visibility": 10,
    "temperatureC": 3,
    "dewPointC": -2,
    "cloudCeiling": 5500,
    "altimeter": "A2969",
    "timestamp": "2025-12-19T01:53:00+00:00",
    "station": "KCPS"
  },
  "kstl": {
    "metar": "KSTL 190151Z 30019G36KT 10SM BKN030 BKN036 OVC085 02/M04 A2970 RMK AO2 PK WND 31036/0144 RAE0054SNB26E45PLB29E37 SLP061 P0000 T00171039 $",
    "windDirection": 300,
    "windSpeed": 19,
    "windGust": 36,
    "visibility": 10,
    "temperatureC": 2,
    "dewPointC": -4,
    "cloudCeiling": 3000,
    "altimeter": "A2970",
    "timestamp": "2025-12-19T01:51:00+00:00",
    "station": "KSTL"
  }
}