{
  "lastUpdated": "2026-01-05T05:55:55.895558+00:00",
  "kcps": {
    "metar": "KCPS 050553Z AUTO 18004KT 10SM CLR 02/M04 A2995 RMK AO2 SLP146 T00171039 10",
    "windDirection": 180,
    "windSpeed": 4,
    "windGust": null,
    "visibility": 10,
    "temperatureC": 2,
    "dewPointC": -4,
    "cloudCeiling": 99999,
    "altimeter": "A2995",
    "timestamp": "2026-01-05T05:53:00+00:00",
    "station": "KCPS"
  },
  "kstl": {
    "metar": "KSTL 050551Z 18007KT 10SM FEW250 03/M04 A2994 RMK AO2 SLP145 T00331044 10050 20028 400611056 58019 $",
    "windDirection": 180,
    "windSpeed": 7,
    "windGust": null,
    "visibility": 10,
    "temperatureC": 3,
    "dewPointC": -4,
    "cloudCeiling": null,
    "altimeter": "A2994",
    "timestamp": "2026-01-05T05:51:00+00:00",
    "station": "KSTL"
  }
}