{
  "lastUpdated": "2026-02-22T16:22:48.998944+00:00",
  "kcps": {
    "metar": "KCPS 221553Z 31021G27KT 10SM FEW034 M04/M13 A3048 RMK AO2 PK WND 31027/1547 SLP326 T10441128 PNO $",
    "windDirection": 310,
    "windSpeed": 21,
    "windGust": 27,
    "visibility": 10,
    "temperatureC": -4,
    "dewPointC": -13,
    "cloudCeiling": null,
    "altimeter": "A3048",
    "timestamp": "2026-02-22T15:53:00+00:00",
    "station": "KCPS"
  },
  "kstl": {
    "metar": "KSTL 221551Z 32014G25KT 10SM FEW030 SCT250 M05/M13 A3048 RMK AO2 PK WND 31028/1515 SLP334 T10501133 $",
    "windDirection": 320,
    "windSpeed": 14,
    "windGust": 25,
    "visibility": 10,
    "temperatureC": -5,
    "dewPointC": -13,
    "cloudCeiling": null,
    "altimeter": "A3048",
    "timestamp": "2026-02-22T15:51:00+00:00",
    "station": "KSTL"
  }
}