{
  "lastUpdated": "2025-11-11T14:36:30.585655+00:00",
  "kcps": {
    "metar": "KCPS 111353Z 19008KT 10SM CLR 01/M08 A3014 RMK AO2 SLP209 T00061083 $",
    "windDirection": 190,
    "windSpeed": 8,
    "windGust": null,
    "visibility": 10,
    "temperatureC": 1,
    "dewPointC": -8,
    "cloudCeiling": 99999,
    "altimeter": "A3014",
    "timestamp": "2025-11-11T13:53:00+00:00",
    "station": "KCPS"
  },
  "kstl": {
    "metar": "KSTL 111351Z 18010G18KT 10SM BKN170 OVC250 01/M08 A3010 RMK AO2 SLP205 T00111083 $",
    "windDirection": 180,
    "windSpeed": 10,
    "windGust": 18,
    "visibility": 10,
    "temperatureC": 1,
    "dewPointC": -8,
    "cloudCeiling": 17000,
    "altimeter": "A3010",
    "timestamp": "2025-11-11T13:51:00+00:00",
    "station": "KSTL"
  }
}