{
  "lastUpdated": "2026-03-15T10:42:07.693586+00:00",
  "kcps": {
    "metar": "KCPS 150853Z AUTO 18008KT 10SM CLR 15/08 A2959 RMK AO2 SLP017 T01500078 58031 $",
    "windDirection": 180,
    "windSpeed": 8,
    "windGust": null,
    "visibility": 10,
    "temperatureC": 15,
    "dewPointC": 8,
    "cloudCeiling": 99999,
    "altimeter": "A2959",
    "timestamp": "2026-03-15T08:53:00+00:00",
    "station": "KCPS"
  },
  "kstl": {
    "metar": "KSTL 150951Z 16009KT 10SM BKN200 17/08 A2954 RMK AO2 SLP998 T01670078 $",
    "windDirection": 160,
    "windSpeed": 9,
    "windGust": null,
    "visibility": 10,
    "temperatureC": 17,
    "dewPointC": 8,
    "cloudCeiling": 20000,
    "altimeter": "A2954",
    "timestamp": "2026-03-15T09:51:00+00:00",
    "station": "KSTL"
  }
}