{
  "lastUpdated": "2026-01-08T18:03:02.891406+00:00",
  "kcps": {
    "metar": "KCPS 081753Z 15014G22KT 7SM OVC007 14/13 A2967 RMK AO2 PK WND 16029/1742 RAB1655E07 SLP048 P0000 60000 T01440128 10144 20094 58043",
    "windDirection": 150,
    "windSpeed": 14,
    "windGust": 22,
    "visibility": 7,
    "temperatureC": 14,
    "dewPointC": 13,
    "cloudCeiling": 700,
    "altimeter": "A2967",
    "timestamp": "2026-01-08T17:53:00+00:00",
    "station": "KCPS"
  },
  "kstl": {
    "metar": "KSTL 081751Z 15017G28KT 7SM OVC009 14/12 A2966 RMK AO2 PK WND 13029/1726 RAE18 SLP043 P0000 60000 T01440122 10144 20089 58038 $",
    "windDirection": 150,
    "windSpeed": 17,
    "windGust": 28,
    "visibility": 7,
    "temperatureC": 14,
    "dewPointC": 12,
    "cloudCeiling": 900,
    "altimeter": "A2966",
    "timestamp": "2026-01-08T17:51:00+00:00",
    "station": "KSTL"
  }
}