{
  "lastUpdated": "2025-11-24T01:52:05.046057+00:00",
  "kcps": {
    "metar": "KCPS 240053Z 18005KT 5SM BR OVC007 09/07 A3017 RMK AO2 SLP219 T00890072",
    "windDirection": 180,
    "windSpeed": 5,
    "windGust": null,
    "visibility": 5,
    "temperatureC": 9,
    "dewPointC": 7,
    "cloudCeiling": 700,
    "altimeter": "A3017",
    "timestamp": "2025-11-24T00:53:00+00:00",
    "station": "KCPS"
  },
  "kstl": {
    "metar": "KSTL 240051Z 16004KT 5SM BR BKN008 09/07 A3017 RMK AO2 SLP218 T00890072 $",
    "windDirection": 160,
    "windSpeed": 4,
    "windGust": null,
    "visibility": 5,
    "temperatureC": 9,
    "dewPointC": 7,
    "cloudCeiling": 800,
    "altimeter": "A3017",
    "timestamp": "2025-11-24T00:51:00+00:00",
    "station": "KSTL"
  }
}