{
  "lastUpdated": "2026-02-06T18:11:34.971239+00:00",
  "kcps": {
    "metar": "KCPS 061553Z 33020G28KT 10SM CLR 08/02 A2986 RMK AO2 PK WND 32029/1542 SLP114 T00780017 $",
    "windDirection": 330,
    "windSpeed": 20,
    "windGust": 28,
    "visibility": 10,
    "temperatureC": 8,
    "dewPointC": 2,
    "cloudCeiling": 99999,
    "altimeter": "A2986",
    "timestamp": "2026-02-06T15:53:00+00:00",
    "station": "KCPS"
  },
  "kstl": {
    "metar": "KSTL 061751Z 32018KT 10SM FEW025 09/02 A2996 RMK AO2 SLP151 4/001 T00890022 10089 20033 51045 $",
    "windDirection": 320,
    "windSpeed": 18,
    "windGust": null,
    "visibility": 10,
    "temperatureC": 9,
    "dewPointC": 2,
    "cloudCeiling": null,
    "altimeter": "A2996",
    "timestamp": "2026-02-06T17:51:00+00:00",
    "station": "KSTL"
  }
}