{
  "lastUpdated": "2026-01-27T10:04:11.024582+00:00",
  "kcps": {
    "metar": "KCPS 270953Z AUTO 23004KT 10SM CLR M09/M15 A3021 RMK AO2 SLP236 T10891150 $",
    "windDirection": 230,
    "windSpeed": 4,
    "windGust": null,
    "visibility": 10,
    "temperatureC": -9,
    "dewPointC": -15,
    "cloudCeiling": 99999,
    "altimeter": "A3021",
    "timestamp": "2026-01-27T09:53:00+00:00",
    "station": "KCPS"
  },
  "kstl": {
    "metar": "KSTL 270951Z 26012KT 10SM CLR M08/M14 A3019 RMK AO2 SLP241 T10831144 $",
    "windDirection": 260,
    "windSpeed": 12,
    "windGust": null,
    "visibility": 10,
    "temperatureC": -8,
    "dewPointC": -14,
    "cloudCeiling": 99999,
    "altimeter": "A3019",
    "timestamp": "2026-01-27T09:51:00+00:00",
    "station": "KSTL"
  }
}