{
  "lastUpdated": "2026-01-25T23:34:40.184181+00:00",
  "kcps": {
    "metar": "KCPS 252253Z 32016KT 10SM CLR M11/M16 A3019 RMK AO2 SLP231 T11061156 $",
    "windDirection": 320,
    "windSpeed": 16,
    "windGust": null,
    "visibility": 10,
    "temperatureC": -11,
    "dewPointC": -16,
    "cloudCeiling": 99999,
    "altimeter": "A3019",
    "timestamp": "2026-01-25T22:53:00+00:00",
    "station": "KCPS"
  },
  "kstl": {
    "metar": "KSTL 252251Z 31012G21KT 10SM FEW025 BKN250 M11/M16 A3019 RMK AO2 SLP245 T11111161 $",
    "windDirection": 310,
    "windSpeed": 12,
    "windGust": 21,
    "visibility": 10,
    "temperatureC": -11,
    "dewPointC": -16,
    "cloudCeiling": 25000,
    "altimeter": "A3019",
    "timestamp": "2026-01-25T22:51:00+00:00",
    "station": "KSTL"
  }
}