{
  "lastUpdated": "2025-11-22T14:20:43.365432+00:00",
  "kcps": {
    "metar": "KCPS 221353Z 01005KT 5SM BR SCT012 08/07 A3010 RMK AO2 SLP194 T00830067",
    "windDirection": 10,
    "windSpeed": 5,
    "windGust": null,
    "visibility": 5,
    "temperatureC": 8,
    "dewPointC": 7,
    "cloudCeiling": null,
    "altimeter": "A3010",
    "timestamp": "2025-11-22T13:53:00+00:00",
    "station": "KCPS"
  },
  "kstl": {
    "metar": "KSTL 221409Z 36004KT 6SM BR FEW007 SCT250 08/07 A3012 RMK AO2 T00830067 $",
    "windDirection": 360,
    "windSpeed": 4,
    "windGust": null,
    "visibility": 6,
    "temperatureC": 8,
    "dewPointC": 7,
    "cloudCeiling": null,
    "altimeter": "A3012",
    "timestamp": "2025-11-22T14:09:00+00:00",
    "station": "KSTL"
  }
}