{
  "lastUpdated": "2026-06-04T16:59:34.382954+00:00",
  "kcps": {
    "metar": "KCPS 041653Z VRB05KT 10SM CLR 27/17 A3014 RMK AO2 SLP202 T02720167 $",
    "windDirection": null,
    "windSpeed": null,
    "windGust": null,
    "visibility": 10,
    "temperatureC": 27,
    "dewPointC": 17,
    "cloudCeiling": 99999,
    "altimeter": "A3014",
    "timestamp": "2026-06-04T16:53:00+00:00",
    "station": "KCPS"
  },
  "kstl": {
    "metar": "KSTL 041651Z 21012KT 10SM FEW046 SCT060 BKN250 26/17 A3014 RMK AO2 SLP197 T02610167 $",
    "windDirection": 210,
    "windSpeed": 12,
    "windGust": null,
    "visibility": 10,
    "temperatureC": 26,
    "dewPointC": 17,
    "cloudCeiling": 25000,
    "altimeter": "A3014",
    "timestamp": "2026-06-04T16:51:00+00:00",
    "station": "KSTL"
  }
}