{
  "lastUpdated": "2025-12-19T03:44:00.325268+00:00",
  "kcps": {
    "metar": "KCPS 190253Z 30026G38KT 9SM -SN OVC039 01/M06 A2974 RMK AO2 PK WND 29038/0246 SNB0158 SLP073 P0000 60002 T00061056 51058",
    "windDirection": 300,
    "windSpeed": 26,
    "windGust": 38,
    "visibility": 9,
    "temperatureC": 1,
    "dewPointC": -6,
    "cloudCeiling": 3900,
    "altimeter": "A2974",
    "timestamp": "2025-12-19T02:53:00+00:00",
    "station": "KCPS"
  },
  "kstl": {
    "metar": "KSTL 190335Z 30018G35KT 10SM -SN OVC033 M01/M07 A2977 RMK AO2 PK WND 29035/0330 SNB35 P0000 T10111072 $",
    "windDirection": 300,
    "windSpeed": 18,
    "windGust": 35,
    "visibility": 10,
    "temperatureC": -1,
    "dewPointC": -7,
    "cloudCeiling": 3300,
    "altimeter": "A2977",
    "timestamp": "2025-12-19T03:35:00+00:00",
    "station": "KSTL"
  }
}