{
  "lastUpdated": "2026-01-16T12:23:51.396591+00:00",
  "kcps": {
    "metar": "KCPS 161153Z AUTO 22006KT 10SM CLR 02/M10 A2970 RMK AO2 SLP060 T00171100 10028 20006 55007 $",
    "windDirection": 220,
    "windSpeed": 6,
    "windGust": null,
    "visibility": 10,
    "temperatureC": 2,
    "dewPointC": -10,
    "cloudCeiling": 99999,
    "altimeter": "A2970",
    "timestamp": "2026-01-16T11:53:00+00:00",
    "station": "KCPS"
  },
  "kstl": {
    "metar": "KSTL 161151Z 24008KT 10SM FEW050 FEW100 01/M10 A2969 RMK AO2 SLP062 T00061100 10028 20006 55005 $",
    "windDirection": 240,
    "windSpeed": 8,
    "windGust": null,
    "visibility": 10,
    "temperatureC": 1,
    "dewPointC": -10,
    "cloudCeiling": null,
    "altimeter": "A2969",
    "timestamp": "2026-01-16T11:51:00+00:00",
    "station": "KSTL"
  }
}