{
  "lastUpdated": "2025-11-08T11:46:36.645724+00:00",
  "kcps": {
    "metar": "KCPS 081053Z AUTO 00000KT 10SM CLR 06/04 A2986 RMK AO2 SLP111 T00560039 TSNO $",
    "windDirection": 0,
    "windSpeed": 0,
    "windGust": null,
    "visibility": 10,
    "temperatureC": 6,
    "dewPointC": 4,
    "cloudCeiling": 99999,
    "altimeter": "A2986",
    "timestamp": "2025-11-08T10:53:00+00:00",
    "station": "KCPS"
  },
  "kstl": {
    "metar": "KSTL 081051Z 00000KT 10SM SCT250 08/03 A2986 RMK AO2 SLP109 T00780033 $",
    "windDirection": 0,
    "windSpeed": 0,
    "windGust": null,
    "visibility": 10,
    "temperatureC": 8,
    "dewPointC": 3,
    "cloudCeiling": null,
    "altimeter": "A2986",
    "timestamp": "2025-11-08T10:51:00+00:00",
    "station": "KSTL"
  }
}