{
  "lastUpdated": "2026-02-02T17:48:55.396550+00:00",
  "kcps": {
    "metar": "KCPS 021653Z 00000KT 10SM OVC045 02/M06 A3021 RMK AO2 SLP234 T00171056 $",
    "windDirection": 0,
    "windSpeed": 0,
    "windGust": null,
    "visibility": 10,
    "temperatureC": 2,
    "dewPointC": -6,
    "cloudCeiling": 4500,
    "altimeter": "A3021",
    "timestamp": "2026-02-02T16:53:00+00:00",
    "station": "KCPS"
  },
  "kstl": {
    "metar": "KSTL 021651Z 00000KT 10SM OVC041 02/M04 A3020 RMK AO2 SLP239 T00221044 $",
    "windDirection": 0,
    "windSpeed": 0,
    "windGust": null,
    "visibility": 10,
    "temperatureC": 2,
    "dewPointC": -4,
    "cloudCeiling": 4100,
    "altimeter": "A3020",
    "timestamp": "2026-02-02T16:51:00+00:00",
    "station": "KSTL"
  }
}