{
  "lastUpdated": "2026-04-02T19:05:18.332877+00:00",
  "kcps": {
    "metar": "KCPS 021853Z 18013G23KT 10SM -RA FEW035 BKN110 23/17 A2976 RMK AO2 PK WND 17030/1817 RAB05 SLP076 P0001 T02280167 $",
    "windDirection": 180,
    "windSpeed": 13,
    "windGust": 23,
    "visibility": 10,
    "temperatureC": 23,
    "dewPointC": 17,
    "cloudCeiling": 11000,
    "altimeter": "A2976",
    "timestamp": "2026-04-02T18:53:00+00:00",
    "station": "KCPS"
  },
  "kstl": {
    "metar": "KSTL 021851Z 18017G28KT 10SM -RA FEW036 SCT065 BKN110 OVC200 23/16 A2976 RMK AO2 PK WND 19035/1822 RAB14 SLP071 P0000 T02280161 $",
    "windDirection": 180,
    "windSpeed": 17,
    "windGust": 28,
    "visibility": 10,
    "temperatureC": 23,
    "dewPointC": 16,
    "cloudCeiling": 11000,
    "altimeter": "A2976",
    "timestamp": "2026-04-02T18:51:00+00:00",
    "station": "KSTL"
  }
}