{
  "lastUpdated": "2025-12-25T21:33:42.736523+00:00",
  "kcps": {
    "metar": "KCPS 252053Z 11005KT 10SM SCT024 OVC034 21/16 A2995 RMK AO2 SLP140 T02060161 56010 $",
    "windDirection": 110,
    "windSpeed": 5,
    "windGust": null,
    "visibility": 10,
    "temperatureC": 21,
    "dewPointC": 16,
    "cloudCeiling": 3400,
    "altimeter": "A2995",
    "timestamp": "2025-12-25T20:53:00+00:00",
    "station": "KCPS"
  },
  "kstl": {
    "metar": "KSTL 252051Z 11007KT 10SM OVC034 18/15 A2996 RMK AO2 SLP140 T01780150 56021 $",
    "windDirection": 110,
    "windSpeed": 7,
    "windGust": null,
    "visibility": 10,
    "temperatureC": 18,
    "dewPointC": 15,
    "cloudCeiling": 3400,
    "altimeter": "A2996",
    "timestamp": "2025-12-25T20:51:00+00:00",
    "station": "KSTL"
  }
}