{
  "lastUpdated": "2026-03-16T20:12:29.629807+00:00",
  "kcps": {
    "metar": "KCPS 161953Z 29015G29KT 10SM BKN036 M03/M10 A3001 RMK AO2 PK WND 31030/1908 SNB10E19 SLP167 T10281100 $",
    "windDirection": 290,
    "windSpeed": 15,
    "windGust": 29,
    "visibility": 10,
    "temperatureC": -3,
    "dewPointC": -10,
    "cloudCeiling": 3600,
    "altimeter": "A3001",
    "timestamp": "2026-03-16T19:53:00+00:00",
    "station": "KCPS"
  },
  "kstl": {
    "metar": "KSTL 161951Z 29018G29KT 10SM BKN031 BKN250 M02/M09 A3002 RMK AO2 PK WND 29032/1929 SLP177 T10221094 $",
    "windDirection": 290,
    "windSpeed": 18,
    "windGust": 29,
    "visibility": 10,
    "temperatureC": -2,
    "dewPointC": -9,
    "cloudCeiling": 3100,
    "altimeter": "A3002",
    "timestamp": "2026-03-16T19:51:00+00:00",
    "station": "KSTL"
  }
}