{
  "lastUpdated": "2025-10-24T03:49:59.549247+00:00",
  "kcps": {
    "metar": "KCPS 240253Z 00000KT 10SM CLR 04/03 A3021 RMK AO2 SLP230 T00440033 51004 $",
    "windDirection": 0,
    "windSpeed": 0,
    "windGust": null,
    "visibility": 10,
    "temperatureC": 4,
    "dewPointC": 3,
    "cloudCeiling": 99999,
    "altimeter": "A3021",
    "timestamp": "2025-10-24T02:53:00+00:00",
    "station": "KCPS"
  },
  "kstl": {
    "metar": "KSTL 240251Z 00000KT 10SM BKN250 09/03 A3020 RMK AO2 SLP229 T00890033 50003 $",
    "windDirection": 0,
    "windSpeed": 0,
    "windGust": null,
    "visibility": 10,
    "temperatureC": 9,
    "dewPointC": 3,
    "cloudCeiling": 25000,
    "altimeter": "A3020",
    "timestamp": "2025-10-24T02:51:00+00:00",
    "station": "KSTL"
  }
}