{
  "lastUpdated": "2025-11-13T00:07:22.889584+00:00",
  "kcps": {
    "metar": "KCPS 122353Z 00000KT 10SM CLR 10/02 A3014 RMK AO2 SLP208 T01000017 10194 20100 53012",
    "windDirection": 0,
    "windSpeed": 0,
    "windGust": null,
    "visibility": 10,
    "temperatureC": 10,
    "dewPointC": 2,
    "cloudCeiling": 99999,
    "altimeter": "A3014",
    "timestamp": "2025-11-12T23:53:00+00:00",
    "station": "KCPS"
  },
  "kstl": {
    "metar": "KSTL 122351Z 26003KT 10SM FEW200 BKN250 12/01 A3014 RMK AO2 SLP211 T01220006 10189 20122 53011",
    "windDirection": 260,
    "windSpeed": 3,
    "windGust": null,
    "visibility": 10,
    "temperatureC": 12,
    "dewPointC": 1,
    "cloudCeiling": 25000,
    "altimeter": "A3014",
    "timestamp": "2025-11-12T23:51:00+00:00",
    "station": "KSTL"
  }
}