{
  "lastUpdated": "2026-03-21T02:35:32.643787+00:00",
  "kcps": {
    "metar": "KCPS 210153Z 00000KT 10SM CLR 19/09 A2986 RMK AO2 SLP108 T01890089 $",
    "windDirection": 0,
    "windSpeed": 0,
    "windGust": null,
    "visibility": 10,
    "temperatureC": 19,
    "dewPointC": 9,
    "cloudCeiling": 99999,
    "altimeter": "A2986",
    "timestamp": "2026-03-21T01:53:00+00:00",
    "station": "KCPS"
  },
  "kstl": {
    "metar": "KSTL 210151Z 02006KT 10SM BKN250 21/09 A2988 RMK AO2 SLP111 T02060089 $",
    "windDirection": 20,
    "windSpeed": 6,
    "windGust": null,
    "visibility": 10,
    "temperatureC": 21,
    "dewPointC": 9,
    "cloudCeiling": 25000,
    "altimeter": "A2988",
    "timestamp": "2026-03-21T01:51:00+00:00",
    "station": "KSTL"
  }
}