{
  "lastUpdated": "2025-12-27T05:02:54.807611+00:00",
  "kcps": {
    "metar": "KCPS 270453Z AUTO 00000KT 1/4SM FG CLR 07/07 A2995 RMK AO2 SLP140 T00670067 $",
    "windDirection": 0,
    "windSpeed": 0,
    "windGust": null,
    "visibility": 0.25,
    "temperatureC": 7,
    "dewPointC": 7,
    "cloudCeiling": 99999,
    "altimeter": "A2995",
    "timestamp": "2025-12-27T04:53:00+00:00",
    "station": "KCPS"
  },
  "kstl": {
    "metar": "KSTL 270451Z 12003KT 8SM FEW250 07/07 A2995 RMK AO2 SLP139 T00720067 $",
    "windDirection": 120,
    "windSpeed": 3,
    "windGust": null,
    "visibility": 8,
    "temperatureC": 7,
    "dewPointC": 7,
    "cloudCeiling": null,
    "altimeter": "A2995",
    "timestamp": "2025-12-27T04:51:00+00:00",
    "station": "KSTL"
  }
}