{
  "lastUpdated": "2025-11-10T06:53:41.467680+00:00",
  "kcps": {
    "metar": "KCPS 100553Z AUTO 32012KT 10SM OVC060 M02/M09 A3035 RMK AO2 SLP280 T10171094 10006 21017 400781017 58012 TSNO $",
    "windDirection": 320,
    "windSpeed": 12,
    "windGust": null,
    "visibility": 10,
    "temperatureC": -2,
    "dewPointC": -9,
    "cloudCeiling": 6000,
    "altimeter": "A3035",
    "timestamp": "2025-11-10T05:53:00+00:00",
    "station": "KCPS"
  },
  "kstl": {
    "metar": "\u0000\u0000\u0000\u0000\u0000\u0000\u0000\u0000\u0000\u0000\u0000\u0000\u0000\u0000\u0000\u0000\u0000\u0000\u0000\u0000\u0000\u0000\u0000\u0000\u0000\u0000\u0000\u0000\u0000\u0000\u0000\u0000\u0000\u0000",
    "windDirection": null,
    "windSpeed": null,
    "windGust": null,
    "visibility": null,
    "temperatureC": null,
    "dewPointC": null,
    "cloudCeiling": null,
    "altimeter": null,
    "timestamp": null
  }
}