{
  "lastUpdated": "2026-01-19T16:03:12.397547+00:00",
  "kcps": {
    "metar": "KCPS 191553Z 32016G28KT 10SM CLR M08/M19 A3043 RMK AO2 PK WND 30028/1549 SLP311 T10831189 $",
    "windDirection": 320,
    "windSpeed": 16,
    "windGust": 28,
    "visibility": 10,
    "temperatureC": -8,
    "dewPointC": -19,
    "cloudCeiling": 99999,
    "altimeter": "A3043",
    "timestamp": "2026-01-19T15:53:00+00:00",
    "station": "KCPS"
  },
  "kstl": {
    "metar": "KSTL 191551Z 29015G23KT 10SM FEW025 FEW250 M09/M18 A3042 RMK AO2 SLP316 T10941183 $",
    "windDirection": 290,
    "windSpeed": 15,
    "windGust": 23,
    "visibility": 10,
    "temperatureC": -9,
    "dewPointC": -18,
    "cloudCeiling": null,
    "altimeter": "A3042",
    "timestamp": "2026-01-19T15:51:00+00:00",
    "station": "KSTL"
  }
}