{
  "lastUpdated": "2025-12-01T15:02:34.125002+00:00",
  "kcps": {
    "metar": "KCPS 011453Z 08003KT 10SM OVC015 M04/M07 A3039 RMK AO2 SLP295 T10441072 58013 $",
    "windDirection": 80,
    "windSpeed": 3,
    "windGust": null,
    "visibility": 10,
    "temperatureC": -4,
    "dewPointC": -7,
    "cloudCeiling": 1500,
    "altimeter": "A3039",
    "timestamp": "2025-12-01T14:53:00+00:00",
    "station": "KCPS"
  },
  "kstl": {
    "metar": "KSTL 011451Z 10006KT 10SM OVC014 M04/M07 A3038 RMK AO2 SLP302 T10441072 58011 $",
    "windDirection": 100,
    "windSpeed": 6,
    "windGust": null,
    "visibility": 10,
    "temperatureC": -4,
    "dewPointC": -7,
    "cloudCeiling": 1400,
    "altimeter": "A3038",
    "timestamp": "2025-12-01T14:51:00+00:00",
    "station": "KSTL"
  }
}