{
  "lastUpdated": "2025-11-18T15:22:10.883386+00:00",
  "kcps": {
    "metar": "KCPS 181453Z 23005KT 10SM SCT040 BKN047 BKN055 16/12 A2982 RMK AO2 SLP097 60001 T01610122 55013",
    "windDirection": 230,
    "windSpeed": 5,
    "windGust": null,
    "visibility": 10,
    "temperatureC": 16,
    "dewPointC": 12,
    "cloudCeiling": 4700,
    "altimeter": "A2982",
    "timestamp": "2025-11-18T14:53:00+00:00",
    "station": "KCPS"
  },
  "kstl": {
    "metar": "KSTL 181515Z 11003KT 10SM BKN026 BKN034 14/11 A2982 RMK AO2 T01390111 $",
    "windDirection": 110,
    "windSpeed": 3,
    "windGust": null,
    "visibility": 10,
    "temperatureC": 14,
    "dewPointC": 11,
    "cloudCeiling": 2600,
    "altimeter": "A2982",
    "timestamp": "2025-11-18T15:15:00+00:00",
    "station": "KSTL"
  }
}