{
  "lastUpdated": "2025-11-05T15:02:47.664887+00:00",
  "kcps": {
    "metar": "KCPS 051453Z 28010G19KT 10SM CLR 18/08 A3006 RMK AO2 SLP178 T01780078 53020",
    "windDirection": 280,
    "windSpeed": 10,
    "windGust": 19,
    "visibility": 10,
    "temperatureC": 18,
    "dewPointC": 8,
    "cloudCeiling": 99999,
    "altimeter": "A3006",
    "timestamp": "2025-11-05T14:53:00+00:00",
    "station": "KCPS"
  },
  "kstl": {
    "metar": "KSTL 051451Z 27011KT 10SM FEW250 17/08 A3006 RMK AO2 SLP173 T01720083 53022 $",
    "windDirection": 270,
    "windSpeed": 11,
    "windGust": null,
    "visibility": 10,
    "temperatureC": 17,
    "dewPointC": 8,
    "cloudCeiling": null,
    "altimeter": "A3006",
    "timestamp": "2025-11-05T14:51:00+00:00",
    "station": "KSTL"
  }
}