{
  "lastUpdated": "2026-03-12T11:50:50.125664+00:00",
  "kcps": {
    "metar": "KCPS 121053Z AUTO 22003KT 10SM CLR 01/M03 A3031 RMK AO2 SLP266 T00111033 $",
    "windDirection": 220,
    "windSpeed": 3,
    "windGust": null,
    "visibility": 10,
    "temperatureC": 1,
    "dewPointC": -3,
    "cloudCeiling": 99999,
    "altimeter": "A3031",
    "timestamp": "2026-03-12T10:53:00+00:00",
    "station": "KCPS"
  },
  "kstl": {
    "metar": "KSTL 121051Z 26005KT 10SM CLR 01/M03 A3030 RMK AO2 SLP269 T00061028 $",
    "windDirection": 260,
    "windSpeed": 5,
    "windGust": null,
    "visibility": 10,
    "temperatureC": 1,
    "dewPointC": -3,
    "cloudCeiling": 99999,
    "altimeter": "A3030",
    "timestamp": "2026-03-12T10:51:00+00:00",
    "station": "KSTL"
  }
}