{
  "lastUpdated": "2026-05-09T09:28:36.439908+00:00",
  "kcps": {
    "metar": "KCPS 090853Z AUTO VRB03KT 10SM OVC007 14/13 A2977 RMK AO2 CIG 005V011 SLP078 T01440133 55001 $",
    "windDirection": null,
    "windSpeed": null,
    "windGust": null,
    "visibility": 10,
    "temperatureC": 14,
    "dewPointC": 13,
    "cloudCeiling": 700,
    "altimeter": "A2977",
    "timestamp": "2026-05-09T08:53:00+00:00",
    "station": "KCPS"
  },
  "kstl": {
    "metar": "KSTL 090851Z 22007KT 5SM BR OVC004 13/13 A2977 RMK AO2 SLP075 T01330128 55001 $",
    "windDirection": 220,
    "windSpeed": 7,
    "windGust": null,
    "visibility": 5,
    "temperatureC": 13,
    "dewPointC": 13,
    "cloudCeiling": 400,
    "altimeter": "A2977",
    "timestamp": "2026-05-09T08:51:00+00:00",
    "station": "KSTL"
  }
}