{
  "lastUpdated": "2026-01-18T08:38:49.649243+00:00",
  "kcps": {
    "metar": "KCPS 180753Z 29006KT 10SM CLR M10/M16 A3026 RMK AO2 SLP254 T11001161 $",
    "windDirection": 290,
    "windSpeed": 6,
    "windGust": null,
    "visibility": 10,
    "temperatureC": -10,
    "dewPointC": -16,
    "cloudCeiling": 99999,
    "altimeter": "A3026",
    "timestamp": "2026-01-18T07:53:00+00:00",
    "station": "KCPS"
  },
  "kstl": {
    "metar": "KSTL 180751Z 27012KT 10SM FEW050 M11/M17 A3025 RMK AO2 SLP260 T11061167 $",
    "windDirection": 270,
    "windSpeed": 12,
    "windGust": null,
    "visibility": 10,
    "temperatureC": -11,
    "dewPointC": -17,
    "cloudCeiling": null,
    "altimeter": "A3025",
    "timestamp": "2026-01-18T07:51:00+00:00",
    "station": "KSTL"
  }
}