{
  "lastUpdated": "2026-03-27T15:15:45.364334+00:00",
  "kcps": {
    "metar": "KCPS 271453Z 01013KT 10SM BKN023 04/00 A3041 RMK AO2 SLP296 60000 T00440000 51055 $",
    "windDirection": 10,
    "windSpeed": 13,
    "windGust": null,
    "visibility": 10,
    "temperatureC": 4,
    "dewPointC": 0,
    "cloudCeiling": 2300,
    "altimeter": "A3041",
    "timestamp": "2026-03-27T14:53:00+00:00",
    "station": "KCPS"
  },
  "kstl": {
    "metar": "KSTL 271451Z 01012G22KT 10SM FEW021 BKN130 BKN250 05/M01 A3041 RMK AO2 SLP300 T00501006 51055 $",
    "windDirection": 10,
    "windSpeed": 12,
    "windGust": 22,
    "visibility": 10,
    "temperatureC": 5,
    "dewPointC": -1,
    "cloudCeiling": 13000,
    "altimeter": "A3041",
    "timestamp": "2026-03-27T14:51:00+00:00",
    "station": "KSTL"
  }
}