{
  "lastUpdated": "2025-12-01T11:46:19.916372+00:00",
  "kcps": {
    "metar": "KCPS 011053Z AUTO 06004KT 10SM OVC021 M04/M08 A3044 RMK AO2 SLP315 T10441078 $",
    "windDirection": 60,
    "windSpeed": 4,
    "windGust": null,
    "visibility": 10,
    "temperatureC": -4,
    "dewPointC": -8,
    "cloudCeiling": 2100,
    "altimeter": "A3044",
    "timestamp": "2025-12-01T10:53:00+00:00",
    "station": "KCPS"
  },
  "kstl": {
    "metar": "KSTL 011110Z 10006KT 10SM SCT024 OVC100 M05/M07 A3042 RMK AO2 T10501072 $",
    "windDirection": 100,
    "windSpeed": 6,
    "windGust": null,
    "visibility": 10,
    "temperatureC": -5,
    "dewPointC": -7,
    "cloudCeiling": 10000,
    "altimeter": "A3042",
    "timestamp": "2025-12-01T11:10:00+00:00",
    "station": "KSTL"
  }
}