{
  "lastUpdated": "2026-02-19T09:05:00.259187+00:00",
  "kcps": {
    "metar": "KCPS 190853Z AUTO 16004KT 7SM CLR 09/09 A2958 RMK AO2 SLP015 T00940094 58011 $",
    "windDirection": 160,
    "windSpeed": 4,
    "windGust": null,
    "visibility": 7,
    "temperatureC": 9,
    "dewPointC": 9,
    "cloudCeiling": 99999,
    "altimeter": "A2958",
    "timestamp": "2026-02-19T08:53:00+00:00",
    "station": "KCPS"
  },
  "kstl": {
    "metar": "KSTL 190851Z 06003KT 10SM BKN240 08/07 A2959 RMK AO2 SLP014 T00830072 56014 $",
    "windDirection": 60,
    "windSpeed": 3,
    "windGust": null,
    "visibility": 10,
    "temperatureC": 8,
    "dewPointC": 7,
    "cloudCeiling": 24000,
    "altimeter": "A2959",
    "timestamp": "2026-02-19T08:51:00+00:00",
    "station": "KSTL"
  }
}