{
  "lastUpdated": "2026-05-02T19:05:55.724711+00:00",
  "kcps": {
    "metar": "KCPS 021853Z 36013G18KT 10SM BKN080 OVC095 14/01 A3011 RMK AO2 SLP196 T01440006 $",
    "windDirection": 360,
    "windSpeed": 13,
    "windGust": 18,
    "visibility": 10,
    "temperatureC": 14,
    "dewPointC": 1,
    "cloudCeiling": 8000,
    "altimeter": "A3011",
    "timestamp": "2026-05-02T18:53:00+00:00",
    "station": "KCPS"
  },
  "kstl": {
    "metar": "KSTL 021851Z 01005KT 10SM SCT055 BKN090 BKN250 14/01 A3011 RMK AO2 RAE20 SLP197 P0000 T01390006 $",
    "windDirection": 10,
    "windSpeed": 5,
    "windGust": null,
    "visibility": 10,
    "temperatureC": 14,
    "dewPointC": 1,
    "cloudCeiling": 9000,
    "altimeter": "A3011",
    "timestamp": "2026-05-02T18:51:00+00:00",
    "station": "KSTL"
  }
}