{
  "lastUpdated": "2026-03-20T00:11:24.600667+00:00",
  "kcps": {
    "metar": "KCPS 192353Z 15008KT 10SM CLR 22/08 A2996 RMK AO2 SLP144 T02170078 10261 20206 55004 $",
    "windDirection": 150,
    "windSpeed": 8,
    "windGust": null,
    "visibility": 10,
    "temperatureC": 22,
    "dewPointC": 8,
    "cloudCeiling": 99999,
    "altimeter": "A2996",
    "timestamp": "2026-03-19T23:53:00+00:00",
    "station": "KCPS"
  },
  "kstl": {
    "metar": "KSTL 192351Z 26003KT 10SM BKN250 24/04 A2997 RMK AO2 SLP144 T02390044 10267 20206 55004 $",
    "windDirection": 260,
    "windSpeed": 3,
    "windGust": null,
    "visibility": 10,
    "temperatureC": 24,
    "dewPointC": 4,
    "cloudCeiling": 25000,
    "altimeter": "A2997",
    "timestamp": "2026-03-19T23:51:00+00:00",
    "station": "KSTL"
  }
}