{
  "lastUpdated": "2026-02-01T07:29:59.553174+00:00",
  "kcps": {
    "metar": "KCPS 010653Z AUTO 00000KT 10SM CLR M12/M16 A3048 RMK AO2 SLP330 T11221161 $",
    "windDirection": 0,
    "windSpeed": 0,
    "windGust": null,
    "visibility": 10,
    "temperatureC": -12,
    "dewPointC": -16,
    "cloudCeiling": 99999,
    "altimeter": "A3048",
    "timestamp": "2026-02-01T06:53:00+00:00",
    "station": "KCPS"
  },
  "kstl": {
    "metar": "KSTL 010651Z 28005KT 10SM CLR M13/M17 A3048 RMK AO2 SLP341 T11281172 $",
    "windDirection": 280,
    "windSpeed": 5,
    "windGust": null,
    "visibility": 10,
    "temperatureC": -13,
    "dewPointC": -17,
    "cloudCeiling": 99999,
    "altimeter": "A3048",
    "timestamp": "2026-02-01T06:51:00+00:00",
    "station": "KSTL"
  }
}