{
  "lastUpdated": "2026-05-07T22:35:30.373299+00:00",
  "kcps": {
    "metar": "KCPS 072153Z 25009G16KT 10SM CLR 19/02 A2993 RMK AO2 SLP135 T01940017 $",
    "windDirection": 250,
    "windSpeed": 9,
    "windGust": 16,
    "visibility": 10,
    "temperatureC": 19,
    "dewPointC": 2,
    "cloudCeiling": 99999,
    "altimeter": "A2993",
    "timestamp": "2026-05-07T21:53:00+00:00",
    "station": "KCPS"
  },
  "kstl": {
    "metar": "KSTL 072151Z 23011G19KT 10SM SCT080 19/03 A2993 RMK AO2 SLP134 T01940028 $",
    "windDirection": 230,
    "windSpeed": 11,
    "windGust": 19,
    "visibility": 10,
    "temperatureC": 19,
    "dewPointC": 3,
    "cloudCeiling": null,
    "altimeter": "A2993",
    "timestamp": "2026-05-07T21:51:00+00:00",
    "station": "KSTL"
  }
}