{
  "lastUpdated": "2025-11-10T23:32:42.185910+00:00",
  "kcps": {
    "metar": "KCPS 102253Z 30009KT 10SM CLR 02/M11 A3037 RMK AO2 SLP289 T00171106",
    "windDirection": 300,
    "windSpeed": 9,
    "windGust": null,
    "visibility": 10,
    "temperatureC": 2,
    "dewPointC": -11,
    "cloudCeiling": 99999,
    "altimeter": "A3037",
    "timestamp": "2025-11-10T22:53:00+00:00",
    "station": "KCPS"
  },
  "kstl": {
    "metar": "KSTL 102151Z 31009G19KT 10SM FEW055 03/M11 A3037 RMK AO2 SLP293 T00281111 $",
    "windDirection": 310,
    "windSpeed": 9,
    "windGust": 19,
    "visibility": 10,
    "temperatureC": 3,
    "dewPointC": -11,
    "cloudCeiling": null,
    "altimeter": "A3037",
    "timestamp": "2025-11-10T21:51:00+00:00",
    "station": "KSTL"
  }
}