{
  "lastUpdated": "2026-04-24T10:55:12.621664+00:00",
  "kcps": {
    "metar": "KCPS 241053Z AUTO 17006KT 5SM RA BR OVC060 16/15 A2974 RMK AO2 LTG DSNT SE AND S SLP069 P0014 T01560150 $",
    "windDirection": 170,
    "windSpeed": 6,
    "windGust": null,
    "visibility": 5,
    "temperatureC": 16,
    "dewPointC": 15,
    "cloudCeiling": 6000,
    "altimeter": "A2974",
    "timestamp": "2026-04-24T10:53:00+00:00",
    "station": "KCPS"
  },
  "kstl": {
    "metar": "KSTL 241051Z 18008KT 10SM -RA BKN085 OVC110 16/15 A2973 RMK AO2 SLP056 P0012 T01560150 $",
    "windDirection": 180,
    "windSpeed": 8,
    "windGust": null,
    "visibility": 10,
    "temperatureC": 16,
    "dewPointC": 15,
    "cloudCeiling": 8500,
    "altimeter": "A2973",
    "timestamp": "2026-04-24T10:51:00+00:00",
    "station": "KSTL"
  }
}