{
  "lastUpdated": "2025-10-22T05:21:37.049582+00:00",
  "kcps": {
    "metar": "KCPS 220453Z AUTO 24004KT 10SM CLR 09/02 A3001 RMK AO2 SLP162 T00940022",
    "windDirection": 240,
    "windSpeed": 4,
    "windGust": null,
    "visibility": 10,
    "temperatureC": 9,
    "dewPointC": 2,
    "cloudCeiling": 99999,
    "altimeter": "A3001",
    "timestamp": "2025-10-22T04:53:00+00:00",
    "station": "KCPS"
  },
  "kstl": {
    "metar": "KSTL 220451Z 25007KT 10SM CLR 11/02 A3001 RMK AO2 SLP161 T01060017 $",
    "windDirection": 250,
    "windSpeed": 7,
    "windGust": null,
    "visibility": 10,
    "temperatureC": 11,
    "dewPointC": 2,
    "cloudCeiling": 99999,
    "altimeter": "A3001",
    "timestamp": "2025-10-22T04:51:00+00:00",
    "station": "KSTL"
  }
}