{
  "lastUpdated": "2025-10-25T00:36:12.873162+00:00",
  "kcps": {
    "metar": "KCPS 242353Z 00000KT 10SM BKN120 12/07 A3023 RMK AO2 SLP239 60000 T01220067 10172 20122 55006 $",
    "windDirection": 0,
    "windSpeed": 0,
    "windGust": null,
    "visibility": 10,
    "temperatureC": 12,
    "dewPointC": 7,
    "cloudCeiling": 12000,
    "altimeter": "A3023",
    "timestamp": "2025-10-24T23:53:00+00:00",
    "station": "KCPS"
  },
  "kstl": {
    "metar": "KSTL 242351Z 14006KT 10SM OVC110 14/03 A3024 RMK AO2 SLP242 T01440028 10167 20144 55005 $",
    "windDirection": 140,
    "windSpeed": 6,
    "windGust": null,
    "visibility": 10,
    "temperatureC": 14,
    "dewPointC": 3,
    "cloudCeiling": 11000,
    "altimeter": "A3024",
    "timestamp": "2025-10-24T23:51:00+00:00",
    "station": "KSTL"
  }
}