{
  "lastUpdated": "2026-04-13T07:32:44.291647+00:00",
  "kcps": {
    "metar": "KCPS 130653Z AUTO 20006KT 10SM FEW050 22/16 A2997 RMK AO2 SLP143 T02170161 $",
    "windDirection": 200,
    "windSpeed": 6,
    "windGust": null,
    "visibility": 10,
    "temperatureC": 22,
    "dewPointC": 16,
    "cloudCeiling": null,
    "altimeter": "A2997",
    "timestamp": "2026-04-13T06:53:00+00:00",
    "station": "KCPS"
  },
  "kstl": {
    "metar": "KSTL 130651Z 21008KT 10SM BKN050 22/16 A2996 RMK AO2 SLP136 T02170161 $",
    "windDirection": 210,
    "windSpeed": 8,
    "windGust": null,
    "visibility": 10,
    "temperatureC": 22,
    "dewPointC": 16,
    "cloudCeiling": 5000,
    "altimeter": "A2996",
    "timestamp": "2026-04-13T06:51:00+00:00",
    "station": "KSTL"
  }
}