{
  "lastUpdated": "2025-10-25T01:08:04.344170+00:00",
  "kcps": {
    "metar": "KCPS 250053Z 00000KT 10SM OVC100 12/07 A3024 RMK AO2 SLP240 T01220067 $",
    "windDirection": 0,
    "windSpeed": 0,
    "windGust": null,
    "visibility": 10,
    "temperatureC": 12,
    "dewPointC": 7,
    "cloudCeiling": 10000,
    "altimeter": "A3024",
    "timestamp": "2025-10-25T00:53:00+00:00",
    "station": "KCPS"
  },
  "kstl": {
    "metar": "KSTL 250051Z 10006KT 10SM OVC100 14/04 A3023 RMK AO2 SLP240 T01440039 $",
    "windDirection": 100,
    "windSpeed": 6,
    "windGust": null,
    "visibility": 10,
    "temperatureC": 14,
    "dewPointC": 4,
    "cloudCeiling": 10000,
    "altimeter": "A3023",
    "timestamp": "2025-10-25T00:51:00+00:00",
    "station": "KSTL"
  }
}