{
  "lastUpdated": "2026-01-08T08:23:07.417243+00:00",
  "kcps": {
    "metar": "KCPS 080753Z AUTO 15007KT 10SM CLR 09/03 A2986 RMK AO2 SLP111 T00890033 $",
    "windDirection": 150,
    "windSpeed": 7,
    "windGust": null,
    "visibility": 10,
    "temperatureC": 9,
    "dewPointC": 3,
    "cloudCeiling": 99999,
    "altimeter": "A2986",
    "timestamp": "2026-01-08T07:53:00+00:00",
    "station": "KCPS"
  },
  "kstl": {
    "metar": "KSTL 080751Z 15010KT 10SM BKN250 11/04 A2985 RMK AO2 SLP104 T01110039 $",
    "windDirection": 150,
    "windSpeed": 10,
    "windGust": null,
    "visibility": 10,
    "temperatureC": 11,
    "dewPointC": 4,
    "cloudCeiling": 25000,
    "altimeter": "A2985",
    "timestamp": "2026-01-08T07:51:00+00:00",
    "station": "KSTL"
  }
}