{
  "lastUpdated": "2026-02-16T18:24:56.156506+00:00",
  "kcps": {
    "metar": "KCPS 161653Z 21008G16KT 10SM CLR 15/04 A3008 RMK AO2 SLP187 T01500044 $",
    "windDirection": 210,
    "windSpeed": 8,
    "windGust": 16,
    "visibility": 10,
    "temperatureC": 15,
    "dewPointC": 4,
    "cloudCeiling": 99999,
    "altimeter": "A3008",
    "timestamp": "2026-02-16T16:53:00+00:00",
    "station": "KCPS"
  },
  "kstl": {
    "metar": "KSTL 161751Z 21014G26KT 10SM FEW150 BKN220 18/01 A3005 RMK AO2 PK WND 21026/1744 SLP177 T01780011 10178 20050 58009 $",
    "windDirection": 210,
    "windSpeed": 14,
    "windGust": 26,
    "visibility": 10,
    "temperatureC": 18,
    "dewPointC": 1,
    "cloudCeiling": 22000,
    "altimeter": "A3005",
    "timestamp": "2026-02-16T17:51:00+00:00",
    "station": "KSTL"
  }
}