{
  "lastUpdated": "2025-10-17T09:46:49.778181+00:00",
  "kcps": {
    "metar": "KCPS 170853Z AUTO 15006KT 10SM CLR 17/13 A2998 RMK AO2 SLP149 T01720133 55003",
    "windDirection": 150,
    "windSpeed": 6,
    "windGust": null,
    "visibility": 10,
    "temperatureC": 17,
    "dewPointC": 13,
    "cloudCeiling": 99999,
    "altimeter": "A2998",
    "timestamp": "2025-10-17T08:53:00+00:00",
    "station": "KCPS"
  },
  "kstl": {
    "metar": "KSTL 170851Z 14006KT 10SM BKN250 18/13 A2998 RMK AO2 SLP143 T01830133 55001 $",
    "windDirection": 140,
    "windSpeed": 6,
    "windGust": null,
    "visibility": 10,
    "temperatureC": 18,
    "dewPointC": 13,
    "cloudCeiling": 25000,
    "altimeter": "A2998",
    "timestamp": "2025-10-17T08:51:00+00:00",
    "station": "KSTL"
  }
}