{
  "lastUpdated": "2025-10-27T08:22:56.369194+00:00",
  "kcps": {
    "metar": "KCPS 270753Z AUTO 08004KT 10SM -RA OVC015 11/09 A3008 RMK AO2 SLP188 P0000 T01060094 $",
    "windDirection": 80,
    "windSpeed": 4,
    "windGust": null,
    "visibility": 10,
    "temperatureC": 11,
    "dewPointC": 9,
    "cloudCeiling": 1500,
    "altimeter": "A3008",
    "timestamp": "2025-10-27T07:53:00+00:00",
    "station": "KCPS"
  },
  "kstl": {
    "metar": "KSTL 270751Z 08007KT 5SM -RA BR OVC017 11/09 A3009 RMK AO2 SLP189 P0001 T01060094 $",
    "windDirection": 80,
    "windSpeed": 7,
    "windGust": null,
    "visibility": 5,
    "temperatureC": 11,
    "dewPointC": 9,
    "cloudCeiling": 1700,
    "altimeter": "A3009",
    "timestamp": "2025-10-27T07:51:00+00:00",
    "station": "KSTL"
  }
}