{
  "lastUpdated": "2025-11-29T09:46:20.826320+00:00",
  "kcps": {
    "metar": "KCPS 290926Z 12007KT 1 3/4SM -SN OVC028 01/M04 A3030 RMK AO2 SNB22 P0000 T00111039 $",
    "windDirection": 120,
    "windSpeed": 7,
    "windGust": null,
    "visibility": 0.75,
    "temperatureC": 1,
    "dewPointC": -4,
    "cloudCeiling": 2800,
    "altimeter": "A3030",
    "timestamp": "2025-11-29T09:26:00+00:00",
    "station": "KCPS"
  },
  "kstl": {
    "metar": "KSTL 290932Z 14009KT 1/2SM R30R/3500V5000FT SN FG VV008 00/M02 A3029 RMK AO2 SNB0852 P0003 T00001017 $",
    "windDirection": 140,
    "windSpeed": 9,
    "windGust": null,
    "visibility": 0.5,
    "temperatureC": 0,
    "dewPointC": -2,
    "cloudCeiling": 800,
    "altimeter": "A3029",
    "timestamp": "2025-11-29T09:32:00+00:00",
    "station": "KSTL"
  }
}