{
  "lastUpdated": "2026-04-29T21:06:52.567691+00:00",
  "kcps": {
    "metar": "KCPS 292053Z 33012KT 10SM FEW055 17/06 A3000 RMK AO2 SLP159 T01720056 58012 $",
    "windDirection": 330,
    "windSpeed": 12,
    "windGust": null,
    "visibility": 10,
    "temperatureC": 17,
    "dewPointC": 6,
    "cloudCeiling": null,
    "altimeter": "A3000",
    "timestamp": "2026-04-29T20:53:00+00:00",
    "station": "KCPS"
  },
  "kstl": {
    "metar": "KSTL 292051Z 35013G18KT 10SM FEW050 BKN250 17/06 A3001 RMK AO2 SLP160 T01720061 58014 $",
    "windDirection": 350,
    "windSpeed": 13,
    "windGust": 18,
    "visibility": 10,
    "temperatureC": 17,
    "dewPointC": 6,
    "cloudCeiling": 25000,
    "altimeter": "A3001",
    "timestamp": "2026-04-29T20:51:00+00:00",
    "station": "KSTL"
  }
}