{
  "lastUpdated": "2026-01-25T17:21:09.153684+00:00",
  "kcps": {
    "metar": "KCPS 251653Z 34014KT 1 1/4SM -SN BKN020 BKN025 OVC030 M13/M16 A3012 RMK AO2 SLP206 P0000 T11281156 $",
    "windDirection": 340,
    "windSpeed": 14,
    "windGust": null,
    "visibility": 0.25,
    "temperatureC": -13,
    "dewPointC": -16,
    "cloudCeiling": 2000,
    "altimeter": "A3012",
    "timestamp": "2026-01-25T16:53:00+00:00",
    "station": "KCPS"
  },
  "kstl": {
    "metar": "KSTL 251651Z 35014G21KT 3SM -SN FEW025 BKN030 OVC039 M13/M17 A3012 RMK AO2 SLP221 P0000 T11331167 $",
    "windDirection": 350,
    "windSpeed": 14,
    "windGust": 21,
    "visibility": 3,
    "temperatureC": -13,
    "dewPointC": -17,
    "cloudCeiling": 3000,
    "altimeter": "A3012",
    "timestamp": "2026-01-25T16:51:00+00:00",
    "station": "KSTL"
  }
}