{
  "lastUpdated": "2026-01-21T19:23:44.631210+00:00",
  "kcps": {
    "metar": "KCPS 211853Z 28011KT 10SM CLR 09/M06 A3005 RMK AO2 SLP178 T00941056 $",
    "windDirection": 280,
    "windSpeed": 11,
    "windGust": null,
    "visibility": 10,
    "temperatureC": 9,
    "dewPointC": -6,
    "cloudCeiling": 99999,
    "altimeter": "A3005",
    "timestamp": "2026-01-21T18:53:00+00:00",
    "station": "KCPS"
  },
  "kstl": {
    "metar": "KSTL 211851Z 24016KT 10SM CLR 09/M07 A3005 RMK AO2 SLP183 T00891067 $",
    "windDirection": 240,
    "windSpeed": 16,
    "windGust": null,
    "visibility": 10,
    "temperatureC": 9,
    "dewPointC": -7,
    "cloudCeiling": 99999,
    "altimeter": "A3005",
    "timestamp": "2026-01-21T18:51:00+00:00",
    "station": "KSTL"
  }
}