{
  "lastUpdated": "2025-12-01T18:02:46.636032+00:00",
  "kcps": {
    "metar": "\u0000\u0000\u0000\u0000\u0000\u0000\u0000\u0000\u0000\u0000\u0000\u0000\u0000\u0000\u0000\u0000\u0000\u0000\u0000\u0000\u0000\u0000\u0000\u0000\u0000",
    "windDirection": null,
    "windSpeed": null,
    "windGust": null,
    "visibility": null,
    "temperatureC": null,
    "dewPointC": null,
    "cloudCeiling": null,
    "altimeter": null,
    "timestamp": null
  },
  "kstl": {
    "metar": "KSTL 011757Z 21005KT 1/2SM R30R/2200V4000FT -SN FZFG OVC009 M04/M06 A3030 RMK AO2 P0001 T10441056 $",
    "windDirection": 210,
    "windSpeed": 5,
    "windGust": null,
    "visibility": 0.5,
    "temperatureC": -4,
    "dewPointC": -6,
    "cloudCeiling": 900,
    "altimeter": "A3030",
    "timestamp": "2025-12-01T17:57:00+00:00",
    "station": "KSTL"
  }
}