{
  "lastUpdated": "2026-02-04T12:26:02.437343+00:00",
  "kcps": {
    "metar": "KCPS 041153Z AUTO 01006KT 10SM SCT085 M05/M09 A3036 RMK AO2 SLP284 T10501089 11006 21050 51014 $",
    "windDirection": 10,
    "windSpeed": 6,
    "windGust": null,
    "visibility": 10,
    "temperatureC": -5,
    "dewPointC": -9,
    "cloudCeiling": null,
    "altimeter": "A3036",
    "timestamp": "2026-02-04T11:53:00+00:00",
    "station": "KCPS"
  },
  "kstl": {
    "metar": "KSTL 041151Z 36008KT 10SM SCT080 SCT250 M06/M09 A3035 RMK AO2 SLP292 4/002 T10561094 11011 21056 51012",
    "windDirection": 360,
    "windSpeed": 8,
    "windGust": null,
    "visibility": 10,
    "temperatureC": -6,
    "dewPointC": -9,
    "cloudCeiling": null,
    "altimeter": "A3035",
    "timestamp": "2026-02-04T11:51:00+00:00",
    "station": "KSTL"
  }
}