{
  "lastUpdated": "2026-02-13T23:44:17.718912+00:00",
  "kcps": {
    "metar": "KCPS 132153Z 17009KT 10SM CLR 16/M02 A3008 RMK AO2 SLP186 T01611017 $",
    "windDirection": 170,
    "windSpeed": 9,
    "windGust": null,
    "visibility": 10,
    "temperatureC": 16,
    "dewPointC": -2,
    "cloudCeiling": 99999,
    "altimeter": "A3008",
    "timestamp": "2026-02-13T21:53:00+00:00",
    "station": "KCPS"
  },
  "kstl": {
    "metar": "KSTL 132251Z 16008KT 10SM FEW250 16/M03 A3007 RMK AO2 SLP186 T01611028 $",
    "windDirection": 160,
    "windSpeed": 8,
    "windGust": null,
    "visibility": 10,
    "temperatureC": 16,
    "dewPointC": -3,
    "cloudCeiling": null,
    "altimeter": "A3007",
    "timestamp": "2026-02-13T22:51:00+00:00",
    "station": "KSTL"
  }
}