{
  "lastUpdated": "2026-02-06T19:30:18.753194+00:00",
  "kcps": {
    "metar": "KCPS 061853Z 33016KT 10SM BKN035 09/02 A2997 RMK AO2 SLP150 T00940022 $",
    "windDirection": 330,
    "windSpeed": 16,
    "windGust": null,
    "visibility": 10,
    "temperatureC": 9,
    "dewPointC": 2,
    "cloudCeiling": 3500,
    "altimeter": "A2997",
    "timestamp": "2026-02-06T18:53:00+00:00",
    "station": "KCPS"
  },
  "kstl": {
    "metar": "KSTL 061851Z 32015G23KT 10SM FEW035 09/02 A2997 RMK AO2 PK WND 32026/1820 SLP157 T00940022 $",
    "windDirection": 320,
    "windSpeed": 15,
    "windGust": 23,
    "visibility": 10,
    "temperatureC": 9,
    "dewPointC": 2,
    "cloudCeiling": null,
    "altimeter": "A2997",
    "timestamp": "2026-02-06T18:51:00+00:00",
    "station": "KSTL"
  }
}