{
  "lastUpdated": "2026-01-29T14:48:32.360412+00:00",
  "kcps": {
    "metar": "KCPS 291353Z 03006KT 10SM FEW090 M07/M13 A3031 RMK AO2 SLP269 T10721133",
    "windDirection": 30,
    "windSpeed": 6,
    "windGust": null,
    "visibility": 10,
    "temperatureC": -7,
    "dewPointC": -13,
    "cloudCeiling": null,
    "altimeter": "A3031",
    "timestamp": "2026-01-29T13:53:00+00:00",
    "station": "KCPS"
  },
  "kstl": {
    "metar": "KSTL 291351Z 07005KT 10SM BKN075 BKN180 BKN250 M07/M13 A3030 RMK AO2 SLP274 T10671133 $",
    "windDirection": 70,
    "windSpeed": 5,
    "windGust": null,
    "visibility": 10,
    "temperatureC": -7,
    "dewPointC": -13,
    "cloudCeiling": 7500,
    "altimeter": "A3030",
    "timestamp": "2026-01-29T13:51:00+00:00",
    "station": "KSTL"
  }
}