{
  "lastUpdated": "2026-02-10T15:23:41.617340+00:00",
  "kcps": {
    "metar": "KCPS 101453Z 29005G21KT 10SM CLR 12/09 A2989 RMK AO2 SLP123 T01220089 53004 $",
    "windDirection": 290,
    "windSpeed": 5,
    "windGust": 21,
    "visibility": 10,
    "temperatureC": 12,
    "dewPointC": 9,
    "cloudCeiling": 99999,
    "altimeter": "A2989",
    "timestamp": "2026-02-10T14:53:00+00:00",
    "station": "KCPS"
  },
  "kstl": {
    "metar": "KSTL 101451Z 30005KT 10SM FEW250 13/08 A2990 RMK AO2 SLP127 T01280083 53012 $",
    "windDirection": 300,
    "windSpeed": 5,
    "windGust": null,
    "visibility": 10,
    "temperatureC": 13,
    "dewPointC": 8,
    "cloudCeiling": null,
    "altimeter": "A2990",
    "timestamp": "2026-02-10T14:51:00+00:00",
    "station": "KSTL"
  }
}