{
  "lastUpdated": "2025-12-20T03:36:31.896331+00:00",
  "kcps": {
    "metar": "KCPS 200253Z 15008KT 10SM CLR 01/M07 A2998 RMK AO2 SLP156 T00061072 56014",
    "windDirection": 150,
    "windSpeed": 8,
    "windGust": null,
    "visibility": 10,
    "temperatureC": 1,
    "dewPointC": -7,
    "cloudCeiling": 99999,
    "altimeter": "A2998",
    "timestamp": "2025-12-20T02:53:00+00:00",
    "station": "KCPS"
  },
  "kstl": {
    "metar": "KSTL 200251Z 14010KT 10SM BKN250 02/M09 A2995 RMK AO2 SLP153 T00221089 58020 $",
    "windDirection": 140,
    "windSpeed": 10,
    "windGust": null,
    "visibility": 10,
    "temperatureC": 2,
    "dewPointC": -9,
    "cloudCeiling": 25000,
    "altimeter": "A2995",
    "timestamp": "2025-12-20T02:51:00+00:00",
    "station": "KSTL"
  }
}