{
  "lastUpdated": "2026-04-30T06:34:54.452536+00:00",
  "kcps": {
    "metar": "KCPS 300553Z AUTO 34006KT 10SM CLR 10/03 A3008 RMK AO2 SLP184 T01000033 10156 20100 401780100 55000 $",
    "windDirection": 340,
    "windSpeed": 6,
    "windGust": null,
    "visibility": 10,
    "temperatureC": 10,
    "dewPointC": 3,
    "cloudCeiling": 99999,
    "altimeter": "A3008",
    "timestamp": "2026-04-30T05:53:00+00:00",
    "station": "KCPS"
  },
  "kstl": {
    "metar": "KSTL 300551Z 30003KT 10SM CLR 09/04 A3008 RMK AO2 SLP185 T00890044 10144 20089 401780089 58001 $",
    "windDirection": 300,
    "windSpeed": 3,
    "windGust": null,
    "visibility": 10,
    "temperatureC": 9,
    "dewPointC": 4,
    "cloudCeiling": 99999,
    "altimeter": "A3008",
    "timestamp": "2026-04-30T05:51:00+00:00",
    "station": "KSTL"
  }
}