{
  "lastUpdated": "2025-12-31T12:23:47.497435+00:00",
  "kcps": {
    "metar": "KCPS 311153Z AUTO 25005KT 10SM CLR M01/M07 A3007 RMK AO2 SLP186 T10111072 10011 21039 55000 $",
    "windDirection": 250,
    "windSpeed": 5,
    "windGust": null,
    "visibility": 10,
    "temperatureC": -1,
    "dewPointC": -7,
    "cloudCeiling": 99999,
    "altimeter": "A3007",
    "timestamp": "2025-12-31T11:53:00+00:00",
    "station": "KCPS"
  },
  "kstl": {
    "metar": "KSTL 311151Z 26008KT 10SM SCT250 M01/M07 A3007 RMK AO2 SLP193 T10111067 10011 21022 55001 $",
    "windDirection": 260,
    "windSpeed": 8,
    "windGust": null,
    "visibility": 10,
    "temperatureC": -1,
    "dewPointC": -7,
    "cloudCeiling": null,
    "altimeter": "A3007",
    "timestamp": "2025-12-31T11:51:00+00:00",
    "station": "KSTL"
  }
}