{
  "lastUpdated": "2025-12-27T00:07:38.026301+00:00",
  "kcps": {
    "metar": "KCPS 262353Z 01006KT 10SM CLR 12/09 A2988 RMK AO2 SLP118 T01220094 10217 20117 51020 $",
    "windDirection": 10,
    "windSpeed": 6,
    "windGust": null,
    "visibility": 10,
    "temperatureC": 12,
    "dewPointC": 9,
    "cloudCeiling": 99999,
    "altimeter": "A2988",
    "timestamp": "2025-12-26T23:53:00+00:00",
    "station": "KCPS"
  },
  "kstl": {
    "metar": "KSTL 262351Z 31003KT 10SM SCT250 12/09 A2989 RMK AO2 SLP120 T01170094 10194 20117 51016 $",
    "windDirection": 310,
    "windSpeed": 3,
    "windGust": null,
    "visibility": 10,
    "temperatureC": 12,
    "dewPointC": 9,
    "cloudCeiling": null,
    "altimeter": "A2989",
    "timestamp": "2025-12-26T23:51:00+00:00",
    "station": "KSTL"
  }
}