{
  "lastUpdated": "2026-02-22T18:04:11.132953+00:00",
  "kcps": {
    "metar": "KCPS 221753Z 33018G26KT 9SM CLR M02/M13 A3049 RMK AO2 PK WND 31029/1738 SNB38E48 SLP328 6//// T10221128 11017 21050 50009 PNO $",
    "windDirection": 330,
    "windSpeed": 18,
    "windGust": 26,
    "visibility": 9,
    "temperatureC": -2,
    "dewPointC": -13,
    "cloudCeiling": 99999,
    "altimeter": "A3049",
    "timestamp": "2026-02-22T17:53:00+00:00",
    "station": "KCPS"
  },
  "kstl": {
    "metar": "KSTL 221751Z 31013G26KT 10SM FEW037 M03/M13 A3048 RMK AO2 PK WND 29029/1659 SLP335 T10281128 11022 21061 50009 $",
    "windDirection": 310,
    "windSpeed": 13,
    "windGust": 26,
    "visibility": 10,
    "temperatureC": -3,
    "dewPointC": -13,
    "cloudCeiling": null,
    "altimeter": "A3048",
    "timestamp": "2026-02-22T17:51:00+00:00",
    "station": "KSTL"
  }
}