{
  "lastUpdated": "2026-02-06T05:36:54.088170+00:00",
  "kcps": {
    "metar": "KCPS 060453Z 00000KT 10SM CLR M03/M06 A2990 RMK AO2 SLP130 T10331056 $",
    "windDirection": 0,
    "windSpeed": 0,
    "windGust": null,
    "visibility": 10,
    "temperatureC": -3,
    "dewPointC": -6,
    "cloudCeiling": 99999,
    "altimeter": "A2990",
    "timestamp": "2026-02-06T04:53:00+00:00",
    "station": "KCPS"
  },
  "kstl": {
    "metar": "KSTL 060451Z 00000KT 10SM FEW250 M02/M05 A2990 RMK AO2 SLP136 T10171050 $",
    "windDirection": 0,
    "windSpeed": 0,
    "windGust": null,
    "visibility": 10,
    "temperatureC": -2,
    "dewPointC": -5,
    "cloudCeiling": null,
    "altimeter": "A2990",
    "timestamp": "2026-02-06T04:51:00+00:00",
    "station": "KSTL"
  }
}