{
  "lastUpdated": "2026-05-17T12:03:28.170960+00:00",
  "kcps": {
    "metar": "KCPS 171153Z 16005KT 10SM CLR 21/18 A2992 RMK AO2 SLP128 70001 T02060183 10217 20172 52007 $",
    "windDirection": 160,
    "windSpeed": 5,
    "windGust": null,
    "visibility": 10,
    "temperatureC": 21,
    "dewPointC": 18,
    "cloudCeiling": 99999,
    "altimeter": "A2992",
    "timestamp": "2026-05-17T11:53:00+00:00",
    "station": "KCPS"
  },
  "kstl": {
    "metar": "KSTL 171151Z 17009KT 10SM BKN150 BKN250 21/17 A2992 RMK AO2 SLP120 70056 T02110172 10233 20189 53003 $",
    "windDirection": 170,
    "windSpeed": 9,
    "windGust": null,
    "visibility": 10,
    "temperatureC": 21,
    "dewPointC": 17,
    "cloudCeiling": 15000,
    "altimeter": "A2992",
    "timestamp": "2026-05-17T11:51:00+00:00",
    "station": "KSTL"
  }
}