{
  "lastUpdated": "2026-04-15T18:50:20.187415+00:00",
  "kcps": {
    "metar": "KCPS 151753Z 21008KT 180V240 10SM FEW060 SCT070 BKN120 22/17 A2990 RMK AO2 SLP121 60006 T02170172 10239 20194 58006 $",
    "windDirection": 210,
    "windSpeed": 8,
    "windGust": null,
    "visibility": 10,
    "temperatureC": 22,
    "dewPointC": 17,
    "cloudCeiling": 12000,
    "altimeter": "A2990",
    "timestamp": "2026-04-15T17:53:00+00:00",
    "station": "KCPS"
  },
  "kstl": {
    "metar": "KSTL 151751Z 19009KT 10SM FEW043 BKN120 OVC250 21/17 A2989 RMK AO2 RAB19E43 SLP112 P0000 60000 T02110172 10228 20200 58008",
    "windDirection": 190,
    "windSpeed": 9,
    "windGust": null,
    "visibility": 10,
    "temperatureC": 21,
    "dewPointC": 17,
    "cloudCeiling": 12000,
    "altimeter": "A2989",
    "timestamp": "2026-04-15T17:51:00+00:00",
    "station": "KSTL"
  }
}