{
  "lastUpdated": "2026-03-25T14:24:23.916523+00:00",
  "kcps": {
    "metar": "KCPS 251353Z 16006KT 10SM CLR 11/01 A3007 RMK AO2 SLP183 T01060011 $",
    "windDirection": 160,
    "windSpeed": 6,
    "windGust": null,
    "visibility": 10,
    "temperatureC": 11,
    "dewPointC": 1,
    "cloudCeiling": 99999,
    "altimeter": "A3007",
    "timestamp": "2026-03-25T13:53:00+00:00",
    "station": "KCPS"
  },
  "kstl": {
    "metar": "KSTL 251351Z 15007KT 10SM BKN250 12/M01 A3007 RMK AO2 SLP180 T01221011",
    "windDirection": 150,
    "windSpeed": 7,
    "windGust": null,
    "visibility": 10,
    "temperatureC": 12,
    "dewPointC": -1,
    "cloudCeiling": 25000,
    "altimeter": "A3007",
    "timestamp": "2026-03-25T13:51:00+00:00",
    "station": "KSTL"
  }
}