{
  "lastUpdated": "2026-04-20T11:56:04.529941+00:00",
  "kcps": {
    "metar": "KCPS 201153Z 00000KT 10SM CLR 05/02 A3033 RMK AO2 SLP270 T00500022 10100 20039 53016 $",
    "windDirection": 0,
    "windSpeed": 0,
    "windGust": null,
    "visibility": 10,
    "temperatureC": 5,
    "dewPointC": 2,
    "cloudCeiling": 99999,
    "altimeter": "A3033",
    "timestamp": "2026-04-20T11:53:00+00:00",
    "station": "KCPS"
  },
  "kstl": {
    "metar": "KSTL 201151Z 08005KT 10SM CLR 06/M01 A3033 RMK AO2 SLP269 T00611006 10106 20056 53014 $",
    "windDirection": 80,
    "windSpeed": 5,
    "windGust": null,
    "visibility": 10,
    "temperatureC": 6,
    "dewPointC": -1,
    "cloudCeiling": 99999,
    "altimeter": "A3033",
    "timestamp": "2026-04-20T11:51:00+00:00",
    "station": "KSTL"
  }
}