{
  "lastUpdated": "2026-01-09T08:54:42.315719+00:00",
  "kcps": {
    "metar": "KCPS 090753Z 23005KT 10SM CLR 17/12 A2963 RMK AO2 SLP030 T01720117",
    "windDirection": 230,
    "windSpeed": 5,
    "windGust": null,
    "visibility": 10,
    "temperatureC": 17,
    "dewPointC": 12,
    "cloudCeiling": 99999,
    "altimeter": "A2963",
    "timestamp": "2026-01-09T07:53:00+00:00",
    "station": "KCPS"
  },
  "kstl": {
    "metar": "KSTL 090851Z 28020G34KT 10SM BKN034 BKN049 14/09 A2970 RMK AO2 PK WND 28034/0845 PRESRR SLP054 T01440094 53042 $",
    "windDirection": 280,
    "windSpeed": 20,
    "windGust": 34,
    "visibility": 10,
    "temperatureC": 14,
    "dewPointC": 9,
    "cloudCeiling": 3400,
    "altimeter": "A2970",
    "timestamp": "2026-01-09T08:51:00+00:00",
    "station": "KSTL"
  }
}