{
  "lastUpdated": "2026-02-01T16:42:13.352777+00:00",
  "kcps": {
    "metar": "KCPS 011553Z 21003KT 10SM CLR M10/M16 A3041 RMK AO2 SLP304 T11001161 $",
    "windDirection": 210,
    "windSpeed": 3,
    "windGust": null,
    "visibility": 10,
    "temperatureC": -10,
    "dewPointC": -16,
    "cloudCeiling": 99999,
    "altimeter": "A3041",
    "timestamp": "2026-02-01T15:53:00+00:00",
    "station": "KCPS"
  },
  "kstl": {
    "metar": "KSTL 011551Z 19006KT 10SM SCT120 OVC250 M08/M16 A3038 RMK AO2 SLP307 T10831161 $",
    "windDirection": 190,
    "windSpeed": 6,
    "windGust": null,
    "visibility": 10,
    "temperatureC": -8,
    "dewPointC": -16,
    "cloudCeiling": 25000,
    "altimeter": "A3038",
    "timestamp": "2026-02-01T15:51:00+00:00",
    "station": "KSTL"
  }
}