{
  "lastUpdated": "2026-05-30T07:26:39.047798+00:00",
  "kcps": {
    "metar": "KCPS 300653Z AUTO 00000KT 10SM CLR 21/19 A2991 RMK AO2 SLP124 T02110189 $",
    "windDirection": 0,
    "windSpeed": 0,
    "windGust": null,
    "visibility": 10,
    "temperatureC": 21,
    "dewPointC": 19,
    "cloudCeiling": 99999,
    "altimeter": "A2991",
    "timestamp": "2026-05-30T06:53:00+00:00",
    "station": "KCPS"
  },
  "kstl": {
    "metar": "KSTL 300651Z 10004KT 10SM FEW080 BKN130 OVC200 22/18 A2992 RMK AO2 SLP120 T02220178 $",
    "windDirection": 100,
    "windSpeed": 4,
    "windGust": null,
    "visibility": 10,
    "temperatureC": 22,
    "dewPointC": 18,
    "cloudCeiling": 13000,
    "altimeter": "A2992",
    "timestamp": "2026-05-30T06:51:00+00:00",
    "station": "KSTL"
  }
}