{
  "lastUpdated": "2026-02-26T04:25:48.685006+00:00",
  "kcps": {
    "metar": "KCPS 260353Z AUTO 09004KT 10SM OVC100 08/M01 A2979 RMK AO2 SLP088 T00781006 $",
    "windDirection": 90,
    "windSpeed": 4,
    "windGust": null,
    "visibility": 10,
    "temperatureC": 8,
    "dewPointC": -1,
    "cloudCeiling": 10000,
    "altimeter": "A2979",
    "timestamp": "2026-02-26T03:53:00+00:00",
    "station": "KCPS"
  },
  "kstl": {
    "metar": "KSTL 260351Z 09007KT 10SM OVC100 08/M01 A2980 RMK AO2 SLP094 T00831011 $",
    "windDirection": 90,
    "windSpeed": 7,
    "windGust": null,
    "visibility": 10,
    "temperatureC": 8,
    "dewPointC": -1,
    "cloudCeiling": 10000,
    "altimeter": "A2980",
    "timestamp": "2026-02-26T03:51:00+00:00",
    "station": "KSTL"
  }
}