{
  "lastUpdated": "2026-01-04T07:21:47.226148+00:00",
  "kcps": {
    "metar": "KCPS 040653Z AUTO 00000KT 9SM CLR M06/M07 A3015 RMK AO2 SLP215 T10611072 $",
    "windDirection": 0,
    "windSpeed": 0,
    "windGust": null,
    "visibility": 9,
    "temperatureC": -6,
    "dewPointC": -7,
    "cloudCeiling": 99999,
    "altimeter": "A3015",
    "timestamp": "2026-01-04T06:53:00+00:00",
    "station": "KCPS"
  },
  "kstl": {
    "metar": "KSTL 040651Z 29003KT 10SM CLR M02/M06 A3015 RMK AO2 SLP219 T10221061 $",
    "windDirection": 290,
    "windSpeed": 3,
    "windGust": null,
    "visibility": 10,
    "temperatureC": -2,
    "dewPointC": -6,
    "cloudCeiling": 99999,
    "altimeter": "A3015",
    "timestamp": "2026-01-04T06:51:00+00:00",
    "station": "KSTL"
  }
}