{
  "lastUpdated": "2026-01-24T22:48:10.130867+00:00",
  "kcps": {
    "metar": "KCPS 242243Z 03008KT 1 3/4SM -SN OVC033 M13/M16 A3042 RMK AO2 P0000 T11331161 $",
    "windDirection": 30,
    "windSpeed": 8,
    "windGust": null,
    "visibility": 0.75,
    "temperatureC": -13,
    "dewPointC": -16,
    "cloudCeiling": 3300,
    "altimeter": "A3042",
    "timestamp": "2026-01-24T22:43:00+00:00",
    "station": "KCPS"
  },
  "kstl": {
    "metar": "KSTL 242223Z 04010KT 1 3/4SM -SN BKN030 OVC050 M13/M16 A3040 RMK AO2 P0001 T11331161 $",
    "windDirection": 40,
    "windSpeed": 10,
    "windGust": null,
    "visibility": 0.75,
    "temperatureC": -13,
    "dewPointC": -16,
    "cloudCeiling": 3000,
    "altimeter": "A3040",
    "timestamp": "2026-01-24T22:23:00+00:00",
    "station": "KSTL"
  }
}