{
  "lastUpdated": "2026-06-14T19:29:46.874331+00:00",
  "kcps": {
    "metar": "KCPS 141853Z COR 33012G20KT 10SM FEW055 24/13 A2998 RMK AO2 SLP148 T02440133 $",
    "windDirection": 330,
    "windSpeed": 12,
    "windGust": 20,
    "visibility": 10.0,
    "temperatureC": 24.4,
    "dewPointC": 13.3,
    "cloudCeiling": null,
    "altimeter": "A2998",
    "timestamp": "2026-06-14T19:00:00.000Z",
    "station": "KCPS"
  },
  "kstl": {
    "metar": "KSTL 141851Z 34014G23KT 10SM FEW030 FEW150 24/12 A2999 RMK AO2 SLP146 T02440117 $",
    "windDirection": 340,
    "windSpeed": 14,
    "windGust": 23,
    "visibility": 10.0,
    "temperatureC": 24.4,
    "dewPointC": 11.7,
    "cloudCeiling": null,
    "altimeter": "A2999",
    "timestamp": "2026-06-14T19:00:00.000Z",
    "station": "KSTL"
  }
}