{
  "lastUpdated": "2025-11-15T18:22:20.663571+00:00",
  "kcps": {
    "metar": "KCPS 151753Z 24010G15KT 10SM CLR 25/15 A2967 RMK AO2 SLP045 T02500150 10256 20178 58021 $",
    "windDirection": 240,
    "windSpeed": 10,
    "windGust": 15,
    "visibility": 10,
    "temperatureC": 25,
    "dewPointC": 15,
    "cloudCeiling": 99999,
    "altimeter": "A2967",
    "timestamp": "2025-11-15T17:53:00+00:00",
    "station": "KCPS"
  },
  "kstl": {
    "metar": "KSTL 151751Z 27014KT 10SM FEW030 SCT200 SCT250 25/15 A2968 RMK AO2 SLP042 T02500150 10250 20167 58018 $",
    "windDirection": 270,
    "windSpeed": 14,
    "windGust": null,
    "visibility": 10,
    "temperatureC": 25,
    "dewPointC": 15,
    "cloudCeiling": null,
    "altimeter": "A2968",
    "timestamp": "2025-11-15T17:51:00+00:00",
    "station": "KSTL"
  }
}