{
  "lastUpdated": "2026-04-16T14:20:51.826624+00:00",
  "kcps": {
    "metar": "KCPS 161353Z 23008KT 10SM CLR 18/14 A2991 RMK AO2 SLP127 T01780144 $",
    "windDirection": 230,
    "windSpeed": 8,
    "windGust": null,
    "visibility": 10,
    "temperatureC": 18,
    "dewPointC": 14,
    "cloudCeiling": 99999,
    "altimeter": "A2991",
    "timestamp": "2026-04-16T13:53:00+00:00",
    "station": "KCPS"
  },
  "kstl": {
    "metar": "KSTL 161351Z 24012G19KT 10SM FEW200 18/14 A2991 RMK AO2 SLP122 T01780139 $",
    "windDirection": 240,
    "windSpeed": 12,
    "windGust": 19,
    "visibility": 10,
    "temperatureC": 18,
    "dewPointC": 14,
    "cloudCeiling": null,
    "altimeter": "A2991",
    "timestamp": "2026-04-16T13:51:00+00:00",
    "station": "KSTL"
  }
}