{
  "lastUpdated": "2026-04-09T17:22:55.445660+00:00",
  "kcps": {
    "metar": "KCPS 091653Z 21010G23KT 10SM CLR 25/06 A3019 RMK AO2 SLP220 T02500061 $",
    "windDirection": 210,
    "windSpeed": 10,
    "windGust": 23,
    "visibility": 10,
    "temperatureC": 25,
    "dewPointC": 6,
    "cloudCeiling": 99999,
    "altimeter": "A3019",
    "timestamp": "2026-04-09T16:53:00+00:00",
    "station": "KCPS"
  },
  "kstl": {
    "metar": "KSTL 091651Z 23015G20KT 10SM FEW090 FEW250 26/06 A3019 RMK AO2 SLP214 T02560061 $",
    "windDirection": 230,
    "windSpeed": 15,
    "windGust": 20,
    "visibility": 10,
    "temperatureC": 26,
    "dewPointC": 6,
    "cloudCeiling": null,
    "altimeter": "A3019",
    "timestamp": "2026-04-09T16:51:00+00:00",
    "station": "KSTL"
  }
}