{
  "lastUpdated": "2026-05-08T17:29:46.434102+00:00",
  "kcps": {
    "metar": "KCPS 081553Z VRB05KT 10SM OVC100 18/09 A2990 RMK AO2 SLP124 T01830094 $",
    "windDirection": null,
    "windSpeed": null,
    "windGust": null,
    "visibility": 10,
    "temperatureC": 18,
    "dewPointC": 9,
    "cloudCeiling": 10000,
    "altimeter": "A2990",
    "timestamp": "2026-05-08T15:53:00+00:00",
    "station": "KCPS"
  },
  "kstl": {
    "metar": "KSTL 081651Z 23008KT 10SM -RA BKN070 OVC200 18/09 A2988 RMK AO2 RAE11B49 SLP112 P0000 T01830089 $",
    "windDirection": 230,
    "windSpeed": 8,
    "windGust": null,
    "visibility": 10,
    "temperatureC": 18,
    "dewPointC": 9,
    "cloudCeiling": 7000,
    "altimeter": "A2988",
    "timestamp": "2026-05-08T16:51:00+00:00",
    "station": "KSTL"
  }
}