{
  "lastUpdated": "2026-03-27T12:52:07.193976+00:00",
  "kcps": {
    "metar": "KCPS 271153Z 36010G23KT 10SM -RA BKN036 BKN110 04/02 A3025 RMK AO2 PK WND 01038/1059 SLP241 P0003 60028 70028 T00390017 10117 20039 53031 $",
    "windDirection": 360,
    "windSpeed": 10,
    "windGust": 23,
    "visibility": 10,
    "temperatureC": 4,
    "dewPointC": 2,
    "cloudCeiling": 3600,
    "altimeter": "A3025",
    "timestamp": "2026-03-27T11:53:00+00:00",
    "station": "KCPS"
  },
  "kstl": {
    "metar": "KSTL 271151Z 01016G25KT 6SM HZ FEW060 FEW090 BKN110 04/01 A3025 RMK AO2 PK WND 36035/1127 RAE50 PRESRR SLP236 P0005 60034 70034 T00390006 10128 20039 53027 $",
    "windDirection": 10,
    "windSpeed": 16,
    "windGust": 25,
    "visibility": 6,
    "temperatureC": 4,
    "dewPointC": 1,
    "cloudCeiling": 11000,
    "altimeter": "A3025",
    "timestamp": "2026-03-27T11:51:00+00:00",
    "station": "KSTL"
  }
}