{
  "lastUpdated": "2025-11-27T12:44:29.171988+00:00",
  "kcps": {
    "metar": "KCPS 271153Z AUTO 32011G19KT 10SM CLR M01/M07 A3035 RMK AO2 SLP281 T10111067 10028 21011 53005 $",
    "windDirection": 320,
    "windSpeed": 11,
    "windGust": 19,
    "visibility": 10,
    "temperatureC": -1,
    "dewPointC": -7,
    "cloudCeiling": 99999,
    "altimeter": "A3035",
    "timestamp": "2025-11-27T11:53:00+00:00",
    "station": "KCPS"
  },
  "kstl": {
    "metar": "KSTL 271151Z 31008KT 10SM FEW030 FEW200 M01/M07 A3035 RMK AO2 SLP286 T10111067 10017 21011 53006 $",
    "windDirection": 310,
    "windSpeed": 8,
    "windGust": null,
    "visibility": 10,
    "temperatureC": -1,
    "dewPointC": -7,
    "cloudCeiling": null,
    "altimeter": "A3035",
    "timestamp": "2025-11-27T11:51:00+00:00",
    "station": "KSTL"
  }
}