{
  "lastUpdated": "2026-05-07T10:32:42.281398+00:00",
  "kcps": {
    "metar": "KCPS 070953Z AUTO 00000KT 10SM CLR 05/04 A3004 RMK AO2 SLP171 T00500044 $",
    "windDirection": 0,
    "windSpeed": 0,
    "windGust": null,
    "visibility": 10,
    "temperatureC": 5,
    "dewPointC": 4,
    "cloudCeiling": 99999,
    "altimeter": "A3004",
    "timestamp": "2026-05-07T09:53:00+00:00",
    "station": "KCPS"
  },
  "kstl": {
    "metar": "KSTL 070951Z 21003KT 10SM BKN150 06/04 A3004 RMK AO2 SLP171 T00610039 $",
    "windDirection": 210,
    "windSpeed": 3,
    "windGust": null,
    "visibility": 10,
    "temperatureC": 6,
    "dewPointC": 4,
    "cloudCeiling": 15000,
    "altimeter": "A3004",
    "timestamp": "2026-05-07T09:51:00+00:00",
    "station": "KSTL"
  }
}