{
  "lastUpdated": "2026-01-09T19:21:26.942372+00:00",
  "kcps": {
    "metar": "KCPS 091853Z 34010KT 10SM BKN027 11/04 A3009 RMK AO2 SLP189 T01060039",
    "windDirection": 340,
    "windSpeed": 10,
    "windGust": null,
    "visibility": 10,
    "temperatureC": 11,
    "dewPointC": 4,
    "cloudCeiling": 2700,
    "altimeter": "A3009",
    "timestamp": "2026-01-09T18:53:00+00:00",
    "station": "KCPS"
  },
  "kstl": {
    "metar": "KSTL 091851Z 34006KT 10SM BKN022 09/03 A3011 RMK AO2 SLP192 T00890033 $",
    "windDirection": 340,
    "windSpeed": 6,
    "windGust": null,
    "visibility": 10,
    "temperatureC": 9,
    "dewPointC": 3,
    "cloudCeiling": 2200,
    "altimeter": "A3011",
    "timestamp": "2026-01-09T18:51:00+00:00",
    "station": "KSTL"
  }
}