{
  "lastUpdated": "2026-02-19T05:07:05.235884+00:00",
  "kcps": {
    "metar": "KCPS 190453Z AUTO 15005KT 10SM CLR 12/09 A2963 RMK AO2 SLP031 T01170094 $",
    "windDirection": 150,
    "windSpeed": 5,
    "windGust": null,
    "visibility": 10,
    "temperatureC": 12,
    "dewPointC": 9,
    "cloudCeiling": 99999,
    "altimeter": "A2963",
    "timestamp": "2026-02-19T04:53:00+00:00",
    "station": "KCPS"
  },
  "kstl": {
    "metar": "KSTL 190451Z 18005KT 10SM BKN230 14/09 A2963 RMK AO2 SLP028 T01440089 $",
    "windDirection": 180,
    "windSpeed": 5,
    "windGust": null,
    "visibility": 10,
    "temperatureC": 14,
    "dewPointC": 9,
    "cloudCeiling": 23000,
    "altimeter": "A2963",
    "timestamp": "2026-02-19T04:51:00+00:00",
    "station": "KSTL"
  }
}