{
  "lastUpdated": "2026-04-27T09:29:02.133557+00:00",
  "kcps": {
    "metar": "KCPS 270900Z AUTO 06007KT 10SM BKN095 BKN120 17/15 A2981 RMK AO2 LTG DSNT ALQDS T01670150 $",
    "windDirection": 60,
    "windSpeed": 7,
    "windGust": null,
    "visibility": 10,
    "temperatureC": 17,
    "dewPointC": 15,
    "cloudCeiling": 9500,
    "altimeter": "A2981",
    "timestamp": "2026-04-27T09:00:00+00:00",
    "station": "KCPS"
  },
  "kstl": {
    "metar": "KSTL 270851Z 11013KT 9SM -RA FEW032 BKN042 BKN090 OVC150 17/15 A2981 RMK AO2 TSE50 PRESFR SLP085 OCNL LTGICCC DSNT SE-W CB DSNT SE-W MOV NE P0023 60039 T01670150 58014 $",
    "windDirection": 110,
    "windSpeed": 13,
    "windGust": null,
    "visibility": 9,
    "temperatureC": 17,
    "dewPointC": 15,
    "cloudCeiling": 4200,
    "altimeter": "A2981",
    "timestamp": "2026-04-27T08:51:00+00:00",
    "station": "KSTL"
  }
}