{
  "lastUpdated": "2025-12-09T09:36:59.742223+00:00",
  "kcps": {
    "metar": "KCPS 090853Z AUTO 17006KT 10SM OVC110 01/M04 A3006 RMK AO2 SLP183 T00111039 57022 $",
    "windDirection": 170,
    "windSpeed": 6,
    "windGust": null,
    "visibility": 10,
    "temperatureC": 1,
    "dewPointC": -4,
    "cloudCeiling": 11000,
    "altimeter": "A3006",
    "timestamp": "2025-12-09T08:53:00+00:00",
    "station": "KCPS"
  },
  "kstl": {
    "metar": "KSTL 090851Z 20011KT 10SM FEW100 SCT250 01/M04 A3005 RMK AO2 SLP184 T00111044 56021 $",
    "windDirection": 200,
    "windSpeed": 11,
    "windGust": null,
    "visibility": 10,
    "temperatureC": 1,
    "dewPointC": -4,
    "cloudCeiling": null,
    "altimeter": "A3005",
    "timestamp": "2025-12-09T08:51:00+00:00",
    "station": "KSTL"
  }
}