{
  "lastUpdated": "2025-12-28T23:21:28.548308+00:00",
  "kcps": {
    "metar": "KCPS 282306Z 29018G37KT 10SM BKN022 10/05 A2971 RMK AO2 PK WND 30037/2258 T01000050 $",
    "windDirection": 290,
    "windSpeed": 18,
    "windGust": 37,
    "visibility": 10,
    "temperatureC": 10,
    "dewPointC": 5,
    "cloudCeiling": 2200,
    "altimeter": "A2971",
    "timestamp": "2025-12-28T23:06:00+00:00",
    "station": "KCPS"
  },
  "kstl": {
    "metar": "KSTL 282251Z 30023G36KT 10SM OVC019 08/04 A2972 RMK AO2 PK WND 28041/2208 SLP062 T00830039 $",
    "windDirection": 300,
    "windSpeed": 23,
    "windGust": 36,
    "visibility": 10,
    "temperatureC": 8,
    "dewPointC": 4,
    "cloudCeiling": 1900,
    "altimeter": "A2972",
    "timestamp": "2025-12-28T22:51:00+00:00",
    "station": "KSTL"
  }
}