{
  "lastUpdated": "2025-11-28T16:49:44.207910+00:00",
  "kcps": {
    "metar": "KCPS 281553Z 00000KT 10SM CLR M01/M08 A3050 RMK AO2 SLP334 T10111083",
    "windDirection": 0,
    "windSpeed": 0,
    "windGust": null,
    "visibility": 10,
    "temperatureC": -1,
    "dewPointC": -8,
    "cloudCeiling": 99999,
    "altimeter": "A3050",
    "timestamp": "2025-11-28T15:53:00+00:00",
    "station": "KCPS"
  },
  "kstl": {
    "metar": "KSTL 281551Z 00000KT 10SM FEW250 M01/M08 A3051 RMK AO2 SLP342 T10111078 $",
    "windDirection": 0,
    "windSpeed": 0,
    "windGust": null,
    "visibility": 10,
    "temperatureC": -1,
    "dewPointC": -8,
    "cloudCeiling": null,
    "altimeter": "A3051",
    "timestamp": "2025-11-28T15:51:00+00:00",
    "station": "KSTL"
  }
}