{
  "lastUpdated": "2026-01-16T15:22:14.177363+00:00",
  "kcps": {
    "metar": "KCPS 161453Z 26005KT 10SM BKN055 OVC070 02/M06 A2975 RMK AO2 SLP078 T00221061 53019 $",
    "windDirection": 260,
    "windSpeed": 5,
    "windGust": null,
    "visibility": 10,
    "temperatureC": 2,
    "dewPointC": -6,
    "cloudCeiling": 5500,
    "altimeter": "A2975",
    "timestamp": "2026-01-16T14:53:00+00:00",
    "station": "KCPS"
  },
  "kstl": {
    "metar": "KSTL 161451Z 27010KT 10SM SCT065 OVC085 03/M03 A2974 RMK AO2 SLP080 T00331028 53020 $",
    "windDirection": 270,
    "windSpeed": 10,
    "windGust": null,
    "visibility": 10,
    "temperatureC": 3,
    "dewPointC": -3,
    "cloudCeiling": 8500,
    "altimeter": "A2974",
    "timestamp": "2026-01-16T14:51:00+00:00",
    "station": "KSTL"
  }
}