{
  "lastUpdated": "2026-01-22T21:49:18.384890+00:00",
  "kcps": {
    "metar": "KCPS 222053Z 00000KT 10SM OVC120 04/M15 A3028 RMK AO2 SLP257 T00391150 56022 $",
    "windDirection": 0,
    "windSpeed": 0,
    "windGust": null,
    "visibility": 10,
    "temperatureC": 4,
    "dewPointC": -15,
    "cloudCeiling": 12000,
    "altimeter": "A3028",
    "timestamp": "2026-01-22T20:53:00+00:00",
    "station": "KCPS"
  },
  "kstl": {
    "metar": "KSTL 222051Z 34004KT 10SM SCT110 BKN250 03/M14 A3028 RMK AO2 SLP264 T00331144 56021 $",
    "windDirection": 340,
    "windSpeed": 4,
    "windGust": null,
    "visibility": 10,
    "temperatureC": 3,
    "dewPointC": -14,
    "cloudCeiling": 25000,
    "altimeter": "A3028",
    "timestamp": "2026-01-22T20:51:00+00:00",
    "station": "KSTL"
  }
}