{
  "lastUpdated": "2026-02-14T21:50:08.032068+00:00",
  "kcps": {
    "metar": "KCPS 142127Z 07008KT 3SM RA BR OVC039 08/07 A2990 RMK AO2 PRESFR P0013 T00780067 $",
    "windDirection": 70,
    "windSpeed": 8,
    "windGust": null,
    "visibility": 3,
    "temperatureC": 8,
    "dewPointC": 7,
    "cloudCeiling": 3900,
    "altimeter": "A2990",
    "timestamp": "2026-02-14T21:27:00+00:00",
    "station": "KCPS"
  },
  "kstl": {
    "metar": "KSTL 142130Z 10014KT 2 1/2SM +RA BR FEW005 OVC027 08/07 A2990 RMK AO2 P0012 T00780067 $",
    "windDirection": 100,
    "windSpeed": 14,
    "windGust": null,
    "visibility": 0.5,
    "temperatureC": 8,
    "dewPointC": 7,
    "cloudCeiling": 2700,
    "altimeter": "A2990",
    "timestamp": "2026-02-14T21:30:00+00:00",
    "station": "KSTL"
  }
}