{
  "lastUpdated": "2025-11-28T19:02:02.760222+00:00",
  "kcps": {
    "metar": "KCPS 281853Z 00000KT 10SM CLR 02/M08 A3044 RMK AO2 SLP312 T00171083",
    "windDirection": 0,
    "windSpeed": 0,
    "windGust": null,
    "visibility": 10,
    "temperatureC": 2,
    "dewPointC": -8,
    "cloudCeiling": 99999,
    "altimeter": "A3044",
    "timestamp": "2025-11-28T18:53:00+00:00",
    "station": "KCPS"
  },
  "kstl": {
    "metar": "KSTL 281851Z 00000KT 10SM BKN120 BKN250 01/M08 A3043 RMK AO2 SLP317 T00061083 $",
    "windDirection": 0,
    "windSpeed": 0,
    "windGust": null,
    "visibility": 10,
    "temperatureC": 1,
    "dewPointC": -8,
    "cloudCeiling": 12000,
    "altimeter": "A3043",
    "timestamp": "2025-11-28T18:51:00+00:00",
    "station": "KSTL"
  }
}