{
  "lastUpdated": "2025-12-13T09:02:16.815635+00:00",
  "kcps": {
    "metar": "KCPS 130853Z AUTO 31008KT 10SM OVC012 01/M02 A3019 RMK AO2 SLP225 T00111017 56005",
    "windDirection": 310,
    "windSpeed": 8,
    "windGust": null,
    "visibility": 10,
    "temperatureC": 1,
    "dewPointC": -2,
    "cloudCeiling": 1200,
    "altimeter": "A3019",
    "timestamp": "2025-12-13T08:53:00+00:00",
    "station": "KCPS"
  },
  "kstl": {
    "metar": "KSTL 130851Z 30004KT 10SM OVC020 01/M02 A3018 RMK AO2 SLP229 T00111017 56007 $",
    "windDirection": 300,
    "windSpeed": 4,
    "windGust": null,
    "visibility": 10,
    "temperatureC": 1,
    "dewPointC": -2,
    "cloudCeiling": 2000,
    "altimeter": "A3018",
    "timestamp": "2025-12-13T08:51:00+00:00",
    "station": "KSTL"
  }
}