{
  "lastUpdated": "2026-02-25T11:46:52.959926+00:00",
  "kcps": {
    "metar": "KCPS 250953Z AUTO 00000KT 10SM CLR 01/M03 A2969 RMK AO2 SLP055 T00111033 $",
    "windDirection": 0,
    "windSpeed": 0,
    "windGust": null,
    "visibility": 10,
    "temperatureC": 1,
    "dewPointC": -3,
    "cloudCeiling": 99999,
    "altimeter": "A2969",
    "timestamp": "2026-02-25T09:53:00+00:00",
    "station": "KCPS"
  },
  "kstl": {
    "metar": "KSTL 251051Z 22004KT 10SM BKN150 BKN250 03/M03 A2970 RMK AO2 SLP061 T00281033 $",
    "windDirection": 220,
    "windSpeed": 4,
    "windGust": null,
    "visibility": 10,
    "temperatureC": 3,
    "dewPointC": -3,
    "cloudCeiling": 15000,
    "altimeter": "A2970",
    "timestamp": "2026-02-25T10:51:00+00:00",
    "station": "KSTL"
  }
}