{
  "lastUpdated": "2025-11-18T02:31:01.270253+00:00",
  "kcps": {
    "metar": "KCPS 180225Z VRB05G23KT 10SM -TSRA BKN055 OVC070 13/02 A2997 RMK AO2 LTG DSNT W-NE RAB15 TSB19 P0000 T01280017",
    "windDirection": null,
    "windSpeed": null,
    "windGust": null,
    "visibility": 10,
    "temperatureC": 13,
    "dewPointC": 2,
    "cloudCeiling": 5500,
    "altimeter": "A2997",
    "timestamp": "2025-11-18T02:25:00+00:00",
    "station": "KCPS"
  },
  "kstl": {
    "metar": "KSTL 180226Z 11011KT 10SM -RA SCT035 BKN045 BKN080 09/05 A2993 RMK AO2 TSE25 CONS LTGCCCG N-SW TS N-SW MOV E P0017 T00890050 $",
    "windDirection": 110,
    "windSpeed": 11,
    "windGust": null,
    "visibility": 10,
    "temperatureC": 9,
    "dewPointC": 5,
    "cloudCeiling": 4500,
    "altimeter": "A2993",
    "timestamp": "2025-11-18T02:26:00+00:00",
    "station": "KSTL"
  }
}