{
  "lastUpdated": "2026-02-18T15:05:37.548643+00:00",
  "kcps": {
    "metar": "KCPS 181453Z 26007KT 10SM CLR 18/12 A2969 RMK AO2 SLP051 T01780117 53021 $",
    "windDirection": 260,
    "windSpeed": 7,
    "windGust": null,
    "visibility": 10,
    "temperatureC": 18,
    "dewPointC": 12,
    "cloudCeiling": 99999,
    "altimeter": "A2969",
    "timestamp": "2026-02-18T14:53:00+00:00",
    "station": "KCPS"
  },
  "kstl": {
    "metar": "KSTL 181451Z 25012KT 10SM SCT250 17/11 A2969 RMK AO2 SLP049 T01720111 53024 $",
    "windDirection": 250,
    "windSpeed": 12,
    "windGust": null,
    "visibility": 10,
    "temperatureC": 17,
    "dewPointC": 11,
    "cloudCeiling": null,
    "altimeter": "A2969",
    "timestamp": "2026-02-18T14:51:00+00:00",
    "station": "KSTL"
  }
}