{
  "lastUpdated": "2025-12-26T04:41:33.211226+00:00",
  "kcps": {
    "metar": "KCPS 260410Z AUTO 15005KT 10SM SCT020 16/14 A2985 RMK AO2 T01560144 $",
    "windDirection": 150,
    "windSpeed": 5,
    "windGust": null,
    "visibility": 10,
    "temperatureC": 16,
    "dewPointC": 14,
    "cloudCeiling": null,
    "altimeter": "A2985",
    "timestamp": "2025-12-26T04:10:00+00:00",
    "station": "KCPS"
  },
  "kstl": {
    "metar": "KSTL 260351Z 15008KT 10SM FEW013 BKN230 17/15 A2984 RMK AO2 SLP104 T01670150 $",
    "windDirection": 150,
    "windSpeed": 8,
    "windGust": null,
    "visibility": 10,
    "temperatureC": 17,
    "dewPointC": 15,
    "cloudCeiling": 23000,
    "altimeter": "A2984",
    "timestamp": "2025-12-26T03:51:00+00:00",
    "station": "KSTL"
  }
}