{
  "lastUpdated": "2025-10-17T08:49:44.559894+00:00",
  "kcps": {
    "metar": "KCPS 170753Z AUTO 14005KT 10SM CLR 17/13 A2998 RMK AO2 SLP148 T01670133",
    "windDirection": 140,
    "windSpeed": 5,
    "windGust": null,
    "visibility": 10,
    "temperatureC": 17,
    "dewPointC": 13,
    "cloudCeiling": 99999,
    "altimeter": "A2998",
    "timestamp": "2025-10-17T07:53:00+00:00",
    "station": "KCPS"
  },
  "kstl": {
    "metar": "KSTL 170751Z 15009KT 10SM BKN250 19/13 A2998 RMK AO2 SLP141 T01890133 $",
    "windDirection": 150,
    "windSpeed": 9,
    "windGust": null,
    "visibility": 10,
    "temperatureC": 19,
    "dewPointC": 13,
    "cloudCeiling": 25000,
    "altimeter": "A2998",
    "timestamp": "2025-10-17T07:51:00+00:00",
    "station": "KSTL"
  }
}