{
  "lastUpdated": "2026-02-04T05:23:00.595886+00:00",
  "kcps": {
    "metar": "KCPS 040453Z AUTO 35007KT 10SM OVC080 M01/M05 A3031 RMK AO2 SLP266 T10061050 $",
    "windDirection": 350,
    "windSpeed": 7,
    "windGust": null,
    "visibility": 10,
    "temperatureC": -1,
    "dewPointC": -5,
    "cloudCeiling": 8000,
    "altimeter": "A3031",
    "timestamp": "2026-02-04T04:53:00+00:00",
    "station": "KCPS"
  },
  "kstl": {
    "metar": "KSTL 040451Z 32007KT 10SM OVC080 M01/M05 A3031 RMK AO2 SLP275 T10111050",
    "windDirection": 320,
    "windSpeed": 7,
    "windGust": null,
    "visibility": 10,
    "temperatureC": -1,
    "dewPointC": -5,
    "cloudCeiling": 8000,
    "altimeter": "A3031",
    "timestamp": "2026-02-04T04:51:00+00:00",
    "station": "KSTL"
  }
}