{
  "lastUpdated": "2026-01-12T19:46:38.356829+00:00",
  "kcps": {
    "metar": "KCPS 121853Z 21008KT 10SM CLR 12/M04 A3020 RMK AO2 SLP229 T01171044 $",
    "windDirection": 210,
    "windSpeed": 8,
    "windGust": null,
    "visibility": 10,
    "temperatureC": 12,
    "dewPointC": -4,
    "cloudCeiling": 99999,
    "altimeter": "A3020",
    "timestamp": "2026-01-12T18:53:00+00:00",
    "station": "KCPS"
  },
  "kstl": {
    "metar": "KSTL 121851Z 28006KT 10SM FEW250 12/M04 A3020 RMK AO2 SLP234 T01171044",
    "windDirection": 280,
    "windSpeed": 6,
    "windGust": null,
    "visibility": 10,
    "temperatureC": 12,
    "dewPointC": -4,
    "cloudCeiling": null,
    "altimeter": "A3020",
    "timestamp": "2026-01-12T18:51:00+00:00",
    "station": "KSTL"
  }
}