{
  "lastUpdated": "2026-03-14T09:55:28.492902+00:00",
  "kcps": {
    "metar": "KCPS 140853Z AUTO 05006KT 10SM CLR 04/M02 A3009 RMK AO2 SLP190 T00391017 50002 $",
    "windDirection": 50,
    "windSpeed": 6,
    "windGust": null,
    "visibility": 10,
    "temperatureC": 4,
    "dewPointC": -2,
    "cloudCeiling": 99999,
    "altimeter": "A3009",
    "timestamp": "2026-03-14T08:53:00+00:00",
    "station": "KCPS"
  },
  "kstl": {
    "metar": "KSTL 140951Z 07008KT 10SM BKN160 BKN250 04/M03 A3009 RMK AO2 SLP191 T00441028 $",
    "windDirection": 70,
    "windSpeed": 8,
    "windGust": null,
    "visibility": 10,
    "temperatureC": 4,
    "dewPointC": -3,
    "cloudCeiling": 16000,
    "altimeter": "A3009",
    "timestamp": "2026-03-14T09:51:00+00:00",
    "station": "KSTL"
  }
}