{
  "lastUpdated": "2026-04-30T21:05:56.879116+00:00",
  "kcps": {
    "metar": "KCPS 302053Z 23008KT 10SM BKN080 19/02 A3000 RMK AO2 SLP158 T01890017 56024 $",
    "windDirection": 230,
    "windSpeed": 8,
    "windGust": null,
    "visibility": 10,
    "temperatureC": 19,
    "dewPointC": 2,
    "cloudCeiling": 8000,
    "altimeter": "A3000",
    "timestamp": "2026-04-30T20:53:00+00:00",
    "station": "KCPS"
  },
  "kstl": {
    "metar": "KSTL 302051Z 28009KT 10SM OVC085 18/02 A3000 RMK AO2 SLP160 T01780017 56022",
    "windDirection": 280,
    "windSpeed": 9,
    "windGust": null,
    "visibility": 10,
    "temperatureC": 18,
    "dewPointC": 2,
    "cloudCeiling": 8500,
    "altimeter": "A3000",
    "timestamp": "2026-04-30T20:51:00+00:00",
    "station": "KSTL"
  }
}