{
  "lastUpdated": "2026-04-25T23:58:50.546596+00:00",
  "kcps": {
    "metar": "KCPS 252353Z 11005KT 10SM CLR 23/11 A2984 RMK AO2 SLP102 T02280111 10261 20228 55002 $",
    "windDirection": 110,
    "windSpeed": 5,
    "windGust": null,
    "visibility": 10,
    "temperatureC": 23,
    "dewPointC": 11,
    "cloudCeiling": 99999,
    "altimeter": "A2984",
    "timestamp": "2026-04-25T23:53:00+00:00",
    "station": "KCPS"
  },
  "kstl": {
    "metar": "KSTL 252351Z 07007KT 10SM SCT250 23/09 A2985 RMK AO2 SLP104 T02280089 10250 20222 55004 $",
    "windDirection": 70,
    "windSpeed": 7,
    "windGust": null,
    "visibility": 10,
    "temperatureC": 23,
    "dewPointC": 9,
    "cloudCeiling": null,
    "altimeter": "A2985",
    "timestamp": "2026-04-25T23:51:00+00:00",
    "station": "KSTL"
  }
}