{
  "lastUpdated": "2025-11-05T22:47:12.016522+00:00",
  "kcps": {
    "metar": "KCPS 052153Z 36015G26KT 10SM CLR 19/04 A3015 RMK AO2 PK WND 01026/2145 SLP209 T01940039 $",
    "windDirection": 360,
    "windSpeed": 15,
    "windGust": 26,
    "visibility": 10,
    "temperatureC": 19,
    "dewPointC": 4,
    "cloudCeiling": 99999,
    "altimeter": "A3015",
    "timestamp": "2025-11-05T21:53:00+00:00",
    "station": "KCPS"
  },
  "kstl": {
    "metar": "KSTL 052151Z 35014KT 10SM CLR 19/03 A3017 RMK AO2 SLP211 T01890033 $",
    "windDirection": 350,
    "windSpeed": 14,
    "windGust": null,
    "visibility": 10,
    "temperatureC": 19,
    "dewPointC": 3,
    "cloudCeiling": 99999,
    "altimeter": "A3017",
    "timestamp": "2025-11-05T21:51:00+00:00",
    "station": "KSTL"
  }
}