{
  "lastUpdated": "2026-02-17T09:05:33.612328+00:00",
  "kcps": {
    "metar": "KCPS 170853Z AUTO 15005KT 10SM CLR 06/04 A2995 RMK AO2 SLP143 T00610039 56009 $",
    "windDirection": 150,
    "windSpeed": 5,
    "windGust": null,
    "visibility": 10,
    "temperatureC": 6,
    "dewPointC": 4,
    "cloudCeiling": 99999,
    "altimeter": "A2995",
    "timestamp": "2026-02-17T08:53:00+00:00",
    "station": "KCPS"
  },
  "kstl": {
    "metar": "KSTL 170851Z 12006KT 10SM BKN250 06/04 A2995 RMK AO2 SLP143 T00560039 58007 $",
    "windDirection": 120,
    "windSpeed": 6,
    "windGust": null,
    "visibility": 10,
    "temperatureC": 6,
    "dewPointC": 4,
    "cloudCeiling": 25000,
    "altimeter": "A2995",
    "timestamp": "2026-02-17T08:51:00+00:00",
    "station": "KSTL"
  }
}