{
  "lastUpdated": "2025-11-10T03:10:53.885947+00:00",
  "kcps": {
    "metar": "KCPS 100253Z 33014G20KT 10SM FEW042 M01/M10 A3038 RMK AO2 PK WND 32026/0235 SLP292 T10111100 51007 $",
    "windDirection": 330,
    "windSpeed": 14,
    "windGust": 20,
    "visibility": 10,
    "temperatureC": -1,
    "dewPointC": -10,
    "cloudCeiling": null,
    "altimeter": "A3038",
    "timestamp": "2025-11-10T02:53:00+00:00",
    "station": "KCPS"
  },
  "kstl": {
    "metar": "KSTL 100251Z 32011KT 10SM BKN043 M02/M10 A3038 RMK AO2 SLP296 T10171100 50005 $",
    "windDirection": 320,
    "windSpeed": 11,
    "windGust": null,
    "visibility": 10,
    "temperatureC": -2,
    "dewPointC": -10,
    "cloudCeiling": 4300,
    "altimeter": "A3038",
    "timestamp": "2025-11-10T02:51:00+00:00",
    "station": "KSTL"
  }
}