{
  "lastUpdated": "2025-11-09T20:21:29.305473+00:00",
  "kcps": {
    "metar": "KCPS 091953Z 31020G30KT 10SM FEW050 03/M09 A3027 RMK AO2 PK WND 32032/1929 SLP253 T00331094 $",
    "windDirection": 310,
    "windSpeed": 20,
    "windGust": 30,
    "visibility": 10,
    "temperatureC": 3,
    "dewPointC": -9,
    "cloudCeiling": null,
    "altimeter": "A3027",
    "timestamp": "2025-11-09T19:53:00+00:00",
    "station": "KCPS"
  },
  "kstl": {
    "metar": "KSTL 091951Z 32017G29KT 10SM SCT050 04/M09 A3027 RMK AO2 PK WND 33032/1932 SLP257 T00391094 $",
    "windDirection": 320,
    "windSpeed": 17,
    "windGust": 29,
    "visibility": 10,
    "temperatureC": 4,
    "dewPointC": -9,
    "cloudCeiling": null,
    "altimeter": "A3027",
    "timestamp": "2025-11-09T19:51:00+00:00",
    "station": "KSTL"
  }
}