{
  "lastUpdated": "2026-01-21T10:03:41.900442+00:00",
  "kcps": {
    "metar": "KCPS 210953Z AUTO 21010G18KT 10SM CLR 03/M10 A3009 RMK AO2 SLP192 T00281100 $",
    "windDirection": 210,
    "windSpeed": 10,
    "windGust": 18,
    "visibility": 10,
    "temperatureC": 3,
    "dewPointC": -10,
    "cloudCeiling": 99999,
    "altimeter": "A3009",
    "timestamp": "2026-01-21T09:53:00+00:00",
    "station": "KCPS"
  },
  "kstl": {
    "metar": "KSTL 210951Z 21012KT 10SM OVC170 02/M09 A3007 RMK AO2 SLP189 T00221094 $",
    "windDirection": 210,
    "windSpeed": 12,
    "windGust": null,
    "visibility": 10,
    "temperatureC": 2,
    "dewPointC": -9,
    "cloudCeiling": 17000,
    "altimeter": "A3007",
    "timestamp": "2026-01-21T09:51:00+00:00",
    "station": "KSTL"
  }
}