{
  "lastUpdated": "2026-02-16T01:31:36.632604+00:00",
  "kcps": {
    "metar": "KCPS 160053Z 00000KT 10SM CLR 07/06 A3001 RMK AO2 SLP162 T00670056 $",
    "windDirection": 0,
    "windSpeed": 0,
    "windGust": null,
    "visibility": 10,
    "temperatureC": 7,
    "dewPointC": 6,
    "cloudCeiling": 99999,
    "altimeter": "A3001",
    "timestamp": "2026-02-16T00:53:00+00:00",
    "station": "KCPS"
  },
  "kstl": {
    "metar": "KSTL 160051Z 23003KT 10SM FEW250 09/05 A3001 RMK AO2 SLP164 T00940050 $",
    "windDirection": 230,
    "windSpeed": 3,
    "windGust": null,
    "visibility": 10,
    "temperatureC": 9,
    "dewPointC": 5,
    "cloudCeiling": null,
    "altimeter": "A3001",
    "timestamp": "2026-02-16T00:51:00+00:00",
    "station": "KSTL"
  }
}