{
  "lastUpdated": "2026-04-03T21:15:51.806660+00:00",
  "kcps": {
    "metar": "KCPS 032053Z 17013G21KT 10SM CLR 28/17 A2994 RMK AO2 SLP134 T02780172 56011 $",
    "windDirection": 170,
    "windSpeed": 13,
    "windGust": 21,
    "visibility": 10,
    "temperatureC": 28,
    "dewPointC": 17,
    "cloudCeiling": 99999,
    "altimeter": "A2994",
    "timestamp": "2026-04-03T20:53:00+00:00",
    "station": "KCPS"
  },
  "kstl": {
    "metar": "KSTL 032051Z 16016G27KT 10SM SCT055 BKN075 BKN100 BKN250 27/17 A2993 RMK AO2 PK WND 18027/2045 SLP128 T02720167 56013 $",
    "windDirection": 160,
    "windSpeed": 16,
    "windGust": 27,
    "visibility": 10,
    "temperatureC": 27,
    "dewPointC": 17,
    "cloudCeiling": 7500,
    "altimeter": "A2993",
    "timestamp": "2026-04-03T20:51:00+00:00",
    "station": "KSTL"
  }
}