{
  "lastUpdated": "2025-11-09T07:46:39.409589+00:00",
  "kcps": {
    "metar": "KCPS 090653Z AUTO 31021G31KT 10SM BKN029 OVC037 07/01 A2994 RMK AO2 PK WND 30033/0639 RAE0558B18E41 SLP139 P0000 T00720006 TSNO $",
    "windDirection": 310,
    "windSpeed": 21,
    "windGust": 31,
    "visibility": 10,
    "temperatureC": 7,
    "dewPointC": 1,
    "cloudCeiling": 2900,
    "altimeter": "A2994",
    "timestamp": "2025-11-09T06:53:00+00:00",
    "station": "KCPS"
  },
  "kstl": {
    "metar": "KSTL 090651Z 30020G31KT 10SM BKN023 BKN033 06/01 A2994 RMK AO2 PK WND 32031/0650 SLP140 T00610011 $",
    "windDirection": 300,
    "windSpeed": 20,
    "windGust": 31,
    "visibility": 10,
    "temperatureC": 6,
    "dewPointC": 1,
    "cloudCeiling": 2300,
    "altimeter": "A2994",
    "timestamp": "2025-11-09T06:51:00+00:00",
    "station": "KSTL"
  }
}