{
  "lastUpdated": "2026-01-18T15:02:03.945103+00:00",
  "kcps": {
    "metar": "KCPS 181453Z 28010KT 10SM FEW120 M10/M16 A3022 RMK AO2 SLP241 T11001161 51010 $",
    "windDirection": 280,
    "windSpeed": 10,
    "windGust": null,
    "visibility": 10,
    "temperatureC": -10,
    "dewPointC": -16,
    "cloudCeiling": null,
    "altimeter": "A3022",
    "timestamp": "2026-01-18T14:53:00+00:00",
    "station": "KCPS"
  },
  "kstl": {
    "metar": "KSTL 181451Z 25010KT 10SM FEW150 BKN250 M10/M17 A3019 RMK AO2 SLP242 T11001167 50005 $",
    "windDirection": 250,
    "windSpeed": 10,
    "windGust": null,
    "visibility": 10,
    "temperatureC": -10,
    "dewPointC": -17,
    "cloudCeiling": 25000,
    "altimeter": "A3019",
    "timestamp": "2026-01-18T14:51:00+00:00",
    "station": "KSTL"
  }
}