{
  "lastUpdated": "2026-03-12T14:45:08.154292+00:00",
  "kcps": {
    "metar": "KCPS 121353Z 25004KT 10SM CLR 03/M02 A3033 RMK AO2 SLP273 T00281022 $",
    "windDirection": 250,
    "windSpeed": 4,
    "windGust": null,
    "visibility": 10,
    "temperatureC": 3,
    "dewPointC": -2,
    "cloudCeiling": 99999,
    "altimeter": "A3033",
    "timestamp": "2026-03-12T13:53:00+00:00",
    "station": "KCPS"
  },
  "kstl": {
    "metar": "KSTL 121351Z 27004KT 10SM FEW250 03/M02 A3032 RMK AO2 SLP275 T00331022 $",
    "windDirection": 270,
    "windSpeed": 4,
    "windGust": null,
    "visibility": 10,
    "temperatureC": 3,
    "dewPointC": -2,
    "cloudCeiling": null,
    "altimeter": "A3032",
    "timestamp": "2026-03-12T13:51:00+00:00",
    "station": "KSTL"
  }
}