{
  "lastUpdated": "2026-03-28T16:05:12.218279+00:00",
  "kcps": {
    "metar": "KCPS 281553Z 00000KT 10SM CLR 06/M06 A3067 RMK AO2 SLP387 T00561056 $",
    "windDirection": 0,
    "windSpeed": 0,
    "windGust": null,
    "visibility": 10,
    "temperatureC": 6,
    "dewPointC": -6,
    "cloudCeiling": 99999,
    "altimeter": "A3067",
    "timestamp": "2026-03-28T15:53:00+00:00",
    "station": "KCPS"
  },
  "kstl": {
    "metar": "KSTL 281551Z 14008KT 10SM CLR 06/M07 A3067 RMK AO2 SLP391 T00561067 $",
    "windDirection": 140,
    "windSpeed": 8,
    "windGust": null,
    "visibility": 10,
    "temperatureC": 6,
    "dewPointC": -7,
    "cloudCeiling": 99999,
    "altimeter": "A3067",
    "timestamp": "2026-03-28T15:51:00+00:00",
    "station": "KSTL"
  }
}