{
  "lastUpdated": "2025-10-26T18:22:37.950970+00:00",
  "kcps": {
    "metar": "KCPS 261753Z 08006KT 10SM -RA OVC065 12/09 A3016 RMK AO2 SLP214 P0005 60008 T01170094 10128 20106 58005 $",
    "windDirection": 80,
    "windSpeed": 6,
    "windGust": null,
    "visibility": 10,
    "temperatureC": 12,
    "dewPointC": 9,
    "cloudCeiling": 6500,
    "altimeter": "A3016",
    "timestamp": "2025-10-26T17:53:00+00:00",
    "station": "KCPS"
  },
  "kstl": {
    "metar": "KSTL 261751Z 08009KT 10SM -RA OVC070 12/09 A3016 RMK AO2 SLP215 P0004 60004 T01170089 10128 20106 58007 $",
    "windDirection": 80,
    "windSpeed": 9,
    "windGust": null,
    "visibility": 10,
    "temperatureC": 12,
    "dewPointC": 9,
    "cloudCeiling": 7000,
    "altimeter": "A3016",
    "timestamp": "2025-10-26T17:51:00+00:00",
    "station": "KSTL"
  }
}