{
  "lastUpdated": "2026-03-14T10:53:45.012068+00:00",
  "kcps": {
    "metar": "KCPS 140953Z AUTO 06008KT 10SM CLR 04/M02 A3010 RMK AO2 SLP192 T00391022 $",
    "windDirection": 60,
    "windSpeed": 8,
    "windGust": null,
    "visibility": 10,
    "temperatureC": 4,
    "dewPointC": -2,
    "cloudCeiling": 99999,
    "altimeter": "A3010",
    "timestamp": "2026-03-14T09:53:00+00:00",
    "station": "KCPS"
  },
  "kstl": {
    "metar": "KSTL 141051Z 11007KT 10SM SCT140 SCT250 04/M03 A3011 RMK AO2 SLP198 T00441033 $",
    "windDirection": 110,
    "windSpeed": 7,
    "windGust": null,
    "visibility": 10,
    "temperatureC": 4,
    "dewPointC": -3,
    "cloudCeiling": null,
    "altimeter": "A3011",
    "timestamp": "2026-03-14T10:51:00+00:00",
    "station": "KSTL"
  }
}