{
  "lastUpdated": "2025-12-28T21:02:16.156519+00:00",
  "kcps": {
    "metar": "KCPS 282053Z 26011G18KT 10SM BKN055 OVC075 25/14 A2950 RMK AO2 PK WND 24026/2023 SLP988 T02500144 55015 $",
    "windDirection": 260,
    "windSpeed": 11,
    "windGust": 18,
    "visibility": 10,
    "temperatureC": 25,
    "dewPointC": 14,
    "cloudCeiling": 5500,
    "altimeter": "A2950",
    "timestamp": "2025-12-28T20:53:00+00:00",
    "station": "KCPS"
  },
  "kstl": {
    "metar": "KSTL 282051Z 30023G38KT 10SM BKN055 BKN075 18/13 A2955 RMK AO2 PK WND 27047/2034 WSHFT 2028 RAB26E37 PRESRR SLP001 P0000 60000 T01830128 53011 $",
    "windDirection": 300,
    "windSpeed": 23,
    "windGust": 38,
    "visibility": 10,
    "temperatureC": 18,
    "dewPointC": 13,
    "cloudCeiling": 5500,
    "altimeter": "A2955",
    "timestamp": "2025-12-28T20:51:00+00:00",
    "station": "KSTL"
  }
}