{
  "lastUpdated": "2026-01-11T06:42:56.658768+00:00",
  "kcps": {
    "metar": "KCPS 110553Z 31020G27KT 10SM CLR 01/M08 A3024 RMK AO2 PK WND 32028/0543 SLP245 60000 T00111083 10072 20006 400830006 53025 $",
    "windDirection": 310,
    "windSpeed": 20,
    "windGust": 27,
    "visibility": 10,
    "temperatureC": 1,
    "dewPointC": -8,
    "cloudCeiling": 99999,
    "altimeter": "A3024",
    "timestamp": "2026-01-11T05:53:00+00:00",
    "station": "KCPS"
  },
  "kstl": {
    "metar": "KSTL 110551Z 30013G20KT 10SM FEW050 M01/M10 A3025 RMK AO2 SLP250 60000 T10061100 10072 21006 400831006 53025 $",
    "windDirection": 300,
    "windSpeed": 13,
    "windGust": 20,
    "visibility": 10,
    "temperatureC": -1,
    "dewPointC": -10,
    "cloudCeiling": null,
    "altimeter": "A3025",
    "timestamp": "2026-01-11T05:51:00+00:00",
    "station": "KSTL"
  }
}