{
  "lastUpdated": "2026-06-12T14:14:45.610319+00:00",
  "kcps": {
    "metar": "KCPS 121353Z 02005KT 10SM CLR 24/12 A3002 RMK AO2 SLP161 T02440117 $",
    "windDirection": 20,
    "windSpeed": 5,
    "windGust": null,
    "visibility": 10.0,
    "temperatureC": 24.4,
    "dewPointC": 11.7,
    "cloudCeiling": null,
    "altimeter": "A3002",
    "timestamp": "2026-06-12T14:00:00.000Z",
    "station": "KCPS"
  },
  "kstl": {
    "metar": "KSTL 121351Z 33003KT 10SM FEW100 FEW250 24/12 A3003 RMK AO2 SLP154 T02390117 $",
    "windDirection": 330,
    "windSpeed": 3,
    "windGust": null,
    "visibility": 10.0,
    "temperatureC": 23.9,
    "dewPointC": 11.7,
    "cloudCeiling": null,
    "altimeter": "A3003",
    "timestamp": "2026-06-12T14:00:00.000Z",
    "station": "KSTL"
  }
}