{
  "lastUpdated": "2026-03-18T03:37:41.085480+00:00",
  "kcps": {
    "metar": "KCPS 180253Z AUTO 18008KT 10SM OVC060 02/M11 A3017 RMK AO2 SLP219 T00171106 58005 $",
    "windDirection": 180,
    "windSpeed": 8,
    "windGust": null,
    "visibility": 10,
    "temperatureC": 2,
    "dewPointC": -11,
    "cloudCeiling": 6000,
    "altimeter": "A3017",
    "timestamp": "2026-03-18T02:53:00+00:00",
    "station": "KCPS"
  },
  "kstl": {
    "metar": "KSTL 180251Z 15012G20KT 9SM -SN BKN055 OVC075 02/M11 A3015 RMK AO2 SNE0155B22 SLP222 P0000 60000 T00171111 58008 $",
    "windDirection": 150,
    "windSpeed": 12,
    "windGust": 20,
    "visibility": 9,
    "temperatureC": 2,
    "dewPointC": -11,
    "cloudCeiling": 5500,
    "altimeter": "A3015",
    "timestamp": "2026-03-18T02:51:00+00:00",
    "station": "KSTL"
  }
}