{
  "lastUpdated": "2025-11-18T07:46:42.342341+00:00",
  "kcps": {
    "metar": "KCPS 180653Z 14007KT 10SM BKN036 OVC050 13/M01 A2990 RMK AO2 SLP123 T01331011",
    "windDirection": 140,
    "windSpeed": 7,
    "windGust": null,
    "visibility": 10,
    "temperatureC": 13,
    "dewPointC": -1,
    "cloudCeiling": 3600,
    "altimeter": "A2990",
    "timestamp": "2025-11-18T06:53:00+00:00",
    "station": "KCPS"
  },
  "kstl": {
    "metar": "KSTL 180651Z 09007KT 10SM OVC039 11/03 A2990 RMK AO2 LTG DSNT W SLP122 T01110033 $",
    "windDirection": 90,
    "windSpeed": 7,
    "windGust": null,
    "visibility": 10,
    "temperatureC": 11,
    "dewPointC": 3,
    "cloudCeiling": 3900,
    "altimeter": "A2990",
    "timestamp": "2025-11-18T06:51:00+00:00",
    "station": "KSTL"
  }
}