{
  "lastUpdated": "2026-03-16T18:32:53.990998+00:00",
  "kcps": {
    "metar": "KCPS 161753Z 31022G29KT 10SM -SN OVC032 M03/M10 A2999 RMK AO2 PK WND 31034/1654 SLP160 P0000 60000 T10281100 11028 21056 50008 $",
    "windDirection": 310,
    "windSpeed": 22,
    "windGust": 29,
    "visibility": 10,
    "temperatureC": -3,
    "dewPointC": -10,
    "cloudCeiling": 3200,
    "altimeter": "A2999",
    "timestamp": "2026-03-16T17:53:00+00:00",
    "station": "KCPS"
  },
  "kstl": {
    "metar": "KSTL 161806Z 30018G30KT 10SM BKN029 M04/M11 A3000 RMK AO2 PK WND 31032/1755 T10441111 $",
    "windDirection": 300,
    "windSpeed": 18,
    "windGust": 30,
    "visibility": 10,
    "temperatureC": -4,
    "dewPointC": -11,
    "cloudCeiling": 2900,
    "altimeter": "A3000",
    "timestamp": "2026-03-16T18:06:00+00:00",
    "station": "KSTL"
  }
}