{
  "lastUpdated": "2025-11-26T23:21:14.726461+00:00",
  "kcps": {
    "metar": "KCPS 262153Z 29012G26KT 10SM CLR 07/M07 A3024 RMK AO2 PK WND 30030/2106 SLP242 T00671067",
    "windDirection": 290,
    "windSpeed": 12,
    "windGust": 26,
    "visibility": 10,
    "temperatureC": 7,
    "dewPointC": -7,
    "cloudCeiling": 99999,
    "altimeter": "A3024",
    "timestamp": "2025-11-26T21:53:00+00:00",
    "station": "KCPS"
  },
  "kstl": {
    "metar": "KSTL 262251Z 28014G20KT 10SM FEW060 SCT250 04/M07 A3025 RMK AO2 PK WND 29026/2155 SLP250 T00441067 $",
    "windDirection": 280,
    "windSpeed": 14,
    "windGust": 20,
    "visibility": 10,
    "temperatureC": 4,
    "dewPointC": -7,
    "cloudCeiling": null,
    "altimeter": "A3025",
    "timestamp": "2025-11-26T22:51:00+00:00",
    "station": "KSTL"
  }
}