{
  "lastUpdated": "2026-04-01T09:08:33.752278+00:00",
  "kcps": {
    "metar": "KCPS 010853Z AUTO 35008KT 10SM SCT075 OVC095 18/16 A2992 RMK AO2 LTG DSNT W AND NW SLP126 T01830156 53003 $",
    "windDirection": 350,
    "windSpeed": 8,
    "windGust": null,
    "visibility": 10,
    "temperatureC": 18,
    "dewPointC": 16,
    "cloudCeiling": 9500,
    "altimeter": "A2992",
    "timestamp": "2026-04-01T08:53:00+00:00",
    "station": "KCPS"
  },
  "kstl": {
    "metar": "KSTL 010851Z 35013KT 7SM -TSRA BKN005 OVC065CB 14/14 A2994 RMK AO2 RAB42 TSB15 SLP131 OCNL LTGICCG SW-NW TS SW-NW MOV NE P0000 60000 T01440139 53007 $",
    "windDirection": 350,
    "windSpeed": 13,
    "windGust": null,
    "visibility": 7,
    "temperatureC": 14,
    "dewPointC": 14,
    "cloudCeiling": 500,
    "altimeter": "A2994",
    "timestamp": "2026-04-01T08:51:00+00:00",
    "station": "KSTL"
  }
}