{
  "lastUpdated": "2025-12-13T10:47:01.510758+00:00",
  "kcps": {
    "metar": "KCPS 130953Z AUTO 34005KT 10SM BKN018 01/M02 A3017 RMK AO2 SLP219 T00111022",
    "windDirection": 340,
    "windSpeed": 5,
    "windGust": null,
    "visibility": 10,
    "temperatureC": 1,
    "dewPointC": -2,
    "cloudCeiling": 1800,
    "altimeter": "A3017",
    "timestamp": "2025-12-13T09:53:00+00:00",
    "station": "KCPS"
  },
  "kstl": {
    "metar": "KSTL 131036Z 29004KT 10SM OVC014 01/M02 A3016 RMK AO2 T00061017 $",
    "windDirection": 290,
    "windSpeed": 4,
    "windGust": null,
    "visibility": 10,
    "temperatureC": 1,
    "dewPointC": -2,
    "cloudCeiling": 1400,
    "altimeter": "A3016",
    "timestamp": "2025-12-13T10:36:00+00:00",
    "station": "KSTL"
  }
}