{
  "lastUpdated": "2025-12-10T07:05:03.652211+00:00",
  "kcps": {
    "metar": "KCPS 100653Z AUTO 21010G18KT 10SM FEW120 08/01 A2960 RMK AO2 SLP023 T00780011",
    "windDirection": 210,
    "windSpeed": 10,
    "windGust": 18,
    "visibility": 10,
    "temperatureC": 8,
    "dewPointC": 1,
    "cloudCeiling": null,
    "altimeter": "A2960",
    "timestamp": "2025-12-10T06:53:00+00:00",
    "station": "KCPS"
  },
  "kstl": {
    "metar": "KSTL 100651Z 24016G24KT 10SM BKN140 OVC250 11/01 A2958 RMK AO2 PK WND 24031/0605 SLP016 T01110011 $",
    "windDirection": 240,
    "windSpeed": 16,
    "windGust": 24,
    "visibility": 10,
    "temperatureC": 11,
    "dewPointC": 1,
    "cloudCeiling": 14000,
    "altimeter": "A2958",
    "timestamp": "2025-12-10T06:51:00+00:00",
    "station": "KSTL"
  }
}