{
  "lastUpdated": "2026-04-03T14:14:01.161236+00:00",
  "kcps": {
    "metar": "KCPS 031353Z VRB06KT 10SM FEW044 21/18 A3000 RMK AO2 SLP155 T02110178 $",
    "windDirection": null,
    "windSpeed": null,
    "windGust": null,
    "visibility": 10,
    "temperatureC": 21,
    "dewPointC": 18,
    "cloudCeiling": null,
    "altimeter": "A3000",
    "timestamp": "2026-04-03T13:53:00+00:00",
    "station": "KCPS"
  },
  "kstl": {
    "metar": "KSTL 031351Z 18008KT 10SM SCT034 BKN250 22/17 A2999 RMK AO2 SLP147 T02170172 $",
    "windDirection": 180,
    "windSpeed": 8,
    "windGust": null,
    "visibility": 10,
    "temperatureC": 22,
    "dewPointC": 17,
    "cloudCeiling": 25000,
    "altimeter": "A2999",
    "timestamp": "2026-04-03T13:51:00+00:00",
    "station": "KSTL"
  }
}