{
  "lastUpdated": "2026-02-15T15:22:30.931212+00:00",
  "kcps": {
    "metar": "KCPS 151453Z 02014G21KT 10SM OVC006 07/06 A2996 RMK AO2 SLP147 T00720056 53025 $",
    "windDirection": 20,
    "windSpeed": 14,
    "windGust": 21,
    "visibility": 10,
    "temperatureC": 7,
    "dewPointC": 6,
    "cloudCeiling": 600,
    "altimeter": "A2996",
    "timestamp": "2026-02-15T14:53:00+00:00",
    "station": "KCPS"
  },
  "kstl": {
    "metar": "KSTL 151451Z 02009G19KT 10SM OVC007 07/06 A2997 RMK AO2 SLP152 T00720061 53025 $",
    "windDirection": 20,
    "windSpeed": 9,
    "windGust": 19,
    "visibility": 10,
    "temperatureC": 7,
    "dewPointC": 6,
    "cloudCeiling": 700,
    "altimeter": "A2997",
    "timestamp": "2026-02-15T14:51:00+00:00",
    "station": "KSTL"
  }
}