{
  "lastUpdated": "2026-01-09T01:10:27.119332+00:00",
  "kcps": {
    "station": "KCPS",
    "metar": "Data unavailable",
    "error": "Failed to fetch METAR"
  },
  "kstl": {
    "metar": "KSTL 090051Z 19014G23KT 10SM -RA FEW030 SCT070 OVC095 19/16 A2950 RMK AO2 PK WND 19032/2357 RAE25B40 SLP988 OCNL LTGCC DSNT S-SW CB DSNT S-SW MOV NE P0005 T01890156 $",
    "windDirection": 190,
    "windSpeed": 14,
    "windGust": 23,
    "visibility": 10,
    "temperatureC": 19,
    "dewPointC": 16,
    "cloudCeiling": 9500,
    "altimeter": "A2950",
    "timestamp": "2026-01-09T00:51:00+00:00",
    "station": "KSTL"
  }
}