{
  "lastUpdated": "2025-10-14T19:05:40.190414+00:00",
  "kcps": {
    "metar": "KCPS 141853Z 14005KT 10SM CLR 28/11 A3022 RMK AO2 SLP231 T02830106",
    "windDirection": 140,
    "windSpeed": 5,
    "windGust": null,
    "visibility": 10,
    "temperatureC": 28,
    "dewPointC": 11,
    "cloudCeiling": 99999,
    "altimeter": "A3022",
    "timestamp": "2025-10-14T18:53:00+00:00",
    "station": "KCPS"
  },
  "kstl": {
    "metar": "KSTL 141851Z 00000KT 10SM BKN160 BKN250 27/10 A3024 RMK AO2 SLP230 T02720100 $",
    "windDirection": 0,
    "windSpeed": 0,
    "windGust": null,
    "visibility": 10,
    "temperatureC": 27,
    "dewPointC": 10,
    "cloudCeiling": 16000,
    "altimeter": "A3024",
    "timestamp": "2025-10-14T18:51:00+00:00",
    "station": "KSTL"
  }
}