{
  "lastUpdated": "2026-04-13T15:08:29.658480+00:00",
  "kcps": {
    "metar": "KCPS 131453Z 21010G18KT 10SM OVC036 23/17 A3001 RMK AO2 SLP157 T02330172 50005 $",
    "windDirection": 210,
    "windSpeed": 10,
    "windGust": 18,
    "visibility": 10,
    "temperatureC": 23,
    "dewPointC": 17,
    "cloudCeiling": 3600,
    "altimeter": "A3001",
    "timestamp": "2026-04-13T14:53:00+00:00",
    "station": "KCPS"
  },
  "kstl": {
    "metar": "KSTL 131451Z 20011G21KT 10SM BKN032 BKN250 23/17 A3001 RMK AO2 SLP152 T02330172 51009 $",
    "windDirection": 200,
    "windSpeed": 11,
    "windGust": 21,
    "visibility": 10,
    "temperatureC": 23,
    "dewPointC": 17,
    "cloudCeiling": 3200,
    "altimeter": "A3001",
    "timestamp": "2026-04-13T14:51:00+00:00",
    "station": "KSTL"
  }
}