{
  "lastUpdated": "2026-04-29T03:01:18.468862+00:00",
  "kcps": {
    "metar": "KCPS 290253Z AUTO 05005KT 9SM -RA SCT022 BKN046 OVC095 14/13 A2992 RMK AO2 LTG DSNT SE TSB0155E10 SLP130 P0009 60022 T01390133 51008 $",
    "windDirection": 50,
    "windSpeed": 5,
    "windGust": null,
    "visibility": 9,
    "temperatureC": 14,
    "dewPointC": 13,
    "cloudCeiling": 4600,
    "altimeter": "A2992",
    "timestamp": "2026-04-29T02:53:00+00:00",
    "station": "KCPS"
  },
  "kstl": {
    "metar": "KSTL 290251Z 36005KT 10SM OVC024 15/12 A2993 RMK AO2 RAE07 SLP132 P0001 60001 T01500117 52006 $",
    "windDirection": 360,
    "windSpeed": 5,
    "windGust": null,
    "visibility": 10,
    "temperatureC": 15,
    "dewPointC": 12,
    "cloudCeiling": 2400,
    "altimeter": "A2993",
    "timestamp": "2026-04-29T02:51:00+00:00",
    "station": "KSTL"
  }
}