{
  "lastUpdated": "2025-12-17T19:46:32.884909+00:00",
  "kcps": {
    "metar": "KCPS 171853Z 00000KT 10SM CLR 13/02 A3001 RMK AO2 SLP161 T01280022",
    "windDirection": 0,
    "windSpeed": 0,
    "windGust": null,
    "visibility": 10,
    "temperatureC": 13,
    "dewPointC": 2,
    "cloudCeiling": 99999,
    "altimeter": "A3001",
    "timestamp": "2025-12-17T18:53:00+00:00",
    "station": "KCPS"
  },
  "kstl": {
    "metar": "KSTL 171851Z 15004KT 10SM BKN250 12/02 A2999 RMK AO2 SLP159 T01220022 $",
    "windDirection": 150,
    "windSpeed": 4,
    "windGust": null,
    "visibility": 10,
    "temperatureC": 12,
    "dewPointC": 2,
    "cloudCeiling": 25000,
    "altimeter": "A2999",
    "timestamp": "2025-12-17T18:51:00+00:00",
    "station": "KSTL"
  }
}