{
  "lastUpdated": "2026-02-09T00:11:15.097649+00:00",
  "kcps": {
    "metar": "KCPS 082353Z 09009KT 10SM CLR 02/M04 A3015 RMK AO2 SLP213 T00171044 10067 20011 53009 $",
    "windDirection": 90,
    "windSpeed": 9,
    "windGust": null,
    "visibility": 10,
    "temperatureC": 2,
    "dewPointC": -4,
    "cloudCeiling": 99999,
    "altimeter": "A3015",
    "timestamp": "2026-02-08T23:53:00+00:00",
    "station": "KCPS"
  },
  "kstl": {
    "metar": "KSTL 082351Z 10009KT 10SM FEW150 SCT250 03/M04 A3014 RMK AO2 SLP216 T00281044 10061 20028 53007 $",
    "windDirection": 100,
    "windSpeed": 9,
    "windGust": null,
    "visibility": 10,
    "temperatureC": 3,
    "dewPointC": -4,
    "cloudCeiling": null,
    "altimeter": "A3014",
    "timestamp": "2026-02-08T23:51:00+00:00",
    "station": "KSTL"
  }
}