{
  "lastUpdated": "2026-06-14T09:56:58.264989+00:00",
  "kcps": {
    "metar": "KCPS 140953Z AUTO 32009KT 10SM FEW024 22/20 A2983 RMK AO2 SLP098 T02170200 $",
    "windDirection": 320,
    "windSpeed": 9,
    "windGust": null,
    "visibility": 10.0,
    "temperatureC": 21.7,
    "dewPointC": 20,
    "cloudCeiling": null,
    "altimeter": "A2983",
    "timestamp": "2026-06-14T10:00:00.000Z",
    "station": "KCPS"
  },
  "kstl": {
    "metar": "KSTL 140951Z 30009G18KT 10SM BKN019 BKN120 OVC200 23/19 A2984 RMK AO2 SLP094 T02280189 $",
    "windDirection": 300,
    "windSpeed": 9,
    "windGust": 18,
    "visibility": 10.0,
    "temperatureC": 22.8,
    "dewPointC": 18.9,
    "cloudCeiling": 1900,
    "altimeter": "A2984",
    "timestamp": "2026-06-14T10:00:00.000Z",
    "station": "KSTL"
  }
}