{
  "lastUpdated": "2025-10-20T18:03:04.222381+00:00",
  "kcps": {
    "metar": "KCPS 201653Z 17011G21KT 10SM CLR 19/04 A2996 RMK AO2 SLP146 T01890044",
    "windDirection": 170,
    "windSpeed": 11,
    "windGust": 21,
    "visibility": 10,
    "temperatureC": 19,
    "dewPointC": 4,
    "cloudCeiling": 99999,
    "altimeter": "A2996",
    "timestamp": "2025-10-20T16:53:00+00:00",
    "station": "KCPS"
  },
  "kstl": {
    "metar": "KSTL 201751Z 18016G30KT 10SM CLR 21/03 A2989 RMK AO2 PK WND 18031/1656 SLP117 T02060028 10206 20078 58044 $",
    "windDirection": 180,
    "windSpeed": 16,
    "windGust": 30,
    "visibility": 10,
    "temperatureC": 21,
    "dewPointC": 3,
    "cloudCeiling": 99999,
    "altimeter": "A2989",
    "timestamp": "2025-10-20T17:51:00+00:00",
    "station": "KSTL"
  }
}