{
  "lastUpdated": "2026-02-26T15:06:09.496083+00:00",
  "kcps": {
    "metar": "KCPS 261453Z 12007KT 10SM CLR 06/00 A2989 RMK AO2 SLP122 T00610000 51014 $",
    "windDirection": 120,
    "windSpeed": 7,
    "windGust": null,
    "visibility": 10,
    "temperatureC": 6,
    "dewPointC": 0,
    "cloudCeiling": 99999,
    "altimeter": "A2989",
    "timestamp": "2026-02-26T14:53:00+00:00",
    "station": "KCPS"
  },
  "kstl": {
    "metar": "KSTL 261451Z 12009KT 10SM CLR 06/M02 A2989 RMK AO2 SLP125 T00561017 53015 $",
    "windDirection": 120,
    "windSpeed": 9,
    "windGust": null,
    "visibility": 10,
    "temperatureC": 6,
    "dewPointC": -2,
    "cloudCeiling": 99999,
    "altimeter": "A2989",
    "timestamp": "2026-02-26T14:51:00+00:00",
    "station": "KSTL"
  }
}