{
  "lastUpdated": "2026-02-07T20:40:17.850893+00:00",
  "kcps": {
    "metar": "KCPS 071953Z 12005KT 10SM CLR 03/M08 A3038 RMK AO2 SLP290 T00281083 $",
    "windDirection": 120,
    "windSpeed": 5,
    "windGust": null,
    "visibility": 10,
    "temperatureC": 3,
    "dewPointC": -8,
    "cloudCeiling": 99999,
    "altimeter": "A3038",
    "timestamp": "2026-02-07T19:53:00+00:00",
    "station": "KCPS"
  },
  "kstl": {
    "metar": "KSTL 071951Z 13003KT 10SM SCT250 03/M09 A3037 RMK AO2 SLP293 T00281094 $",
    "windDirection": 130,
    "windSpeed": 3,
    "windGust": null,
    "visibility": 10,
    "temperatureC": 3,
    "dewPointC": -9,
    "cloudCeiling": null,
    "altimeter": "A3037",
    "timestamp": "2026-02-07T19:51:00+00:00",
    "station": "KSTL"
  }
}