{
  "lastUpdated": "2025-12-14T16:22:06.480320+00:00",
  "kcps": {
    "metar": "KCPS 141553Z 34009KT 10SM CLR M12/M19 A3075 RMK AO2 SLP421 T11171194 $",
    "windDirection": 340,
    "windSpeed": 9,
    "windGust": null,
    "visibility": 10,
    "temperatureC": -12,
    "dewPointC": -19,
    "cloudCeiling": 99999,
    "altimeter": "A3075",
    "timestamp": "2025-12-14T15:53:00+00:00",
    "station": "KCPS"
  },
  "kstl": {
    "metar": "KSTL 141551Z 33006KT 10SM FEW250 M12/M19 A3073 RMK AO2 SLP430 T11221194 $",
    "windDirection": 330,
    "windSpeed": 6,
    "windGust": null,
    "visibility": 10,
    "temperatureC": -12,
    "dewPointC": -19,
    "cloudCeiling": null,
    "altimeter": "A3073",
    "timestamp": "2025-12-14T15:51:00+00:00",
    "station": "KSTL"
  }
}