{
  "lastUpdated": "2026-04-28T23:32:07.932080+00:00",
  "kcps": {
    "metar": "KCPS 282301Z 08007KT 10SM -RA SCT018 SCT036 BKN049 14/13 A2990 RMK AO2 PRESFR P0000 T01440128 $",
    "windDirection": 80,
    "windSpeed": 7,
    "windGust": null,
    "visibility": 10,
    "temperatureC": 14,
    "dewPointC": 13,
    "cloudCeiling": 4900,
    "altimeter": "A2990",
    "timestamp": "2026-04-28T23:01:00+00:00",
    "station": "KCPS"
  },
  "kstl": {
    "metar": "KSTL 282251Z 02008KT 10SM -RA SCT024 BKN050 OVC100 15/12 A2993 RMK AO2 RAE2156B13 SLP133 P0003 T01500122 $",
    "windDirection": 20,
    "windSpeed": 8,
    "windGust": null,
    "visibility": 10,
    "temperatureC": 15,
    "dewPointC": 12,
    "cloudCeiling": 5000,
    "altimeter": "A2993",
    "timestamp": "2026-04-28T22:51:00+00:00",
    "station": "KSTL"
  }
}