{
  "lastUpdated": "2026-02-27T13:48:06.805651+00:00",
  "kcps": {
    "metar": "KCPS 271253Z 00000KT 10SM CLR M01/M01 A2996 RMK AO2 SLP147 I1000 T10111011 $",
    "windDirection": 0,
    "windSpeed": 0,
    "windGust": null,
    "visibility": 10,
    "temperatureC": -1,
    "dewPointC": -1,
    "cloudCeiling": 99999,
    "altimeter": "A2996",
    "timestamp": "2026-02-27T12:53:00+00:00",
    "station": "KCPS"
  },
  "kstl": {
    "metar": "KSTL 271251Z 00000KT 10SM FEW250 03/02 A2996 RMK AO2 SLP147 T00330017 $",
    "windDirection": 0,
    "windSpeed": 0,
    "windGust": null,
    "visibility": 10,
    "temperatureC": 3,
    "dewPointC": 2,
    "cloudCeiling": null,
    "altimeter": "A2996",
    "timestamp": "2026-02-27T12:51:00+00:00",
    "station": "KSTL"
  }
}