{
  "lastUpdated": "2025-10-24T01:51:01.245364+00:00",
  "kcps": {
    "metar": "KCPS 240053Z 00000KT 10SM CLR 08/03 A3020 RMK AO2 SLP229 T00830033 $",
    "windDirection": 0,
    "windSpeed": 0,
    "windGust": null,
    "visibility": 10,
    "temperatureC": 8,
    "dewPointC": 3,
    "cloudCeiling": 99999,
    "altimeter": "A3020",
    "timestamp": "2025-10-24T00:53:00+00:00",
    "station": "KCPS"
  },
  "kstl": {
    "metar": "KSTL 240051Z 00000KT 10SM SCT250 12/02 A3020 RMK AO2 SLP231 T01170022 $",
    "windDirection": 0,
    "windSpeed": 0,
    "windGust": null,
    "visibility": 10,
    "temperatureC": 12,
    "dewPointC": 2,
    "cloudCeiling": null,
    "altimeter": "A3020",
    "timestamp": "2025-10-24T00:51:00+00:00",
    "station": "KSTL"
  }
}