{
  "lastUpdated": "2026-05-17T16:45:47.346986+00:00",
  "kcps": {
    "metar": "KCPS 171553Z 17015G22KT 10SM CLR 27/19 A2989 RMK AO2 SLP119 T02670189 $",
    "windDirection": 170,
    "windSpeed": 15,
    "windGust": 22,
    "visibility": 10,
    "temperatureC": 27,
    "dewPointC": 19,
    "cloudCeiling": 99999,
    "altimeter": "A2989",
    "timestamp": "2026-05-17T15:53:00+00:00",
    "station": "KCPS"
  },
  "kstl": {
    "metar": "KSTL 171551Z 17018G25KT 10SM SCT150 BKN250 27/19 A2989 RMK AO2 PK WND 16026/1509 SLP109 T02670189 $",
    "windDirection": 170,
    "windSpeed": 18,
    "windGust": 25,
    "visibility": 10,
    "temperatureC": 27,
    "dewPointC": 19,
    "cloudCeiling": 25000,
    "altimeter": "A2989",
    "timestamp": "2026-05-17T15:51:00+00:00",
    "station": "KSTL"
  }
}