{
  "lastUpdated": "2026-04-08T19:42:11.093476+00:00",
  "kcps": {
    "metar": "KCPS 081853Z 16013G21KT 120V180 10SM CLR 24/07 A3013 RMK AO2 SLP202 T02390067 $",
    "windDirection": 160,
    "windSpeed": 13,
    "windGust": 21,
    "visibility": 10,
    "temperatureC": 24,
    "dewPointC": 7,
    "cloudCeiling": 99999,
    "altimeter": "A3013",
    "timestamp": "2026-04-08T18:53:00+00:00",
    "station": "KCPS"
  },
  "kstl": {
    "metar": "KSTL 081851Z 18013G24KT 10SM BKN200 BKN250 23/04 A3013 RMK AO2 SLP199 T02330044 $",
    "windDirection": 180,
    "windSpeed": 13,
    "windGust": 24,
    "visibility": 10,
    "temperatureC": 23,
    "dewPointC": 4,
    "cloudCeiling": 20000,
    "altimeter": "A3013",
    "timestamp": "2026-04-08T18:51:00+00:00",
    "station": "KSTL"
  }
}