{
  "lastUpdated": "2025-10-17T01:51:02.136735+00:00",
  "kcps": {
    "metar": "KCPS 170053Z 14004KT 10SM CLR 22/15 A3000 RMK AO2 SLP158 T02220150",
    "windDirection": 140,
    "windSpeed": 4,
    "windGust": null,
    "visibility": 10,
    "temperatureC": 22,
    "dewPointC": 15,
    "cloudCeiling": 99999,
    "altimeter": "A3000",
    "timestamp": "2025-10-17T00:53:00+00:00",
    "station": "KCPS"
  },
  "kstl": {
    "metar": "KSTL 170051Z 13008KT 10SM SCT250 24/14 A3001 RMK AO2 SLP153 T02440144 $",
    "windDirection": 130,
    "windSpeed": 8,
    "windGust": null,
    "visibility": 10,
    "temperatureC": 24,
    "dewPointC": 14,
    "cloudCeiling": null,
    "altimeter": "A3001",
    "timestamp": "2025-10-17T00:51:00+00:00",
    "station": "KSTL"
  }
}