{
  "lastUpdated": "2025-12-03T00:07:24.381984+00:00",
  "kcps": {
    "metar": "KCPS 022353Z 17005KT 10SM OVC017 M03/M07 A3010 RMK AO2 SLP196 T10331067 11033 21039 58004",
    "windDirection": 170,
    "windSpeed": 5,
    "windGust": null,
    "visibility": 10,
    "temperatureC": -3,
    "dewPointC": -7,
    "cloudCeiling": 1700,
    "altimeter": "A3010",
    "timestamp": "2025-12-02T23:53:00+00:00",
    "station": "KCPS"
  },
  "kstl": {
    "metar": "KSTL 022351Z 17005KT 10SM BKN016 M04/M07 A3007 RMK AO2 SLP199 4/004 60000 T10391067 11033 21044 58006 $",
    "windDirection": 170,
    "windSpeed": 5,
    "windGust": null,
    "visibility": 10,
    "temperatureC": -4,
    "dewPointC": -7,
    "cloudCeiling": 1600,
    "altimeter": "A3007",
    "timestamp": "2025-12-02T23:51:00+00:00",
    "station": "KSTL"
  }
}