{
  "lastUpdated": "2026-06-12T23:28:28.256517+00:00",
  "kcps": {
    "metar": "KCPS 122253Z 08003KT 10SM CLR 29/14 A2997 RMK AO2 SLP146 T02890139 $",
    "windDirection": 80,
    "windSpeed": 3,
    "windGust": null,
    "visibility": 10.0,
    "temperatureC": 28.9,
    "dewPointC": 13.9,
    "cloudCeiling": null,
    "altimeter": "A2997",
    "timestamp": "2026-06-12T23:00:00.000Z",
    "station": "KCPS"
  },
  "kstl": {
    "metar": "KSTL 122251Z 36005KT 10SM FEW060 SCT250 28/13 A3000 RMK AO2 SLP147 T02780128 $",
    "windDirection": 360,
    "windSpeed": 5,
    "windGust": null,
    "visibility": 10.0,
    "temperatureC": 27.8,
    "dewPointC": 12.8,
    "cloudCeiling": null,
    "altimeter": "A3000",
    "timestamp": "2026-06-12T23:00:00.000Z",
    "station": "KSTL"
  }
}