{
  "lastUpdated": "2026-03-25T23:42:58.730426+00:00",
  "kcps": {
    "metar": "KCPS 252253Z 16010KT 10SM CLR 27/11 A2986 RMK AO2 SLP109 T02670106 $",
    "windDirection": 160,
    "windSpeed": 10,
    "windGust": null,
    "visibility": 10,
    "temperatureC": 27,
    "dewPointC": 11,
    "cloudCeiling": 99999,
    "altimeter": "A2986",
    "timestamp": "2026-03-25T22:53:00+00:00",
    "station": "KCPS"
  },
  "kstl": {
    "metar": "KSTL 252251Z 19011G17KT 10SM FEW150 BKN180 BKN250 28/11 A2985 RMK AO2 SLP105 T02780106",
    "windDirection": 190,
    "windSpeed": 11,
    "windGust": 17,
    "visibility": 10,
    "temperatureC": 28,
    "dewPointC": 11,
    "cloudCeiling": 18000,
    "altimeter": "A2985",
    "timestamp": "2026-03-25T22:51:00+00:00",
    "station": "KSTL"
  }
}