{
  "lastUpdated": "2026-04-24T16:17:30.770788+00:00",
  "kcps": {
    "metar": "KCPS 241553Z 29009KT 10SM FEW012 SCT027 BKN090 17/14 A2978 RMK AO2 PK WND 29028/1531 RAE34 SLP082 P0002 T01720144 $",
    "windDirection": 290,
    "windSpeed": 9,
    "windGust": null,
    "visibility": 10,
    "temperatureC": 17,
    "dewPointC": 14,
    "cloudCeiling": 9000,
    "altimeter": "A2978",
    "timestamp": "2026-04-24T15:53:00+00:00",
    "station": "KCPS"
  },
  "kstl": {
    "metar": "KSTL 241551Z 24009KT 10SM FEW008 SCT029 BKN100 OVC210 17/14 A2978 RMK AO2 RAE09 SLP078 P0001 T01720144 $",
    "windDirection": 240,
    "windSpeed": 9,
    "windGust": null,
    "visibility": 10,
    "temperatureC": 17,
    "dewPointC": 14,
    "cloudCeiling": 10000,
    "altimeter": "A2978",
    "timestamp": "2026-04-24T15:51:00+00:00",
    "station": "KSTL"
  }
}