{
  "lastUpdated": "2026-06-13T21:40:48.364265+00:00",
  "kstl": {
    "metar": "KSTL 132051Z VRB03KT 10SM SCT024 BKN120 OVC200 26/19 A2993 RMK AO2 SLP125 T02610194 55020 $",
    "windDirection": "VRB",
    "windSpeed": 3,
    "windGust": null,
    "visibility": 10.0,
    "temperatureC": 26.1,
    "dewPointC": 19.4,
    "cloudCeiling": 12000,
    "altimeter": "A2993",
    "timestamp": "2026-06-13T21:00:00.000Z",
    "station": "KSTL"
  }
}