{
  "lastUpdated": "2025-11-30T05:21:28.418311+00:00",
  "kcps": {
    "metar": "KCPS 300453Z AUTO 27015G26KT 10SM OVC025 01/M03 A3008 RMK AO2 PK WND 30037/0433 RAE00SNB32E35 SLP188 P0001 T00111033 $",
    "windDirection": 270,
    "windSpeed": 15,
    "windGust": 26,
    "visibility": 10,
    "temperatureC": 1,
    "dewPointC": -3,
    "cloudCeiling": 2500,
    "altimeter": "A3008",
    "timestamp": "2025-11-30T04:53:00+00:00",
    "station": "KCPS"
  },
  "kstl": {
    "metar": "KSTL 300451Z 27019G33KT 10SM BKN022 OVC040 01/M03 A3007 RMK AO2 PK WND 27035/0413 SLP192 T00061033 $",
    "windDirection": 270,
    "windSpeed": 19,
    "windGust": 33,
    "visibility": 10,
    "temperatureC": 1,
    "dewPointC": -3,
    "cloudCeiling": 2200,
    "altimeter": "A3007",
    "timestamp": "2025-11-30T04:51:00+00:00",
    "station": "KSTL"
  }
}