{
  "lastUpdated": "2025-11-24T14:21:45.974529+00:00",
  "kcps": {
    "metar": "KCPS 241353Z 15005KT 4SM BR OVC004 08/07 A3010 RMK AO2 SLP195 T00780072",
    "windDirection": 150,
    "windSpeed": 5,
    "windGust": null,
    "visibility": 4,
    "temperatureC": 8,
    "dewPointC": 7,
    "cloudCeiling": 400,
    "altimeter": "A3010",
    "timestamp": "2025-11-24T13:53:00+00:00",
    "station": "KCPS"
  },
  "kstl": {
    "metar": "KSTL 241411Z 13010KT 6SM BR BKN005 BKN090 OVC110 08/07 A3009 RMK AO2 T00780072 $",
    "windDirection": 130,
    "windSpeed": 10,
    "windGust": null,
    "visibility": 6,
    "temperatureC": 8,
    "dewPointC": 7,
    "cloudCeiling": 500,
    "altimeter": "A3009",
    "timestamp": "2025-11-24T14:11:00+00:00",
    "station": "KSTL"
  }
}