{
  "lastUpdated": "2026-02-18T12:07:56.499461+00:00",
  "kcps": {
    "metar": "KCPS 181153Z AUTO 22007KT 10SM CLR 16/12 A2962 RMK AO2 SLP030 T01560117 10156 20144 53011 $",
    "windDirection": 220,
    "windSpeed": 7,
    "windGust": null,
    "visibility": 10,
    "temperatureC": 16,
    "dewPointC": 12,
    "cloudCeiling": 99999,
    "altimeter": "A2962",
    "timestamp": "2026-02-18T11:53:00+00:00",
    "station": "KCPS"
  },
  "kstl": {
    "metar": "KSTL 181151Z 22013KT 10SM CLR 16/11 A2961 RMK AO2 SLP025 T01560111 10161 20150 53014 $",
    "windDirection": 220,
    "windSpeed": 13,
    "windGust": null,
    "visibility": 10,
    "temperatureC": 16,
    "dewPointC": 11,
    "cloudCeiling": 99999,
    "altimeter": "A2961",
    "timestamp": "2026-02-18T11:51:00+00:00",
    "station": "KSTL"
  }
}