{
  "lastUpdated": "2026-01-02T21:02:17.649421+00:00",
  "kcps": {
    "metar": "KCPS 022053Z 05007KT 10SM OVC014 00/M04 A2992 RMK AO2 SLP136 T00001039 55007",
    "windDirection": 50,
    "windSpeed": 7,
    "windGust": null,
    "visibility": 10,
    "temperatureC": 0,
    "dewPointC": -4,
    "cloudCeiling": 1400,
    "altimeter": "A2992",
    "timestamp": "2026-01-02T20:53:00+00:00",
    "station": "KCPS"
  },
  "kstl": {
    "metar": "KSTL 022051Z 02004KT 10SM OVC019 00/M04 A2992 RMK AO2 SLP141 T00001044 55009 $",
    "windDirection": 20,
    "windSpeed": 4,
    "windGust": null,
    "visibility": 10,
    "temperatureC": 0,
    "dewPointC": -4,
    "cloudCeiling": 1900,
    "altimeter": "A2992",
    "timestamp": "2026-01-02T20:51:00+00:00",
    "station": "KSTL"
  }
}