{
  "lastUpdated": "2026-05-10T15:18:31.556682+00:00",
  "kcps": {
    "metar": "KCPS 101453Z 36013KT 10SM CLR 18/06 A3009 RMK AO2 SLP186 T01830061 53021 $",
    "windDirection": 360,
    "windSpeed": 13,
    "windGust": null,
    "visibility": 10,
    "temperatureC": 18,
    "dewPointC": 6,
    "cloudCeiling": 99999,
    "altimeter": "A3009",
    "timestamp": "2026-05-10T14:53:00+00:00",
    "station": "KCPS"
  },
  "kstl": {
    "metar": "KSTL 101451Z 01008KT 10SM BKN120 BKN250 17/05 A3010 RMK AO2 SLP186 T01720050 51022 $",
    "windDirection": 10,
    "windSpeed": 8,
    "windGust": null,
    "visibility": 10,
    "temperatureC": 17,
    "dewPointC": 5,
    "cloudCeiling": 12000,
    "altimeter": "A3010",
    "timestamp": "2026-05-10T14:51:00+00:00",
    "station": "KSTL"
  }
}