{
  "lastUpdated": "2026-05-03T13:06:54.915051+00:00",
  "kcps": {
    "metar": "KCPS 031253Z VRB04KT 10SM CLR 10/04 A3010 RMK AO2 SLP191 T01000039 $",
    "windDirection": null,
    "windSpeed": null,
    "windGust": null,
    "visibility": 10,
    "temperatureC": 10,
    "dewPointC": 4,
    "cloudCeiling": 99999,
    "altimeter": "A3010",
    "timestamp": "2026-05-03T12:53:00+00:00",
    "station": "KCPS"
  },
  "kstl": {
    "metar": "KSTL 031251Z 22009KT 10SM FEW250 11/03 A3008 RMK AO2 SLP187 T01060033 $",
    "windDirection": 220,
    "windSpeed": 9,
    "windGust": null,
    "visibility": 10,
    "temperatureC": 11,
    "dewPointC": 3,
    "cloudCeiling": null,
    "altimeter": "A3008",
    "timestamp": "2026-05-03T12:51:00+00:00",
    "station": "KSTL"
  }
}