{
  "lastUpdated": "2025-12-20T18:49:20.986534+00:00",
  "kcps": {
    "metar": "KCPS 201753Z 21010G17KT 10SM CLR 12/M01 A2985 RMK AO2 SLP109 T01171011 10117 20011 58004 $",
    "windDirection": 210,
    "windSpeed": 10,
    "windGust": 17,
    "visibility": 10,
    "temperatureC": 12,
    "dewPointC": -1,
    "cloudCeiling": 99999,
    "altimeter": "A2985",
    "timestamp": "2025-12-20T17:53:00+00:00",
    "station": "KCPS"
  },
  "kstl": {
    "metar": "KSTL 201751Z 25011KT 10SM FEW200 BKN250 13/M02 A2985 RMK AO2 SLP111 T01281017 10128 20028 58001 $",
    "windDirection": 250,
    "windSpeed": 11,
    "windGust": null,
    "visibility": 10,
    "temperatureC": 13,
    "dewPointC": -2,
    "cloudCeiling": 25000,
    "altimeter": "A2985",
    "timestamp": "2025-12-20T17:51:00+00:00",
    "station": "KSTL"
  }
}