{
  "lastUpdated": "2026-04-05T11:14:01.714566+00:00",
  "kcps": {
    "metar": "KCPS 051053Z AUTO 30011KT 10SM CLR 06/M01 A3023 RMK AO2 SLP237 T00611006 $",
    "windDirection": 300,
    "windSpeed": 11,
    "windGust": null,
    "visibility": 10,
    "temperatureC": 6,
    "dewPointC": -1,
    "cloudCeiling": 99999,
    "altimeter": "A3023",
    "timestamp": "2026-04-05T10:53:00+00:00",
    "station": "KCPS"
  },
  "kstl": {
    "metar": "KSTL 051051Z 29008KT 10SM CLR 04/00 A3022 RMK AO2 SLP239 T00440000 $",
    "windDirection": 290,
    "windSpeed": 8,
    "windGust": null,
    "visibility": 10,
    "temperatureC": 4,
    "dewPointC": 0,
    "cloudCeiling": 99999,
    "altimeter": "A3022",
    "timestamp": "2026-04-05T10:51:00+00:00",
    "station": "KSTL"
  }
}