{
  "lastUpdated": "2026-01-17T21:21:18.783589+00:00",
  "kcps": {
    "metar": "KCPS 172053Z 28011G20KT 10SM FEW035 BKN047 OVC060 M04/M12 A3019 RMK AO2 SLP230 60000 T10441117 53006 $",
    "windDirection": 280,
    "windSpeed": 11,
    "windGust": 20,
    "visibility": 10,
    "temperatureC": -4,
    "dewPointC": -12,
    "cloudCeiling": 4700,
    "altimeter": "A3019",
    "timestamp": "2026-01-17T20:53:00+00:00",
    "station": "KCPS"
  },
  "kstl": {
    "metar": "KSTL 172051Z 29016G23KT 9SM -SN SCT032 BKN046 M06/M14 A3019 RMK AO2 SLP237 P0000 60000 T10561139 53008 $",
    "windDirection": 290,
    "windSpeed": 16,
    "windGust": 23,
    "visibility": 9,
    "temperatureC": -6,
    "dewPointC": -14,
    "cloudCeiling": 4600,
    "altimeter": "A3019",
    "timestamp": "2026-01-17T20:51:00+00:00",
    "station": "KSTL"
  }
}