{
  "lastUpdated": "2025-10-14T17:20:45.396708+00:00",
  "kcps": {
    "metar": "KCPS 141653Z 15004KT 10SM CLR 26/11 A3027 RMK AO2 SLP249 T02610106",
    "windDirection": 150,
    "windSpeed": 4,
    "windGust": null,
    "visibility": 10,
    "temperatureC": 26,
    "dewPointC": 11,
    "cloudCeiling": 99999,
    "altimeter": "A3027",
    "timestamp": "2025-10-14T16:53:00+00:00",
    "station": "KCPS"
  },
  "kstl": {
    "metar": "KSTL 141651Z 14006KT 10SM SCT140 SCT250 25/09 A3028 RMK AO2 SLP244 T02500094 $",
    "windDirection": 140,
    "windSpeed": 6,
    "windGust": null,
    "visibility": 10,
    "temperatureC": 25,
    "dewPointC": 9,
    "cloudCeiling": null,
    "altimeter": "A3028",
    "timestamp": "2025-10-14T16:51:00+00:00",
    "station": "KSTL"
  }
}