{
  "lastUpdated": "2026-02-14T03:34:02.256492+00:00",
  "kcps": {
    "metar": "KCPS 140253Z 16004KT 10SM CLR 08/M02 A3009 RMK AO2 SLP191 T00831022 53006 $",
    "windDirection": 160,
    "windSpeed": 4,
    "windGust": null,
    "visibility": 10,
    "temperatureC": 8,
    "dewPointC": -2,
    "cloudCeiling": 99999,
    "altimeter": "A3009",
    "timestamp": "2026-02-14T02:53:00+00:00",
    "station": "KCPS"
  },
  "kstl": {
    "metar": "KSTL 140251Z 08004KT 10SM FEW250 09/M02 A3008 RMK AO2 SLP191 T00891022 53003 $",
    "windDirection": 80,
    "windSpeed": 4,
    "windGust": null,
    "visibility": 10,
    "temperatureC": 9,
    "dewPointC": -2,
    "cloudCeiling": null,
    "altimeter": "A3008",
    "timestamp": "2026-02-14T02:51:00+00:00",
    "station": "KSTL"
  }
}