{
  "lastUpdated": "2026-02-18T07:34:40.564546+00:00",
  "kcps": {
    "metar": "KCPS 180716Z AUTO 19011G19KT 10SM SCT029 BKN033 14/11 A2960 RMK AO2 T01440106 $",
    "windDirection": 190,
    "windSpeed": 11,
    "windGust": 19,
    "visibility": 10,
    "temperatureC": 14,
    "dewPointC": 11,
    "cloudCeiling": 3300,
    "altimeter": "A2960",
    "timestamp": "2026-02-18T07:16:00+00:00",
    "station": "KCPS"
  },
  "kstl": {
    "metar": "KSTL 180651Z 20016G22KT 10SM SCT150 15/11 A2959 RMK AO2 SLP017 T01500106 $",
    "windDirection": 200,
    "windSpeed": 16,
    "windGust": 22,
    "visibility": 10,
    "temperatureC": 15,
    "dewPointC": 11,
    "cloudCeiling": null,
    "altimeter": "A2959",
    "timestamp": "2026-02-18T06:51:00+00:00",
    "station": "KSTL"
  }
}