{
  "lastUpdated": "2026-01-13T23:33:14.947249+00:00",
  "kcps": {
    "metar": "KCPS 132253Z 29007KT 10SM FEW120 16/M01 A2975 RMK AO2 SLP073 T01611006",
    "windDirection": 290,
    "windSpeed": 7,
    "windGust": null,
    "visibility": 10,
    "temperatureC": 16,
    "dewPointC": -1,
    "cloudCeiling": null,
    "altimeter": "A2975",
    "timestamp": "2026-01-13T22:53:00+00:00",
    "station": "KCPS"
  },
  "kstl": {
    "metar": "KSTL 132251Z 27007KT 10SM BKN130 BKN250 15/00 A2976 RMK AO2 SLP079 T01500000 $",
    "windDirection": 270,
    "windSpeed": 7,
    "windGust": null,
    "visibility": 10,
    "temperatureC": 15,
    "dewPointC": 0,
    "cloudCeiling": 13000,
    "altimeter": "A2976",
    "timestamp": "2026-01-13T22:51:00+00:00",
    "station": "KSTL"
  }
}