{
  "lastUpdated": "2026-02-28T06:59:08.931491+00:00",
  "kcps": {
    "metar": "KCPS 280653Z AUTO 01005KT 10SM CLR 11/M02 A2999 RMK AO2 SLP154 T01111022 $",
    "windDirection": 10,
    "windSpeed": 5,
    "windGust": null,
    "visibility": 10,
    "temperatureC": 11,
    "dewPointC": -2,
    "cloudCeiling": 99999,
    "altimeter": "A2999",
    "timestamp": "2026-02-28T06:53:00+00:00",
    "station": "KCPS"
  },
  "kstl": {
    "station": "KSTL",
    "metar": "Data unavailable",
    "error": "Failed to fetch METAR"
  }
}