{
  "lastUpdated": "2026-05-20T02:17:41.551198+00:00",
  "kcps": {
    "metar": "KCPS 200153Z 35009KT 10SM SCT020 21/18 A3007 RMK AO2 SLP180 T02060178 $",
    "windDirection": 350,
    "windSpeed": 9,
    "windGust": null,
    "visibility": 10,
    "temperatureC": 21,
    "dewPointC": 18,
    "cloudCeiling": null,
    "altimeter": "A3007",
    "timestamp": "2026-05-20T01:53:00+00:00",
    "station": "KCPS"
  },
  "kstl": {
    "metar": "KSTL 200157Z 33007KT 10SM BKN023 BKN032 OVC230 19/17 A3010 RMK AO2 T01890167 $",
    "windDirection": 330,
    "windSpeed": 7,
    "windGust": null,
    "visibility": 10,
    "temperatureC": 19,
    "dewPointC": 17,
    "cloudCeiling": 2300,
    "altimeter": "A3010",
    "timestamp": "2026-05-20T01:57:00+00:00",
    "station": "KSTL"
  }
}