{
  "lastUpdated": "2025-10-22T07:46:51.887716+00:00",
  "kcps": {
    "metar": "KCPS 220653Z AUTO 27004KT 10SM CLR 08/02 A3001 RMK AO2 SLP162 T00830017",
    "windDirection": 270,
    "windSpeed": 4,
    "windGust": null,
    "visibility": 10,
    "temperatureC": 8,
    "dewPointC": 2,
    "cloudCeiling": 99999,
    "altimeter": "A3001",
    "timestamp": "2025-10-22T06:53:00+00:00",
    "station": "KCPS"
  },
  "kstl": {
    "metar": "KSTL 220651Z 27007KT 10SM CLR 09/02 A3001 RMK AO2 SLP161 T00940017 $",
    "windDirection": 270,
    "windSpeed": 7,
    "windGust": null,
    "visibility": 10,
    "temperatureC": 9,
    "dewPointC": 2,
    "cloudCeiling": 99999,
    "altimeter": "A3001",
    "timestamp": "2025-10-22T06:51:00+00:00",
    "station": "KSTL"
  }
}