{
  "lastUpdated": "2025-10-26T23:31:58.586825+00:00",
  "kcps": {
    "metar": "KCPS 262303Z 11007KT 5SM -RA BR BKN013 OVC041 12/10 A3014 RMK AO2 P0000 T01170100 $",
    "windDirection": 110,
    "windSpeed": 7,
    "windGust": null,
    "visibility": 5,
    "temperatureC": 12,
    "dewPointC": 10,
    "cloudCeiling": 1300,
    "altimeter": "A3014",
    "timestamp": "2025-10-26T23:03:00+00:00",
    "station": "KCPS"
  },
  "kstl": {
    "metar": "KSTL 262251Z 10015G23KT 9SM -RA FEW009 BKN048 OVC090 12/10 A3014 RMK AO2 SLP206 P0006 T01170100 $",
    "windDirection": 100,
    "windSpeed": 15,
    "windGust": 23,
    "visibility": 9,
    "temperatureC": 12,
    "dewPointC": 10,
    "cloudCeiling": 4800,
    "altimeter": "A3014",
    "timestamp": "2025-10-26T22:51:00+00:00",
    "station": "KSTL"
  }
}