{
  "lastUpdated": "2025-11-30T01:14:03.622839+00:00",
  "kcps": {
    "metar": "KCPS 300053Z 20007KT 10SM BKN016 OVC024 04/03 A2992 RMK AO2 SLP134 T00440033 $",
    "windDirection": 200,
    "windSpeed": 7,
    "windGust": null,
    "visibility": 10,
    "temperatureC": 4,
    "dewPointC": 3,
    "cloudCeiling": 1600,
    "altimeter": "A2992",
    "timestamp": "2025-11-30T00:53:00+00:00",
    "station": "KCPS"
  },
  "kstl": {
    "metar": "KSTL 300051Z 20010KT 7SM -RA BKN006 OVC016 04/03 A2991 RMK AO2 SLP136 P0000 T00390033 $",
    "windDirection": 200,
    "windSpeed": 10,
    "windGust": null,
    "visibility": 7,
    "temperatureC": 4,
    "dewPointC": 3,
    "cloudCeiling": 600,
    "altimeter": "A2991",
    "timestamp": "2025-11-30T00:51:00+00:00",
    "station": "KSTL"
  }
}