{
  "lastUpdated": "2026-01-06T19:47:09.656338+00:00",
  "kcps": {
    "metar": "KCPS 061853Z 25013G19KT 10SM CLR 18/06 A2971 RMK AO2 SLP058 T01780061",
    "windDirection": 250,
    "windSpeed": 13,
    "windGust": 19,
    "visibility": 10,
    "temperatureC": 18,
    "dewPointC": 6,
    "cloudCeiling": 99999,
    "altimeter": "A2971",
    "timestamp": "2026-01-06T18:53:00+00:00",
    "station": "KCPS"
  },
  "kstl": {
    "metar": "KSTL 061851Z 26013KT 10SM CLR 17/07 A2971 RMK AO2 SLP057 T01720067 $",
    "windDirection": 260,
    "windSpeed": 13,
    "windGust": null,
    "visibility": 10,
    "temperatureC": 17,
    "dewPointC": 7,
    "cloudCeiling": 99999,
    "altimeter": "A2971",
    "timestamp": "2026-01-06T18:51:00+00:00",
    "station": "KSTL"
  }
}