{
  "lastUpdated": "2026-04-24T01:53:27.340271+00:00",
  "kcps": {
    "metar": "KCPS 240053Z 17009KT 10SM CLR 24/14 A2971 RMK AO2 SLP057 T02440144 $",
    "windDirection": 170,
    "windSpeed": 9,
    "windGust": null,
    "visibility": 10,
    "temperatureC": 24,
    "dewPointC": 14,
    "cloudCeiling": 99999,
    "altimeter": "A2971",
    "timestamp": "2026-04-24T00:53:00+00:00",
    "station": "KCPS"
  },
  "kstl": {
    "metar": "KSTL 240051Z 18009KT 10SM FEW060 BKN250 25/14 A2971 RMK AO2 PK WND 18030/0000 SLP052 T02500144 $",
    "windDirection": 180,
    "windSpeed": 9,
    "windGust": null,
    "visibility": 10,
    "temperatureC": 25,
    "dewPointC": 14,
    "cloudCeiling": 25000,
    "altimeter": "A2971",
    "timestamp": "2026-04-24T00:51:00+00:00",
    "station": "KSTL"
  }
}