{
  "lastUpdated": "2026-03-17T17:48:00.223311+00:00",
  "kcps": {
    "metar": "KCPS 171653Z VRB06KT 10SM CLR M04/M15 A3029 RMK AO2 SLP263 T10391150 $",
    "windDirection": null,
    "windSpeed": null,
    "windGust": null,
    "visibility": 10,
    "temperatureC": -4,
    "dewPointC": -15,
    "cloudCeiling": 99999,
    "altimeter": "A3029",
    "timestamp": "2026-03-17T16:53:00+00:00",
    "station": "KCPS"
  },
  "kstl": {
    "metar": "KSTL 171651Z 28004KT 10SM FEW035 SCT250 M04/M16 A3028 RMK AO2 SLP269 T10441156 $",
    "windDirection": 280,
    "windSpeed": 4,
    "windGust": null,
    "visibility": 10,
    "temperatureC": -4,
    "dewPointC": -16,
    "cloudCeiling": null,
    "altimeter": "A3028",
    "timestamp": "2026-03-17T16:51:00+00:00",
    "station": "KSTL"
  }
}