{
  "lastUpdated": "2026-04-24T15:24:35.056442+00:00",
  "kcps": {
    "metar": "KCPS 241353Z 18006KT 10SM -RA OVC100 16/14 A2977 RMK AO2 SLP077 P0003 T01560144 $",
    "windDirection": 180,
    "windSpeed": 6,
    "windGust": null,
    "visibility": 10,
    "temperatureC": 16,
    "dewPointC": 14,
    "cloudCeiling": 10000,
    "altimeter": "A2977",
    "timestamp": "2026-04-24T13:53:00+00:00",
    "station": "KCPS"
  },
  "kstl": {
    "metar": "KSTL 241504Z 29012G22KT 10SM -RA BKN008 OVC095 16/14 A2975 RMK AO2 PRESRR P0001 T01560144 $",
    "windDirection": 290,
    "windSpeed": 12,
    "windGust": 22,
    "visibility": 10,
    "temperatureC": 16,
    "dewPointC": 14,
    "cloudCeiling": 800,
    "altimeter": "A2975",
    "timestamp": "2026-04-24T15:04:00+00:00",
    "station": "KSTL"
  }
}