{
  "lastUpdated": "2026-01-13T09:22:55.476701+00:00",
  "kcps": {
    "metar": "KCPS 130853Z AUTO 20005KT 10SM CLR 06/M03 A3001 RMK AO2 SLP161 T00561033 58025 $",
    "windDirection": 200,
    "windSpeed": 5,
    "windGust": null,
    "visibility": 10,
    "temperatureC": 6,
    "dewPointC": -3,
    "cloudCeiling": 99999,
    "altimeter": "A3001",
    "timestamp": "2026-01-13T08:53:00+00:00",
    "station": "KCPS"
  },
  "kstl": {
    "metar": "KSTL 130851Z 22012KT 10SM BKN250 08/M03 A3000 RMK AO2 SLP159 T00831033 58021 $",
    "windDirection": 220,
    "windSpeed": 12,
    "windGust": null,
    "visibility": 10,
    "temperatureC": 8,
    "dewPointC": -3,
    "cloudCeiling": 25000,
    "altimeter": "A3000",
    "timestamp": "2026-01-13T08:51:00+00:00",
    "station": "KSTL"
  }
}