{
  "lastUpdated": "2026-02-05T11:12:05.708045+00:00",
  "kcps": {
    "metar": "KCPS 050953Z AUTO 00000KT 7SM CLR M12/M13 A3029 RMK AO2 SLP263 T11221133 $",
    "windDirection": 0,
    "windSpeed": 0,
    "windGust": null,
    "visibility": 7,
    "temperatureC": -12,
    "dewPointC": -13,
    "cloudCeiling": 99999,
    "altimeter": "A3029",
    "timestamp": "2026-02-05T09:53:00+00:00",
    "station": "KCPS"
  },
  "kstl": {
    "metar": "KSTL 051051Z 00000KT 9SM BKN190 OVC250 M08/M10 A3026 RMK AO2 SLP263 T10781100 $",
    "windDirection": 0,
    "windSpeed": 0,
    "windGust": null,
    "visibility": 9,
    "temperatureC": -8,
    "dewPointC": -10,
    "cloudCeiling": 19000,
    "altimeter": "A3026",
    "timestamp": "2026-02-05T10:51:00+00:00",
    "station": "KSTL"
  }
}