{
  "lastUpdated": "2025-12-10T21:36:21.560467+00:00",
  "kcps": {
    "metar": "KCPS 102124Z 31014G28KT 10SM OVC029 02/M04 A2997 RMK AO2 PK WND 31028/2120 T00221044",
    "windDirection": 310,
    "windSpeed": 14,
    "windGust": 28,
    "visibility": 10,
    "temperatureC": 2,
    "dewPointC": -4,
    "cloudCeiling": 2900,
    "altimeter": "A2997",
    "timestamp": "2025-12-10T21:24:00+00:00",
    "station": "KCPS"
  },
  "kstl": {
    "metar": "KSTL 102051Z 31014G25KT 10SM OVC026 02/M04 A2994 RMK AO2 PK WND 31028/2015 SLP143 T00171044 51036 $",
    "windDirection": 310,
    "windSpeed": 14,
    "windGust": 25,
    "visibility": 10,
    "temperatureC": 2,
    "dewPointC": -4,
    "cloudCeiling": 2600,
    "altimeter": "A2994",
    "timestamp": "2025-12-10T20:51:00+00:00",
    "station": "KSTL"
  }
}