{
  "lastUpdated": "2026-04-07T08:37:05.514961+00:00",
  "kcps": {
    "metar": "KCPS 070753Z AUTO 03008KT 10SM OVC100 10/M02 A3033 RMK AO2 SLP269 T01001022 $",
    "windDirection": 30,
    "windSpeed": 8,
    "windGust": null,
    "visibility": 10,
    "temperatureC": 10,
    "dewPointC": -2,
    "cloudCeiling": 10000,
    "altimeter": "A3033",
    "timestamp": "2026-04-07T07:53:00+00:00",
    "station": "KCPS"
  },
  "kstl": {
    "metar": "KSTL 070751Z 02015G19KT 10SM OVC095 09/M03 A3033 RMK AO2 SLP270 T00941028 $",
    "windDirection": 20,
    "windSpeed": 15,
    "windGust": 19,
    "visibility": 10,
    "temperatureC": 9,
    "dewPointC": -3,
    "cloudCeiling": 9500,
    "altimeter": "A3033",
    "timestamp": "2026-04-07T07:51:00+00:00",
    "station": "KSTL"
  }
}