{
  "lastUpdated": "2026-04-25T05:50:45.123345+00:00",
  "kcps": {
    "metar": "KCPS 250453Z AUTO 00000KT 10SM BKN050 17/16 A2983 RMK AO2 SLP098 T01720156 $",
    "windDirection": 0,
    "windSpeed": 0,
    "windGust": null,
    "visibility": 10,
    "temperatureC": 17,
    "dewPointC": 16,
    "cloudCeiling": 5000,
    "altimeter": "A2983",
    "timestamp": "2026-04-25T04:53:00+00:00",
    "station": "KCPS"
  },
  "kstl": {
    "metar": "KSTL 250451Z 01007KT 10SM FEW250 18/13 A2984 RMK AO2 SLP098 T01780128 $",
    "windDirection": 10,
    "windSpeed": 7,
    "windGust": null,
    "visibility": 10,
    "temperatureC": 18,
    "dewPointC": 13,
    "cloudCeiling": null,
    "altimeter": "A2984",
    "timestamp": "2026-04-25T04:51:00+00:00",
    "station": "KSTL"
  }
}