{
  "lastUpdated": "2026-05-05T23:30:32.833503+00:00",
  "kcps": {
    "metar": "KCPS 052253Z 01008KT 10SM FEW012 BKN020 OVC036 09/08 A2981 RMK AO2 RAB11E51 SLP095 P0001 T00940078 $",
    "windDirection": 10,
    "windSpeed": 8,
    "windGust": null,
    "visibility": 10,
    "temperatureC": 9,
    "dewPointC": 8,
    "cloudCeiling": 2000,
    "altimeter": "A2981",
    "timestamp": "2026-05-05T22:53:00+00:00",
    "station": "KCPS"
  },
  "kstl": {
    "metar": "KSTL 052316Z 01009KT 3SM -RA SCT016 BKN042 OVC049 09/06 A2983 RMK AO2 RAB11 P0000 T00890061 $",
    "windDirection": 10,
    "windSpeed": 9,
    "windGust": null,
    "visibility": 3,
    "temperatureC": 9,
    "dewPointC": 6,
    "cloudCeiling": 4200,
    "altimeter": "A2983",
    "timestamp": "2026-05-05T23:16:00+00:00",
    "station": "KSTL"
  }
}