{
  "lastUpdated": "2025-12-16T04:24:27.460040+00:00",
  "kcps": {
    "metar": "KCPS 160256Z 17005KT 10SM BKN027 OVC031 01/M11 A3012 RMK AO2 T00111106 $",
    "windDirection": 170,
    "windSpeed": 5,
    "windGust": null,
    "visibility": 10,
    "temperatureC": 1,
    "dewPointC": -11,
    "cloudCeiling": 2700,
    "altimeter": "A3012",
    "timestamp": "2025-12-16T02:56:00+00:00",
    "station": "KCPS"
  },
  "kstl": {
    "metar": "KSTL 160351Z 00000KT 10SM OVC025 01/M08 A3011 RMK AO2 SLP209 T00111083 $",
    "windDirection": 0,
    "windSpeed": 0,
    "windGust": null,
    "visibility": 10,
    "temperatureC": 1,
    "dewPointC": -8,
    "cloudCeiling": 2500,
    "altimeter": "A3011",
    "timestamp": "2025-12-16T03:51:00+00:00",
    "station": "KSTL"
  }
}