{
  "lastUpdated": "2026-01-26T10:22:28.636244+00:00",
  "kcps": {
    "metar": "KCPS 260953Z AUTO 31011KT 10SM CLR M17/M22 A3043 RMK AO2 SLP312 T11671222 $",
    "windDirection": 310,
    "windSpeed": 11,
    "windGust": null,
    "visibility": 10,
    "temperatureC": -17,
    "dewPointC": -22,
    "cloudCeiling": 99999,
    "altimeter": "A3043",
    "timestamp": "2026-01-26T09:53:00+00:00",
    "station": "KCPS"
  },
  "kstl": {
    "metar": "KSTL 260951Z 29007KT 10SM CLR M19/M23 A3042 RMK AO2 SLP324 T11891233 $",
    "windDirection": 290,
    "windSpeed": 7,
    "windGust": null,
    "visibility": 10,
    "temperatureC": -19,
    "dewPointC": -23,
    "cloudCeiling": 99999,
    "altimeter": "A3042",
    "timestamp": "2026-01-26T09:51:00+00:00",
    "station": "KSTL"
  }
}