{
  "lastUpdated": "2026-04-06T21:43:16.772552+00:00",
  "kcps": {
    "metar": "KCPS 062053Z 30007KT 10SM CLR 18/M01 A3025 RMK AO2 SLP245 T01781006 58019 $",
    "windDirection": 300,
    "windSpeed": 7,
    "windGust": null,
    "visibility": 10,
    "temperatureC": 18,
    "dewPointC": -1,
    "cloudCeiling": 99999,
    "altimeter": "A3025",
    "timestamp": "2026-04-06T20:53:00+00:00",
    "station": "KCPS"
  },
  "kstl": {
    "metar": "KSTL 062051Z 29008G18KT 10SM FEW060 FEW140 17/M02 A3027 RMK AO2 SLP251 T01671017 58018 $",
    "windDirection": 290,
    "windSpeed": 8,
    "windGust": 18,
    "visibility": 10,
    "temperatureC": 17,
    "dewPointC": -2,
    "cloudCeiling": null,
    "altimeter": "A3027",
    "timestamp": "2026-04-06T20:51:00+00:00",
    "station": "KSTL"
  }
}