{
  "lastUpdated": "2026-06-12T00:34:11.057116+00:00",
  "kcps": {
    "metar": "KCPS 112353Z 21010G19KT 10SM BKN085 31/22 A2974 RMK AO2 PK WND 20027/2305 SLP065 T03110222 10333 20311 55000 $",
    "windDirection": 210,
    "windSpeed": 10,
    "windGust": 19,
    "visibility": 10.0,
    "temperatureC": 31.1,
    "dewPointC": 22.2,
    "cloudCeiling": 8500,
    "altimeter": "A2974",
    "timestamp": "2026-06-12T00:00:00.000Z",
    "station": "KCPS"
  },
  "kstl": {
    "metar": "KSTL 112351Z 21016G25KT 10SM FEW048 BKN085 OVC250 31/22 A2973 RMK AO2 PK WND 20029/2257 SLP057 T03110222 10333 20311 55003 $",
    "windDirection": 210,
    "windSpeed": 16,
    "windGust": 25,
    "visibility": 10.0,
    "temperatureC": 31.1,
    "dewPointC": 22.2,
    "cloudCeiling": 8500,
    "altimeter": "A2973",
    "timestamp": "2026-06-12T00:00:00.000Z",
    "station": "KSTL"
  }
}