{
  "lastUpdated": "2025-11-19T04:48:27.590534+00:00",
  "kcps": {
    "metar": "KCPS 190418Z AUTO 03004KT 10SM SCT010 BKN017 11/09 A3005 RMK AO2 T01060094",
    "windDirection": 30,
    "windSpeed": 4,
    "windGust": null,
    "visibility": 10,
    "temperatureC": 11,
    "dewPointC": 9,
    "cloudCeiling": 1700,
    "altimeter": "A3005",
    "timestamp": "2025-11-19T04:18:00+00:00",
    "station": "KCPS"
  },
  "kstl": {
    "metar": "KSTL 190351Z 01004KT 10SM FEW011 10/09 A3004 RMK AO2 SLP172 T01000094 $",
    "windDirection": 10,
    "windSpeed": 4,
    "windGust": null,
    "visibility": 10,
    "temperatureC": 10,
    "dewPointC": 9,
    "cloudCeiling": null,
    "altimeter": "A3004",
    "timestamp": "2025-11-19T03:51:00+00:00",
    "station": "KSTL"
  }
}