{
  "lastUpdated": "2025-11-20T17:20:40.796856+00:00",
  "kcps": {
    "metar": "KCPS 201653Z 10005KT 7SM OVC006 11/09 A3006 RMK AO2 SLP180 T01060094",
    "windDirection": 100,
    "windSpeed": 5,
    "windGust": null,
    "visibility": 7,
    "temperatureC": 11,
    "dewPointC": 9,
    "cloudCeiling": 600,
    "altimeter": "A3006",
    "timestamp": "2025-11-20T16:53:00+00:00",
    "station": "KCPS"
  },
  "kstl": {
    "metar": "KSTL 201651Z 10007KT 7SM OVC005 11/09 A3006 RMK AO2 SLP180 T01060094 $",
    "windDirection": 100,
    "windSpeed": 7,
    "windGust": null,
    "visibility": 7,
    "temperatureC": 11,
    "dewPointC": 9,
    "cloudCeiling": 500,
    "altimeter": "A3006",
    "timestamp": "2025-11-20T16:51:00+00:00",
    "station": "KSTL"
  }
}