{
  "lastUpdated": "2025-11-04T00:07:05.241241+00:00",
  "kcps": {
    "metar": "KCPS 032353Z 00000KT 10SM CLR 09/06 A3028 RMK AO2 SLP256 T00940056 10183 20094 53009",
    "windDirection": 0,
    "windSpeed": 0,
    "windGust": null,
    "visibility": 10,
    "temperatureC": 9,
    "dewPointC": 6,
    "cloudCeiling": 99999,
    "altimeter": "A3028",
    "timestamp": "2025-11-03T23:53:00+00:00",
    "station": "KCPS"
  },
  "kstl": {
    "metar": "KSTL 032351Z 00000KT 10SM FEW250 12/03 A3029 RMK AO2 SLP260 T01220033 10183 20122 53008 $",
    "windDirection": 0,
    "windSpeed": 0,
    "windGust": null,
    "visibility": 10,
    "temperatureC": 12,
    "dewPointC": 3,
    "cloudCeiling": null,
    "altimeter": "A3029",
    "timestamp": "2025-11-03T23:51:00+00:00",
    "station": "KSTL"
  }
}