{
  "lastUpdated": "2026-02-20T08:44:02.101646+00:00",
  "kcps": {
    "metar": "KCPS 200753Z 26014G26KT 10SM CLR 04/M03 A2965 RMK AO2 PK WND 29027/0730 SLP039 T00391033 $",
    "windDirection": 260,
    "windSpeed": 14,
    "windGust": 26,
    "visibility": 10,
    "temperatureC": 4,
    "dewPointC": -3,
    "cloudCeiling": 99999,
    "altimeter": "A2965",
    "timestamp": "2026-02-20T07:53:00+00:00",
    "station": "KCPS"
  },
  "kstl": {
    "metar": "KSTL 200751Z 26021G38KT 10SM FEW036 03/M04 A2965 RMK AO2 PK WND 25038/0659 SLP039 T00281044 $",
    "windDirection": 260,
    "windSpeed": 21,
    "windGust": 38,
    "visibility": 10,
    "temperatureC": 3,
    "dewPointC": -4,
    "cloudCeiling": null,
    "altimeter": "A2965",
    "timestamp": "2026-02-20T07:51:00+00:00",
    "station": "KSTL"
  }
}