{
  "lastUpdated": "2025-12-29T11:33:54.879919+00:00",
  "kcps": {
    "metar": "KCPS 291053Z AUTO 30017G34KT 9SM -SN BKN037 M08/M16 A3016 RMK AO2 PK WND 29037/1031 SNE0956B17 SLP218 P0000 T10831156 $",
    "windDirection": 300,
    "windSpeed": 17,
    "windGust": 34,
    "visibility": 9,
    "temperatureC": -8,
    "dewPointC": -16,
    "cloudCeiling": 3700,
    "altimeter": "A3016",
    "timestamp": "2025-12-29T10:53:00+00:00",
    "station": "KCPS"
  },
  "kstl": {
    "metar": "KSTL 291051Z 29018G30KT 10SM BKN035 M09/M16 A3015 RMK AO2 PK WND 31037/0958 SLP220 T10891156 $",
    "windDirection": 290,
    "windSpeed": 18,
    "windGust": 30,
    "visibility": 10,
    "temperatureC": -9,
    "dewPointC": -16,
    "cloudCeiling": 3500,
    "altimeter": "A3015",
    "timestamp": "2025-12-29T10:51:00+00:00",
    "station": "KSTL"
  }
}