{
  "lastUpdated": "2026-01-24T23:47:10.652123+00:00",
  "kcps": {
    "metar": "KCPS 242339Z 03010KT 4SM -SN OVC034 M13/M16 A3039 RMK AO2 P0001 T11331161 $",
    "windDirection": 30,
    "windSpeed": 10,
    "windGust": null,
    "visibility": 4,
    "temperatureC": -13,
    "dewPointC": -16,
    "cloudCeiling": 3400,
    "altimeter": "A3039",
    "timestamp": "2026-01-24T23:39:00+00:00",
    "station": "KCPS"
  },
  "kstl": {
    "metar": "KSTL 242339Z 04009KT 2SM -SN BR OVC029 M13/M16 A3039 RMK AO2 P0002 T11331156 $",
    "windDirection": 40,
    "windSpeed": 9,
    "windGust": null,
    "visibility": 2,
    "temperatureC": -13,
    "dewPointC": -16,
    "cloudCeiling": 2900,
    "altimeter": "A3039",
    "timestamp": "2026-01-24T23:39:00+00:00",
    "station": "KSTL"
  }
}