{
  "lastUpdated": "2025-12-31T04:30:27.483899+00:00",
  "kcps": {
    "metar": "KCPS 310353Z AUTO 23005KT 10SM CLR M01/M11 A3012 RMK AO2 SLP206 T10061106 $",
    "windDirection": 230,
    "windSpeed": 5,
    "windGust": null,
    "visibility": 10,
    "temperatureC": -1,
    "dewPointC": -11,
    "cloudCeiling": 99999,
    "altimeter": "A3012",
    "timestamp": "2025-12-31T03:53:00+00:00",
    "station": "KCPS"
  },
  "kstl": {
    "metar": "KSTL 310351Z 24010KT 10SM CLR 00/M10 A3012 RMK AO2 SLP210 T00001100 $",
    "windDirection": 240,
    "windSpeed": 10,
    "windGust": null,
    "visibility": 10,
    "temperatureC": 0,
    "dewPointC": -10,
    "cloudCeiling": 99999,
    "altimeter": "A3012",
    "timestamp": "2025-12-31T03:51:00+00:00",
    "station": "KSTL"
  }
}