{
  "lastUpdated": "2026-01-01T08:02:35.590945+00:00",
  "kcps": {
    "metar": "KCPS 010753Z AUTO 00000KT 9SM CLR M04/M04 A2997 RMK AO2 SLP151 I1000 T10391044 $",
    "windDirection": 0,
    "windSpeed": 0,
    "windGust": null,
    "visibility": 9,
    "temperatureC": -4,
    "dewPointC": -4,
    "cloudCeiling": 99999,
    "altimeter": "A2997",
    "timestamp": "2026-01-01T07:53:00+00:00",
    "station": "KCPS"
  },
  "kstl": {
    "metar": "KSTL 010751Z 00000KT 10SM CLR M02/M03 A2997 RMK AO2 SLP157 T10171028 $",
    "windDirection": 0,
    "windSpeed": 0,
    "windGust": null,
    "visibility": 10,
    "temperatureC": -2,
    "dewPointC": -3,
    "cloudCeiling": 99999,
    "altimeter": "A2997",
    "timestamp": "2026-01-01T07:51:00+00:00",
    "station": "KSTL"
  }
}