{
  "lastUpdated": "2026-04-07T17:06:05.229093+00:00",
  "kcps": {
    "metar": "KCPS 071653Z VRB06G16KT 10SM CLR 10/01 A3043 RMK AO2 SLP303 T01000011 $",
    "windDirection": null,
    "windSpeed": null,
    "windGust": null,
    "visibility": 10,
    "temperatureC": 10,
    "dewPointC": 1,
    "cloudCeiling": 99999,
    "altimeter": "A3043",
    "timestamp": "2026-04-07T16:53:00+00:00",
    "station": "KCPS"
  },
  "kstl": {
    "metar": "KSTL 071651Z 09012KT 10SM FEW030 FEW085 SCT120 BKN250 08/00 A3043 RMK AO2 SLP306 T00830000 $",
    "windDirection": 90,
    "windSpeed": 12,
    "windGust": null,
    "visibility": 10,
    "temperatureC": 8,
    "dewPointC": 0,
    "cloudCeiling": 25000,
    "altimeter": "A3043",
    "timestamp": "2026-04-07T16:51:00+00:00",
    "station": "KSTL"
  }
}