{
  "lastUpdated": "2026-04-13T09:52:20.629150+00:00",
  "kcps": {
    "metar": "KCPS 130853Z AUTO 21007G16KT 10SM SCT047 22/16 A2996 RMK AO2 SLP142 T02170161 58001 $",
    "windDirection": 210,
    "windSpeed": 7,
    "windGust": 16,
    "visibility": 10,
    "temperatureC": 22,
    "dewPointC": 16,
    "cloudCeiling": null,
    "altimeter": "A2996",
    "timestamp": "2026-04-13T08:53:00+00:00",
    "station": "KCPS"
  },
  "kstl": {
    "metar": "KSTL 130851Z 21013KT 10SM FEW042 22/16 A2995 RMK AO2 SLP133 T02170161 58003 $",
    "windDirection": 210,
    "windSpeed": 13,
    "windGust": null,
    "visibility": 10,
    "temperatureC": 22,
    "dewPointC": 16,
    "cloudCeiling": null,
    "altimeter": "A2995",
    "timestamp": "2026-04-13T08:51:00+00:00",
    "station": "KSTL"
  }
}