{
  "lastUpdated": "2026-01-24T08:39:21.520809+00:00",
  "kcps": {
    "metar": "KCPS 240753Z AUTO 04011KT 10SM OVC090 M15/M27 A3069 RMK AO2 SLP403 T11501267 $",
    "windDirection": 40,
    "windSpeed": 11,
    "windGust": null,
    "visibility": 10,
    "temperatureC": -15,
    "dewPointC": -27,
    "cloudCeiling": 9000,
    "altimeter": "A3069",
    "timestamp": "2026-01-24T07:53:00+00:00",
    "station": "KCPS"
  },
  "kstl": {
    "metar": "KSTL 240751Z 04010KT 10SM OVC095 M16/M27 A3068 RMK AO2 SLP413 T11611267 $",
    "windDirection": 40,
    "windSpeed": 10,
    "windGust": null,
    "visibility": 10,
    "temperatureC": -16,
    "dewPointC": -27,
    "cloudCeiling": 9500,
    "altimeter": "A3068",
    "timestamp": "2026-01-24T07:51:00+00:00",
    "station": "KSTL"
  }
}