{
  "lastUpdated": "2025-11-24T11:46:37.733053+00:00",
  "kcps": {
    "metar": "KCPS 241104Z AUTO 18005KT 3SM BR OVC002 07/07 A3013 RMK AO2 T00720072 $",
    "windDirection": 180,
    "windSpeed": 5,
    "windGust": null,
    "visibility": 3,
    "temperatureC": 7,
    "dewPointC": 7,
    "cloudCeiling": 200,
    "altimeter": "A3013",
    "timestamp": "2025-11-24T11:04:00+00:00",
    "station": "KCPS"
  },
  "kstl": {
    "metar": "KSTL 241139Z 12009KT 3/4SM R30R/4000VP6000FT BR OVC002 08/07 A3009 RMK AO2 T00780072 $",
    "windDirection": 120,
    "windSpeed": 9,
    "windGust": null,
    "visibility": 0.75,
    "temperatureC": 8,
    "dewPointC": 7,
    "cloudCeiling": 200,
    "altimeter": "A3009",
    "timestamp": "2025-11-24T11:39:00+00:00",
    "station": "KSTL"
  }
}