{
  "lastUpdated": "2026-01-05T09:23:37.316807+00:00",
  "kcps": {
    "metar": "KCPS 050853Z AUTO 17004KT 10SM CLR M01/M05 A2994 RMK AO2 SLP140 T10111050 55005 $",
    "windDirection": 170,
    "windSpeed": 4,
    "windGust": null,
    "visibility": 10,
    "temperatureC": -1,
    "dewPointC": -5,
    "cloudCeiling": 99999,
    "altimeter": "A2994",
    "timestamp": "2026-01-05T08:53:00+00:00",
    "station": "KCPS"
  },
  "kstl": {
    "metar": "KSTL 050851Z 14003KT 10SM FEW250 01/M04 A2993 RMK AO2 SLP143 T00111039 55003 $",
    "windDirection": 140,
    "windSpeed": 3,
    "windGust": null,
    "visibility": 10,
    "temperatureC": 1,
    "dewPointC": -4,
    "cloudCeiling": null,
    "altimeter": "A2993",
    "timestamp": "2026-01-05T08:51:00+00:00",
    "station": "KSTL"
  }
}