{
  "lastUpdated": "2025-11-16T09:33:05.226159+00:00",
  "kcps": {
    "metar": "KCPS 160853Z AUTO 34009KT 10SM CLR 12/03 A2990 RMK AO2 SLP123 T01170028 53021 $",
    "windDirection": 340,
    "windSpeed": 9,
    "windGust": null,
    "visibility": 10,
    "temperatureC": 12,
    "dewPointC": 3,
    "cloudCeiling": 99999,
    "altimeter": "A2990",
    "timestamp": "2025-11-16T08:53:00+00:00",
    "station": "KCPS"
  },
  "kstl": {
    "metar": "KSTL 160851Z 35006KT 10SM FEW250 10/03 A2991 RMK AO2 SLP121 T01000033 53019 $",
    "windDirection": 350,
    "windSpeed": 6,
    "windGust": null,
    "visibility": 10,
    "temperatureC": 10,
    "dewPointC": 3,
    "cloudCeiling": null,
    "altimeter": "A2991",
    "timestamp": "2025-11-16T08:51:00+00:00",
    "station": "KSTL"
  }
}