{
  "lastUpdated": "2025-12-11T18:22:54.348085+00:00",
  "kcps": {
    "metar": "KCPS 111753Z 24005KT 10SM OVC090 01/M05 A3002 RMK AO2 SLP170 T00111050 10011 21022 58009 $",
    "windDirection": 240,
    "windSpeed": 5,
    "windGust": null,
    "visibility": 10,
    "temperatureC": 1,
    "dewPointC": -5,
    "cloudCeiling": 9000,
    "altimeter": "A3002",
    "timestamp": "2025-12-11T17:53:00+00:00",
    "station": "KCPS"
  },
  "kstl": {
    "metar": "KSTL 111751Z 21005KT 10SM OVC085 01/M05 A3001 RMK AO2 PRESFR SLP173 T00111050 10011 21022 58011 $",
    "windDirection": 210,
    "windSpeed": 5,
    "windGust": null,
    "visibility": 10,
    "temperatureC": 1,
    "dewPointC": -5,
    "cloudCeiling": 8500,
    "altimeter": "A3001",
    "timestamp": "2025-12-11T17:51:00+00:00",
    "station": "KSTL"
  }
}