{
  "lastUpdated": "2026-01-07T16:23:01.195322+00:00",
  "kcps": {
    "metar": "KCPS 071553Z 00000KT 10SM CLR 08/03 A2997 RMK AO2 SLP148 T00830033 $",
    "windDirection": 0,
    "windSpeed": 0,
    "windGust": null,
    "visibility": 10,
    "temperatureC": 8,
    "dewPointC": 3,
    "cloudCeiling": 99999,
    "altimeter": "A2997",
    "timestamp": "2026-01-07T15:53:00+00:00",
    "station": "KCPS"
  },
  "kstl": {
    "metar": "KSTL 071551Z 00000KT 10SM SCT250 12/03 A2996 RMK AO2 SLP148 T01220028 $",
    "windDirection": 0,
    "windSpeed": 0,
    "windGust": null,
    "visibility": 10,
    "temperatureC": 12,
    "dewPointC": 3,
    "cloudCeiling": null,
    "altimeter": "A2996",
    "timestamp": "2026-01-07T15:51:00+00:00",
    "station": "KSTL"
  }
}