{
  "lastUpdated": "2025-10-14T16:49:00.891621+00:00",
  "kcps": {
    "metar": "KCPS 141553Z 12006KT 10SM CLR 24/11 A3028 RMK AO2 SLP250 T02440106",
    "windDirection": 120,
    "windSpeed": 6,
    "windGust": null,
    "visibility": 10,
    "temperatureC": 24,
    "dewPointC": 11,
    "cloudCeiling": 99999,
    "altimeter": "A3028",
    "timestamp": "2025-10-14T15:53:00+00:00",
    "station": "KCPS"
  },
  "kstl": {
    "metar": "KSTL 141551Z 11003KT 10SM SCT140 24/09 A3029 RMK AO2 SLP247 T02390094 $",
    "windDirection": 110,
    "windSpeed": 3,
    "windGust": null,
    "visibility": 10,
    "temperatureC": 24,
    "dewPointC": 9,
    "cloudCeiling": null,
    "altimeter": "A3029",
    "timestamp": "2025-10-14T15:51:00+00:00",
    "station": "KSTL"
  }
}