{
  "lastUpdated": "2026-03-23T20:15:43.524843+00:00",
  "kcps": {
    "metar": "KCPS 231953Z 01009KT 10SM CLR 11/M03 A3040 RMK AO2 SLP295 T01061028 $",
    "windDirection": 10,
    "windSpeed": 9,
    "windGust": null,
    "visibility": 10,
    "temperatureC": 11,
    "dewPointC": -3,
    "cloudCeiling": 99999,
    "altimeter": "A3040",
    "timestamp": "2026-03-23T19:53:00+00:00",
    "station": "KCPS"
  },
  "kstl": {
    "metar": "KSTL 231951Z 10SM BKN200 BKN250 10/M03 A3040 RMK AO2 SLP297 T01001033 $",
    "windDirection": null,
    "windSpeed": null,
    "windGust": null,
    "visibility": 10,
    "temperatureC": 10,
    "dewPointC": -3,
    "cloudCeiling": 20000,
    "altimeter": "A3040",
    "timestamp": "2026-03-23T19:51:00+00:00",
    "station": "KSTL"
  }
}