{
  "lastUpdated": "2025-11-17T22:35:18.678457+00:00",
  "kcps": {
    "metar": "KCPS 172153Z 12006KT 10SM OVC070 15/M04 A2997 RMK AO2 SLP149 T01501044",
    "windDirection": 120,
    "windSpeed": 6,
    "windGust": null,
    "visibility": 10,
    "temperatureC": 15,
    "dewPointC": -4,
    "cloudCeiling": 7000,
    "altimeter": "A2997",
    "timestamp": "2025-11-17T21:53:00+00:00",
    "station": "KCPS"
  },
  "kstl": {
    "metar": "KSTL 172151Z 12014KT 10SM BKN065 BKN250 15/M05 A2996 RMK AO2 SLP149 T01501050 $",
    "windDirection": 120,
    "windSpeed": 14,
    "windGust": null,
    "visibility": 10,
    "temperatureC": 15,
    "dewPointC": -5,
    "cloudCeiling": 6500,
    "altimeter": "A2996",
    "timestamp": "2025-11-17T21:51:00+00:00",
    "station": "KSTL"
  }
}