{
  "lastUpdated": "2025-11-17T21:46:13.746886+00:00",
  "kcps": {
    "metar": "KCPS 172053Z 13010KT 10SM BKN070 16/M05 A2999 RMK AO2 SLP155 T01611050 56019",
    "windDirection": 130,
    "windSpeed": 10,
    "windGust": null,
    "visibility": 10,
    "temperatureC": 16,
    "dewPointC": -5,
    "cloudCeiling": 7000,
    "altimeter": "A2999",
    "timestamp": "2025-11-17T20:53:00+00:00",
    "station": "KCPS"
  },
  "kstl": {
    "metar": "KSTL 172051Z 13014KT 10SM BKN065 BKN140 BKN250 14/M06 A2999 RMK AO2 SLP157 T01441056 56018 $",
    "windDirection": 130,
    "windSpeed": 14,
    "windGust": null,
    "visibility": 10,
    "temperatureC": 14,
    "dewPointC": -6,
    "cloudCeiling": 6500,
    "altimeter": "A2999",
    "timestamp": "2025-11-17T20:51:00+00:00",
    "station": "KSTL"
  }
}