{
  "lastUpdated": "2026-02-17T16:34:08.485090+00:00",
  "kcps": {
    "metar": "KCPS 171553Z 17008KT 10SM CLR 11/08 A2990 RMK AO2 SLP126 T01060078 $",
    "windDirection": 170,
    "windSpeed": 8,
    "windGust": null,
    "visibility": 10,
    "temperatureC": 11,
    "dewPointC": 8,
    "cloudCeiling": 99999,
    "altimeter": "A2990",
    "timestamp": "2026-02-17T15:53:00+00:00",
    "station": "KCPS"
  },
  "kstl": {
    "metar": "KSTL 171551Z 17005KT 10SM BKN180 BKN250 11/07 A2989 RMK AO2 SLP123 T01110067 $",
    "windDirection": 170,
    "windSpeed": 5,
    "windGust": null,
    "visibility": 10,
    "temperatureC": 11,
    "dewPointC": 7,
    "cloudCeiling": 18000,
    "altimeter": "A2989",
    "timestamp": "2026-02-17T15:51:00+00:00",
    "station": "KSTL"
  }
}