{
  "lastUpdated": "2025-11-09T15:46:35.399975+00:00",
  "kcps": {
    "metar": "KCPS 091530Z 31022G29KT 10SM OVC029 03/M04 A3022 RMK AO2 PK WND 33029/1511 T00331039 $",
    "windDirection": 310,
    "windSpeed": 22,
    "windGust": 29,
    "visibility": 10,
    "temperatureC": 3,
    "dewPointC": -4,
    "cloudCeiling": 2900,
    "altimeter": "A3022",
    "timestamp": "2025-11-09T15:30:00+00:00",
    "station": "KCPS"
  },
  "kstl": {
    "metar": "KSTL 091451Z 31020G28KT 10SM SCT027 SCT034 BKN055 03/M04 A3020 RMK AO2 PK WND 31030/1437 SLP229 T00281039 51019 $",
    "windDirection": 310,
    "windSpeed": 20,
    "windGust": 28,
    "visibility": 10,
    "temperatureC": 3,
    "dewPointC": -4,
    "cloudCeiling": 5500,
    "altimeter": "A3020",
    "timestamp": "2025-11-09T14:51:00+00:00",
    "station": "KSTL"
  }
}