{
  "lastUpdated": "2025-12-01T08:23:17.299148+00:00",
  "kcps": {
    "metar": "KCPS 010753Z AUTO 00000KT 10SM OVC025 M05/M08 A3048 RMK AO2 SLP328 T10501083 $",
    "windDirection": 0,
    "windSpeed": 0,
    "windGust": null,
    "visibility": 10,
    "temperatureC": -5,
    "dewPointC": -8,
    "cloudCeiling": 2500,
    "altimeter": "A3048",
    "timestamp": "2025-12-01T07:53:00+00:00",
    "station": "KCPS"
  },
  "kstl": {
    "metar": "KSTL 010751Z 12004KT 10SM OVC019 M05/M08 A3048 RMK AO2 SLP335 T10501078 $",
    "windDirection": 120,
    "windSpeed": 4,
    "windGust": null,
    "visibility": 10,
    "temperatureC": -5,
    "dewPointC": -8,
    "cloudCeiling": 1900,
    "altimeter": "A3048",
    "timestamp": "2025-12-01T07:51:00+00:00",
    "station": "KSTL"
  }
}