{
  "lastUpdated": "2026-03-25T21:17:59.559784+00:00",
  "kcps": {
    "metar": "KCPS 252053Z 21006KT 10SM CLR 27/08 A2989 RMK AO2 SLP119 T02720083 56035 $",
    "windDirection": 210,
    "windSpeed": 6,
    "windGust": null,
    "visibility": 10,
    "temperatureC": 27,
    "dewPointC": 8,
    "cloudCeiling": 99999,
    "altimeter": "A2989",
    "timestamp": "2026-03-25T20:53:00+00:00",
    "station": "KCPS"
  },
  "kstl": {
    "metar": "KSTL 252051Z 20009G19KT 10SM FEW140 SCT180 BKN250 27/09 A2989 RMK AO2 SLP117 T02720094 56032",
    "windDirection": 200,
    "windSpeed": 9,
    "windGust": 19,
    "visibility": 10,
    "temperatureC": 27,
    "dewPointC": 9,
    "cloudCeiling": 25000,
    "altimeter": "A2989",
    "timestamp": "2026-03-25T20:51:00+00:00",
    "station": "KSTL"
  }
}