{
  "lastUpdated": "2026-04-26T14:07:20.102682+00:00",
  "kcps": {
    "metar": "KCPS 261353Z 12007KT 10SM CLR 18/12 A2995 RMK AO2 SLP141 T01830117 $",
    "windDirection": 120,
    "windSpeed": 7,
    "windGust": null,
    "visibility": 10,
    "temperatureC": 18,
    "dewPointC": 12,
    "cloudCeiling": 99999,
    "altimeter": "A2995",
    "timestamp": "2026-04-26T13:53:00+00:00",
    "station": "KCPS"
  },
  "kstl": {
    "metar": "KSTL 261351Z 12010KT 10SM FEW250 18/11 A2996 RMK AO2 SLP138 T01780111 $",
    "windDirection": 120,
    "windSpeed": 10,
    "windGust": null,
    "visibility": 10,
    "temperatureC": 18,
    "dewPointC": 11,
    "cloudCeiling": null,
    "altimeter": "A2996",
    "timestamp": "2026-04-26T13:51:00+00:00",
    "station": "KSTL"
  }
}