{
  "lastUpdated": "2025-12-14T12:02:44.399260+00:00",
  "kcps": {
    "metar": "KCPS 141153Z 33011KT 10SM CLR M13/M19 A3065 RMK AO2 SLP388 T11331189 11122 21133 53023 $",
    "windDirection": 330,
    "windSpeed": 11,
    "windGust": null,
    "visibility": 10,
    "temperatureC": -13,
    "dewPointC": -19,
    "cloudCeiling": 99999,
    "altimeter": "A3065",
    "timestamp": "2025-12-14T11:53:00+00:00",
    "station": "KCPS"
  },
  "kstl": {
    "metar": "KSTL 141151Z 33010G21KT 10SM CLR M13/M20 A3064 RMK AO2 SLP396 T11331200 11128 21139 53023 $",
    "windDirection": 330,
    "windSpeed": 10,
    "windGust": 21,
    "visibility": 10,
    "temperatureC": -13,
    "dewPointC": -20,
    "cloudCeiling": 99999,
    "altimeter": "A3064",
    "timestamp": "2025-12-14T11:51:00+00:00",
    "station": "KSTL"
  }
}