{
  "lastUpdated": "2026-04-08T23:44:38.066558+00:00",
  "kcps": {
    "metar": "KCPS 082253Z 17013G24KT 10SM CLR 24/04 A3006 RMK AO2 SLP178 T02390044 $",
    "windDirection": 170,
    "windSpeed": 13,
    "windGust": 24,
    "visibility": 10,
    "temperatureC": 24,
    "dewPointC": 4,
    "cloudCeiling": 99999,
    "altimeter": "A3006",
    "timestamp": "2026-04-08T22:53:00+00:00",
    "station": "KCPS"
  },
  "kstl": {
    "metar": "KSTL 082251Z 17017G24KT 10SM FEW200 SCT250 24/04 A3005 RMK AO2 SLP175 T02440039 $",
    "windDirection": 170,
    "windSpeed": 17,
    "windGust": 24,
    "visibility": 10,
    "temperatureC": 24,
    "dewPointC": 4,
    "cloudCeiling": null,
    "altimeter": "A3005",
    "timestamp": "2026-04-08T22:51:00+00:00",
    "station": "KSTL"
  }
}