{
  "lastUpdated": "2025-12-27T02:32:42.445374+00:00",
  "kcps": {
    "metar": "KCPS 270153Z 02003KT 10SM CLR 09/08 A2991 RMK AO2 SLP129 T00940083 $",
    "windDirection": 20,
    "windSpeed": 3,
    "windGust": null,
    "visibility": 10,
    "temperatureC": 9,
    "dewPointC": 8,
    "cloudCeiling": 99999,
    "altimeter": "A2991",
    "timestamp": "2025-12-27T01:53:00+00:00",
    "station": "KCPS"
  },
  "kstl": {
    "metar": "KSTL 270151Z 00000KT 10SM SCT250 10/08 A2992 RMK AO2 SLP129 T01000083 $",
    "windDirection": 0,
    "windSpeed": 0,
    "windGust": null,
    "visibility": 10,
    "temperatureC": 10,
    "dewPointC": 8,
    "cloudCeiling": null,
    "altimeter": "A2992",
    "timestamp": "2025-12-27T01:51:00+00:00",
    "station": "KSTL"
  }
}