{
  "lastUpdated": "2025-11-21T11:46:39.455192+00:00",
  "kcps": {
    "metar": "KCPS 211117Z AUTO 00000KT 7SM -RA BKN004 OVC023 12/11 A2999 RMK AO2 P0003 T01170111",
    "windDirection": 0,
    "windSpeed": 0,
    "windGust": null,
    "visibility": 7,
    "temperatureC": 12,
    "dewPointC": 11,
    "cloudCeiling": 400,
    "altimeter": "A2999",
    "timestamp": "2025-11-21T11:17:00+00:00",
    "station": "KCPS"
  },
  "kstl": {
    "metar": "KSTL 211104Z 06006KT 6SM -RA BR BKN004 OVC014 12/11 A2998 RMK AO2 P0002 T01170111 $",
    "windDirection": 60,
    "windSpeed": 6,
    "windGust": null,
    "visibility": 6,
    "temperatureC": 12,
    "dewPointC": 11,
    "cloudCeiling": 400,
    "altimeter": "A2998",
    "timestamp": "2025-11-21T11:04:00+00:00",
    "station": "KSTL"
  }
}