{
  "lastUpdated": "2025-11-21T23:46:02.455024+00:00",
  "kcps": {
    "metar": "KCPS 212330Z 02004KT 7SM -RA OVC003 13/13 A2986 RMK AO2 RAB11 P0008 T01330128",
    "windDirection": 20,
    "windSpeed": 4,
    "windGust": null,
    "visibility": 7,
    "temperatureC": 13,
    "dewPointC": 13,
    "cloudCeiling": 300,
    "altimeter": "A2986",
    "timestamp": "2025-11-21T23:30:00+00:00",
    "station": "KCPS"
  },
  "kstl": {
    "metar": "KSTL 212258Z 06008KT 5SM -RA BR OVC003 13/12 A2985 RMK AO2 P0001 T01280122 $",
    "windDirection": 60,
    "windSpeed": 8,
    "windGust": null,
    "visibility": 5,
    "temperatureC": 13,
    "dewPointC": 12,
    "cloudCeiling": 300,
    "altimeter": "A2985",
    "timestamp": "2025-11-21T22:58:00+00:00",
    "station": "KSTL"
  }
}