{
  "lastUpdated": "2025-11-29T04:48:26.982671+00:00",
  "kcps": {
    "metar": "KCPS 290353Z 13006KT 10SM OVC110 02/M06 A3033 RMK AO2 SLP275 T00171056 $",
    "windDirection": 130,
    "windSpeed": 6,
    "windGust": null,
    "visibility": 10,
    "temperatureC": 2,
    "dewPointC": -6,
    "cloudCeiling": 11000,
    "altimeter": "A3033",
    "timestamp": "2025-11-29T03:53:00+00:00",
    "station": "KCPS"
  },
  "kstl": {
    "metar": "KSTL 290351Z 13012KT 10SM OVC100 02/M07 A3031 RMK AO2 SLP275 T00221067 $",
    "windDirection": 130,
    "windSpeed": 12,
    "windGust": null,
    "visibility": 10,
    "temperatureC": 2,
    "dewPointC": -7,
    "cloudCeiling": 10000,
    "altimeter": "A3031",
    "timestamp": "2025-11-29T03:51:00+00:00",
    "station": "KSTL"
  }
}