{
  "lastUpdated": "2026-06-09T01:21:43.817690+00:00",
  "kcps": {
    "metar": "KCPS 090053Z 21003KT 10SM SCT080 BKN100 BKN110 28/23 A2992 RMK AO2 SLP128 T02780233 $",
    "windDirection": 210,
    "windSpeed": 3,
    "windGust": null,
    "visibility": 10,
    "temperatureC": 28,
    "dewPointC": 23,
    "cloudCeiling": 10000,
    "altimeter": "A2992",
    "timestamp": "2026-06-09T00:53:00+00:00",
    "station": "KCPS"
  },
  "kstl": {
    "metar": "KSTL 090051Z 21006KT 10SM SCT038 BKN080 BKN250 28/22 A2994 RMK AO2 SLP126 T02830217 $",
    "windDirection": 210,
    "windSpeed": 6,
    "windGust": null,
    "visibility": 10,
    "temperatureC": 28,
    "dewPointC": 22,
    "cloudCeiling": 8000,
    "altimeter": "A2994",
    "timestamp": "2026-06-09T00:51:00+00:00",
    "station": "KSTL"
  }
}