{
  "lastUpdated": "2026-02-05T22:04:20.264862+00:00",
  "kcps": {
    "metar": "KCPS 052153Z 17006KT 10SM SCT100 03/M04 A2993 RMK AO2 SLP140 T00281044 $",
    "windDirection": 170,
    "windSpeed": 6,
    "windGust": null,
    "visibility": 10,
    "temperatureC": 3,
    "dewPointC": -4,
    "cloudCeiling": null,
    "altimeter": "A2993",
    "timestamp": "2026-02-05T21:53:00+00:00",
    "station": "KCPS"
  },
  "kstl": {
    "metar": "KSTL 052151Z 17006KT 10SM FEW095 SCT200 BKN250 03/M04 A2992 RMK AO2 SLP143 T00331039 $",
    "windDirection": 170,
    "windSpeed": 6,
    "windGust": null,
    "visibility": 10,
    "temperatureC": 3,
    "dewPointC": -4,
    "cloudCeiling": 25000,
    "altimeter": "A2992",
    "timestamp": "2026-02-05T21:51:00+00:00",
    "station": "KSTL"
  }
}