{
  "lastUpdated": "2026-02-01T09:23:14.631814+00:00",
  "kcps": {
    "metar": "KCPS 010753Z AUTO 24004KT 10SM CLR M13/M17 A3048 RMK AO2 SLP328 T11331167 $",
    "windDirection": 240,
    "windSpeed": 4,
    "windGust": null,
    "visibility": 10,
    "temperatureC": -13,
    "dewPointC": -17,
    "cloudCeiling": 99999,
    "altimeter": "A3048",
    "timestamp": "2026-02-01T07:53:00+00:00",
    "station": "KCPS"
  },
  "kstl": {
    "metar": "KSTL 010851Z 26005KT 10SM CLR M13/M17 A3045 RMK AO2 SLP332 T11331172 58009 $",
    "windDirection": 260,
    "windSpeed": 5,
    "windGust": null,
    "visibility": 10,
    "temperatureC": -13,
    "dewPointC": -17,
    "cloudCeiling": 99999,
    "altimeter": "A3045",
    "timestamp": "2026-02-01T08:51:00+00:00",
    "station": "KSTL"
  }
}