{
  "lastUpdated": "2026-02-19T22:06:21.641244+00:00",
  "kcps": {
    "metar": "KCPS 192153Z 12011KT 10SM FEW110 21/15 A2938 RMK AO2 SLP946 T02110150 $",
    "windDirection": 120,
    "windSpeed": 11,
    "windGust": null,
    "visibility": 10,
    "temperatureC": 21,
    "dewPointC": 15,
    "cloudCeiling": null,
    "altimeter": "A2938",
    "timestamp": "2026-02-19T21:53:00+00:00",
    "station": "KCPS"
  },
  "kstl": {
    "metar": "KSTL 192151Z 11011KT 10SM FEW020 SCT085 BKN110 BKN250 19/15 A2938 RMK AO2 SLP947 T01890150 $",
    "windDirection": 110,
    "windSpeed": 11,
    "windGust": null,
    "visibility": 10,
    "temperatureC": 19,
    "dewPointC": 15,
    "cloudCeiling": 11000,
    "altimeter": "A2938",
    "timestamp": "2026-02-19T21:51:00+00:00",
    "station": "KSTL"
  }
}