{
  "lastUpdated": "2026-04-26T04:21:57.405400+00:00",
  "kcps": {
    "metar": "KCPS 260353Z AUTO 08006KT 10SM CLR 18/08 A2989 RMK AO2 SLP121 T01780083 $",
    "windDirection": 80,
    "windSpeed": 6,
    "windGust": null,
    "visibility": 10,
    "temperatureC": 18,
    "dewPointC": 8,
    "cloudCeiling": 99999,
    "altimeter": "A2989",
    "timestamp": "2026-04-26T03:53:00+00:00",
    "station": "KCPS"
  },
  "kstl": {
    "metar": "KSTL 260351Z 09010KT 10SM SCT250 18/08 A2990 RMK AO2 SLP119 T01780083 $",
    "windDirection": 90,
    "windSpeed": 10,
    "windGust": null,
    "visibility": 10,
    "temperatureC": 18,
    "dewPointC": 8,
    "cloudCeiling": null,
    "altimeter": "A2990",
    "timestamp": "2026-04-26T03:51:00+00:00",
    "station": "KSTL"
  }
}