{
  "lastUpdated": "2025-12-19T01:08:58.033107+00:00",
  "kcps": {
    "metar": "KCPS 190053Z 31017G29KT 10SM -RA FEW023 BKN041 OVC055 06/02 A2964 RMK AO2 PK WND 31029/0041 WSHFT 0036 RAB37 SLP036 P0002 T00560017",
    "windDirection": 310,
    "windSpeed": 17,
    "windGust": 29,
    "visibility": 10,
    "temperatureC": 6,
    "dewPointC": 2,
    "cloudCeiling": 4100,
    "altimeter": "A2964",
    "timestamp": "2025-12-19T00:53:00+00:00",
    "station": "KCPS"
  },
  "kstl": {
    "metar": "KSTL 190051Z 30017G34KT 10SM -RA FEW016 OVC042 04/M01 A2965 RMK AO2 PK WND 26041/0010 WSHFT 0009 RAB06E30B47 SLP041 FROPA P0000 T00441006 $",
    "windDirection": 300,
    "windSpeed": 17,
    "windGust": 34,
    "visibility": 10,
    "temperatureC": 4,
    "dewPointC": -1,
    "cloudCeiling": 4200,
    "altimeter": "A2965",
    "timestamp": "2025-12-19T00:51:00+00:00",
    "station": "KSTL"
  }
}