{
  "lastUpdated": "2026-01-29T11:41:10.887224+00:00",
  "kcps": {
    "metar": "KCPS 291053Z AUTO 05004KT 10SM CLR M06/M12 A3026 RMK AO2 SLP254 T10561122 $",
    "windDirection": 50,
    "windSpeed": 4,
    "windGust": null,
    "visibility": 10,
    "temperatureC": -6,
    "dewPointC": -12,
    "cloudCeiling": 99999,
    "altimeter": "A3026",
    "timestamp": "2026-01-29T10:53:00+00:00",
    "station": "KCPS"
  },
  "kstl": {
    "metar": "KSTL 291051Z 06006KT 10SM FEW060 OVC190 M06/M12 A3026 RMK AO2 SLP258 T10561122 $",
    "windDirection": 60,
    "windSpeed": 6,
    "windGust": null,
    "visibility": 10,
    "temperatureC": -6,
    "dewPointC": -12,
    "cloudCeiling": 19000,
    "altimeter": "A3026",
    "timestamp": "2026-01-29T10:51:00+00:00",
    "station": "KSTL"
  }
}