{
  "lastUpdated": "2026-03-17T05:05:42.213164+00:00",
  "kcps": {
    "metar": "KCPS 170453Z AUTO 29012KT 10SM CLR M05/M14 A3016 RMK AO2 SLP219 T10501139 $",
    "windDirection": 290,
    "windSpeed": 12,
    "windGust": null,
    "visibility": 10,
    "temperatureC": -5,
    "dewPointC": -14,
    "cloudCeiling": 99999,
    "altimeter": "A3016",
    "timestamp": "2026-03-17T04:53:00+00:00",
    "station": "KCPS"
  },
  "kstl": {
    "metar": "KSTL 170451Z 29011G21KT 10SM FEW050 M06/M14 A3015 RMK AO2 SLP225 T10561139 $",
    "windDirection": 290,
    "windSpeed": 11,
    "windGust": 21,
    "visibility": 10,
    "temperatureC": -6,
    "dewPointC": -14,
    "cloudCeiling": null,
    "altimeter": "A3015",
    "timestamp": "2026-03-17T04:51:00+00:00",
    "station": "KSTL"
  }
}