{
  "lastUpdated": "2026-01-10T16:02:18.017138+00:00",
  "kcps": {
    "metar": "KCPS 101553Z 31014KT 10SM OVC016 03/01 A3013 RMK AO2 RAE15 SLP206 P0000 T00330011 $",
    "windDirection": 310,
    "windSpeed": 14,
    "windGust": null,
    "visibility": 10,
    "temperatureC": 3,
    "dewPointC": 1,
    "cloudCeiling": 1600,
    "altimeter": "A3013",
    "timestamp": "2026-01-10T15:53:00+00:00",
    "station": "KCPS"
  },
  "kstl": {
    "metar": "KSTL 101551Z 31012G23KT 10SM BKN016 OVC033 03/01 A3014 RMK AO2 RAE1457 SLP211 P0000 T00330006 $",
    "windDirection": 310,
    "windSpeed": 12,
    "windGust": 23,
    "visibility": 10,
    "temperatureC": 3,
    "dewPointC": 1,
    "cloudCeiling": 1600,
    "altimeter": "A3014",
    "timestamp": "2026-01-10T15:51:00+00:00",
    "station": "KSTL"
  }
}