{
  "lastUpdated": "2026-02-08T17:22:42.118267+00:00",
  "kcps": {
    "metar": "KCPS 081653Z 15009KT 10SM CLR 02/M07 A3020 RMK AO2 SLP229 T00221067 $",
    "windDirection": 150,
    "windSpeed": 9,
    "windGust": null,
    "visibility": 10,
    "temperatureC": 2,
    "dewPointC": -7,
    "cloudCeiling": 99999,
    "altimeter": "A3020",
    "timestamp": "2026-02-08T16:53:00+00:00",
    "station": "KCPS"
  },
  "kstl": {
    "metar": "KSTL 081651Z 11012KT 10SM BKN250 02/M07 A3018 RMK AO2 SLP232 T00171072 $",
    "windDirection": 110,
    "windSpeed": 12,
    "windGust": null,
    "visibility": 10,
    "temperatureC": 2,
    "dewPointC": -7,
    "cloudCeiling": 25000,
    "altimeter": "A3018",
    "timestamp": "2026-02-08T16:51:00+00:00",
    "station": "KSTL"
  }
}