{
  "lastUpdated": "2026-04-23T06:12:28.345088+00:00",
  "kcps": {
    "metar": "KCPS 230553Z AUTO 15003KT 10SM CLR 16/13 A2996 RMK AO2 SLP142 T01560133 10256 20156 402720122 53001 $",
    "windDirection": 150,
    "windSpeed": 3,
    "windGust": null,
    "visibility": 10,
    "temperatureC": 16,
    "dewPointC": 13,
    "cloudCeiling": 99999,
    "altimeter": "A2996",
    "timestamp": "2026-04-23T05:53:00+00:00",
    "station": "KCPS"
  },
  "kstl": {
    "metar": "KSTL 230551Z 20007KT 10SM FEW250 19/13 A2996 RMK AO2 SLP137 T01940133 10233 20178 402500156 55001 $",
    "windDirection": 200,
    "windSpeed": 7,
    "windGust": null,
    "visibility": 10,
    "temperatureC": 19,
    "dewPointC": 13,
    "cloudCeiling": null,
    "altimeter": "A2996",
    "timestamp": "2026-04-23T05:51:00+00:00",
    "station": "KSTL"
  }
}