{
  "lastUpdated": "2026-04-11T01:09:03.579320+00:00",
  "kcps": {
    "metar": "KCPS 110053Z 04009KT 10SM OVC043 15/11 A3032 RMK AO2 SLP264 T01500106 $",
    "windDirection": 40,
    "windSpeed": 9,
    "windGust": null,
    "visibility": 10,
    "temperatureC": 15,
    "dewPointC": 11,
    "cloudCeiling": 4300,
    "altimeter": "A3032",
    "timestamp": "2026-04-11T00:53:00+00:00",
    "station": "KCPS"
  },
  "kstl": {
    "metar": "KSTL 110051Z 02006KT 10SM FEW018 BKN038 OVC100 14/10 A3033 RMK AO2 SLP267 T01390100 $",
    "windDirection": 20,
    "windSpeed": 6,
    "windGust": null,
    "visibility": 10,
    "temperatureC": 14,
    "dewPointC": 10,
    "cloudCeiling": 3800,
    "altimeter": "A3033",
    "timestamp": "2026-04-11T00:51:00+00:00",
    "station": "KSTL"
  }
}