{
  "lastUpdated": "2026-01-31T21:49:01.440391+00:00",
  "kcps": {
    "metar": "KCPS 312053Z 34012KT 10SM CLR M07/M14 A3050 RMK AO2 SLP334 T10721144 56015 $",
    "windDirection": 340,
    "windSpeed": 12,
    "windGust": null,
    "visibility": 10,
    "temperatureC": -7,
    "dewPointC": -14,
    "cloudCeiling": 99999,
    "altimeter": "A3050",
    "timestamp": "2026-01-31T20:53:00+00:00",
    "station": "KCPS"
  },
  "kstl": {
    "metar": "KSTL 312051Z 29007KT 10SM CLR M07/M14 A3049 RMK AO2 SLP345 T10721144 56016 $",
    "windDirection": 290,
    "windSpeed": 7,
    "windGust": null,
    "visibility": 10,
    "temperatureC": -7,
    "dewPointC": -14,
    "cloudCeiling": 99999,
    "altimeter": "A3049",
    "timestamp": "2026-01-31T20:51:00+00:00",
    "station": "KSTL"
  }
}