{
  "lastUpdated": "2026-02-17T15:32:09.371993+00:00",
  "kcps": {
    "metar": "KCPS 171453Z 18005KT 10SM CLR 09/07 A2991 RMK AO2 SLP131 T00890067 58004 $",
    "windDirection": 180,
    "windSpeed": 5,
    "windGust": null,
    "visibility": 10,
    "temperatureC": 9,
    "dewPointC": 7,
    "cloudCeiling": 99999,
    "altimeter": "A2991",
    "timestamp": "2026-02-17T14:53:00+00:00",
    "station": "KCPS"
  },
  "kstl": {
    "metar": "KSTL 171451Z 17006KT 10SM BKN180 BKN250 10/07 A2990 RMK AO2 SLP126 T01000067 57007 $",
    "windDirection": 170,
    "windSpeed": 6,
    "windGust": null,
    "visibility": 10,
    "temperatureC": 10,
    "dewPointC": 7,
    "cloudCeiling": 18000,
    "altimeter": "A2990",
    "timestamp": "2026-02-17T14:51:00+00:00",
    "station": "KSTL"
  }
}