{
  "lastUpdated": "2025-11-22T11:46:18.124067+00:00",
  "kcps": {
    "metar": "KCPS 221053Z AUTO 36009KT 5SM BR BKN011 OVC034 09/08 A3004 RMK AO2 SLP172 T00940083",
    "windDirection": 360,
    "windSpeed": 9,
    "windGust": null,
    "visibility": 5,
    "temperatureC": 9,
    "dewPointC": 8,
    "cloudCeiling": 1100,
    "altimeter": "A3004",
    "timestamp": "2025-11-22T10:53:00+00:00",
    "station": "KCPS"
  },
  "kstl": {
    "metar": "KSTL 221051Z 35011KT 7SM BKN009 BKN045 09/08 A3005 RMK AO2 SLP176 T00890078 $",
    "windDirection": 350,
    "windSpeed": 11,
    "windGust": null,
    "visibility": 7,
    "temperatureC": 9,
    "dewPointC": 8,
    "cloudCeiling": 900,
    "altimeter": "A3005",
    "timestamp": "2025-11-22T10:51:00+00:00",
    "station": "KSTL"
  }
}