{
  "lastUpdated": "2025-12-17T16:02:53.996589+00:00",
  "kcps": {
    "metar": "KCPS 171553Z VRB03KT 10SM CLR 09/01 A3006 RMK AO2 SLP183 T00890006",
    "windDirection": null,
    "windSpeed": null,
    "windGust": null,
    "visibility": 10,
    "temperatureC": 9,
    "dewPointC": 1,
    "cloudCeiling": 99999,
    "altimeter": "A3006",
    "timestamp": "2025-12-17T15:53:00+00:00",
    "station": "KCPS"
  },
  "kstl": {
    "metar": "KSTL 171551Z 33004KT 10SM SCT250 09/02 A3006 RMK AO2 SLP183 T00890022 $",
    "windDirection": 330,
    "windSpeed": 4,
    "windGust": null,
    "visibility": 10,
    "temperatureC": 9,
    "dewPointC": 2,
    "cloudCeiling": null,
    "altimeter": "A3006",
    "timestamp": "2025-12-17T15:51:00+00:00",
    "station": "KSTL"
  }
}