{
  "lastUpdated": "2026-04-13T13:51:36.210934+00:00",
  "kcps": {
    "metar": "KCPS 131253Z 18004KT 10SM OVC039 22/17 A3001 RMK AO2 SLP159 T02170167 $",
    "windDirection": 180,
    "windSpeed": 4,
    "windGust": null,
    "visibility": 10,
    "temperatureC": 22,
    "dewPointC": 17,
    "cloudCeiling": 3900,
    "altimeter": "A3001",
    "timestamp": "2026-04-13T12:53:00+00:00",
    "station": "KCPS"
  },
  "kstl": {
    "metar": "KSTL 131251Z VRB04KT 10SM BKN036 BKN250 22/17 A3001 RMK AO2 SLP153 T02170167 $",
    "windDirection": null,
    "windSpeed": null,
    "windGust": null,
    "visibility": 10,
    "temperatureC": 22,
    "dewPointC": 17,
    "cloudCeiling": 3600,
    "altimeter": "A3001",
    "timestamp": "2026-04-13T12:51:00+00:00",
    "station": "KSTL"
  }
}