{
  "lastUpdated": "2025-12-07T18:02:22.647068+00:00",
  "kcps": {
    "metar": "KCPS 071753Z 34014KT 7SM OVC017 04/01 A3008 RMK AO2 SLP187 T00440011 10072 20039 51020 $",
    "windDirection": 340,
    "windSpeed": 14,
    "windGust": null,
    "visibility": 7,
    "temperatureC": 4,
    "dewPointC": 1,
    "cloudCeiling": 1700,
    "altimeter": "A3008",
    "timestamp": "2025-12-07T17:53:00+00:00",
    "station": "KCPS"
  },
  "kstl": {
    "metar": "KSTL 071751Z 35016G21KT 10SM OVC015 03/01 A3008 RMK AO2 SLP192 T00330006 10056 20033 51020 $",
    "windDirection": 350,
    "windSpeed": 16,
    "windGust": 21,
    "visibility": 10,
    "temperatureC": 3,
    "dewPointC": 1,
    "cloudCeiling": 1500,
    "altimeter": "A3008",
    "timestamp": "2025-12-07T17:51:00+00:00",
    "station": "KSTL"
  }
}