{
  "lastUpdated": "2026-04-27T06:35:34.978097+00:00",
  "kcps": {
    "metar": "KCPS 270553Z AUTO 14006KT 10SM BKN060 BKN090 BKN110 19/14 A2985 RMK AO2 LTG DSNT W RAB04E50 SLP104 P0002 60002 T01890139 10239 20183 402720106 57007 $",
    "windDirection": 140,
    "windSpeed": 6,
    "windGust": null,
    "visibility": 10,
    "temperatureC": 19,
    "dewPointC": 14,
    "cloudCeiling": 6000,
    "altimeter": "A2985",
    "timestamp": "2026-04-27T05:53:00+00:00",
    "station": "KCPS"
  },
  "kstl": {
    "metar": "KSTL 270604Z 15010KT 10SM -TSRA FEW060 OVC110CB 20/14 A2985 RMK AO2 LTG DSNT SW RAB03 TSB03 OCNL LTGCG SW TS SW MOV NE P0000 T02000139 $",
    "windDirection": 150,
    "windSpeed": 10,
    "windGust": null,
    "visibility": 10,
    "temperatureC": 20,
    "dewPointC": 14,
    "cloudCeiling": 11000,
    "altimeter": "A2985",
    "timestamp": "2026-04-27T06:04:00+00:00",
    "station": "KSTL"
  }
}