{
  "lastUpdated": "2026-01-10T17:02:23.638992+00:00",
  "kcps": {
    "metar": "KCPS 101653Z 31015KT 10SM FEW020 BKN060 05/01 A3015 RMK AO2 SLP210 T00500006 $",
    "windDirection": 310,
    "windSpeed": 15,
    "windGust": null,
    "visibility": 10,
    "temperatureC": 5,
    "dewPointC": 1,
    "cloudCeiling": 6000,
    "altimeter": "A3015",
    "timestamp": "2026-01-10T16:53:00+00:00",
    "station": "KCPS"
  },
  "kstl": {
    "metar": "KSTL 101651Z 32017G25KT 10SM SCT021 05/00 A3015 RMK AO2 SLP213 T00500000 $",
    "windDirection": 320,
    "windSpeed": 17,
    "windGust": 25,
    "visibility": 10,
    "temperatureC": 5,
    "dewPointC": 0,
    "cloudCeiling": null,
    "altimeter": "A3015",
    "timestamp": "2026-01-10T16:51:00+00:00",
    "station": "KSTL"
  }
}