{
  "lastUpdated": "2026-01-04T17:47:01.154236+00:00",
  "kcps": {
    "metar": "KCPS 041653Z VRB03KT 10SM CLR 03/M03 A3023 RMK AO2 SLP239 T00331033 $",
    "windDirection": null,
    "windSpeed": null,
    "windGust": null,
    "visibility": 10,
    "temperatureC": 3,
    "dewPointC": -3,
    "cloudCeiling": 99999,
    "altimeter": "A3023",
    "timestamp": "2026-01-04T16:53:00+00:00",
    "station": "KCPS"
  },
  "kstl": {
    "metar": "KSTL 041651Z 14005KT 10SM BKN250 03/M04 A3022 RMK AO2 SLP243 T00281039 $",
    "windDirection": 140,
    "windSpeed": 5,
    "windGust": null,
    "visibility": 10,
    "temperatureC": 3,
    "dewPointC": -4,
    "cloudCeiling": 25000,
    "altimeter": "A3022",
    "timestamp": "2026-01-04T16:51:00+00:00",
    "station": "KSTL"
  }
}