{
  "lastUpdated": "2026-05-05T01:53:35.753609+00:00",
  "kcps": {
    "metar": "KCPS 050053Z 19005KT 10SM FEW100 24/12 A2960 RMK AO2 SLP019 T02390117 $",
    "windDirection": 190,
    "windSpeed": 5,
    "windGust": null,
    "visibility": 10,
    "temperatureC": 24,
    "dewPointC": 12,
    "cloudCeiling": null,
    "altimeter": "A2960",
    "timestamp": "2026-05-05T00:53:00+00:00",
    "station": "KCPS"
  },
  "kstl": {
    "metar": "KSTL 050151Z 21010KT 10SM SCT090 SCT110 BKN250 24/12 A2961 RMK AO2 SLP018 T02440117 $",
    "windDirection": 210,
    "windSpeed": 10,
    "windGust": null,
    "visibility": 10,
    "temperatureC": 24,
    "dewPointC": 12,
    "cloudCeiling": 25000,
    "altimeter": "A2961",
    "timestamp": "2026-05-05T01:51:00+00:00",
    "station": "KSTL"
  }
}