{
  "lastUpdated": "2026-01-04T23:02:23.613162+00:00",
  "kcps": {
    "metar": "KCPS 042253Z 13007KT 10SM CLR 04/M03 A3005 RMK AO2 SLP180 T00441028 $",
    "windDirection": 130,
    "windSpeed": 7,
    "windGust": null,
    "visibility": 10,
    "temperatureC": 4,
    "dewPointC": -3,
    "cloudCeiling": 99999,
    "altimeter": "A3005",
    "timestamp": "2026-01-04T22:53:00+00:00",
    "station": "KCPS"
  },
  "kstl": {
    "metar": "KSTL 042251Z 13011KT 10SM BKN200 BKN250 05/M02 A3003 RMK AO2 SLP179 T00501022 $",
    "windDirection": 130,
    "windSpeed": 11,
    "windGust": null,
    "visibility": 10,
    "temperatureC": 5,
    "dewPointC": -2,
    "cloudCeiling": 20000,
    "altimeter": "A3003",
    "timestamp": "2026-01-04T22:51:00+00:00",
    "station": "KSTL"
  }
}