{
  "lastUpdated": "2026-02-09T09:04:51.426706+00:00",
  "kcps": {
    "metar": "KCPS 090853Z AUTO 00000KT 10SM CLR M04/M08 A3014 RMK AO2 SLP209 T10391078 56008 $",
    "windDirection": 0,
    "windSpeed": 0,
    "windGust": null,
    "visibility": 10,
    "temperatureC": -4,
    "dewPointC": -8,
    "cloudCeiling": 99999,
    "altimeter": "A3014",
    "timestamp": "2026-02-09T08:53:00+00:00",
    "station": "KCPS"
  },
  "kstl": {
    "metar": "KSTL 090851Z 10004KT 10SM CLR M03/M08 A3013 RMK AO2 SLP213 T10331078 56006 $",
    "windDirection": 100,
    "windSpeed": 4,
    "windGust": null,
    "visibility": 10,
    "temperatureC": -3,
    "dewPointC": -8,
    "cloudCeiling": 99999,
    "altimeter": "A3013",
    "timestamp": "2026-02-09T08:51:00+00:00",
    "station": "KSTL"
  }
}