{
  "lastUpdated": "2025-10-13T15:21:49.914416+00:00",
  "kcps": {
    "metar": "KCPS 131453Z 00000KT 10SM CLR 21/13 A3005 RMK AO2 SLP171 T02060133 51014 $",
    "windDirection": 0,
    "windSpeed": 0,
    "windGust": null,
    "visibility": 10,
    "temperatureC": 21,
    "dewPointC": 13,
    "cloudCeiling": 99999,
    "altimeter": "A3005",
    "timestamp": "2025-10-13T14:53:00+00:00",
    "station": "KCPS"
  },
  "kstl": {
    "metar": "KSTL 131451Z 18004KT 10SM FEW090 BKN110 20/12 A3005 RMK AO2 SLP167 T02000122 51015 $",
    "windDirection": 180,
    "windSpeed": 4,
    "windGust": null,
    "visibility": 10,
    "temperatureC": 20,
    "dewPointC": 12,
    "cloudCeiling": 11000,
    "altimeter": "A3005",
    "timestamp": "2025-10-13T14:51:00+00:00",
    "station": "KSTL"
  }
}