{
  "lastUpdated": "2026-02-14T14:22:36.245852+00:00",
  "kcps": {
    "metar": "KCPS 141353Z 00000KT 10SM CLR 06/01 A3006 RMK AO2 SLP181 T00610006 $",
    "windDirection": 0,
    "windSpeed": 0,
    "windGust": null,
    "visibility": 10,
    "temperatureC": 6,
    "dewPointC": 1,
    "cloudCeiling": 99999,
    "altimeter": "A3006",
    "timestamp": "2026-02-14T13:53:00+00:00",
    "station": "KCPS"
  },
  "kstl": {
    "metar": "KSTL 141351Z 07003KT 10SM OVC130 08/00 A3006 RMK AO2 SLP182 T00780000 $",
    "windDirection": 70,
    "windSpeed": 3,
    "windGust": null,
    "visibility": 10,
    "temperatureC": 8,
    "dewPointC": 0,
    "cloudCeiling": 13000,
    "altimeter": "A3006",
    "timestamp": "2026-02-14T13:51:00+00:00",
    "station": "KSTL"
  }
}