{
  "lastUpdated": "2026-01-02T15:35:47.049883+00:00",
  "kcps": {
    "metar": "KCPS 021508Z 04009KT 10SM BR OVC009 00/M02 A2994 RMK AO2 T00001022",
    "windDirection": 40,
    "windSpeed": 9,
    "windGust": null,
    "visibility": 10,
    "temperatureC": 0,
    "dewPointC": -2,
    "cloudCeiling": 900,
    "altimeter": "A2994",
    "timestamp": "2026-01-02T15:08:00+00:00",
    "station": "KCPS"
  },
  "kstl": {
    "metar": "KSTL 021451Z 05006KT 10SM OVC009 M01/M03 A2993 RMK AO2 SLP146 T10111028 51010 $",
    "windDirection": 50,
    "windSpeed": 6,
    "windGust": null,
    "visibility": 10,
    "temperatureC": -1,
    "dewPointC": -3,
    "cloudCeiling": 900,
    "altimeter": "A2993",
    "timestamp": "2026-01-02T14:51:00+00:00",
    "station": "KSTL"
  }
}