{
  "lastUpdated": "2026-06-12T01:35:46.263712+00:00",
  "kcps": {
    "metar": "KCPS 120053Z 22008KT 10SM CLR 31/22 A2976 RMK AO2 SLP073 T03060222 $",
    "windDirection": 220,
    "windSpeed": 8,
    "windGust": null,
    "visibility": 10.0,
    "temperatureC": 30.6,
    "dewPointC": 22.2,
    "cloudCeiling": null,
    "altimeter": "A2976",
    "timestamp": "2026-06-12T01:00:00.000Z",
    "station": "KCPS"
  },
  "kstl": {
    "metar": "KSTL 120051Z 21013G21KT 10SM FEW045 BKN090 OVC250 31/22 A2975 RMK AO2 PK WND 21028/0009 SLP063 T03060222 $",
    "windDirection": 210,
    "windSpeed": 13,
    "windGust": 21,
    "visibility": 10.0,
    "temperatureC": 30.6,
    "dewPointC": 22.2,
    "cloudCeiling": 9000,
    "altimeter": "A2975",
    "timestamp": "2026-06-12T01:00:00.000Z",
    "station": "KSTL"
  }
}