{
  "lastUpdated": "2026-03-10T21:40:29.800869+00:00",
  "kcps": {
    "metar": "KCPS 102053Z 19015G27KT 10SM CLR 28/18 A2974 RMK AO2 PK WND 18029/2018 SLP069 T02780178 56026 $",
    "windDirection": 190,
    "windSpeed": 15,
    "windGust": 27,
    "visibility": 10,
    "temperatureC": 28,
    "dewPointC": 18,
    "cloudCeiling": 99999,
    "altimeter": "A2974",
    "timestamp": "2026-03-10T20:53:00+00:00",
    "station": "KCPS"
  },
  "kstl": {
    "metar": "KSTL 102051Z 19014G29KT 10SM FEW055 FEW140 BKN200 28/17 A2973 RMK AO2 PK WND 20030/2024 SLP057 T02830167 56030 $",
    "windDirection": 190,
    "windSpeed": 14,
    "windGust": 29,
    "visibility": 10,
    "temperatureC": 28,
    "dewPointC": 17,
    "cloudCeiling": 20000,
    "altimeter": "A2973",
    "timestamp": "2026-03-10T20:51:00+00:00",
    "station": "KSTL"
  }
}