{
  "lastUpdated": "2025-10-27T09:22:22.946997+00:00",
  "kcps": {
    "metar": "KCPS 270912Z AUTO 08007KT 3SM -RA BR BKN007 BKN014 OVC033 11/10 A3008 RMK AO2 P0001 T01060100 $",
    "windDirection": 80,
    "windSpeed": 7,
    "windGust": null,
    "visibility": 3,
    "temperatureC": 11,
    "dewPointC": 10,
    "cloudCeiling": 700,
    "altimeter": "A3008",
    "timestamp": "2025-10-27T09:12:00+00:00",
    "station": "KCPS"
  },
  "kstl": {
    "metar": "KSTL 270913Z 10007KT 4SM -DZ BR FEW006 SCT015 OVC027 10/09 A3008 RMK AO2 P0002 T01000094 $",
    "windDirection": 100,
    "windSpeed": 7,
    "windGust": null,
    "visibility": 4,
    "temperatureC": 10,
    "dewPointC": 9,
    "cloudCeiling": 2700,
    "altimeter": "A3008",
    "timestamp": "2025-10-27T09:13:00+00:00",
    "station": "KSTL"
  }
}