{
  "lastUpdated": "2026-02-07T12:24:07.506662+00:00",
  "kcps": {
    "metar": "KCPS 071153Z AUTO 04005KT 10SM CLR M02/M06 A3034 RMK AO2 SLP278 T10221061 10022 21022 53012 $",
    "windDirection": 40,
    "windSpeed": 5,
    "windGust": null,
    "visibility": 10,
    "temperatureC": -2,
    "dewPointC": -6,
    "cloudCeiling": 99999,
    "altimeter": "A3034",
    "timestamp": "2026-02-07T11:53:00+00:00",
    "station": "KCPS"
  },
  "kstl": {
    "metar": "KSTL 071151Z 04008KT 10SM CLR M02/M07 A3034 RMK AO2 SLP284 T10221072 10017 21022 53010 $",
    "windDirection": 40,
    "windSpeed": 8,
    "windGust": null,
    "visibility": 10,
    "temperatureC": -2,
    "dewPointC": -7,
    "cloudCeiling": 99999,
    "altimeter": "A3034",
    "timestamp": "2026-02-07T11:51:00+00:00",
    "station": "KSTL"
  }
}