{
  "lastUpdated": "2026-03-10T06:50:37.677235+00:00",
  "kcps": {
    "metar": "KCPS 100553Z AUTO 19006KT 10SM CLR 19/16 A2984 RMK AO2 SLP103 T01940156 10211 20189 402280050 50008 $",
    "windDirection": 190,
    "windSpeed": 6,
    "windGust": null,
    "visibility": 10,
    "temperatureC": 19,
    "dewPointC": 16,
    "cloudCeiling": 99999,
    "altimeter": "A2984",
    "timestamp": "2026-03-10T05:53:00+00:00",
    "station": "KCPS"
  },
  "kstl": {
    "metar": "KSTL 100551Z 20008KT 10SM CLR 19/15 A2984 RMK AO2 SLP096 T01940150 10228 20194 402560106 51009 $",
    "windDirection": 200,
    "windSpeed": 8,
    "windGust": null,
    "visibility": 10,
    "temperatureC": 19,
    "dewPointC": 15,
    "cloudCeiling": 99999,
    "altimeter": "A2984",
    "timestamp": "2026-03-10T05:51:00+00:00",
    "station": "KSTL"
  }
}