{
  "lastUpdated": "2026-03-15T07:17:52.592809+00:00",
  "kcps": {
    "metar": "KCPS 150553Z AUTO 15007KT 10SM CLR 13/08 A2968 RMK AO2 SLP050 T01330078 10167 20133 401890028 58030 $",
    "windDirection": 150,
    "windSpeed": 7,
    "windGust": null,
    "visibility": 10,
    "temperatureC": 13,
    "dewPointC": 8,
    "cloudCeiling": 99999,
    "altimeter": "A2968",
    "timestamp": "2026-03-15T05:53:00+00:00",
    "station": "KCPS"
  },
  "kstl": {
    "metar": "KSTL 150651Z 12005KT 10SM BKN220 14/08 A2965 RMK AO2 SLP039 T01390083 $",
    "windDirection": 120,
    "windSpeed": 5,
    "windGust": null,
    "visibility": 10,
    "temperatureC": 14,
    "dewPointC": 8,
    "cloudCeiling": 22000,
    "altimeter": "A2965",
    "timestamp": "2026-03-15T06:51:00+00:00",
    "station": "KSTL"
  }
}