{
  "lastUpdated": "2026-05-01T04:45:10.693419+00:00",
  "kcps": {
    "metar": "KCPS 010253Z VRB03KT 10SM -RA OVC065 15/06 A3000 RMK AO2 RAB24 SLP156 P0000 60000 T01500061 53016 $",
    "windDirection": null,
    "windSpeed": null,
    "windGust": null,
    "visibility": 10,
    "temperatureC": 15,
    "dewPointC": 6,
    "cloudCeiling": 6500,
    "altimeter": "A3000",
    "timestamp": "2026-05-01T02:53:00+00:00",
    "station": "KCPS"
  },
  "kstl": {
    "metar": "KSTL 010351Z 29005KT 6SM -RA FEW050 BKN060 OVC080 12/09 A3001 RMK AO2 RAE00B38 SLP159 P0002 T01220094",
    "windDirection": 290,
    "windSpeed": 5,
    "windGust": null,
    "visibility": 6,
    "temperatureC": 12,
    "dewPointC": 9,
    "cloudCeiling": 6000,
    "altimeter": "A3001",
    "timestamp": "2026-05-01T03:51:00+00:00",
    "station": "KSTL"
  }
}