{
  "lastUpdated": "2026-03-30T20:28:10.848589+00:00",
  "kcps": {
    "metar": "KCPS 301953Z 20018G29KT 10SM CLR 28/14 A2989 RMK AO2 PK WND 18029/1951 SLP120 T02830139 $",
    "windDirection": 200,
    "windSpeed": 18,
    "windGust": 29,
    "visibility": 10,
    "temperatureC": 28,
    "dewPointC": 14,
    "cloudCeiling": 99999,
    "altimeter": "A2989",
    "timestamp": "2026-03-30T19:53:00+00:00",
    "station": "KCPS"
  },
  "kstl": {
    "metar": "KSTL 301951Z 20020G27KT 10SM FEW055 FEW250 29/13 A2989 RMK AO2 PK WND 22029/1913 SLP112 T02890133 $",
    "windDirection": 200,
    "windSpeed": 20,
    "windGust": 27,
    "visibility": 10,
    "temperatureC": 29,
    "dewPointC": 13,
    "cloudCeiling": null,
    "altimeter": "A2989",
    "timestamp": "2026-03-30T19:51:00+00:00",
    "station": "KSTL"
  }
}