{
  "lastUpdated": "2026-02-27T12:06:09.800931+00:00",
  "kcps": {
    "metar": "KCPS 271153Z AUTO 00000KT 8SM CLR M01/M02 A2995 RMK AO2 SLP145 T10111017 10017 21022 53002 $",
    "windDirection": 0,
    "windSpeed": 0,
    "windGust": null,
    "visibility": 8,
    "temperatureC": -1,
    "dewPointC": -2,
    "cloudCeiling": 99999,
    "altimeter": "A2995",
    "timestamp": "2026-02-27T11:53:00+00:00",
    "station": "KCPS"
  },
  "kstl": {
    "metar": "KSTL 271151Z 00000KT 10SM CLR 02/01 A2995 RMK AO2 SLP143 T00170006 10056 20017 55000 $",
    "windDirection": 0,
    "windSpeed": 0,
    "windGust": null,
    "visibility": 10,
    "temperatureC": 2,
    "dewPointC": 1,
    "cloudCeiling": 99999,
    "altimeter": "A2995",
    "timestamp": "2026-02-27T11:51:00+00:00",
    "station": "KSTL"
  }
}