{
  "lastUpdated": "2025-12-02T11:21:31.058404+00:00",
  "kcps": {
    "metar": "KCPS 021053Z AUTO 30013KT 10SM OVC014 M04/M08 A3009 RMK AO2 SLP194 T10441078 $",
    "windDirection": 300,
    "windSpeed": 13,
    "windGust": null,
    "visibility": 10,
    "temperatureC": -4,
    "dewPointC": -8,
    "cloudCeiling": 1400,
    "altimeter": "A3009",
    "timestamp": "2025-12-02T10:53:00+00:00",
    "station": "KCPS"
  },
  "kstl": {
    "metar": "KSTL 021107Z 31008KT 9SM -SN OVC014 M05/M07 A3008 RMK AO2 P0000 T10501072 $",
    "windDirection": 310,
    "windSpeed": 8,
    "windGust": null,
    "visibility": 9,
    "temperatureC": -5,
    "dewPointC": -7,
    "cloudCeiling": 1400,
    "altimeter": "A3008",
    "timestamp": "2025-12-02T11:07:00+00:00",
    "station": "KSTL"
  }
}