{
  "lastUpdated": "2026-06-13T20:41:34.567505+00:00",
  "kcps": {
    "metar": "SPECI KCPS 132010Z 00000KT 10SM BR BKN022 OVC030 24/22 A2992 RMK AO2 T02440217 $",
    "windDirection": 0,
    "windSpeed": 0,
    "windGust": null,
    "visibility": 10.0,
    "temperatureC": 24.4,
    "dewPointC": 21.7,
    "cloudCeiling": 2200,
    "altimeter": "A2992",
    "timestamp": "2026-06-13T20:10:00.000Z",
    "station": "KCPS"
  },
  "kstl": {
    "metar": "KSTL 131951Z VRB04KT 10SM SCT023 BKN120 OVC200 26/20 A2993 RMK AO2 SLP123 T02560200 $",
    "windDirection": "VRB",
    "windSpeed": 4,
    "windGust": null,
    "visibility": 10.0,
    "temperatureC": 25.6,
    "dewPointC": 20,
    "cloudCeiling": 12000,
    "altimeter": "A2993",
    "timestamp": "2026-06-13T20:00:00.000Z",
    "station": "KSTL"
  }
}