{
  "lastUpdated": "2025-10-31T22:46:37.414986+00:00",
  "kcps": {
    "metar": "KCPS 312153Z 30010G18KT 10SM FEW080 17/01 A2997 RMK AO2 SLP148 T01670011",
    "windDirection": 300,
    "windSpeed": 10,
    "windGust": 18,
    "visibility": 10,
    "temperatureC": 17,
    "dewPointC": 1,
    "cloudCeiling": null,
    "altimeter": "A2997",
    "timestamp": "2025-10-31T21:53:00+00:00",
    "station": "KCPS"
  },
  "kstl": {
    "metar": "KSTL 312151Z 28015G23KT 10SM FEW070 BKN250 17/M02 A2997 RMK AO2 PK WND 28027/2112 SLP151 T01671017 $",
    "windDirection": 280,
    "windSpeed": 15,
    "windGust": 23,
    "visibility": 10,
    "temperatureC": 17,
    "dewPointC": -2,
    "cloudCeiling": 25000,
    "altimeter": "A2997",
    "timestamp": "2025-10-31T21:51:00+00:00",
    "station": "KSTL"
  }
}