{
  "lastUpdated": "2026-05-02T13:28:41.146749+00:00",
  "kcps": {
    "metar": "KCPS 021253Z 02007KT 10SM SCT060 SCT100 10/07 A3008 RMK AO2 SLP185 T01000072 $",
    "windDirection": 20,
    "windSpeed": 7,
    "windGust": null,
    "visibility": 10,
    "temperatureC": 10,
    "dewPointC": 7,
    "cloudCeiling": null,
    "altimeter": "A3008",
    "timestamp": "2026-05-02T12:53:00+00:00",
    "station": "KCPS"
  },
  "kstl": {
    "metar": "KSTL 021251Z 36004KT 10SM SCT055 SCT250 11/07 A3009 RMK AO2 SLP187 T01060072 $",
    "windDirection": 360,
    "windSpeed": 4,
    "windGust": null,
    "visibility": 10,
    "temperatureC": 11,
    "dewPointC": 7,
    "cloudCeiling": null,
    "altimeter": "A3009",
    "timestamp": "2026-05-02T12:51:00+00:00",
    "station": "KSTL"
  }
}