{
  "lastUpdated": "2026-04-21T14:17:15.854359+00:00",
  "kcps": {
    "metar": "KCPS 211353Z 22008KT 10SM CLR 17/06 A3013 RMK AO2 SLP202 T01720056 $",
    "windDirection": 220,
    "windSpeed": 8,
    "windGust": null,
    "visibility": 10,
    "temperatureC": 17,
    "dewPointC": 6,
    "cloudCeiling": 99999,
    "altimeter": "A3013",
    "timestamp": "2026-04-21T13:53:00+00:00",
    "station": "KCPS"
  },
  "kstl": {
    "metar": "KSTL 211351Z 22007KT 10SM FEW200 BKN250 18/06 A3012 RMK AO2 SLP196 T01780061 $",
    "windDirection": 220,
    "windSpeed": 7,
    "windGust": null,
    "visibility": 10,
    "temperatureC": 18,
    "dewPointC": 6,
    "cloudCeiling": 25000,
    "altimeter": "A3012",
    "timestamp": "2026-04-21T13:51:00+00:00",
    "station": "KSTL"
  }
}