{
  "lastUpdated": "2026-03-17T04:26:58.251945+00:00",
  "kcps": {
    "metar": "KCPS 170353Z AUTO 30013G22KT 10SM BKN048 M05/M14 A3016 RMK AO2 PK WND 29029/0315 SLP218 T10501144 $",
    "windDirection": 300,
    "windSpeed": 13,
    "windGust": 22,
    "visibility": 10,
    "temperatureC": -5,
    "dewPointC": -14,
    "cloudCeiling": 4800,
    "altimeter": "A3016",
    "timestamp": "2026-03-17T03:53:00+00:00",
    "station": "KCPS"
  },
  "kstl": {
    "metar": "KSTL 170351Z 29013G22KT 10SM FEW050 M06/M14 A3015 RMK AO2 PK WND 28029/0303 SLP225 T10561139 $",
    "windDirection": 290,
    "windSpeed": 13,
    "windGust": 22,
    "visibility": 10,
    "temperatureC": -6,
    "dewPointC": -14,
    "cloudCeiling": null,
    "altimeter": "A3015",
    "timestamp": "2026-03-17T03:51:00+00:00",
    "station": "KSTL"
  }
}