{
  "lastUpdated": "2026-05-29T00:07:23.505584+00:00",
  "kcps": {
    "metar": "KCPS 282353Z 08006KT 10SM CLR 28/18 A3000 RMK AO2 SLP154 T02830178 10306 20278 55003 $",
    "windDirection": 80,
    "windSpeed": 6,
    "windGust": null,
    "visibility": 10,
    "temperatureC": 28,
    "dewPointC": 18,
    "cloudCeiling": 99999,
    "altimeter": "A3000",
    "timestamp": "2026-05-28T23:53:00+00:00",
    "station": "KCPS"
  },
  "kstl": {
    "metar": "KSTL 282351Z 09007KT 10SM SCT200 BKN250 28/17 A3001 RMK AO2 SLP153 T02780167 10300 20278 55004 $",
    "windDirection": 90,
    "windSpeed": 7,
    "windGust": null,
    "visibility": 10,
    "temperatureC": 28,
    "dewPointC": 17,
    "cloudCeiling": 25000,
    "altimeter": "A3001",
    "timestamp": "2026-05-28T23:51:00+00:00",
    "station": "KSTL"
  }
}