{
  "lastUpdated": "2026-02-18T23:54:21.146649+00:00",
  "kcps": {
    "metar": "KCPS 182253Z 24003KT 10SM CLR 22/M03 A2962 RMK AO2 SLP028 T02221033 $",
    "windDirection": 240,
    "windSpeed": 3,
    "windGust": null,
    "visibility": 10,
    "temperatureC": 22,
    "dewPointC": -3,
    "cloudCeiling": 99999,
    "altimeter": "A2962",
    "timestamp": "2026-02-18T22:53:00+00:00",
    "station": "KCPS"
  },
  "kstl": {
    "metar": "KSTL 182351Z 33003KT 10SM FEW050 SCT250 18/M03 A2964 RMK AO2 SLP033 T01781028 10228 20178 55001 $",
    "windDirection": 330,
    "windSpeed": 3,
    "windGust": null,
    "visibility": 10,
    "temperatureC": 18,
    "dewPointC": -3,
    "cloudCeiling": null,
    "altimeter": "A2964",
    "timestamp": "2026-02-18T23:51:00+00:00",
    "station": "KSTL"
  }
}