{
  "lastUpdated": "2026-05-04T06:56:48.654564+00:00",
  "kcps": {
    "metar": "KCPS 040553Z AUTO 22003KT 10SM SCT100 19/09 A2978 RMK AO2 LTG DSNT N AND NE SLP081 T01890089 10250 20189 402560050 55009 $",
    "windDirection": 220,
    "windSpeed": 3,
    "windGust": null,
    "visibility": 10,
    "temperatureC": 19,
    "dewPointC": 9,
    "cloudCeiling": null,
    "altimeter": "A2978",
    "timestamp": "2026-05-04T05:53:00+00:00",
    "station": "KCPS"
  },
  "kstl": {
    "metar": "KSTL 040651Z 12003KT 10SM BKN100 18/11 A2979 RMK AO2 SLP081 FRQ LTGICCC DSNT NE-E CB DSNT NE-E MOV SE T01830106 $",
    "windDirection": 120,
    "windSpeed": 3,
    "windGust": null,
    "visibility": 10,
    "temperatureC": 18,
    "dewPointC": 11,
    "cloudCeiling": 10000,
    "altimeter": "A2979",
    "timestamp": "2026-05-04T06:51:00+00:00",
    "station": "KSTL"
  }
}