{
  "lastUpdated": "2026-02-14T16:55:17.630800+00:00",
  "kcps": {
    "metar": "KCPS 141553Z 14003KT 10SM -RA OVC070 09/03 A3005 RMK AO2 RAB26 SLP177 P0000 T00890028 $",
    "windDirection": 140,
    "windSpeed": 3,
    "windGust": null,
    "visibility": 10,
    "temperatureC": 9,
    "dewPointC": 3,
    "cloudCeiling": 7000,
    "altimeter": "A3005",
    "timestamp": "2026-02-14T15:53:00+00:00",
    "station": "KCPS"
  },
  "kstl": {
    "metar": "KSTL 141651Z 14004KT 10SM -RA OVC065 11/03 A3003 RMK AO2 RAB13 SLP172 P0000 T01060028 $",
    "windDirection": 140,
    "windSpeed": 4,
    "windGust": null,
    "visibility": 10,
    "temperatureC": 11,
    "dewPointC": 3,
    "cloudCeiling": 6500,
    "altimeter": "A3003",
    "timestamp": "2026-02-14T16:51:00+00:00",
    "station": "KSTL"
  }
}