{
  "lastUpdated": "2025-11-15T07:31:32.632064+00:00",
  "kcps": {
    "metar": "KCPS 150653Z AUTO VRB04KT 10SM SCT045 19/14 A2983 RMK AO2 SLP097 T01940139 $",
    "windDirection": null,
    "windSpeed": null,
    "windGust": null,
    "visibility": 10,
    "temperatureC": 19,
    "dewPointC": 14,
    "cloudCeiling": null,
    "altimeter": "A2983",
    "timestamp": "2025-11-15T06:53:00+00:00",
    "station": "KCPS"
  },
  "kstl": {
    "metar": "KSTL 150651Z 17004KT 10SM SCT042 18/14 A2984 RMK AO2 SLP093 T01780139 $",
    "windDirection": 170,
    "windSpeed": 4,
    "windGust": null,
    "visibility": 10,
    "temperatureC": 18,
    "dewPointC": 14,
    "cloudCeiling": null,
    "altimeter": "A2984",
    "timestamp": "2025-11-15T06:51:00+00:00",
    "station": "KSTL"
  }
}