{
  "lastUpdated": "2026-01-24T15:47:18.836422+00:00",
  "kcps": {
    "metar": "KCPS 241537Z 04010KT 1 1/4SM -SN OVC025 M16/M21 A3062 RMK AO2 P0000 T11561211 $",
    "windDirection": 40,
    "windSpeed": 10,
    "windGust": null,
    "visibility": 0.25,
    "temperatureC": -16,
    "dewPointC": -21,
    "cloudCeiling": 2500,
    "altimeter": "A3062",
    "timestamp": "2026-01-24T15:37:00+00:00",
    "station": "KCPS"
  },
  "kstl": {
    "metar": "KSTL 241543Z 04009KT 2SM -SN OVC026 M16/M22 A3061 RMK AO2 P0000 T11611217 $",
    "windDirection": 40,
    "windSpeed": 9,
    "windGust": null,
    "visibility": 2,
    "temperatureC": -16,
    "dewPointC": -22,
    "cloudCeiling": 2600,
    "altimeter": "A3061",
    "timestamp": "2026-01-24T15:43:00+00:00",
    "station": "KSTL"
  }
}