{
  "lastUpdated": "2026-03-29T12:45:06.269126+00:00",
  "kcps": {
    "metar": "KCPS 291153Z 00000KT 10SM CLR 05/M03 A3028 RMK AO2 SLP254 T00501028 10089 20044 55001 $",
    "windDirection": 0,
    "windSpeed": 0,
    "windGust": null,
    "visibility": 10,
    "temperatureC": 5,
    "dewPointC": -3,
    "cloudCeiling": 99999,
    "altimeter": "A3028",
    "timestamp": "2026-03-29T11:53:00+00:00",
    "station": "KCPS"
  },
  "kstl": {
    "metar": "KSTL 291151Z 16006KT 10SM SCT110 SCT250 07/M03 A3027 RMK AO2 SLP253 T00721033 10106 20061 55000 $",
    "windDirection": 160,
    "windSpeed": 6,
    "windGust": null,
    "visibility": 10,
    "temperatureC": 7,
    "dewPointC": -3,
    "cloudCeiling": null,
    "altimeter": "A3027",
    "timestamp": "2026-03-29T11:51:00+00:00",
    "station": "KSTL"
  }
}