{
  "lastUpdated": "2025-10-27T04:42:56.313726+00:00",
  "kcps": {
    "metar": "KCPS 270353Z AUTO 09010KT 10SM FEW015 OVC034 11/09 A3011 RMK AO2 SLP196 T01110094 $",
    "windDirection": 90,
    "windSpeed": 10,
    "windGust": null,
    "visibility": 10,
    "temperatureC": 11,
    "dewPointC": 9,
    "cloudCeiling": 3400,
    "altimeter": "A3011",
    "timestamp": "2025-10-27T03:53:00+00:00",
    "station": "KCPS"
  },
  "kstl": {
    "metar": "KSTL 270351Z 08013KT 10SM FEW008 OVC037 11/09 A3011 RMK AO2 RAE24 SLP197 P0000 T01110094 $",
    "windDirection": 80,
    "windSpeed": 13,
    "windGust": null,
    "visibility": 10,
    "temperatureC": 11,
    "dewPointC": 9,
    "cloudCeiling": 3700,
    "altimeter": "A3011",
    "timestamp": "2025-10-27T03:51:00+00:00",
    "station": "KSTL"
  }
}