{
  "lastUpdated": "2025-10-10T18:22:45.547775+00:00",
  "kcps": {
    "metar": "KCPS 101753Z 19005KT 10SM CLR 21/07 A3019 RMK AO2 SLP222 T02060072 10206 20067 56041",
    "windDirection": 190,
    "windSpeed": 5,
    "windGust": null,
    "visibility": 10,
    "temperatureC": 21,
    "dewPointC": 7,
    "cloudCeiling": 99999,
    "altimeter": "A3019",
    "timestamp": "2025-10-10T17:53:00+00:00",
    "station": "KCPS"
  },
  "kstl": {
    "metar": "KSTL 101751Z 20010KT 10SM FEW050 FEW085 FEW120 FEW250 21/08 A3019 RMK AO2 SLP218 T02060078 10206 20128 56038 $",
    "windDirection": 200,
    "windSpeed": 10,
    "windGust": null,
    "visibility": 10,
    "temperatureC": 21,
    "dewPointC": 8,
    "cloudCeiling": null,
    "altimeter": "A3019",
    "timestamp": "2025-10-10T17:51:00+00:00",
    "station": "KSTL"
  }
}