{
  "lastUpdated": "2026-04-12T21:56:23.953245+00:00",
  "kcps": {
    "metar": "KCPS 122153Z 17013G19KT 10SM SCT095 BKN110 24/12 A2991 RMK AO2 RAB03E28 SLP125 P0000 T02440122 $",
    "windDirection": 170,
    "windSpeed": 13,
    "windGust": 19,
    "visibility": 10,
    "temperatureC": 24,
    "dewPointC": 12,
    "cloudCeiling": 11000,
    "altimeter": "A2991",
    "timestamp": "2026-04-12T21:53:00+00:00",
    "station": "KCPS"
  },
  "kstl": {
    "metar": "KSTL 122151Z 18016G22KT 10SM BKN090 BKN140 24/11 A2991 RMK AO2 SLP119 T02390111 $",
    "windDirection": 180,
    "windSpeed": 16,
    "windGust": 22,
    "visibility": 10,
    "temperatureC": 24,
    "dewPointC": 11,
    "cloudCeiling": 9000,
    "altimeter": "A2991",
    "timestamp": "2026-04-12T21:51:00+00:00",
    "station": "KSTL"
  }
}