{
  "lastUpdated": "2026-04-15T07:51:22.505180+00:00",
  "kcps": {
    "metar": "KCPS 150653Z AUTO 20008G16KT 10SM CLR 23/18 A2983 RMK AO2 SLP095 T02280178 $",
    "windDirection": 200,
    "windSpeed": 8,
    "windGust": 16,
    "visibility": 10,
    "temperatureC": 23,
    "dewPointC": 18,
    "cloudCeiling": 99999,
    "altimeter": "A2983",
    "timestamp": "2026-04-15T06:53:00+00:00",
    "station": "KCPS"
  },
  "kstl": {
    "metar": "KSTL 150651Z 21011KT 10SM BKN250 23/17 A2982 RMK AO2 SLP086 T02280172 $",
    "windDirection": 210,
    "windSpeed": 11,
    "windGust": null,
    "visibility": 10,
    "temperatureC": 23,
    "dewPointC": 17,
    "cloudCeiling": 25000,
    "altimeter": "A2982",
    "timestamp": "2026-04-15T06:51:00+00:00",
    "station": "KSTL"
  }
}