{
  "lastUpdated": "2026-01-25T18:41:44.417993+00:00",
  "kcps": {
    "metar": "KCPS 251821Z 33016KT 1 1/4SM -SN BKN025 OVC032 M12/M16 A3014 RMK AO2 P0000 T11221156 $",
    "windDirection": 330,
    "windSpeed": 16,
    "windGust": null,
    "visibility": 0.25,
    "temperatureC": -12,
    "dewPointC": -16,
    "cloudCeiling": 2500,
    "altimeter": "A3014",
    "timestamp": "2026-01-25T18:21:00+00:00",
    "station": "KCPS"
  },
  "kstl": {
    "metar": "KSTL 251751Z 32012KT 2SM -SN BKN023 OVC030 M13/M16 A3015 RMK AO2 SLP233 4/008 933007 P0001 60006 T11281156 11128 21139 53012 $",
    "windDirection": 320,
    "windSpeed": 12,
    "windGust": null,
    "visibility": 2,
    "temperatureC": -13,
    "dewPointC": -16,
    "cloudCeiling": 2300,
    "altimeter": "A3015",
    "timestamp": "2026-01-25T17:51:00+00:00",
    "station": "KSTL"
  }
}