{
  "lastUpdated": "2026-01-11T03:59:32.267301+00:00",
  "kcps": {
    "metar": "KCPS 110353Z 31021G32KT 10SM FEW044 FEW060 OVC110 04/M06 A3019 RMK AO2 PK WND 32032/0348 RAE06 SLP225 P0000 T00391056 $",
    "windDirection": 310,
    "windSpeed": 21,
    "windGust": 32,
    "visibility": 10,
    "temperatureC": 4,
    "dewPointC": -6,
    "cloudCeiling": 11000,
    "altimeter": "A3019",
    "timestamp": "2026-01-11T03:53:00+00:00",
    "station": "KCPS"
  },
  "kstl": {
    "metar": "KSTL 110351Z 32012G20KT 10SM BKN042 BKN100 03/M04 A3019 RMK AO2 PK WND 31030/0305 SNB39E48 SLP231 P0000 T00281044 $",
    "windDirection": 320,
    "windSpeed": 12,
    "windGust": 20,
    "visibility": 10,
    "temperatureC": 3,
    "dewPointC": -4,
    "cloudCeiling": 4200,
    "altimeter": "A3019",
    "timestamp": "2026-01-11T03:51:00+00:00",
    "station": "KSTL"
  }
}