{
  "lastUpdated": "2026-02-22T15:03:49.957623+00:00",
  "kcps": {
    "metar": "KCPS 221353Z 33019G28KT 10SM CLR M05/M12 A3042 RMK AO2 PK WND 33029/1304 SLP306 T10501122 PNO $",
    "windDirection": 330,
    "windSpeed": 19,
    "windGust": 28,
    "visibility": 10,
    "temperatureC": -5,
    "dewPointC": -12,
    "cloudCeiling": 99999,
    "altimeter": "A3042",
    "timestamp": "2026-02-22T13:53:00+00:00",
    "station": "KCPS"
  },
  "kstl": {
    "metar": "KSTL 221451Z 32017G28KT 10SM SCT030 SCT250 M06/M14 A3046 RMK AO2 PK WND 33030/1441 SLP327 T10561139 53030 $",
    "windDirection": 320,
    "windSpeed": 17,
    "windGust": 28,
    "visibility": 10,
    "temperatureC": -6,
    "dewPointC": -14,
    "cloudCeiling": null,
    "altimeter": "A3046",
    "timestamp": "2026-02-22T14:51:00+00:00",
    "station": "KSTL"
  }
}