{
  "lastUpdated": "2026-04-17T22:11:11.540801+00:00",
  "kcps": {
    "metar": "KCPS 172153Z 18012G27KT 10SM CLR 29/17 A2968 RMK AO2 PK WND 17028/2102 LTG DSNT N PRESFR SLP048 T02890172 $",
    "windDirection": 180,
    "windSpeed": 12,
    "windGust": 27,
    "visibility": 10,
    "temperatureC": 29,
    "dewPointC": 17,
    "cloudCeiling": 99999,
    "altimeter": "A2968",
    "timestamp": "2026-04-17T21:53:00+00:00",
    "station": "KCPS"
  },
  "kstl": {
    "station": "KSTL",
    "metar": null,
    "error": "Failed to fetch METAR"
  }
}