{
  "lastUpdated": "2026-06-09T12:42:27.662022+00:00",
  "kcps": {
    "metar": "KCPS 091053Z AUTO VRB04KT 10SM SCT100 25/22 A2996 RMK AO2 SLP141 T02500217 $",
    "windDirection": null,
    "windSpeed": null,
    "windGust": null,
    "visibility": 10,
    "temperatureC": 25,
    "dewPointC": 22,
    "cloudCeiling": null,
    "altimeter": "A2996",
    "timestamp": "2026-06-09T10:53:00+00:00",
    "station": "KCPS"
  },
  "kstl": {
    "metar": "KSTL 091151Z 22004KT 10SM FEW035 FEW100 OVC250 25/22 A2995 RMK AO2 SLP130 TCU DSNT NE-E 60002 70180 T02500222 10256 20244 58007 $",
    "windDirection": 220,
    "windSpeed": 4,
    "windGust": null,
    "visibility": 10,
    "temperatureC": 25,
    "dewPointC": 22,
    "cloudCeiling": 25000,
    "altimeter": "A2995",
    "timestamp": "2026-06-09T11:51:00+00:00",
    "station": "KSTL"
  }
}