{
  "lastUpdated": "2026-01-28T18:23:56.860002+00:00",
  "kcps": {
    "metar": "KCPS 281753Z 26004KT 10SM CLR M03/M15 A3035 RMK AO2 SLP282 T10281150 11028 21111 58012 $",
    "windDirection": 260,
    "windSpeed": 4,
    "windGust": null,
    "visibility": 10,
    "temperatureC": -3,
    "dewPointC": -15,
    "cloudCeiling": 99999,
    "altimeter": "A3035",
    "timestamp": "2026-01-28T17:53:00+00:00",
    "station": "KCPS"
  },
  "kstl": {
    "metar": "KSTL 281751Z 30008KT 10SM FEW060 FEW250 M03/M16 A3034 RMK AO2 SLP291 4/004 933007 T10281156 11028 21089 58007 $",
    "windDirection": 300,
    "windSpeed": 8,
    "windGust": null,
    "visibility": 10,
    "temperatureC": -3,
    "dewPointC": -16,
    "cloudCeiling": null,
    "altimeter": "A3034",
    "timestamp": "2026-01-28T17:51:00+00:00",
    "station": "KSTL"
  }
}