{
  "lastUpdated": "2026-01-06T00:08:07.789482+00:00",
  "kcps": {
    "metar": "KCPS 052353Z 15009KT 10SM CLR 11/04 A2976 RMK AO2 SLP080 T01110039 10161 20111 58009",
    "windDirection": 150,
    "windSpeed": 9,
    "windGust": null,
    "visibility": 10,
    "temperatureC": 11,
    "dewPointC": 4,
    "cloudCeiling": 99999,
    "altimeter": "A2976",
    "timestamp": "2026-01-05T23:53:00+00:00",
    "station": "KCPS"
  },
  "kstl": {
    "metar": "KSTL 052351Z 14012KT 10SM FEW150 BKN250 13/04 A2975 RMK AO2 SLP077 T01280039 10156 20122 58013 $",
    "windDirection": 140,
    "windSpeed": 12,
    "windGust": null,
    "visibility": 10,
    "temperatureC": 13,
    "dewPointC": 4,
    "cloudCeiling": 25000,
    "altimeter": "A2975",
    "timestamp": "2026-01-05T23:51:00+00:00",
    "station": "KSTL"
  }
}