{
  "lastUpdated": "2026-01-15T10:50:58.027314+00:00",
  "kcps": {
    "metar": "KCPS 150953Z AUTO 34013KT 10SM CLR M06/M13 A3011 RMK AO2 SLP201 T10611133 $",
    "windDirection": 340,
    "windSpeed": 13,
    "windGust": null,
    "visibility": 10,
    "temperatureC": -6,
    "dewPointC": -13,
    "cloudCeiling": 99999,
    "altimeter": "A3011",
    "timestamp": "2026-01-15T09:53:00+00:00",
    "station": "KCPS"
  },
  "kstl": {
    "metar": "KSTL 150951Z 33009KT 10SM CLR M07/M14 A3011 RMK AO2 SLP207 T10671139 $",
    "windDirection": 330,
    "windSpeed": 9,
    "windGust": null,
    "visibility": 10,
    "temperatureC": -7,
    "dewPointC": -14,
    "cloudCeiling": 99999,
    "altimeter": "A3011",
    "timestamp": "2026-01-15T09:51:00+00:00",
    "station": "KSTL"
  }
}