{
  "lastUpdated": "2026-04-01T10:35:10.771149+00:00",
  "kcps": {
    "metar": "KCPS 010953Z AUTO 36014KT 4SM +RA BR OVC008 16/14 A2996 RMK AO2 RAB36 CIG 006V011 SLP141 P0004 T01560144 $",
    "windDirection": 360,
    "windSpeed": 14,
    "windGust": null,
    "visibility": 4,
    "temperatureC": 16,
    "dewPointC": 14,
    "cloudCeiling": 800,
    "altimeter": "A2996",
    "timestamp": "2026-04-01T09:53:00+00:00",
    "station": "KCPS"
  },
  "kstl": {
    "metar": "KSTL 010958Z 02009G16KT 10SM OVC005 14/13 A2998 RMK AO2 T01390128 $",
    "windDirection": 20,
    "windSpeed": 9,
    "windGust": 16,
    "visibility": 10,
    "temperatureC": 14,
    "dewPointC": 13,
    "cloudCeiling": 500,
    "altimeter": "A2998",
    "timestamp": "2026-04-01T09:58:00+00:00",
    "station": "KSTL"
  }
}