{
  "lastUpdated": "2026-06-11T22:21:36.452374+00:00",
  "kcps": {
    "metar": "KCPS 112153Z AUTO 20010G24KT 10SM FEW048 33/23 A2972 RMK AO2 PK WND 22028/2111 SLP058 T03280228 $",
    "windDirection": 200,
    "windSpeed": 10,
    "windGust": 24,
    "visibility": 10.0,
    "temperatureC": 32.8,
    "dewPointC": 22.8,
    "cloudCeiling": null,
    "altimeter": "A2972",
    "timestamp": "2026-06-11T22:00:00.000Z",
    "station": "KCPS"
  },
  "kstl": {
    "metar": "KSTL 112151Z 19016G30KT 10SM FEW048 SCT250 33/23 A2972 RMK AO2 PK WND 20032/2112 SLP051 T03280228 $",
    "windDirection": 190,
    "windSpeed": 16,
    "windGust": 30,
    "visibility": 10.0,
    "temperatureC": 32.8,
    "dewPointC": 22.8,
    "cloudCeiling": null,
    "altimeter": "A2972",
    "timestamp": "2026-06-11T22:00:00.000Z",
    "station": "KSTL"
  }
}