{
  "lastUpdated": "2025-11-25T11:46:35.423293+00:00",
  "kcps": {
    "metar": "KCPS 251132Z AUTO 00000KT 4SM -RA BR BKN012 OVC017 12/11 A2980 RMK AO2 RAB28 P0000 T01170111 $",
    "windDirection": 0,
    "windSpeed": 0,
    "windGust": null,
    "visibility": 4,
    "temperatureC": 12,
    "dewPointC": 11,
    "cloudCeiling": 1200,
    "altimeter": "A2980",
    "timestamp": "2025-11-25T11:32:00+00:00",
    "station": "KCPS"
  },
  "kstl": {
    "metar": "KSTL 251122Z 00000KT 6SM -DZ BR BKN006 OVC025 12/11 A2980 RMK AO2 P0000 T01170111 $",
    "windDirection": 0,
    "windSpeed": 0,
    "windGust": null,
    "visibility": 6,
    "temperatureC": 12,
    "dewPointC": 11,
    "cloudCeiling": 600,
    "altimeter": "A2980",
    "timestamp": "2025-11-25T11:22:00+00:00",
    "station": "KSTL"
  }
}