{
  "lastUpdated": "2026-01-14T14:52:03.176866+00:00",
  "kcps": {
    "metar": "KCPS 141353Z 32020G27KT 10SM SCT026 03/M01 A2985 RMK AO2 PK WND 32027/1352 SLP108 T00331006",
    "windDirection": 320,
    "windSpeed": 20,
    "windGust": 27,
    "visibility": 10,
    "temperatureC": 3,
    "dewPointC": -1,
    "cloudCeiling": null,
    "altimeter": "A2985",
    "timestamp": "2026-01-14T13:53:00+00:00",
    "station": "KCPS"
  },
  "kstl": {
    "metar": "KSTL 141351Z 31019G28KT 10SM FEW025 03/M01 A2985 RMK AO2 PK WND 33032/1310 SLP112 T00281011 $",
    "windDirection": 310,
    "windSpeed": 19,
    "windGust": 28,
    "visibility": 10,
    "temperatureC": 3,
    "dewPointC": -1,
    "cloudCeiling": null,
    "altimeter": "A2985",
    "timestamp": "2026-01-14T13:51:00+00:00",
    "station": "KSTL"
  }
}