{
  "lastUpdated": "2025-11-30T02:44:07.792723+00:00",
  "kcps": {
    "metar": "KCPS 300241Z 27007KT 4SM -RA BR SCT004 BKN013 OVC019 04/04 A2996 RMK AO2 P0002 T00390039 $",
    "windDirection": 270,
    "windSpeed": 7,
    "windGust": null,
    "visibility": 4,
    "temperatureC": 4,
    "dewPointC": 4,
    "cloudCeiling": 1300,
    "altimeter": "A2996",
    "timestamp": "2025-11-30T02:41:00+00:00",
    "station": "KCPS"
  },
  "kstl": {
    "metar": "KSTL 300230Z 29011KT 5SM -RA BR OVC008 03/03 A2995 RMK AO2 P0003 T00330028 $",
    "windDirection": 290,
    "windSpeed": 11,
    "windGust": null,
    "visibility": 5,
    "temperatureC": 3,
    "dewPointC": 3,
    "cloudCeiling": 800,
    "altimeter": "A2995",
    "timestamp": "2025-11-30T02:30:00+00:00",
    "station": "KSTL"
  }
}