{
  "lastUpdated": "2025-12-22T03:55:29.585205+00:00",
  "kcps": {
    "station": "KCPS",
    "metar": "Data unavailable",
    "error": "Failed to fetch METAR"
  },
  "kstl": {
    "metar": "KSTL 220351Z 12007KT 10SM SCT250 01/M07 A3039 RMK AO2 SLP302 T00061072 $",
    "windDirection": 120,
    "windSpeed": 7,
    "windGust": null,
    "visibility": 10,
    "temperatureC": 1,
    "dewPointC": -7,
    "cloudCeiling": null,
    "altimeter": "A3039",
    "timestamp": "2025-12-22T03:51:00+00:00",
    "station": "KSTL"
  }
}