{
  "lastUpdated": "2026-02-14T17:39:16.206317+00:00",
  "kcps": {
    "metar": "KCPS 141653Z 16005KT 7SM -RA BKN048 BKN065 OVC080 07/04 A3004 RMK AO2 SLP173 P0002 T00720044 $",
    "windDirection": 160,
    "windSpeed": 5,
    "windGust": null,
    "visibility": 7,
    "temperatureC": 7,
    "dewPointC": 4,
    "cloudCeiling": 4800,
    "altimeter": "A3004",
    "timestamp": "2026-02-14T16:53:00+00:00",
    "station": "KCPS"
  },
  "kstl": {
    "metar": "KSTL 141651Z 14004KT 10SM -RA OVC065 11/03 A3003 RMK AO2 RAB13 SLP172 P0000 T01060028 $",
    "windDirection": 140,
    "windSpeed": 4,
    "windGust": null,
    "visibility": 10,
    "temperatureC": 11,
    "dewPointC": 3,
    "cloudCeiling": 6500,
    "altimeter": "A3003",
    "timestamp": "2026-02-14T16:51:00+00:00",
    "station": "KSTL"
  }
}