{
  "lastUpdated": "2026-04-19T18:20:18.488811+00:00",
  "kcps": {
    "metar": "KCPS 191753Z 30013G20KT 10SM CLR 17/M02 A3023 RMK AO2 SLP237 T01721017 10172 20039 58006 $",
    "windDirection": 300,
    "windSpeed": 13,
    "windGust": 20,
    "visibility": 10,
    "temperatureC": 17,
    "dewPointC": -2,
    "cloudCeiling": 99999,
    "altimeter": "A3023",
    "timestamp": "2026-04-19T17:53:00+00:00",
    "station": "KCPS"
  },
  "kstl": {
    "metar": "KSTL 191751Z 30015G24KT 10SM FEW035 18/M03 A3023 RMK AO2 SLP237 T01781033 10178 20061 58005 $",
    "windDirection": 300,
    "windSpeed": 15,
    "windGust": 24,
    "visibility": 10,
    "temperatureC": 18,
    "dewPointC": -3,
    "cloudCeiling": null,
    "altimeter": "A3023",
    "timestamp": "2026-04-19T17:51:00+00:00",
    "station": "KSTL"
  }
}