{
  "lastUpdated": "2026-01-04T14:21:18.002804+00:00",
  "kcps": {
    "metar": "KCPS 041353Z 00000KT 8SM CLR M07/M08 A3023 RMK AO2 SLP241 T10671078 $",
    "windDirection": 0,
    "windSpeed": 0,
    "windGust": null,
    "visibility": 8,
    "temperatureC": -7,
    "dewPointC": -8,
    "cloudCeiling": 99999,
    "altimeter": "A3023",
    "timestamp": "2026-01-04T13:53:00+00:00",
    "station": "KCPS"
  },
  "kstl": {
    "metar": "KSTL 041351Z 00000KT 10SM SCT250 M04/M06 A3022 RMK AO2 SLP244 T10391061 $",
    "windDirection": 0,
    "windSpeed": 0,
    "windGust": null,
    "visibility": 10,
    "temperatureC": -4,
    "dewPointC": -6,
    "cloudCeiling": null,
    "altimeter": "A3022",
    "timestamp": "2026-01-04T13:51:00+00:00",
    "station": "KSTL"
  }
}