{
  "lastUpdated": "2026-04-09T03:39:25.600052+00:00",
  "kcps": {
    "metar": "KCPS 090253Z 17007KT 10SM CLR 18/07 A3011 RMK AO2 SLP195 T01830067 53017 $",
    "windDirection": 170,
    "windSpeed": 7,
    "windGust": null,
    "visibility": 10,
    "temperatureC": 18,
    "dewPointC": 7,
    "cloudCeiling": 99999,
    "altimeter": "A3011",
    "timestamp": "2026-04-09T02:53:00+00:00",
    "station": "KCPS"
  },
  "kstl": {
    "metar": "KSTL 090251Z 18010KT 10SM FEW200 SCT250 21/05 A3011 RMK AO2 SLP192 T02060050 53017 $",
    "windDirection": 180,
    "windSpeed": 10,
    "windGust": null,
    "visibility": 10,
    "temperatureC": 21,
    "dewPointC": 5,
    "cloudCeiling": null,
    "altimeter": "A3011",
    "timestamp": "2026-04-09T02:51:00+00:00",
    "station": "KSTL"
  }
}