{
  "lastUpdated": "2025-10-17T05:34:17.494057+00:00",
  "kcps": {
    "metar": "KCPS 170453Z AUTO 15005KT 10SM CLR 19/14 A3000 RMK AO2 SLP157 T01940144",
    "windDirection": 150,
    "windSpeed": 5,
    "windGust": null,
    "visibility": 10,
    "temperatureC": 19,
    "dewPointC": 14,
    "cloudCeiling": 99999,
    "altimeter": "A3000",
    "timestamp": "2025-10-17T04:53:00+00:00",
    "station": "KCPS"
  },
  "kstl": {
    "metar": "KSTL 170451Z 14009KT 10SM BKN250 21/14 A3000 RMK AO2 SLP149 T02110144 $",
    "windDirection": 140,
    "windSpeed": 9,
    "windGust": null,
    "visibility": 10,
    "temperatureC": 21,
    "dewPointC": 14,
    "cloudCeiling": 25000,
    "altimeter": "A3000",
    "timestamp": "2025-10-17T04:51:00+00:00",
    "station": "KSTL"
  }
}