{
  "lastUpdated": "2026-04-23T15:56:52.252045+00:00",
  "kcps": {
    "metar": "KCPS 231553Z 16013G20KT 10SM CLR 25/13 A2989 RMK AO2 SLP117 T02500133 $",
    "windDirection": 160,
    "windSpeed": 13,
    "windGust": 20,
    "visibility": 10,
    "temperatureC": 25,
    "dewPointC": 13,
    "cloudCeiling": 99999,
    "altimeter": "A2989",
    "timestamp": "2026-04-23T15:53:00+00:00",
    "station": "KCPS"
  },
  "kstl": {
    "metar": "KSTL 231551Z 17012G18KT 10SM FEW042 FEW250 24/14 A2989 RMK AO2 SLP112 T02390139 $",
    "windDirection": 170,
    "windSpeed": 12,
    "windGust": 18,
    "visibility": 10,
    "temperatureC": 24,
    "dewPointC": 14,
    "cloudCeiling": null,
    "altimeter": "A2989",
    "timestamp": "2026-04-23T15:51:00+00:00",
    "station": "KSTL"
  }
}