{
  "lastUpdated": "2026-04-27T13:52:05.802691+00:00",
  "kcps": {
    "metar": "KCPS 271316Z 14016G22KT 10SM BKN028 BKN035 OVC044 18/16 A2972 RMK AO2 PRESFR T01780156 $",
    "windDirection": 140,
    "windSpeed": 16,
    "windGust": 22,
    "visibility": 10,
    "temperatureC": 18,
    "dewPointC": 16,
    "cloudCeiling": 2800,
    "altimeter": "A2972",
    "timestamp": "2026-04-27T13:16:00+00:00",
    "station": "KCPS"
  },
  "kstl": {
    "metar": "KSTL 271251Z 15015KT 10SM FEW028 BKN047 OVC110 18/16 A2973 RMK AO2 RAB22E35 SLP059 P0001 T01830156 $",
    "windDirection": 150,
    "windSpeed": 15,
    "windGust": null,
    "visibility": 10,
    "temperatureC": 18,
    "dewPointC": 16,
    "cloudCeiling": 4700,
    "altimeter": "A2973",
    "timestamp": "2026-04-27T12:51:00+00:00",
    "station": "KSTL"
  }
}