{
  "lastUpdated": "2026-02-03T08:13:15.292483+00:00",
  "kcps": {
    "metar": "KCPS 030753Z AUTO 06004KT 9SM CLR M02/M04 A3012 RMK AO2 SLP203 T10171044 $",
    "windDirection": 60,
    "windSpeed": 4,
    "windGust": null,
    "visibility": 9,
    "temperatureC": -2,
    "dewPointC": -4,
    "cloudCeiling": 99999,
    "altimeter": "A3012",
    "timestamp": "2026-02-03T07:53:00+00:00",
    "station": "KCPS"
  },
  "kstl": {
    "metar": "KSTL 030751Z 07006KT 10SM OVC150 00/M04 A3012 RMK AO2 SLP209 T00001039 $",
    "windDirection": 70,
    "windSpeed": 6,
    "windGust": null,
    "visibility": 10,
    "temperatureC": 0,
    "dewPointC": -4,
    "cloudCeiling": 15000,
    "altimeter": "A3012",
    "timestamp": "2026-02-03T07:51:00+00:00",
    "station": "KSTL"
  }
}