{
  "lastUpdated": "2025-11-21T10:36:44.924325+00:00",
  "kcps": {
    "metar": "KCPS 211025Z AUTO 05005KT 5SM -RA BR FEW016 BKN036 OVC090 12/11 A2999 RMK AO2 P0004 T01170111",
    "windDirection": 50,
    "windSpeed": 5,
    "windGust": null,
    "visibility": 5,
    "temperatureC": 12,
    "dewPointC": 11,
    "cloudCeiling": 3600,
    "altimeter": "A2999",
    "timestamp": "2025-11-21T10:25:00+00:00",
    "station": "KCPS"
  },
  "kstl": {
    "metar": "KSTL 210951Z 09004KT 4SM -RA BR BKN004 OVC011 12/11 A3000 RMK AO2 SLP159 P0007 T01170111 $",
    "windDirection": 90,
    "windSpeed": 4,
    "windGust": null,
    "visibility": 4,
    "temperatureC": 12,
    "dewPointC": 11,
    "cloudCeiling": 400,
    "altimeter": "A3000",
    "timestamp": "2025-11-21T09:51:00+00:00",
    "station": "KSTL"
  }
}