{
  "lastUpdated": "2025-11-05T18:40:39.735586+00:00",
  "kcps": {
    "metar": "KCPS 051753Z 10SM CLR 21/09 A3008 RMK AO2 SLP186 T02110094 10211 20133 53009",
    "windDirection": null,
    "windSpeed": null,
    "windGust": null,
    "visibility": 10,
    "temperatureC": 21,
    "dewPointC": 9,
    "cloudCeiling": 99999,
    "altimeter": "A3008",
    "timestamp": "2025-11-05T17:53:00+00:00",
    "station": "KCPS"
  },
  "kstl": {
    "metar": "KSTL 051751Z 32014G21KT 10SM FEW250 21/09 A3009 RMK AO2 SLP185 T02060089 10206 20144 51013 $",
    "windDirection": 320,
    "windSpeed": 14,
    "windGust": 21,
    "visibility": 10,
    "temperatureC": 21,
    "dewPointC": 9,
    "cloudCeiling": null,
    "altimeter": "A3009",
    "timestamp": "2025-11-05T17:51:00+00:00",
    "station": "KSTL"
  }
}