{
  "lastUpdated": "2026-04-17T17:15:15.583078+00:00",
  "kcps": {
    "metar": "KCPS 171653Z 19010G20KT 10SM FEW038 28/19 A2988 RMK AO2 SLP115 T02780189 $",
    "windDirection": 190,
    "windSpeed": 10,
    "windGust": 20,
    "visibility": 10,
    "temperatureC": 28,
    "dewPointC": 19,
    "cloudCeiling": null,
    "altimeter": "A2988",
    "timestamp": "2026-04-17T16:53:00+00:00",
    "station": "KCPS"
  },
  "kstl": {
    "metar": "KSTL 171651Z 21011G22KT 10SM FEW060 BKN250 27/18 A2988 RMK AO2 SLP109 T02720183 $",
    "windDirection": 210,
    "windSpeed": 11,
    "windGust": 22,
    "visibility": 10,
    "temperatureC": 27,
    "dewPointC": 18,
    "cloudCeiling": 25000,
    "altimeter": "A2988",
    "timestamp": "2026-04-17T16:51:00+00:00",
    "station": "KSTL"
  }
}