{
  "lastUpdated": "2026-03-23T15:35:56.868284+00:00",
  "kcps": {
    "metar": "KCPS 231500Z 01009KT 10SM FEW027 05/M02 A3041 RMK AO2 T00501017 $",
    "windDirection": 10,
    "windSpeed": 9,
    "windGust": null,
    "visibility": 10,
    "temperatureC": 5,
    "dewPointC": -2,
    "cloudCeiling": null,
    "altimeter": "A3041",
    "timestamp": "2026-03-23T15:00:00+00:00",
    "station": "KCPS"
  },
  "kstl": {
    "metar": "KSTL 231451Z 34007KT 10SM FEW025 BKN250 05/M02 A3042 RMK AO2 SLP304 T00501022 53028 $",
    "windDirection": 340,
    "windSpeed": 7,
    "windGust": null,
    "visibility": 10,
    "temperatureC": 5,
    "dewPointC": -2,
    "cloudCeiling": 25000,
    "altimeter": "A3042",
    "timestamp": "2026-03-23T14:51:00+00:00",
    "station": "KSTL"
  }
}