{
  "lastUpdated": "2026-04-15T22:48:15.215940+00:00",
  "kcps": {
    "metar": "KCPS 152153Z AUTO 16007KT 10SM FEW046 BKN070 22/19 A2986 RMK AO2 RAE05 SLP108 P0000 T02170189 $",
    "windDirection": 160,
    "windSpeed": 7,
    "windGust": null,
    "visibility": 10,
    "temperatureC": 22,
    "dewPointC": 19,
    "cloudCeiling": 7000,
    "altimeter": "A2986",
    "timestamp": "2026-04-15T21:53:00+00:00",
    "station": "KCPS"
  },
  "kstl": {
    "metar": "KSTL 152151Z 19011KT 10SM BKN043 OVC130 22/18 A2986 RMK AO2 SLP101 T02220183",
    "windDirection": 190,
    "windSpeed": 11,
    "windGust": null,
    "visibility": 10,
    "temperatureC": 22,
    "dewPointC": 18,
    "cloudCeiling": 4300,
    "altimeter": "A2986",
    "timestamp": "2026-04-15T21:51:00+00:00",
    "station": "KSTL"
  }
}