{
  "lastUpdated": "2026-02-18T08:22:15.794995+00:00",
  "kcps": {
    "metar": "KCPS 180753Z AUTO 19006KT 10SM FEW042 14/11 A2960 RMK AO2 SLP022 T01440106 $",
    "windDirection": 190,
    "windSpeed": 6,
    "windGust": null,
    "visibility": 10,
    "temperatureC": 14,
    "dewPointC": 11,
    "cloudCeiling": null,
    "altimeter": "A2960",
    "timestamp": "2026-02-18T07:53:00+00:00",
    "station": "KCPS"
  },
  "kstl": {
    "metar": "KSTL 180751Z 20013KT 10SM FEW030 FEW250 15/11 A2958 RMK AO2 SLP014 T01500106 $",
    "windDirection": 200,
    "windSpeed": 13,
    "windGust": null,
    "visibility": 10,
    "temperatureC": 15,
    "dewPointC": 11,
    "cloudCeiling": null,
    "altimeter": "A2958",
    "timestamp": "2026-02-18T07:51:00+00:00",
    "station": "KSTL"
  }
}