{
  "lastUpdated": "2026-02-14T18:57:57.721634+00:00",
  "kcps": {
    "metar": "KCPS 141853Z 14005KT 6SM -RA BR BKN065 OVC075 08/07 A2997 RMK AO2 SLP149 T00830072 PNO $",
    "windDirection": 140,
    "windSpeed": 5,
    "windGust": null,
    "visibility": 6,
    "temperatureC": 8,
    "dewPointC": 7,
    "cloudCeiling": 6500,
    "altimeter": "A2997",
    "timestamp": "2026-02-14T18:53:00+00:00",
    "station": "KCPS"
  },
  "kstl": {
    "metar": "KSTL 141851Z 13007KT 7SM -RA SCT015 BKN049 OVC070 08/07 A2997 RMK AO2 SLP153 P0005 T00830072 $",
    "windDirection": 130,
    "windSpeed": 7,
    "windGust": null,
    "visibility": 7,
    "temperatureC": 8,
    "dewPointC": 7,
    "cloudCeiling": 4900,
    "altimeter": "A2997",
    "timestamp": "2026-02-14T18:51:00+00:00",
    "station": "KSTL"
  }
}