{
  "lastUpdated": "2025-12-06T06:50:25.647097+00:00",
  "kcps": {
    "metar": "KCPS 060553Z AUTO 22004KT 10SM CLR 03/M03 A2991 RMK AO2 SLP131 T00331028 10039 20022 400611122 52005 $",
    "windDirection": 220,
    "windSpeed": 4,
    "windGust": null,
    "visibility": 10,
    "temperatureC": 3,
    "dewPointC": -3,
    "cloudCeiling": 99999,
    "altimeter": "A2991",
    "timestamp": "2025-12-06T05:53:00+00:00",
    "station": "KCPS"
  },
  "kstl": {
    "metar": "KSTL 060551Z 24006KT 10SM BKN180 OVC250 03/M02 A2990 RMK AO2 SLP134 4/001 T00331017 10044 20028 400501111 53005 $",
    "windDirection": 240,
    "windSpeed": 6,
    "windGust": null,
    "visibility": 10,
    "temperatureC": 3,
    "dewPointC": -2,
    "cloudCeiling": 18000,
    "altimeter": "A2990",
    "timestamp": "2025-12-06T05:51:00+00:00",
    "station": "KSTL"
  }
}