{
  "lastUpdated": "2026-05-04T12:51:28.685991+00:00",
  "kcps": {
    "metar": "KCPS 041153Z 17007KT 10SM CLR 15/10 A2978 RMK AO2 SLP081 T01500100 10189 20144 56002 $",
    "windDirection": 170,
    "windSpeed": 7,
    "windGust": null,
    "visibility": 10,
    "temperatureC": 15,
    "dewPointC": 10,
    "cloudCeiling": 99999,
    "altimeter": "A2978",
    "timestamp": "2026-05-04T11:53:00+00:00",
    "station": "KCPS"
  },
  "kstl": {
    "metar": "KSTL 041151Z 20009KT 10SM FEW100 BKN130 BKN180 BKN250 17/09 A2977 RMK AO2 SLP073 T01670094 10194 20161 56002 $",
    "windDirection": 200,
    "windSpeed": 9,
    "windGust": null,
    "visibility": 10,
    "temperatureC": 17,
    "dewPointC": 9,
    "cloudCeiling": 13000,
    "altimeter": "A2977",
    "timestamp": "2026-05-04T11:51:00+00:00",
    "station": "KSTL"
  }
}