{
  "lastUpdated": "2026-04-28T14:14:06.205808+00:00",
  "kcps": {
    "metar": "KCPS 281353Z 36006KT 10SM OVC026 14/10 A3001 RMK AO2 SLP162 T01440100 $",
    "windDirection": 360,
    "windSpeed": 6,
    "windGust": null,
    "visibility": 10,
    "temperatureC": 14,
    "dewPointC": 10,
    "cloudCeiling": 2600,
    "altimeter": "A3001",
    "timestamp": "2026-04-28T13:53:00+00:00",
    "station": "KCPS"
  },
  "kstl": {
    "metar": "KSTL 281351Z 31005KT 10SM OVC024 13/08 A3002 RMK AO2 SLP161 T01330083 $",
    "windDirection": 310,
    "windSpeed": 5,
    "windGust": null,
    "visibility": 10,
    "temperatureC": 13,
    "dewPointC": 8,
    "cloudCeiling": 2400,
    "altimeter": "A3002",
    "timestamp": "2026-04-28T13:51:00+00:00",
    "station": "KSTL"
  }
}