{
  "lastUpdated": "2026-01-23T16:55:53.081130+00:00",
  "kcps": {
    "metar": "KCPS 231653Z 36015G23KT 10SM OVC100 M12/M24 A3072 RMK AO2 SLP410 T11171239",
    "windDirection": 360,
    "windSpeed": 15,
    "windGust": 23,
    "visibility": 10,
    "temperatureC": -12,
    "dewPointC": -24,
    "cloudCeiling": 10000,
    "altimeter": "A3072",
    "timestamp": "2026-01-23T16:53:00+00:00",
    "station": "KCPS"
  },
  "kstl": {
    "metar": "KSTL 231651Z 36016KT 10SM BKN090 BKN150 OVC250 M14/M26 A3070 RMK AO2 SLP415 T11441261 $",
    "windDirection": 360,
    "windSpeed": 16,
    "windGust": null,
    "visibility": 10,
    "temperatureC": -14,
    "dewPointC": -26,
    "cloudCeiling": 9000,
    "altimeter": "A3070",
    "timestamp": "2026-01-23T16:51:00+00:00",
    "station": "KSTL"
  }
}