{
  "lastUpdated": "2025-11-21T20:47:12.153480+00:00",
  "kcps": {
    "metar": "KCPS 212042Z 07003KT 3SM BR OVC004 14/14 A2984 RMK AO2 T01440139",
    "windDirection": 70,
    "windSpeed": 3,
    "windGust": null,
    "visibility": 3,
    "temperatureC": 14,
    "dewPointC": 14,
    "cloudCeiling": 400,
    "altimeter": "A2984",
    "timestamp": "2025-11-21T20:42:00+00:00",
    "station": "KCPS"
  },
  "kstl": {
    "metar": "KSTL 211957Z 06005KT 2SM R30R/5500VP6000FT BR OVC002 13/12 A2985 RMK AO2 T01280122 $",
    "windDirection": 60,
    "windSpeed": 5,
    "windGust": null,
    "visibility": 2,
    "temperatureC": 13,
    "dewPointC": 12,
    "cloudCeiling": 200,
    "altimeter": "A2985",
    "timestamp": "2025-11-21T19:57:00+00:00",
    "station": "KSTL"
  }
}