{
  "lastUpdated": "2026-04-18T11:43:01.429708+00:00",
  "kcps": {
    "metar": "KCPS 181138Z 34013KT 10SM -RA OVC031 09/06 A2988 RMK AO2 P0004 T00890061 $",
    "windDirection": 340,
    "windSpeed": 13,
    "windGust": null,
    "visibility": 10,
    "temperatureC": 9,
    "dewPointC": 6,
    "cloudCeiling": 3100,
    "altimeter": "A2988",
    "timestamp": "2026-04-18T11:38:00+00:00",
    "station": "KCPS"
  },
  "kstl": {
    "metar": "KSTL 181122Z 29009KT 10SM -RA BKN035 OVC080 09/07 A2991 RMK AO2 PRESRR P0000 T00890072 $",
    "windDirection": 290,
    "windSpeed": 9,
    "windGust": null,
    "visibility": 10,
    "temperatureC": 9,
    "dewPointC": 7,
    "cloudCeiling": 3500,
    "altimeter": "A2991",
    "timestamp": "2026-04-18T11:22:00+00:00",
    "station": "KSTL"
  }
}