{
  "lastUpdated": "2026-04-26T18:29:16.811195+00:00",
  "kcps": {
    "metar": "KCPS 261753Z 13010KT 10SM CLR 25/13 A2992 RMK AO2 SLP128 T02500128 10256 20117 58009 $",
    "windDirection": 130,
    "windSpeed": 10,
    "windGust": null,
    "visibility": 10,
    "temperatureC": 25,
    "dewPointC": 13,
    "cloudCeiling": 99999,
    "altimeter": "A2992",
    "timestamp": "2026-04-26T17:53:00+00:00",
    "station": "KCPS"
  },
  "kstl": {
    "metar": "KSTL 261751Z 13009KT 10SM FEW035 BKN250 24/12 A2993 RMK AO2 SLP128 T02440117 10244 20122 58009 $",
    "windDirection": 130,
    "windSpeed": 9,
    "windGust": null,
    "visibility": 10,
    "temperatureC": 24,
    "dewPointC": 12,
    "cloudCeiling": 25000,
    "altimeter": "A2993",
    "timestamp": "2026-04-26T17:51:00+00:00",
    "station": "KSTL"
  }
}