{
  "lastUpdated": "2026-02-15T13:32:18.627391+00:00",
  "kcps": {
    "metar": "KCPS 151253Z 02009KT 10SM OVC005 07/06 A2990 RMK AO2 SLP126 T00670061 $",
    "windDirection": 20,
    "windSpeed": 9,
    "windGust": null,
    "visibility": 10,
    "temperatureC": 7,
    "dewPointC": 6,
    "cloudCeiling": 500,
    "altimeter": "A2990",
    "timestamp": "2026-02-15T12:53:00+00:00",
    "station": "KCPS"
  },
  "kstl": {
    "metar": "KSTL 151251Z 01007KT 10SM OVC005 07/06 A2991 RMK AO2 CIG 004V010 SLP133 T00670061 $",
    "windDirection": 10,
    "windSpeed": 7,
    "windGust": null,
    "visibility": 10,
    "temperatureC": 7,
    "dewPointC": 6,
    "cloudCeiling": 500,
    "altimeter": "A2991",
    "timestamp": "2026-02-15T12:51:00+00:00",
    "station": "KSTL"
  }
}