{
  "lastUpdated": "2025-10-27T23:02:17.792164+00:00",
  "kcps": {
    "metar": "KCPS 272253Z 00000KT 10SM OVC031 12/10 A3001 RMK AO2 SLP163 T01220100",
    "windDirection": 0,
    "windSpeed": 0,
    "windGust": null,
    "visibility": 10,
    "temperatureC": 12,
    "dewPointC": 10,
    "cloudCeiling": 3100,
    "altimeter": "A3001",
    "timestamp": "2025-10-27T22:53:00+00:00",
    "station": "KCPS"
  },
  "kstl": {
    "metar": "KSTL 272251Z 12003KT 10SM FEW015 BKN027 OVC037 13/09 A3001 RMK AO2 SLP161 T01330094 $",
    "windDirection": 120,
    "windSpeed": 3,
    "windGust": null,
    "visibility": 10,
    "temperatureC": 13,
    "dewPointC": 9,
    "cloudCeiling": 2700,
    "altimeter": "A3001",
    "timestamp": "2025-10-27T22:51:00+00:00",
    "station": "KSTL"
  }
}