{
  "lastUpdated": "2025-12-11T22:22:00.755115+00:00",
  "kcps": {
    "metar": "KCPS 112153Z 14006KT 6SM -SN SCT050 OVC075 02/M04 A2995 RMK AO2 SNB43 SLP145 P0000 T00171039",
    "windDirection": 140,
    "windSpeed": 6,
    "windGust": null,
    "visibility": 6,
    "temperatureC": 2,
    "dewPointC": -4,
    "cloudCeiling": 7500,
    "altimeter": "A2995",
    "timestamp": "2025-12-11T21:53:00+00:00",
    "station": "KCPS"
  },
  "kstl": {
    "metar": "KSTL 112202Z 10010KT 9SM OVC065 01/M03 A2993 RMK AO2 SNE02 P0000 T00111033 $",
    "windDirection": 100,
    "windSpeed": 10,
    "windGust": null,
    "visibility": 9,
    "temperatureC": 1,
    "dewPointC": -3,
    "cloudCeiling": 6500,
    "altimeter": "A2993",
    "timestamp": "2025-12-11T22:02:00+00:00",
    "station": "KSTL"
  }
}