{
  "lastUpdated": "2026-04-16T20:04:04.566295+00:00",
  "kcps": {
    "metar": "KCPS 161953Z 22007KT 10SM CLR 27/12 A2990 RMK AO2 SLP120 T02720122 $",
    "windDirection": 220,
    "windSpeed": 7,
    "windGust": null,
    "visibility": 10,
    "temperatureC": 27,
    "dewPointC": 12,
    "cloudCeiling": 99999,
    "altimeter": "A2990",
    "timestamp": "2026-04-16T19:53:00+00:00",
    "station": "KCPS"
  },
  "kstl": {
    "metar": "KSTL 161851Z 27011KT 10SM FEW040 FEW250 26/14 A2993 RMK AO2 SLP126 TCU DSNT SW-W T02560139 $",
    "windDirection": 270,
    "windSpeed": 11,
    "windGust": null,
    "visibility": 10,
    "temperatureC": 26,
    "dewPointC": 14,
    "cloudCeiling": null,
    "altimeter": "A2993",
    "timestamp": "2026-04-16T18:51:00+00:00",
    "station": "KSTL"
  }
}