{
  "lastUpdated": "2026-01-20T00:07:35.018495+00:00",
  "kcps": {
    "metar": "KCPS 192253Z 31009KT 10SM CLR M07/M21 A3040 RMK AO2 SLP302 T10721211 $",
    "windDirection": 310,
    "windSpeed": 9,
    "windGust": null,
    "visibility": 10,
    "temperatureC": -7,
    "dewPointC": -21,
    "cloudCeiling": 99999,
    "altimeter": "A3040",
    "timestamp": "2026-01-19T22:53:00+00:00",
    "station": "KCPS"
  },
  "kstl": {
    "metar": "KSTL 192351Z 31005KT 10SM FEW250 M08/M21 A3039 RMK AO2 SLP310 T10831211 11061 21089 56008 $",
    "windDirection": 310,
    "windSpeed": 5,
    "windGust": null,
    "visibility": 10,
    "temperatureC": -8,
    "dewPointC": -21,
    "cloudCeiling": null,
    "altimeter": "A3039",
    "timestamp": "2026-01-19T23:51:00+00:00",
    "station": "KSTL"
  }
}