{
  "lastUpdated": "2025-12-04T18:02:57.528656+00:00",
  "kcps": {
    "metar": "KCPS 041753Z 03005KT 10SM CLR M06/M13 A3039 RMK AO2 SLP295 T10611128 11056 21072 58019",
    "windDirection": 30,
    "windSpeed": 5,
    "windGust": null,
    "visibility": 10,
    "temperatureC": -6,
    "dewPointC": -13,
    "cloudCeiling": 99999,
    "altimeter": "A3039",
    "timestamp": "2025-12-04T17:53:00+00:00",
    "station": "KCPS"
  },
  "kstl": {
    "metar": "KSTL 041751Z 02006KT 10SM FEW130 SCT250 M06/M12 A3037 RMK AO2 PRESFR SLP298 4/003 933004 T10611122 11061 21089 58023 $",
    "windDirection": 20,
    "windSpeed": 6,
    "windGust": null,
    "visibility": 10,
    "temperatureC": -6,
    "dewPointC": -12,
    "cloudCeiling": null,
    "altimeter": "A3037",
    "timestamp": "2025-12-04T17:51:00+00:00",
    "station": "KSTL"
  }
}