{
  "lastUpdated": "2026-01-10T14:21:22.312445+00:00",
  "kcps": {
    "metar": "KCPS 101407Z 31018G27KT 10SM SCT008 OVC015 05/03 A3006 RMK AO2 PK WND 33027/1400 T00500028 $",
    "windDirection": 310,
    "windSpeed": 18,
    "windGust": 27,
    "visibility": 10,
    "temperatureC": 5,
    "dewPointC": 3,
    "cloudCeiling": 1500,
    "altimeter": "A3006",
    "timestamp": "2026-01-10T14:07:00+00:00",
    "station": "KCPS"
  },
  "kstl": {
    "metar": "KSTL 101351Z 31017G30KT 9SM -RA OVC010 03/01 A3007 RMK AO2 PK WND 31030/1347 RAB39 SLP187 P0000 T00280011 $",
    "windDirection": 310,
    "windSpeed": 17,
    "windGust": 30,
    "visibility": 9,
    "temperatureC": 3,
    "dewPointC": 1,
    "cloudCeiling": 1000,
    "altimeter": "A3007",
    "timestamp": "2026-01-10T13:51:00+00:00",
    "station": "KSTL"
  }
}