{
  "lastUpdated": "2025-11-22T16:48:03.332388+00:00",
  "kcps": {
    "metar": "KCPS 221553Z 03005KT 7SM FEW014 11/07 A3014 RMK AO2 SLP206 T01060067",
    "windDirection": 30,
    "windSpeed": 5,
    "windGust": null,
    "visibility": 7,
    "temperatureC": 11,
    "dewPointC": 7,
    "cloudCeiling": null,
    "altimeter": "A3014",
    "timestamp": "2025-11-22T15:53:00+00:00",
    "station": "KCPS"
  },
  "kstl": {
    "metar": "KSTL 221617Z 01004KT 7SM BKN010 BKN250 08/06 A3015 RMK AO2 T00830056 $",
    "windDirection": 10,
    "windSpeed": 4,
    "windGust": null,
    "visibility": 7,
    "temperatureC": 8,
    "dewPointC": 6,
    "cloudCeiling": 1000,
    "altimeter": "A3015",
    "timestamp": "2025-11-22T16:17:00+00:00",
    "station": "KSTL"
  }
}