{
  "lastUpdated": "2025-12-01T17:03:36.997834+00:00",
  "kcps": {
    "metar": "KCPS 011653Z 17005KT 10SM OVC013 M03/M06 A3034 RMK AO2 SLP279 T10331061 $",
    "windDirection": 170,
    "windSpeed": 5,
    "windGust": null,
    "visibility": 10,
    "temperatureC": -3,
    "dewPointC": -6,
    "cloudCeiling": 1300,
    "altimeter": "A3034",
    "timestamp": "2025-12-01T16:53:00+00:00",
    "station": "KCPS"
  },
  "kstl": {
    "metar": "KSTL 011651Z 15007KT 10SM OVC013 M04/M07 A3032 RMK AO2 SLP284 T10391067 $",
    "windDirection": 150,
    "windSpeed": 7,
    "windGust": null,
    "visibility": 10,
    "temperatureC": -4,
    "dewPointC": -7,
    "cloudCeiling": 1300,
    "altimeter": "A3032",
    "timestamp": "2025-12-01T16:51:00+00:00",
    "station": "KSTL"
  }
}