{
  "lastUpdated": "2026-03-23T13:29:13.337779+00:00",
  "kcps": {
    "metar": "KCPS 231253Z 01010KT 10SM CLR 04/M02 A3036 RMK AO2 SLP282 T00391017 $",
    "windDirection": 10,
    "windSpeed": 10,
    "windGust": null,
    "visibility": 10,
    "temperatureC": 4,
    "dewPointC": -2,
    "cloudCeiling": 99999,
    "altimeter": "A3036",
    "timestamp": "2026-03-23T12:53:00+00:00",
    "station": "KCPS"
  },
  "kstl": {
    "metar": "KSTL 231255Z 35008KT 10SM SCT021 BKN070 BKN250 03/M02 A3037 RMK AO2 T00281017 $",
    "windDirection": 350,
    "windSpeed": 8,
    "windGust": null,
    "visibility": 10,
    "temperatureC": 3,
    "dewPointC": -2,
    "cloudCeiling": 7000,
    "altimeter": "A3037",
    "timestamp": "2026-03-23T12:55:00+00:00",
    "station": "KSTL"
  }
}