{
  "lastUpdated": "2026-06-13T17:44:51.552384+00:00",
  "kcps": {
    "metar": "SPECI KCPS 131726Z 23006KT 7SM -RA SCT011 BKN017 OVC060 23/22 A2998 RMK AO2 P0004 T02330217 $",
    "windDirection": 230,
    "windSpeed": 6,
    "windGust": null,
    "visibility": 7.0,
    "temperatureC": 23.3,
    "dewPointC": 21.7,
    "cloudCeiling": 1700,
    "altimeter": "A2998",
    "timestamp": "2026-06-13T17:26:00.000Z",
    "station": "KCPS"
  },
  "kstl": {
    "metar": "KSTL 131651Z 23007KT 10SM FEW038 BKN050 OVC120 23/21 A3001 RMK AO2 RAB32E50 SLP151 P0000 T02330206 $",
    "windDirection": 230,
    "windSpeed": 7,
    "windGust": null,
    "visibility": 10.0,
    "temperatureC": 23.3,
    "dewPointC": 20.6,
    "cloudCeiling": 5000,
    "altimeter": "A3001",
    "timestamp": "2026-06-13T17:00:00.000Z",
    "station": "KSTL"
  }
}