{
  "lastUpdated": "2026-01-01T07:06:10.294660+00:00",
  "kcps": {
    "metar": "KCPS 010653Z AUTO 00000KT 8SM CLR M04/M05 A2996 RMK AO2 SLP150 I1000 T10391050 $",
    "windDirection": 0,
    "windSpeed": 0,
    "windGust": null,
    "visibility": 8,
    "temperatureC": -4,
    "dewPointC": -5,
    "cloudCeiling": 99999,
    "altimeter": "A2996",
    "timestamp": "2026-01-01T06:53:00+00:00",
    "station": "KCPS"
  },
  "kstl": {
    "metar": "KSTL 010651Z 01003KT 10SM CLR M01/M02 A2996 RMK AO2 SLP154 T10061022 $",
    "windDirection": 10,
    "windSpeed": 3,
    "windGust": null,
    "visibility": 10,
    "temperatureC": -1,
    "dewPointC": -2,
    "cloudCeiling": 99999,
    "altimeter": "A2996",
    "timestamp": "2026-01-01T06:51:00+00:00",
    "station": "KSTL"
  }
}