{
  "lastUpdated": "2025-11-25T14:48:53.885436+00:00",
  "kcps": {
    "metar": "KCPS 251420Z 00000KT 10SM SCT049 SCT060 OVC090 12/12 A2983 RMK AO2 T01220117",
    "windDirection": 0,
    "windSpeed": 0,
    "windGust": null,
    "visibility": 10,
    "temperatureC": 12,
    "dewPointC": 12,
    "cloudCeiling": 9000,
    "altimeter": "A2983",
    "timestamp": "2025-11-25T14:20:00+00:00",
    "station": "KCPS"
  },
  "kstl": {
    "metar": "KSTL 251351Z 28004KT 8SM BKN007 BKN035 12/12 A2982 RMK AO2 SLP098 T01220117 $",
    "windDirection": 280,
    "windSpeed": 4,
    "windGust": null,
    "visibility": 8,
    "temperatureC": 12,
    "dewPointC": 12,
    "cloudCeiling": 700,
    "altimeter": "A2982",
    "timestamp": "2025-11-25T13:51:00+00:00",
    "station": "KSTL"
  }
}