{
  "lastUpdated": "2025-11-11T06:23:01.775643+00:00",
  "kcps": {
    "metar": "KCPS 110553Z AUTO 23004KT 10SM CLR M02/M09 A3031 RMK AO2 SLP267 T10221089 10011 21022 400391028 58013 TSNO",
    "windDirection": 230,
    "windSpeed": 4,
    "windGust": null,
    "visibility": 10,
    "temperatureC": -2,
    "dewPointC": -9,
    "cloudCeiling": 99999,
    "altimeter": "A3031",
    "timestamp": "2025-11-11T05:53:00+00:00",
    "station": "KCPS"
  },
  "kstl": {
    "metar": "KSTL 110551Z 22006KT 10SM FEW250 M02/M09 A3029 RMK AO2 SLP267 T10221089 10000 21022 400391033 58017 $",
    "windDirection": 220,
    "windSpeed": 6,
    "windGust": null,
    "visibility": 10,
    "temperatureC": -2,
    "dewPointC": -9,
    "cloudCeiling": null,
    "altimeter": "A3029",
    "timestamp": "2025-11-11T05:51:00+00:00",
    "station": "KSTL"
  }
}