{
  "lastUpdated": "2026-01-17T16:37:02.898716+00:00",
  "kcps": {
    "metar": "KCPS 171626Z 31007KT 9SM FEW018 BKN038 OVC060 M05/M09 A3016 RMK AO2 SNE24 P0000 T10501094 $",
    "windDirection": 310,
    "windSpeed": 7,
    "windGust": null,
    "visibility": 9,
    "temperatureC": -5,
    "dewPointC": -9,
    "cloudCeiling": 3800,
    "altimeter": "A3016",
    "timestamp": "2026-01-17T16:26:00+00:00",
    "station": "KCPS"
  },
  "kstl": {
    "metar": "KSTL 171627Z 29011KT 8SM R30R/6000VP6000FT -SN BKN023 OVC044 M07/M11 A3016 RMK AO2 P0000 T10671111 $",
    "windDirection": 290,
    "windSpeed": 11,
    "windGust": null,
    "visibility": 8,
    "temperatureC": -7,
    "dewPointC": -11,
    "cloudCeiling": 2300,
    "altimeter": "A3016",
    "timestamp": "2026-01-17T16:27:00+00:00",
    "station": "KSTL"
  }
}