{
  "lastUpdated": "2025-10-27T16:22:44.693702+00:00",
  "kcps": {
    "metar": "KCPS 271553Z 03004KT 10SM -RA FEW011 OVC020 10/09 A3009 RMK AO2 RAB18 SLP191 P0002 T01000089",
    "windDirection": 30,
    "windSpeed": 4,
    "windGust": null,
    "visibility": 10,
    "temperatureC": 10,
    "dewPointC": 9,
    "cloudCeiling": 2000,
    "altimeter": "A3009",
    "timestamp": "2025-10-27T15:53:00+00:00",
    "station": "KCPS"
  },
  "kstl": {
    "metar": "KSTL 271553Z 05005KT 8SM -DZ FEW009 BKN016 OVC022 10/08 A3010 RMK AO2 DZB52 P0000 T01000083 $",
    "windDirection": 50,
    "windSpeed": 5,
    "windGust": null,
    "visibility": 8,
    "temperatureC": 10,
    "dewPointC": 8,
    "cloudCeiling": 1600,
    "altimeter": "A3010",
    "timestamp": "2025-10-27T15:53:00+00:00",
    "station": "KSTL"
  }
}