{
  "lastUpdated": "2025-12-23T17:36:10.968878+00:00",
  "kcps": {
    "metar": "KCPS 231653Z 23004KT 10SM CLR 18/13 A3015 RMK AO2 SLP209 T01780128 $",
    "windDirection": 230,
    "windSpeed": 4,
    "windGust": null,
    "visibility": 10,
    "temperatureC": 18,
    "dewPointC": 13,
    "cloudCeiling": 99999,
    "altimeter": "A3015",
    "timestamp": "2025-12-23T16:53:00+00:00",
    "station": "KCPS"
  },
  "kstl": {
    "metar": "KSTL 231651Z 25009KT 10SM FEW021 FEW250 18/13 A3016 RMK AO2 SLP213 T01780133 $",
    "windDirection": 250,
    "windSpeed": 9,
    "windGust": null,
    "visibility": 10,
    "temperatureC": 18,
    "dewPointC": 13,
    "cloudCeiling": null,
    "altimeter": "A3016",
    "timestamp": "2025-12-23T16:51:00+00:00",
    "station": "KSTL"
  }
}