{
  "lastUpdated": "2026-02-24T16:48:34.122827+00:00",
  "kcps": {
    "metar": "KCPS 241553Z 19013G22KT 10SM CLR 01/M09 A2992 RMK AO2 PK WND 18026/1522 SLP135 T00111089 PNO $",
    "windDirection": 190,
    "windSpeed": 13,
    "windGust": 22,
    "visibility": 10,
    "temperatureC": 1,
    "dewPointC": -9,
    "cloudCeiling": 99999,
    "altimeter": "A2992",
    "timestamp": "2026-02-24T15:53:00+00:00",
    "station": "KCPS"
  },
  "kstl": {
    "metar": "KSTL 241551Z 17017G23KT 10SM FEW070 BKN190 BKN250 01/M09 A2989 RMK AO2 SLP132 T00111094 $",
    "windDirection": 170,
    "windSpeed": 17,
    "windGust": 23,
    "visibility": 10,
    "temperatureC": 1,
    "dewPointC": -9,
    "cloudCeiling": 19000,
    "altimeter": "A2989",
    "timestamp": "2026-02-24T15:51:00+00:00",
    "station": "KSTL"
  }
}