{
  "lastUpdated": "2026-03-23T11:59:09.708127+00:00",
  "kcps": {
    "metar": "KCPS 231153Z 01012G21KT 10SM CLR 03/M03 A3034 RMK AO2 SLP275 T00331028 10083 20033 53032 $",
    "windDirection": 10,
    "windSpeed": 12,
    "windGust": 21,
    "visibility": 10,
    "temperatureC": 3,
    "dewPointC": -3,
    "cloudCeiling": 99999,
    "altimeter": "A3034",
    "timestamp": "2026-03-23T11:53:00+00:00",
    "station": "KCPS"
  },
  "kstl": {
    "metar": "KSTL 231151Z 36008G18KT 10SM BKN022 03/M01 A3033 RMK AO2 SLP273 T00331011 10083 20033 53030 $",
    "windDirection": 360,
    "windSpeed": 8,
    "windGust": 18,
    "visibility": 10,
    "temperatureC": 3,
    "dewPointC": -1,
    "cloudCeiling": 2200,
    "altimeter": "A3033",
    "timestamp": "2026-03-23T11:51:00+00:00",
    "station": "KSTL"
  }
}