{
  "lastUpdated": "2026-04-13T01:32:27.433335+00:00",
  "kcps": {
    "metar": "KCPS 130053Z 18012G22KT 10SM OVC055 23/11 A2988 RMK AO2 PK WND 19033/0007 SLP115 T02330111 $",
    "windDirection": 180,
    "windSpeed": 12,
    "windGust": 22,
    "visibility": 10,
    "temperatureC": 23,
    "dewPointC": 11,
    "cloudCeiling": 5500,
    "altimeter": "A2988",
    "timestamp": "2026-04-13T00:53:00+00:00",
    "station": "KCPS"
  },
  "kstl": {
    "metar": "KSTL 130051Z 19017G24KT 10SM OVC050 23/11 A2988 RMK AO2 PK WND 20035/2358 SLP110 T02330106 $",
    "windDirection": 190,
    "windSpeed": 17,
    "windGust": 24,
    "visibility": 10,
    "temperatureC": 23,
    "dewPointC": 11,
    "cloudCeiling": 5000,
    "altimeter": "A2988",
    "timestamp": "2026-04-13T00:51:00+00:00",
    "station": "KSTL"
  }
}