{
  "lastUpdated": "2026-01-11T18:22:52.664831+00:00",
  "kcps": {
    "metar": "KCPS 111753Z 28007KT 10SM CLR 01/M08 A3053 RMK AO2 SLP342 T00111083 10011 21039 50019 $",
    "windDirection": 280,
    "windSpeed": 7,
    "windGust": null,
    "visibility": 10,
    "temperatureC": 1,
    "dewPointC": -8,
    "cloudCeiling": 99999,
    "altimeter": "A3053",
    "timestamp": "2026-01-11T17:53:00+00:00",
    "station": "KCPS"
  },
  "kstl": {
    "metar": "KSTL 111751Z 26009G16KT 230V320 10SM CLR 01/M08 A3053 RMK AO2 SLP348 T00061083 10006 21039 50021 $",
    "windDirection": 260,
    "windSpeed": 9,
    "windGust": 16,
    "visibility": 10,
    "temperatureC": 1,
    "dewPointC": -8,
    "cloudCeiling": 99999,
    "altimeter": "A3053",
    "timestamp": "2026-01-11T17:51:00+00:00",
    "station": "KSTL"
  }
}