{
  "lastUpdated": "2026-06-14T15:00:22.327734+00:00",
  "kcps": {
    "metar": "KCPS 141453Z 35014G19KT 10SM -RA OVC016 21/15 A2996 RMK AO2 PK WND 33027/1355 RAB00 SLP142 P0000 60000 T02060150 51033 $",
    "windDirection": 350,
    "windSpeed": 14,
    "windGust": 19,
    "visibility": 10.0,
    "temperatureC": 20.6,
    "dewPointC": 15,
    "cloudCeiling": 1600,
    "altimeter": "A2996",
    "timestamp": "2026-06-14T15:00:00.000Z",
    "station": "KCPS"
  },
  "kstl": {
    "metar": "KSTL 141451Z 35008G19KT 10SM OVC037 20/14 A2998 RMK AO2 SLP142 T02000144 51024 $",
    "windDirection": 350,
    "windSpeed": 8,
    "windGust": 19,
    "visibility": 10.0,
    "temperatureC": 20,
    "dewPointC": 14.4,
    "cloudCeiling": 3700,
    "altimeter": "A2998",
    "timestamp": "2026-06-14T15:00:00.000Z",
    "station": "KSTL"
  }
}