{
  "lastUpdated": "2025-10-10T06:22:57.248314+00:00",
  "kcps": {
    "metar": "KCPS 100553Z AUTO 00000KT 10SM CLR 09/07 A3029 RMK AO2 SLP256 T00890067 10172 20078 402390067 58002",
    "windDirection": 0,
    "windSpeed": 0,
    "windGust": null,
    "visibility": 10,
    "temperatureC": 9,
    "dewPointC": 7,
    "cloudCeiling": 99999,
    "altimeter": "A3029",
    "timestamp": "2025-10-10T05:53:00+00:00",
    "station": "KCPS"
  },
  "kstl": {
    "metar": "KSTL 100551Z 14006KT 10SM CLR 13/07 A3029 RMK AO2 SLP252 T01280067 10189 20122 402280094 58004 $",
    "windDirection": 140,
    "windSpeed": 6,
    "windGust": null,
    "visibility": 10,
    "temperatureC": 13,
    "dewPointC": 7,
    "cloudCeiling": 99999,
    "altimeter": "A3029",
    "timestamp": "2025-10-10T05:51:00+00:00",
    "station": "KSTL"
  }
}