{
  "lastUpdated": "2026-01-03T12:02:51.177253+00:00",
  "kcps": {
    "metar": "KCPS 031153Z 02004KT 10SM CLR M02/M06 A3002 RMK AO2 SLP168 T10171056 11006 21022 55000 $",
    "windDirection": 20,
    "windSpeed": 4,
    "windGust": null,
    "visibility": 10,
    "temperatureC": -2,
    "dewPointC": -6,
    "cloudCeiling": 99999,
    "altimeter": "A3002",
    "timestamp": "2026-01-03T11:53:00+00:00",
    "station": "KCPS"
  },
  "kstl": {
    "metar": "KSTL 031151Z 04005KT 10SM SCT100 BKN130 M02/M06 A3001 RMK AO2 SLP174 T10171056 11011 21017 55001 $",
    "windDirection": 40,
    "windSpeed": 5,
    "windGust": null,
    "visibility": 10,
    "temperatureC": -2,
    "dewPointC": -6,
    "cloudCeiling": 13000,
    "altimeter": "A3001",
    "timestamp": "2026-01-03T11:51:00+00:00",
    "station": "KSTL"
  }
}