{
  "lastUpdated": "2025-11-21T20:22:11.733890+00:00",
  "kcps": {
    "metar": "KCPS 212010Z 00000KT 2 1/2SM BR OVC004 14/13 A2985 RMK AO2 T01440133",
    "windDirection": 0,
    "windSpeed": 0,
    "windGust": null,
    "visibility": 0.5,
    "temperatureC": 14,
    "dewPointC": 13,
    "cloudCeiling": 400,
    "altimeter": "A2985",
    "timestamp": "2025-11-21T20:10:00+00:00",
    "station": "KCPS"
  },
  "kstl": {
    "metar": "KSTL 211957Z 06005KT 2SM R30R/5500VP6000FT BR OVC002 13/12 A2985 RMK AO2 T01280122 $",
    "windDirection": 60,
    "windSpeed": 5,
    "windGust": null,
    "visibility": 2,
    "temperatureC": 13,
    "dewPointC": 12,
    "cloudCeiling": 200,
    "altimeter": "A2985",
    "timestamp": "2025-11-21T19:57:00+00:00",
    "station": "KSTL"
  }
}