{
  "lastUpdated": "2026-04-06T00:26:40.713935+00:00",
  "kcps": {
    "metar": "KCPS 052353Z 31012KT 10SM CLR 14/00 A3028 RMK AO2 SLP255 T01390000 10156 20128 53000 $",
    "windDirection": 310,
    "windSpeed": 12,
    "windGust": null,
    "visibility": 10,
    "temperatureC": 14,
    "dewPointC": 0,
    "cloudCeiling": 99999,
    "altimeter": "A3028",
    "timestamp": "2026-04-05T23:53:00+00:00",
    "station": "KCPS"
  },
  "kstl": {
    "metar": "KSTL 052351Z 30008KT 10SM CLR 13/00 A3029 RMK AO2 SLP260 T01330000 10150 20122 55001 $",
    "windDirection": 300,
    "windSpeed": 8,
    "windGust": null,
    "visibility": 10,
    "temperatureC": 13,
    "dewPointC": 0,
    "cloudCeiling": 99999,
    "altimeter": "A3029",
    "timestamp": "2026-04-05T23:51:00+00:00",
    "station": "KSTL"
  }
}