{
  "lastUpdated": "2026-01-29T08:46:27.533079+00:00",
  "kcps": {
    "metar": "KCPS 290753Z AUTO 04003KT 10SM FEW060 M04/M11 A3028 RMK AO2 SLP258 T10441111 $",
    "windDirection": 40,
    "windSpeed": 3,
    "windGust": null,
    "visibility": 10,
    "temperatureC": -4,
    "dewPointC": -11,
    "cloudCeiling": null,
    "altimeter": "A3028",
    "timestamp": "2026-01-29T07:53:00+00:00",
    "station": "KCPS"
  },
  "kstl": {
    "metar": "KSTL 290751Z 05005KT 10SM FEW050 OVC220 M04/M12 A3028 RMK AO2 SLP266 T10391117 $",
    "windDirection": 50,
    "windSpeed": 5,
    "windGust": null,
    "visibility": 10,
    "temperatureC": -4,
    "dewPointC": -12,
    "cloudCeiling": 22000,
    "altimeter": "A3028",
    "timestamp": "2026-01-29T07:51:00+00:00",
    "station": "KSTL"
  }
}