{
  "lastUpdated": "2026-02-07T07:40:39.103806+00:00",
  "kcps": {
    "metar": "KCPS 070653Z AUTO 34009KT 10SM CLR 02/M03 A3026 RMK AO2 SLP247 T00171028 $",
    "windDirection": 340,
    "windSpeed": 9,
    "windGust": null,
    "visibility": 10,
    "temperatureC": 2,
    "dewPointC": -3,
    "cloudCeiling": 99999,
    "altimeter": "A3026",
    "timestamp": "2026-02-07T06:53:00+00:00",
    "station": "KCPS"
  },
  "kstl": {
    "metar": "KSTL 070651Z 34008KT 10SM CLR 01/M03 A3026 RMK AO2 SLP251 T00061028 $",
    "windDirection": 340,
    "windSpeed": 8,
    "windGust": null,
    "visibility": 10,
    "temperatureC": 1,
    "dewPointC": -3,
    "cloudCeiling": 99999,
    "altimeter": "A3026",
    "timestamp": "2026-02-07T06:51:00+00:00",
    "station": "KSTL"
  }
}