{
  "lastUpdated": "2026-03-22T16:54:23.553948+00:00",
  "kcps": {
    "metar": "KCPS 221553Z VRB03KT 10SM CLR 27/14 A2968 RMK AO2 SLP047 T02670144 $",
    "windDirection": null,
    "windSpeed": null,
    "windGust": null,
    "visibility": 10,
    "temperatureC": 27,
    "dewPointC": 14,
    "cloudCeiling": 99999,
    "altimeter": "A2968",
    "timestamp": "2026-03-22T15:53:00+00:00",
    "station": "KCPS"
  },
  "kstl": {
    "metar": "KSTL 221651Z 29006KT 10SM FEW055 BKN250 29/14 A2967 RMK AO2 SLP034 T02940139 $",
    "windDirection": 290,
    "windSpeed": 6,
    "windGust": null,
    "visibility": 10,
    "temperatureC": 29,
    "dewPointC": 14,
    "cloudCeiling": 25000,
    "altimeter": "A2967",
    "timestamp": "2026-03-22T16:51:00+00:00",
    "station": "KSTL"
  }
}