{
  "lastUpdated": "2026-04-18T18:21:49.080773+00:00",
  "kcps": {
    "metar": "KCPS 181753Z 31014KT 10SM CLR 12/02 A3008 RMK AO2 PK WND 33028/1739 SLP186 60000 T01170022 10122 20089 51023 $",
    "windDirection": 310,
    "windSpeed": 14,
    "windGust": null,
    "visibility": 10,
    "temperatureC": 12,
    "dewPointC": 2,
    "cloudCeiling": 99999,
    "altimeter": "A3008",
    "timestamp": "2026-04-18T17:53:00+00:00",
    "station": "KCPS"
  },
  "kstl": {
    "metar": "KSTL 181751Z 29012KT 10SM SCT200 12/02 A3009 RMK AO2 SLP188 T01170017 10117 20089 51028 $",
    "windDirection": 290,
    "windSpeed": 12,
    "windGust": null,
    "visibility": 10,
    "temperatureC": 12,
    "dewPointC": 2,
    "cloudCeiling": null,
    "altimeter": "A3009",
    "timestamp": "2026-04-18T17:51:00+00:00",
    "station": "KSTL"
  }
}