{
  "lastUpdated": "2026-01-06T14:05:12.302450+00:00",
  "kcps": {
    "metar": "KCPS 061353Z 25005KT 10SM BKN021 10/08 A2972 RMK AO2 SLP064 T01000078",
    "windDirection": 250,
    "windSpeed": 5,
    "windGust": null,
    "visibility": 10,
    "temperatureC": 10,
    "dewPointC": 8,
    "cloudCeiling": 2100,
    "altimeter": "A2972",
    "timestamp": "2026-01-06T13:53:00+00:00",
    "station": "KCPS"
  },
  "kstl": {
    "metar": "KSTL 061351Z 26010KT 9SM SCT018 BKN250 11/08 A2972 RMK AO2 SLP065 T01060078 $",
    "windDirection": 260,
    "windSpeed": 10,
    "windGust": null,
    "visibility": 9,
    "temperatureC": 11,
    "dewPointC": 8,
    "cloudCeiling": 25000,
    "altimeter": "A2972",
    "timestamp": "2026-01-06T13:51:00+00:00",
    "station": "KSTL"
  }
}