{
  "lastUpdated": "2026-06-08T18:32:30.858499+00:00",
  "kcps": {
    "metar": "KCPS 081753Z 14005KT 10SM BKN034 OVC042 24/22 A2991 RMK AO2 LTG DSNT NE RAB00E48 SLP125 P0001 60059 T02390222 10239 20217 58014 $",
    "windDirection": 140,
    "windSpeed": 5,
    "windGust": null,
    "visibility": 10,
    "temperatureC": 24,
    "dewPointC": 22,
    "cloudCeiling": 3400,
    "altimeter": "A2991",
    "timestamp": "2026-06-08T17:53:00+00:00",
    "station": "KCPS"
  },
  "kstl": {
    "metar": "KSTL 081751Z 17011KT 10SM FEW034 SCT043 BKN130 OVC220 25/23 A2991 RMK AO2 RAE38 SLP118 P0005 60178 T02500228 10250 20211 58010 $",
    "windDirection": 170,
    "windSpeed": 11,
    "windGust": null,
    "visibility": 10,
    "temperatureC": 25,
    "dewPointC": 23,
    "cloudCeiling": 13000,
    "altimeter": "A2991",
    "timestamp": "2026-06-08T17:51:00+00:00",
    "station": "KSTL"
  }
}