{
  "lastUpdated": "2025-10-25T04:22:21.682745+00:00",
  "kcps": {
    "metar": "KCPS 250353Z AUTO 00000KT 10SM SCT110 12/07 A3025 RMK AO2 SLP245 T01170072 $",
    "windDirection": 0,
    "windSpeed": 0,
    "windGust": null,
    "visibility": 10,
    "temperatureC": 12,
    "dewPointC": 7,
    "cloudCeiling": null,
    "altimeter": "A3025",
    "timestamp": "2025-10-25T03:53:00+00:00",
    "station": "KCPS"
  },
  "kstl": {
    "metar": "KSTL 250351Z 12008KT 10SM OVC100 13/06 A3025 RMK AO2 SLP242 T01330056 $",
    "windDirection": 120,
    "windSpeed": 8,
    "windGust": null,
    "visibility": 10,
    "temperatureC": 13,
    "dewPointC": 6,
    "cloudCeiling": 10000,
    "altimeter": "A3025",
    "timestamp": "2025-10-25T03:51:00+00:00",
    "station": "KSTL"
  }
}