{
  "lastUpdated": "2026-01-09T10:50:41.956338+00:00",
  "kcps": {
    "metar": "KCPS 091040Z 28012G26KT 10SM BKN026 OVC036 12/08 A2980 RMK AO2 PK WND 27027/1030 T01220078",
    "windDirection": 280,
    "windSpeed": 12,
    "windGust": 26,
    "visibility": 10,
    "temperatureC": 12,
    "dewPointC": 8,
    "cloudCeiling": 2600,
    "altimeter": "A2980",
    "timestamp": "2026-01-09T10:40:00+00:00",
    "station": "KCPS"
  },
  "kstl": {
    "metar": "KSTL 091010Z 26019G30KT 10SM BKN022 BKN029 OVC038 12/08 A2978 RMK AO2 PK WND 27030/1006 PRESRR T01170078 $",
    "windDirection": 260,
    "windSpeed": 19,
    "windGust": 30,
    "visibility": 10,
    "temperatureC": 12,
    "dewPointC": 8,
    "cloudCeiling": 2200,
    "altimeter": "A2978",
    "timestamp": "2026-01-09T10:10:00+00:00",
    "station": "KSTL"
  }
}