{
  "lastUpdated": "2026-04-26T10:49:43.507686+00:00",
  "kcps": {
    "metar": "KCPS 260953Z AUTO 36006KT 10SM CLR 12/09 A2991 RMK AO2 SLP128 T01220094 $",
    "windDirection": 360,
    "windSpeed": 6,
    "windGust": null,
    "visibility": 10,
    "temperatureC": 12,
    "dewPointC": 9,
    "cloudCeiling": 99999,
    "altimeter": "A2991",
    "timestamp": "2026-04-26T09:53:00+00:00",
    "station": "KCPS"
  },
  "kstl": {
    "metar": "KSTL 260951Z 07005KT 10SM CLR 13/09 A2992 RMK AO2 SLP125 T01280089 $",
    "windDirection": 70,
    "windSpeed": 5,
    "windGust": null,
    "visibility": 10,
    "temperatureC": 13,
    "dewPointC": 9,
    "cloudCeiling": 99999,
    "altimeter": "A2992",
    "timestamp": "2026-04-26T09:51:00+00:00",
    "station": "KSTL"
  }
}