{
  "lastUpdated": "2026-01-05T03:23:55.217818+00:00",
  "kcps": {
    "metar": "KCPS 050253Z 16006KT 10SM CLR 03/M04 A3002 RMK AO2 SLP168 T00331039 57012 $",
    "windDirection": 160,
    "windSpeed": 6,
    "windGust": null,
    "visibility": 10,
    "temperatureC": 3,
    "dewPointC": -4,
    "cloudCeiling": 99999,
    "altimeter": "A3002",
    "timestamp": "2026-01-05T02:53:00+00:00",
    "station": "KCPS"
  },
  "kstl": {
    "metar": "KSTL 050251Z 17006KT 10SM CLR 04/M04 A3000 RMK AO2 SLP167 T00391039 56019 $",
    "windDirection": 170,
    "windSpeed": 6,
    "windGust": null,
    "visibility": 10,
    "temperatureC": 4,
    "dewPointC": -4,
    "cloudCeiling": 99999,
    "altimeter": "A3000",
    "timestamp": "2026-01-05T02:51:00+00:00",
    "station": "KSTL"
  }
}