{
  "lastUpdated": "2026-01-02T12:23:42.931041+00:00",
  "kcps": {
    "metar": "KCPS 021153Z AUTO 03008KT 10SM BR OVC008 01/M01 A2990 RMK AO2 SLP129 T00061011 10011 20006 53005 $",
    "windDirection": 30,
    "windSpeed": 8,
    "windGust": null,
    "visibility": 10,
    "temperatureC": 1,
    "dewPointC": -1,
    "cloudCeiling": 800,
    "altimeter": "A2990",
    "timestamp": "2026-01-02T11:53:00+00:00",
    "station": "KCPS"
  },
  "kstl": {
    "metar": "KSTL 021151Z 02006KT 10SM OVC009 M01/M02 A2990 RMK AO2 SLP134 T10061022 10011 21006 52005 $",
    "windDirection": 20,
    "windSpeed": 6,
    "windGust": null,
    "visibility": 10,
    "temperatureC": -1,
    "dewPointC": -2,
    "cloudCeiling": 900,
    "altimeter": "A2990",
    "timestamp": "2026-01-02T11:51:00+00:00",
    "station": "KSTL"
  }
}