{
  "lastUpdated": "2025-12-18T18:55:06.061956+00:00",
  "kcps": {
    "metar": "KCPS 181816Z 30017G30KT 3SM RA BR BKN017 BKN023 OVC029 11/08 A2953 RMK AO2 PK WND 31030/1812 WSHFT 1753 RAB1757 P0014 T01060078",
    "windDirection": 300,
    "windSpeed": 17,
    "windGust": 30,
    "visibility": 3,
    "temperatureC": 11,
    "dewPointC": 8,
    "cloudCeiling": 1700,
    "altimeter": "A2953",
    "timestamp": "2025-12-18T18:16:00+00:00",
    "station": "KCPS"
  },
  "kstl": {
    "metar": "KSTL 181851Z 29014G23KT 7SM -RA SCT011 BKN015 OVC060 07/06 A2955 RMK AO2 SLP009 P0015 T00720056 $",
    "windDirection": 290,
    "windSpeed": 14,
    "windGust": 23,
    "visibility": 7,
    "temperatureC": 7,
    "dewPointC": 6,
    "cloudCeiling": 1500,
    "altimeter": "A2955",
    "timestamp": "2025-12-18T18:51:00+00:00",
    "station": "KSTL"
  }
}