{
  "lastUpdated": "2026-03-20T06:32:28.882264+00:00",
  "kcps": {
    "metar": "KCPS 200553Z AUTO 16005KT 10SM CLR 11/07 A2997 RMK AO2 SLP147 6//// T01060072 10217 20106 402610039 58004 PNO $",
    "windDirection": 160,
    "windSpeed": 5,
    "windGust": null,
    "visibility": 10,
    "temperatureC": 11,
    "dewPointC": 7,
    "cloudCeiling": 99999,
    "altimeter": "A2997",
    "timestamp": "2026-03-20T05:53:00+00:00",
    "station": "KCPS"
  },
  "kstl": {
    "metar": "KSTL 200551Z 18003KT 10SM SCT250 13/07 A2997 RMK AO2 SLP145 T01280067 10250 20128 402670061 58004 $",
    "windDirection": 180,
    "windSpeed": 3,
    "windGust": null,
    "visibility": 10,
    "temperatureC": 13,
    "dewPointC": 7,
    "cloudCeiling": null,
    "altimeter": "A2997",
    "timestamp": "2026-03-20T05:51:00+00:00",
    "station": "KSTL"
  }
}