{
  "lastUpdated": "2025-11-26T09:36:35.865566+00:00",
  "kcps": {
    "metar": "KCPS 260853Z AUTO 29015G32KT 10SM CLR 04/M03 A3008 RMK AO2 PK WND 29032/0851 SLP186 T00441033 53017",
    "windDirection": 290,
    "windSpeed": 15,
    "windGust": 32,
    "visibility": 10,
    "temperatureC": 4,
    "dewPointC": -3,
    "cloudCeiling": 99999,
    "altimeter": "A3008",
    "timestamp": "2025-11-26T08:53:00+00:00",
    "station": "KCPS"
  },
  "kstl": {
    "metar": "KSTL 260851Z 28021G32KT 10SM FEW040 FEW250 04/M04 A3008 RMK AO2 PK WND 28032/0814 SLP186 T00391039 53017 $",
    "windDirection": 280,
    "windSpeed": 21,
    "windGust": 32,
    "visibility": 10,
    "temperatureC": 4,
    "dewPointC": -4,
    "cloudCeiling": null,
    "altimeter": "A3008",
    "timestamp": "2025-11-26T08:51:00+00:00",
    "station": "KSTL"
  }
}