{
  "lastUpdated": "2026-01-27T12:24:06.111407+00:00",
  "kcps": {
    "metar": "KCPS 271153Z AUTO 26009KT 10SM CLR M08/M14 A3019 RMK AO2 SLP231 T10781139 11072 21094 58007 $",
    "windDirection": 260,
    "windSpeed": 9,
    "windGust": null,
    "visibility": 10,
    "temperatureC": -8,
    "dewPointC": -14,
    "cloudCeiling": 99999,
    "altimeter": "A3019",
    "timestamp": "2026-01-27T11:53:00+00:00",
    "station": "KCPS"
  },
  "kstl": {
    "metar": "KSTL 271151Z 26015KT 10SM CLR M07/M13 A3018 RMK AO2 SLP237 4/005 T10721128 11072 21089 56008 $",
    "windDirection": 260,
    "windSpeed": 15,
    "windGust": null,
    "visibility": 10,
    "temperatureC": -7,
    "dewPointC": -13,
    "cloudCeiling": 99999,
    "altimeter": "A3018",
    "timestamp": "2026-01-27T11:51:00+00:00",
    "station": "KSTL"
  }
}