{
  "lastUpdated": "2026-03-31T01:53:04.488388+00:00",
  "kcps": {
    "metar": "KCPS 310053Z 17012G19KT 10SM CLR 24/14 A2988 RMK AO2 PK WND 20026/0027 SLP114 T02440139 $",
    "windDirection": 170,
    "windSpeed": 12,
    "windGust": 19,
    "visibility": 10,
    "temperatureC": 24,
    "dewPointC": 14,
    "cloudCeiling": 99999,
    "altimeter": "A2988",
    "timestamp": "2026-03-31T00:53:00+00:00",
    "station": "KCPS"
  },
  "kstl": {
    "metar": "KSTL 310051Z 19011G25KT 10SM BKN250 26/13 A2986 RMK AO2 SLP104 T02610133 $",
    "windDirection": 190,
    "windSpeed": 11,
    "windGust": 25,
    "visibility": 10,
    "temperatureC": 26,
    "dewPointC": 13,
    "cloudCeiling": 25000,
    "altimeter": "A2986",
    "timestamp": "2026-03-31T00:51:00+00:00",
    "station": "KSTL"
  }
}