{
  "lastUpdated": "2025-11-08T08:22:02.245652+00:00",
  "kcps": {
    "metar": "KCPS 080753Z AUTO 00000KT 10SM CLR 06/04 A2982 RMK AO2 SLP097 T00610039 TSNO $",
    "windDirection": 0,
    "windSpeed": 0,
    "windGust": null,
    "visibility": 10,
    "temperatureC": 6,
    "dewPointC": 4,
    "cloudCeiling": 99999,
    "altimeter": "A2982",
    "timestamp": "2025-11-08T07:53:00+00:00",
    "station": "KCPS"
  },
  "kstl": {
    "metar": "KSTL 080751Z 02007KT 10SM FEW250 10/03 A2982 RMK AO2 SLP093 T01000033 $",
    "windDirection": 20,
    "windSpeed": 7,
    "windGust": null,
    "visibility": 10,
    "temperatureC": 10,
    "dewPointC": 3,
    "cloudCeiling": null,
    "altimeter": "A2982",
    "timestamp": "2025-11-08T07:51:00+00:00",
    "station": "KSTL"
  }
}