{
  "lastUpdated": "2025-11-19T11:02:27.454588+00:00",
  "kcps": {
    "metar": "KCPS 191053Z AUTO 05005KT 8SM OVC009 09/08 A3013 RMK AO2 CIG 007V011 SLP203 T00940078 $",
    "windDirection": 50,
    "windSpeed": 5,
    "windGust": null,
    "visibility": 8,
    "temperatureC": 9,
    "dewPointC": 8,
    "cloudCeiling": 900,
    "altimeter": "A3013",
    "timestamp": "2025-11-19T10:53:00+00:00",
    "station": "KCPS"
  },
  "kstl": {
    "metar": "KSTL 191051Z 06005KT 3SM BR OVC005 09/08 A3014 RMK AO2 SLP205 T00890083 $",
    "windDirection": 60,
    "windSpeed": 5,
    "windGust": null,
    "visibility": 3,
    "temperatureC": 9,
    "dewPointC": 8,
    "cloudCeiling": 500,
    "altimeter": "A3014",
    "timestamp": "2025-11-19T10:51:00+00:00",
    "station": "KSTL"
  }
}