{
  "lastUpdated": "2026-05-15T22:05:11.444192+00:00",
  "kcps": {
    "metar": "KCPS 152153Z 19010KT 10SM CLR 27/16 A2982 RMK AO2 SLP094 T02720156 $",
    "windDirection": 190,
    "windSpeed": 10,
    "windGust": null,
    "visibility": 10,
    "temperatureC": 27,
    "dewPointC": 16,
    "cloudCeiling": 99999,
    "altimeter": "A2982",
    "timestamp": "2026-05-15T21:53:00+00:00",
    "station": "KCPS"
  },
  "kstl": {
    "metar": "KSTL 152151Z 20011G18KT 10SM FEW050 FEW150 BKN250 27/16 A2982 RMK AO2 SLP091 T02720156 $",
    "windDirection": 200,
    "windSpeed": 11,
    "windGust": 18,
    "visibility": 10,
    "temperatureC": 27,
    "dewPointC": 16,
    "cloudCeiling": 25000,
    "altimeter": "A2982",
    "timestamp": "2026-05-15T21:51:00+00:00",
    "station": "KSTL"
  }
}