{
  "lastUpdated": "2025-12-06T00:07:07.903799+00:00",
  "kcps": {
    "metar": "KCPS 052253Z 16006KT 10SM CLR 03/M06 A2990 RMK AO2 SLP130 T00281056 $",
    "windDirection": 160,
    "windSpeed": 6,
    "windGust": null,
    "visibility": 10,
    "temperatureC": 3,
    "dewPointC": -6,
    "cloudCeiling": 99999,
    "altimeter": "A2990",
    "timestamp": "2025-12-05T22:53:00+00:00",
    "station": "KCPS"
  },
  "kstl": {
    "metar": "KSTL 052351Z 15007KT 10SM FEW150 BKN250 04/M06 A2988 RMK AO2 SLP133 4/001 T00391061 10050 20022 56009 $",
    "windDirection": 150,
    "windSpeed": 7,
    "windGust": null,
    "visibility": 10,
    "temperatureC": 4,
    "dewPointC": -6,
    "cloudCeiling": 25000,
    "altimeter": "A2988",
    "timestamp": "2025-12-05T23:51:00+00:00",
    "station": "KSTL"
  }
}