{
  "lastUpdated": "2026-04-25T01:52:55.776886+00:00",
  "kcps": {
    "metar": "KCPS 250053Z 00000KT 10SM CLR 21/16 A2979 RMK AO2 SLP084 T02060156 $",
    "windDirection": 0,
    "windSpeed": 0,
    "windGust": null,
    "visibility": 10,
    "temperatureC": 21,
    "dewPointC": 16,
    "cloudCeiling": 99999,
    "altimeter": "A2979",
    "timestamp": "2026-04-25T00:53:00+00:00",
    "station": "KCPS"
  },
  "kstl": {
    "metar": "KSTL 250051Z 08003KT 10SM BKN035 BKN250 21/14 A2980 RMK AO2 SLP085 T02110144 $",
    "windDirection": 80,
    "windSpeed": 3,
    "windGust": null,
    "visibility": 10,
    "temperatureC": 21,
    "dewPointC": 14,
    "cloudCeiling": 3500,
    "altimeter": "A2980",
    "timestamp": "2026-04-25T00:51:00+00:00",
    "station": "KSTL"
  }
}