{
  "lastUpdated": "2026-04-01T21:49:46.250456+00:00",
  "kcps": {
    "metar": "KCPS 012142Z 01008KT 10SM SCT010 15/12 A2995 RMK AO2 T01500122 $",
    "windDirection": 10,
    "windSpeed": 8,
    "windGust": null,
    "visibility": 10,
    "temperatureC": 15,
    "dewPointC": 12,
    "cloudCeiling": null,
    "altimeter": "A2995",
    "timestamp": "2026-04-01T21:42:00+00:00",
    "station": "KCPS"
  },
  "kstl": {
    "metar": "KSTL 012051Z 07008KT 9SM OVC006 12/11 A2997 RMK AO2 SLP149 T01220106 58015 $",
    "windDirection": 70,
    "windSpeed": 8,
    "windGust": null,
    "visibility": 9,
    "temperatureC": 12,
    "dewPointC": 11,
    "cloudCeiling": 600,
    "altimeter": "A2997",
    "timestamp": "2026-04-01T20:51:00+00:00",
    "station": "KSTL"
  }
}