{
  "lastUpdated": "2026-03-12T19:29:14.745968+00:00",
  "kcps": {
    "metar": "KCPS 121853Z 20007KT 10SM CLR 11/M04 A3025 RMK AO2 SLP244 T01061039 $",
    "windDirection": 200,
    "windSpeed": 7,
    "windGust": null,
    "visibility": 10,
    "temperatureC": 11,
    "dewPointC": -4,
    "cloudCeiling": 99999,
    "altimeter": "A3025",
    "timestamp": "2026-03-12T18:53:00+00:00",
    "station": "KCPS"
  },
  "kstl": {
    "metar": "KSTL 121851Z 23006KT 10SM SCT250 11/M04 A3024 RMK AO2 SLP246 T01111044 $",
    "windDirection": 230,
    "windSpeed": 6,
    "windGust": null,
    "visibility": 10,
    "temperatureC": 11,
    "dewPointC": -4,
    "cloudCeiling": null,
    "altimeter": "A3024",
    "timestamp": "2026-03-12T18:51:00+00:00",
    "station": "KSTL"
  }
}