{
  "lastUpdated": "2026-01-10T14:02:14.160896+00:00",
  "kcps": {
    "metar": "KCPS 101353Z 33017G21KT 4SM BR BKN008 OVC017 05/04 A3004 RMK AO2 CIG 007V012 SLP176 T00500039 $",
    "windDirection": 330,
    "windSpeed": 17,
    "windGust": 21,
    "visibility": 4,
    "temperatureC": 5,
    "dewPointC": 4,
    "cloudCeiling": 800,
    "altimeter": "A3004",
    "timestamp": "2026-01-10T13:53:00+00:00",
    "station": "KCPS"
  },
  "kstl": {
    "metar": "KSTL 101351Z 31017G30KT 9SM -RA OVC010 03/01 A3007 RMK AO2 PK WND 31030/1347 RAB39 SLP187 P0000 T00280011 $",
    "windDirection": 310,
    "windSpeed": 17,
    "windGust": 30,
    "visibility": 9,
    "temperatureC": 3,
    "dewPointC": 1,
    "cloudCeiling": 1000,
    "altimeter": "A3007",
    "timestamp": "2026-01-10T13:51:00+00:00",
    "station": "KSTL"
  }
}