{
  "lastUpdated": "2026-04-30T05:38:09.217532+00:00",
  "kcps": {
    "metar": "KCPS 300453Z AUTO 35006KT 10SM CLR 11/03 A3007 RMK AO2 SLP182 T01110028 $",
    "windDirection": 350,
    "windSpeed": 6,
    "windGust": null,
    "visibility": 10,
    "temperatureC": 11,
    "dewPointC": 3,
    "cloudCeiling": 99999,
    "altimeter": "A3007",
    "timestamp": "2026-04-30T04:53:00+00:00",
    "station": "KCPS"
  },
  "kstl": {
    "metar": "KSTL 300451Z 00000KT 10SM SCT250 10/04 A3008 RMK AO2 SLP185 T01000044 $",
    "windDirection": 0,
    "windSpeed": 0,
    "windGust": null,
    "visibility": 10,
    "temperatureC": 10,
    "dewPointC": 4,
    "cloudCeiling": null,
    "altimeter": "A3008",
    "timestamp": "2026-04-30T04:51:00+00:00",
    "station": "KSTL"
  }
}