{
  "lastUpdated": "2025-11-25T21:02:30.351794+00:00",
  "kcps": {
    "metar": "KCPS 252053Z 29003KT 9SM -RA BKN013 OVC021 13/12 A2986 RMK AO2 RAB51 SLP112 P0000 60001 T01330122 53004",
    "windDirection": 290,
    "windSpeed": 3,
    "windGust": null,
    "visibility": 9,
    "temperatureC": 13,
    "dewPointC": 12,
    "cloudCeiling": 1300,
    "altimeter": "A2986",
    "timestamp": "2025-11-25T20:53:00+00:00",
    "station": "KCPS"
  },
  "kstl": {
    "metar": "KSTL 252051Z 25011KT 10SM FEW015 SCT021 OVC029 14/11 A2986 RMK AO2 SLP110 T01390106 53001 $",
    "windDirection": 250,
    "windSpeed": 11,
    "windGust": null,
    "visibility": 10,
    "temperatureC": 14,
    "dewPointC": 11,
    "cloudCeiling": 2900,
    "altimeter": "A2986",
    "timestamp": "2025-11-25T20:51:00+00:00",
    "station": "KSTL"
  }
}