{
  "lastUpdated": "2026-05-19T23:06:12.171981+00:00",
  "kcps": {
    "metar": "KCPS 192253Z 32007KT 10SM FEW024 BKN032 BKN100 23/19 A3004 RMK AO2 SLP169 T02330194 $",
    "windDirection": 320,
    "windSpeed": 7,
    "windGust": null,
    "visibility": 10,
    "temperatureC": 23,
    "dewPointC": 19,
    "cloudCeiling": 3200,
    "altimeter": "A3004",
    "timestamp": "2026-05-19T22:53:00+00:00",
    "station": "KCPS"
  },
  "kstl": {
    "metar": "KSTL 192251Z 29006KT 10SM SCT032 BKN120 OVC180 22/18 A3006 RMK AO2 SLP171 T02220183 $",
    "windDirection": 290,
    "windSpeed": 6,
    "windGust": null,
    "visibility": 10,
    "temperatureC": 22,
    "dewPointC": 18,
    "cloudCeiling": 12000,
    "altimeter": "A3006",
    "timestamp": "2026-05-19T22:51:00+00:00",
    "station": "KSTL"
  }
}