{
  "lastUpdated": "2025-10-27T16:38:59.950822+00:00",
  "kcps": {
    "metar": "KCPS 271630Z 07007KT 8SM -RA FEW009 BKN022 OVC032 11/09 A3009 RMK AO2 P0000 T01060094",
    "windDirection": 70,
    "windSpeed": 7,
    "windGust": null,
    "visibility": 8,
    "temperatureC": 11,
    "dewPointC": 9,
    "cloudCeiling": 2200,
    "altimeter": "A3009",
    "timestamp": "2025-10-27T16:30:00+00:00",
    "station": "KCPS"
  },
  "kstl": {
    "metar": "KSTL 271633Z 08009KT 10SM SCT012 SCT029 BKN110 BKN250 11/09 A3008 RMK AO2 DZB1552E32 P0000 T01110089 $",
    "windDirection": 80,
    "windSpeed": 9,
    "windGust": null,
    "visibility": 10,
    "temperatureC": 11,
    "dewPointC": 9,
    "cloudCeiling": 11000,
    "altimeter": "A3008",
    "timestamp": "2025-10-27T16:33:00+00:00",
    "station": "KSTL"
  }
}