{
  "lastUpdated": "2025-12-23T10:38:40.505699+00:00",
  "kcps": {
    "metar": "KCPS 231025Z AUTO 00000KT 1/4SM FG VV003 02/01 A3009 RMK AO2 T00170011 $",
    "windDirection": 0,
    "windSpeed": 0,
    "windGust": null,
    "visibility": 0.25,
    "temperatureC": 2,
    "dewPointC": 1,
    "cloudCeiling": 300,
    "altimeter": "A3009",
    "timestamp": "2025-12-23T10:25:00+00:00",
    "station": "KCPS"
  },
  "kstl": {
    "metar": "KSTL 230951Z 13003KT 10SM FEW250 06/05 A3008 RMK AO2 SLP188 T00560050 $",
    "windDirection": 130,
    "windSpeed": 3,
    "windGust": null,
    "visibility": 10,
    "temperatureC": 6,
    "dewPointC": 5,
    "cloudCeiling": null,
    "altimeter": "A3008",
    "timestamp": "2025-12-23T09:51:00+00:00",
    "station": "KSTL"
  }
}