{
  "lastUpdated": "2026-04-01T08:03:08.826588+00:00",
  "kcps": {
    "metar": "KCPS 010753Z AUTO 23007KT 10SM OVC110 22/13 A2988 RMK AO2 SLP115 T02220128 $",
    "windDirection": 230,
    "windSpeed": 7,
    "windGust": null,
    "visibility": 10,
    "temperatureC": 22,
    "dewPointC": 13,
    "cloudCeiling": 11000,
    "altimeter": "A2988",
    "timestamp": "2026-04-01T07:53:00+00:00",
    "station": "KCPS"
  },
  "kstl": {
    "metar": "KSTL 010751Z 36011KT 9SM FEW005 FEW075 SCT120 OVC250 17/15 A2992 RMK AO2 SLP123 OCNL LTGIC DSNT W CB DSNT W MOV NE T01670150 $",
    "windDirection": 360,
    "windSpeed": 11,
    "windGust": null,
    "visibility": 9,
    "temperatureC": 17,
    "dewPointC": 15,
    "cloudCeiling": 25000,
    "altimeter": "A2992",
    "timestamp": "2026-04-01T07:51:00+00:00",
    "station": "KSTL"
  }
}