{
  "lastUpdated": "2025-11-13T23:02:28.346860+00:00",
  "kcps": {
    "metar": "KCPS 132253Z 16004KT 10SM CLR 15/01 A3012 RMK AO2 SLP201 T01500011",
    "windDirection": 160,
    "windSpeed": 4,
    "windGust": null,
    "visibility": 10,
    "temperatureC": 15,
    "dewPointC": 1,
    "cloudCeiling": 99999,
    "altimeter": "A3012",
    "timestamp": "2025-11-13T22:53:00+00:00",
    "station": "KCPS"
  },
  "kstl": {
    "metar": "KSTL 132251Z 15009KT 10SM SCT180 BKN250 17/01 A3012 RMK AO2 SLP201 T01670011",
    "windDirection": 150,
    "windSpeed": 9,
    "windGust": null,
    "visibility": 10,
    "temperatureC": 17,
    "dewPointC": 1,
    "cloudCeiling": 25000,
    "altimeter": "A3012",
    "timestamp": "2025-11-13T22:51:00+00:00",
    "station": "KSTL"
  }
}