{
  "lastUpdated": "2026-02-08T16:04:27.520026+00:00",
  "kcps": {
    "metar": "KCPS 081553Z 14010KT 10SM CLR 01/M08 A3021 RMK AO2 SLP233 T00061078 $",
    "windDirection": 140,
    "windSpeed": 10,
    "windGust": null,
    "visibility": 10,
    "temperatureC": 1,
    "dewPointC": -8,
    "cloudCeiling": 99999,
    "altimeter": "A3021",
    "timestamp": "2026-02-08T15:53:00+00:00",
    "station": "KCPS"
  },
  "kstl": {
    "metar": "KSTL 081551Z 13013KT 10SM BKN250 01/M08 A3019 RMK AO2 SLP233 T00061083 $",
    "windDirection": 130,
    "windSpeed": 13,
    "windGust": null,
    "visibility": 10,
    "temperatureC": 1,
    "dewPointC": -8,
    "cloudCeiling": 25000,
    "altimeter": "A3019",
    "timestamp": "2026-02-08T15:51:00+00:00",
    "station": "KSTL"
  }
}