{
  "lastUpdated": "2026-04-21T07:05:57.555137+00:00",
  "kcps": {
    "metar": "KCPS 210653Z AUTO 10SM CLR 11/08 A3012 RMK AO2 SLP199 T01060078 $",
    "windDirection": null,
    "windSpeed": null,
    "windGust": null,
    "visibility": 10,
    "temperatureC": 11,
    "dewPointC": 8,
    "cloudCeiling": 99999,
    "altimeter": "A3012",
    "timestamp": "2026-04-21T06:53:00+00:00",
    "station": "KCPS"
  },
  "kstl": {
    "metar": "KSTL 210651Z 20005KT 10SM FEW250 14/08 A3011 RMK AO2 SLP194 T01390078 $",
    "windDirection": 200,
    "windSpeed": 5,
    "windGust": null,
    "visibility": 10,
    "temperatureC": 14,
    "dewPointC": 8,
    "cloudCeiling": null,
    "altimeter": "A3011",
    "timestamp": "2026-04-21T06:51:00+00:00",
    "station": "KSTL"
  }
}