{
  "lastUpdated": "2026-05-13T21:11:47.660736+00:00",
  "kcps": {
    "metar": "KCPS 132053Z 36013G24KT 10SM CLR 23/04 A3002 RMK AO2 SLP162 T02330039 58011 $",
    "windDirection": 360,
    "windSpeed": 13,
    "windGust": 24,
    "visibility": 10,
    "temperatureC": 23,
    "dewPointC": 4,
    "cloudCeiling": 99999,
    "altimeter": "A3002",
    "timestamp": "2026-05-13T20:53:00+00:00",
    "station": "KCPS"
  },
  "kstl": {
    "metar": "KSTL 132051Z 32012G23KT 10SM FEW060 FEW250 23/02 A3003 RMK AO2 PK WND 31029/2001 SLP162 T02280022 58011 $",
    "windDirection": 320,
    "windSpeed": 12,
    "windGust": 23,
    "visibility": 10,
    "temperatureC": 23,
    "dewPointC": 2,
    "cloudCeiling": null,
    "altimeter": "A3003",
    "timestamp": "2026-05-13T20:51:00+00:00",
    "station": "KSTL"
  }
}