{
  "lastUpdated": "2025-12-13T21:32:45.008299+00:00",
  "kcps": {
    "metar": "KCPS 132053Z 36010G19KT 10SM OVC020 M06/M10 A3027 RMK AO2 SLP253 T10561100 53004 $",
    "windDirection": 360,
    "windSpeed": 10,
    "windGust": 19,
    "visibility": 10,
    "temperatureC": -6,
    "dewPointC": -10,
    "cloudCeiling": 2000,
    "altimeter": "A3027",
    "timestamp": "2025-12-13T20:53:00+00:00",
    "station": "KCPS"
  },
  "kstl": {
    "metar": "KSTL 132121Z 35014KT 2 1/2SM -SN BR OVC015 M09/M11 A3029 RMK AO2 SNB02 PRESRR P0000 T10891111 $",
    "windDirection": 350,
    "windSpeed": 14,
    "windGust": null,
    "visibility": 0.5,
    "temperatureC": -9,
    "dewPointC": -11,
    "cloudCeiling": 1500,
    "altimeter": "A3029",
    "timestamp": "2025-12-13T21:21:00+00:00",
    "station": "KSTL"
  }
}