{
  "lastUpdated": "2026-03-27T22:08:10.756498+00:00",
  "kcps": {
    "metar": "KCPS 272153Z 35015KT 10SM CLR 13/00 A3045 RMK AO2 PK WND 36026/2055 SLP314 T01280000 $",
    "windDirection": 350,
    "windSpeed": 15,
    "windGust": null,
    "visibility": 10,
    "temperatureC": 13,
    "dewPointC": 0,
    "cloudCeiling": 99999,
    "altimeter": "A3045",
    "timestamp": "2026-03-27T21:53:00+00:00",
    "station": "KCPS"
  },
  "kstl": {
    "metar": "KSTL 272151Z 35010G20KT 10SM FEW045 FEW170 BKN250 12/M01 A3046 RMK AO2 SLP319 T01171006 $",
    "windDirection": 350,
    "windSpeed": 10,
    "windGust": 20,
    "visibility": 10,
    "temperatureC": 12,
    "dewPointC": -1,
    "cloudCeiling": 25000,
    "altimeter": "A3046",
    "timestamp": "2026-03-27T21:51:00+00:00",
    "station": "KSTL"
  }
}