{
  "lastUpdated": "2026-06-08T17:39:43.651851+00:00",
  "kcps": {
    "metar": "KCPS 081718Z 13005KT 9SM -RA FEW005 BKN025 OVC033 23/22 A2993 RMK AO2 LTG DSNT NE AND E RAB00 P0001 T02280217 $",
    "windDirection": 130,
    "windSpeed": 5,
    "windGust": null,
    "visibility": 9,
    "temperatureC": 23,
    "dewPointC": 22,
    "cloudCeiling": 2500,
    "altimeter": "A2993",
    "timestamp": "2026-06-08T17:18:00+00:00",
    "station": "KCPS"
  },
  "kstl": {
    "metar": "KSTL 081703Z 18003KT 5SM RA BR BKN018 BKN031 OVC039 22/21 A2994 RMK AO2 P0002 T02220211 $",
    "windDirection": 180,
    "windSpeed": 3,
    "windGust": null,
    "visibility": 5,
    "temperatureC": 22,
    "dewPointC": 21,
    "cloudCeiling": 1800,
    "altimeter": "A2994",
    "timestamp": "2026-06-08T17:03:00+00:00",
    "station": "KSTL"
  }
}