{
  "lastUpdated": "2025-10-14T23:21:07.097519+00:00",
  "kcps": {
    "metar": "KCPS 142253Z 04003KT 10SM CLR 27/13 A3019 RMK AO2 SLP221 T02670133",
    "windDirection": 40,
    "windSpeed": 3,
    "windGust": null,
    "visibility": 10,
    "temperatureC": 27,
    "dewPointC": 13,
    "cloudCeiling": 99999,
    "altimeter": "A3019",
    "timestamp": "2025-10-14T22:53:00+00:00",
    "station": "KCPS"
  },
  "kstl": {
    "metar": "KSTL 142251Z 05004KT 10SM FEW160 FEW250 27/12 A3020 RMK AO2 SLP220 T02670122 $",
    "windDirection": 50,
    "windSpeed": 4,
    "windGust": null,
    "visibility": 10,
    "temperatureC": 27,
    "dewPointC": 12,
    "cloudCeiling": null,
    "altimeter": "A3020",
    "timestamp": "2025-10-14T22:51:00+00:00",
    "station": "KSTL"
  }
}