{
  "lastUpdated": "2025-10-17T16:48:57.933287+00:00",
  "kcps": {
    "metar": "KCPS 171553Z 18006KT 10SM CLR 21/13 A2997 RMK AO2 SLP146 T02060133",
    "windDirection": 180,
    "windSpeed": 6,
    "windGust": null,
    "visibility": 10,
    "temperatureC": 21,
    "dewPointC": 13,
    "cloudCeiling": 99999,
    "altimeter": "A2997",
    "timestamp": "2025-10-17T15:53:00+00:00",
    "station": "KCPS"
  },
  "kstl": {
    "metar": "KSTL 171551Z 15008KT 10SM BKN240 22/13 A2997 RMK AO2 SLP141 T02170133 $",
    "windDirection": 150,
    "windSpeed": 8,
    "windGust": null,
    "visibility": 10,
    "temperatureC": 22,
    "dewPointC": 13,
    "cloudCeiling": 24000,
    "altimeter": "A2997",
    "timestamp": "2025-10-17T15:51:00+00:00",
    "station": "KSTL"
  }
}