{
  "lastUpdated": "2026-04-04T08:43:53.386197+00:00",
  "kcps": {
    "metar": "KCPS 040653Z AUTO 18007G14KT 10SM FEW100 23/17 A2989 RMK AO2 LTG DSNT S SLP118 T02330167 $",
    "windDirection": 180,
    "windSpeed": 7,
    "windGust": 14,
    "visibility": 10,
    "temperatureC": 23,
    "dewPointC": 17,
    "cloudCeiling": null,
    "altimeter": "A2989",
    "timestamp": "2026-04-04T06:53:00+00:00",
    "station": "KCPS"
  },
  "kstl": {
    "metar": "KSTL 040651Z 18010KT 10SM FEW085 BKN090 24/17 A2989 RMK AO2 SLP110 T02390167 $",
    "windDirection": 180,
    "windSpeed": 10,
    "windGust": null,
    "visibility": 10,
    "temperatureC": 24,
    "dewPointC": 17,
    "cloudCeiling": 9000,
    "altimeter": "A2989",
    "timestamp": "2026-04-04T06:51:00+00:00",
    "station": "KSTL"
  }
}