{
  "lastUpdated": "2025-10-18T21:20:36.781735+00:00",
  "kcps": {
    "metar": "KCPS 182106Z 16008KT 1 1/4SM +TSRA BR BKN044 BKN070 OVC095 18/18 A2969 RMK AO2 LTG DSNT E AND SW TSB06 P0009 T01830178 $",
    "windDirection": 160,
    "windSpeed": 8,
    "windGust": null,
    "visibility": 0.25,
    "temperatureC": 18,
    "dewPointC": 18,
    "cloudCeiling": 4400,
    "altimeter": "A2969",
    "timestamp": "2025-10-18T21:06:00+00:00",
    "station": "KCPS"
  },
  "kstl": {
    "metar": "KSTL 182051Z 11008KT 9SM -RA FEW060 BKN090 OVC110 19/18 A2967 RMK AO2 TSE16 PRESFR SLP039 P0015 60055 T01890178 58028 $",
    "windDirection": 110,
    "windSpeed": 8,
    "windGust": null,
    "visibility": 9,
    "temperatureC": 19,
    "dewPointC": 18,
    "cloudCeiling": 9000,
    "altimeter": "A2967",
    "timestamp": "2025-10-18T20:51:00+00:00",
    "station": "KSTL"
  }
}