{
  "lastUpdated": "2026-01-02T04:57:41.963897+00:00",
  "kcps": {
    "metar": "KCPS 020353Z AUTO 00000KT 5SM BR OVC005 01/00 A2991 RMK AO2 SLP130 T00110000 $",
    "windDirection": 0,
    "windSpeed": 0,
    "windGust": null,
    "visibility": 5,
    "temperatureC": 1,
    "dewPointC": 0,
    "cloudCeiling": 500,
    "altimeter": "A2991",
    "timestamp": "2026-01-02T03:53:00+00:00",
    "station": "KCPS"
  },
  "kstl": {
    "metar": "KSTL 020451Z 35007KT 4SM BR OVC005 01/00 A2991 RMK AO2 SLP138 T00110000 $",
    "windDirection": 350,
    "windSpeed": 7,
    "windGust": null,
    "visibility": 4,
    "temperatureC": 1,
    "dewPointC": 0,
    "cloudCeiling": 500,
    "altimeter": "A2991",
    "timestamp": "2026-01-02T04:51:00+00:00",
    "station": "KSTL"
  }
}