{
  "lastUpdated": "2025-10-20T22:34:24.716495+00:00",
  "kcps": {
    "metar": "KCPS 202153Z 19013G21KT 10SM CLR 23/06 A2976 RMK AO2 PK WND 19027/2059 SLP075 T02280061",
    "windDirection": 190,
    "windSpeed": 13,
    "windGust": 21,
    "visibility": 10,
    "temperatureC": 23,
    "dewPointC": 6,
    "cloudCeiling": 99999,
    "altimeter": "A2976",
    "timestamp": "2025-10-20T21:53:00+00:00",
    "station": "KCPS"
  },
  "kstl": {
    "metar": "KSTL 202151Z 19016KT 10SM CLR 23/06 A2975 RMK AO2 PK WND 18027/2126 SLP070 T02280056 $",
    "windDirection": 190,
    "windSpeed": 16,
    "windGust": null,
    "visibility": 10,
    "temperatureC": 23,
    "dewPointC": 6,
    "cloudCeiling": 99999,
    "altimeter": "A2975",
    "timestamp": "2025-10-20T21:51:00+00:00",
    "station": "KSTL"
  }
}