{
  "lastUpdated": "2026-05-21T09:23:54.365005+00:00",
  "kcps": {
    "metar": "KCPS 210853Z AUTO 02006KT 10SM FEW032 OVC075 14/09 A3017 RMK AO2 SLP213 6//// T01390089 53007 PNO $",
    "windDirection": 20,
    "windSpeed": 6,
    "windGust": null,
    "visibility": 10,
    "temperatureC": 14,
    "dewPointC": 9,
    "cloudCeiling": 7500,
    "altimeter": "A3017",
    "timestamp": "2026-05-21T08:53:00+00:00",
    "station": "KCPS"
  },
  "kstl": {
    "metar": "KSTL 210851Z AUTO 05003KT 10SM SCT034 BKN055 BKN080 13/08 A3018 RMK AO2 SLP215 T01330078 53007 $",
    "windDirection": 50,
    "windSpeed": 3,
    "windGust": null,
    "visibility": 10,
    "temperatureC": 13,
    "dewPointC": 8,
    "cloudCeiling": 5500,
    "altimeter": "A3018",
    "timestamp": "2026-05-21T08:51:00+00:00",
    "station": "KSTL"
  }
}