{
  "lastUpdated": "2026-01-24T12:23:38.567267+00:00",
  "kcps": {
    "metar": "KCPS 241153Z AUTO 02012KT 10SM OVC080 M16/M26 A3066 RMK AO2 SLP393 T11611261 11150 21167 58009 $",
    "windDirection": 20,
    "windSpeed": 12,
    "windGust": null,
    "visibility": 10,
    "temperatureC": -16,
    "dewPointC": -26,
    "cloudCeiling": 8000,
    "altimeter": "A3066",
    "timestamp": "2026-01-24T11:53:00+00:00",
    "station": "KCPS"
  },
  "kstl": {
    "metar": "KSTL 241151Z 05009KT 10SM BKN080 OVC110 M17/M27 A3065 RMK AO2 SLP404 T11671267 11156 21167 58009 $",
    "windDirection": 50,
    "windSpeed": 9,
    "windGust": null,
    "visibility": 10,
    "temperatureC": -17,
    "dewPointC": -27,
    "cloudCeiling": 8000,
    "altimeter": "A3065",
    "timestamp": "2026-01-24T11:51:00+00:00",
    "station": "KSTL"
  }
}