{
  "lastUpdated": "2026-04-23T21:02:45.880991+00:00",
  "kcps": {
    "metar": "KCPS 232053Z 18010G23KT 10SM BKN070 BKN080 28/14 A2976 RMK AO2 PK WND 19028/2032 SLP075 T02830144 58022 $",
    "windDirection": 180,
    "windSpeed": 10,
    "windGust": 23,
    "visibility": 10,
    "temperatureC": 28,
    "dewPointC": 14,
    "cloudCeiling": 7000,
    "altimeter": "A2976",
    "timestamp": "2026-04-23T20:53:00+00:00",
    "station": "KCPS"
  },
  "kstl": {
    "metar": "KSTL 232051Z 17017G24KT 10SM SCT065 SCT080 BKN250 28/14 A2976 RMK AO2 PK WND 18026/2015 SLP069 T02830144 56022 $",
    "windDirection": 170,
    "windSpeed": 17,
    "windGust": 24,
    "visibility": 10,
    "temperatureC": 28,
    "dewPointC": 14,
    "cloudCeiling": 25000,
    "altimeter": "A2976",
    "timestamp": "2026-04-23T20:51:00+00:00",
    "station": "KSTL"
  }
}