{
  "lastUpdated": "2026-04-04T18:06:07.579991+00:00",
  "kcps": {
    "metar": "KCPS 041753Z 31013KT 10SM BKN016 OVC024 12/09 A3005 RMK AO2 SLP175 60009 T01220089 10172 20117 51025 $",
    "windDirection": 310,
    "windSpeed": 13,
    "windGust": null,
    "visibility": 10,
    "temperatureC": 12,
    "dewPointC": 9,
    "cloudCeiling": 1600,
    "altimeter": "A3005",
    "timestamp": "2026-04-04T17:53:00+00:00",
    "station": "KCPS"
  },
  "kstl": {
    "metar": "KSTL 041751Z 29014KT 10SM OVC013 10/07 A3007 RMK AO2 SLP177 60005 T01000067 10156 20094 51025 $",
    "windDirection": 290,
    "windSpeed": 14,
    "windGust": null,
    "visibility": 10,
    "temperatureC": 10,
    "dewPointC": 7,
    "cloudCeiling": 1300,
    "altimeter": "A3007",
    "timestamp": "2026-04-04T17:51:00+00:00",
    "station": "KSTL"
  }
}