{
  "lastUpdated": "2026-01-22T20:51:09.197965+00:00",
  "kcps": {
    "metar": "KCPS 221953Z 18003KT 10SM BKN110 04/M14 A3029 RMK AO2 SLP260 T00391139 $",
    "windDirection": 180,
    "windSpeed": 3,
    "windGust": null,
    "visibility": 10,
    "temperatureC": 4,
    "dewPointC": -14,
    "cloudCeiling": 11000,
    "altimeter": "A3029",
    "timestamp": "2026-01-22T19:53:00+00:00",
    "station": "KCPS"
  },
  "kstl": {
    "metar": "KSTL 221951Z 33003KT 10SM BKN110 BKN250 03/M14 A3029 RMK AO2 SLP266 T00331139 $",
    "windDirection": 330,
    "windSpeed": 3,
    "windGust": null,
    "visibility": 10,
    "temperatureC": 3,
    "dewPointC": -14,
    "cloudCeiling": 11000,
    "altimeter": "A3029",
    "timestamp": "2026-01-22T19:51:00+00:00",
    "station": "KSTL"
  }
}