{
  "lastUpdated": "2026-06-01T09:04:04.981104+00:00",
  "kcps": {
    "metar": "KCPS 010853Z AUTO 15004KT 3SM +TSRA BR BKN036 OVC043 21/20 A2991 RMK AO2 LTG DSNT S-NW RAB41 TSB42 SLP125 P0008 60008 T02110200 55006 $",
    "windDirection": 150,
    "windSpeed": 4,
    "windGust": null,
    "visibility": 3,
    "temperatureC": 21,
    "dewPointC": 20,
    "cloudCeiling": 3600,
    "altimeter": "A2991",
    "timestamp": "2026-06-01T08:53:00+00:00",
    "station": "KCPS"
  },
  "kstl": {
    "metar": "KSTL 010851Z 12006KT 10SM TS BKN030 BKN043CB BKN100 OVC250 23/19 A2992 RMK AO2 TSB17 SLP121 CONS LTGICCCCG SE-S FRQ LTGICCG DSNT NW TS SE-S MOV E CB DSNT NW MOV E T02280189 56011 $",
    "windDirection": 120,
    "windSpeed": 6,
    "windGust": null,
    "visibility": 10,
    "temperatureC": 23,
    "dewPointC": 19,
    "cloudCeiling": 3000,
    "altimeter": "A2992",
    "timestamp": "2026-06-01T08:51:00+00:00",
    "station": "KSTL"
  }
}