{
  "lastUpdated": "2026-04-19T03:52:52.220922+00:00",
  "kcps": {
    "metar": "KCPS 190253Z 31010KT 10SM CLR 11/M02 A3019 RMK AO2 SLP224 T01061022 53032 $",
    "windDirection": 310,
    "windSpeed": 10,
    "windGust": null,
    "visibility": 10,
    "temperatureC": 11,
    "dewPointC": -2,
    "cloudCeiling": 99999,
    "altimeter": "A3019",
    "timestamp": "2026-04-19T02:53:00+00:00",
    "station": "KCPS"
  },
  "kstl": {
    "metar": "KSTL 190251Z 29007KT 10SM FEW250 09/M02 A3020 RMK AO2 SLP227 T00941022 51030 $",
    "windDirection": 290,
    "windSpeed": 7,
    "windGust": null,
    "visibility": 10,
    "temperatureC": 9,
    "dewPointC": -2,
    "cloudCeiling": null,
    "altimeter": "A3020",
    "timestamp": "2026-04-19T02:51:00+00:00",
    "station": "KSTL"
  }
}