{
  "lastUpdated": "2026-03-23T09:18:34.072987+00:00",
  "kcps": {
    "metar": "KCPS 230853Z AUTO 36011G22KT 10SM CLR 05/M01 A3024 RMK AO2 SLP239 T00501011 51027 $",
    "windDirection": 360,
    "windSpeed": 11,
    "windGust": 22,
    "visibility": 10,
    "temperatureC": 5,
    "dewPointC": -1,
    "cloudCeiling": 99999,
    "altimeter": "A3024",
    "timestamp": "2026-03-23T08:53:00+00:00",
    "station": "KCPS"
  },
  "kstl": {
    "metar": "KSTL 230851Z 36014G19KT 10SM OVC029 06/00 A3024 RMK AO2 SLP234 T00560000 51015 $",
    "windDirection": 360,
    "windSpeed": 14,
    "windGust": 19,
    "visibility": 10,
    "temperatureC": 6,
    "dewPointC": 0,
    "cloudCeiling": 2900,
    "altimeter": "A3024",
    "timestamp": "2026-03-23T08:51:00+00:00",
    "station": "KSTL"
  }
}