{
  "lastUpdated": "2026-01-28T02:40:24.013452+00:00",
  "kcps": {
    "metar": "KCPS 280153Z 31006KT 10SM CLR M09/M15 A3040 RMK AO2 SLP301 T10891150 $",
    "windDirection": 310,
    "windSpeed": 6,
    "windGust": null,
    "visibility": 10,
    "temperatureC": -9,
    "dewPointC": -15,
    "cloudCeiling": 99999,
    "altimeter": "A3040",
    "timestamp": "2026-01-28T01:53:00+00:00",
    "station": "KCPS"
  },
  "kstl": {
    "metar": "KSTL 280151Z 32004KT 10SM BKN250 M07/M13 A3040 RMK AO2 SLP312 T10721133 $",
    "windDirection": 320,
    "windSpeed": 4,
    "windGust": null,
    "visibility": 10,
    "temperatureC": -7,
    "dewPointC": -13,
    "cloudCeiling": 25000,
    "altimeter": "A3040",
    "timestamp": "2026-01-28T01:51:00+00:00",
    "station": "KSTL"
  }
}