{
  "lastUpdated": "2025-12-02T22:34:29.494192+00:00",
  "kcps": {
    "metar": "KCPS 022153Z AUTO 23004KT 10SM OVC016 M03/M07 A3011 RMK AO2 SLP200 T10331067",
    "windDirection": 230,
    "windSpeed": 4,
    "windGust": null,
    "visibility": 10,
    "temperatureC": -3,
    "dewPointC": -7,
    "cloudCeiling": 1600,
    "altimeter": "A3011",
    "timestamp": "2025-12-02T21:53:00+00:00",
    "station": "KCPS"
  },
  "kstl": {
    "metar": "KSTL 022151Z 24005KT 10SM OVC015 M03/M07 A3009 RMK AO2 SLP204 T10331067 $",
    "windDirection": 240,
    "windSpeed": 5,
    "windGust": null,
    "visibility": 10,
    "temperatureC": -3,
    "dewPointC": -7,
    "cloudCeiling": 1500,
    "altimeter": "A3009",
    "timestamp": "2025-12-02T21:51:00+00:00",
    "station": "KSTL"
  }
}