{
  "lastUpdated": "2026-02-25T01:52:45.448466+00:00",
  "kcps": {
    "metar": "KCPS 250053Z 18007KT 10SM CLR 07/M04 A2964 RMK AO2 SLP041 T00721044 $",
    "windDirection": 180,
    "windSpeed": 7,
    "windGust": null,
    "visibility": 10,
    "temperatureC": 7,
    "dewPointC": -4,
    "cloudCeiling": 99999,
    "altimeter": "A2964",
    "timestamp": "2026-02-25T00:53:00+00:00",
    "station": "KCPS"
  },
  "kstl": {
    "metar": "KSTL 250051Z 19007KT 10SM BKN130 OVC200 10/M06 A2963 RMK AO2 SLP042 T01001056 $",
    "windDirection": 190,
    "windSpeed": 7,
    "windGust": null,
    "visibility": 10,
    "temperatureC": 10,
    "dewPointC": -6,
    "cloudCeiling": 13000,
    "altimeter": "A2963",
    "timestamp": "2026-02-25T00:51:00+00:00",
    "station": "KSTL"
  }
}