{
  "lastUpdated": "2026-03-04T12:05:37.368171+00:00",
  "kcps": {
    "metar": "KCPS 280953Z AUTO 00000KT 10SM CLR 05/M02 A3004 RMK AO2 SLP171 T00501022 PNO $",
    "windDirection": 0,
    "windSpeed": 0,
    "windGust": null,
    "visibility": 10,
    "temperatureC": 5,
    "dewPointC": -2,
    "cloudCeiling": 99999,
    "altimeter": "A3004",
    "timestamp": "2026-03-28T09:53:00+00:00",
    "station": "KCPS"
  },
  "kstl": {
    "metar": "KSTL 041151Z 00000KT 7SM FEW008 BKN050 BKN100 OVC250 09/08 A3008 RMK AO2 LTG DSNT NE RAB02E18 SLP187 OCNL LTGIC DSNT NE CB DSNT NE MOV NE P0000 60001 70026 T00940083 10100 20083 55001 $",
    "windDirection": 0,
    "windSpeed": 0,
    "windGust": null,
    "visibility": 7,
    "temperatureC": 9,
    "dewPointC": 8,
    "cloudCeiling": 5000,
    "altimeter": "A3008",
    "timestamp": "2026-03-04T11:51:00+00:00",
    "station": "KSTL"
  }
}