{
  "lastUpdated": "2026-05-21T22:27:09.673181+00:00",
  "kcps": {
    "metar": "KCPS 212153Z 10010KT 10SM OVC025 19/14 A3007 RMK AO2 SLP181 T01940144 PNO $",
    "windDirection": 100,
    "windSpeed": 10,
    "windGust": null,
    "visibility": 10,
    "temperatureC": 19,
    "dewPointC": 14,
    "cloudCeiling": 2500,
    "altimeter": "A3007",
    "timestamp": "2026-05-21T21:53:00+00:00",
    "station": "KCPS"
  },
  "kstl": {
    "metar": "KSTL 212151Z AUTO 07009KT 10SM OVC030 21/14 A3007 RMK AO2 SLP179 T02060139 $",
    "windDirection": 70,
    "windSpeed": 9,
    "windGust": null,
    "visibility": 10,
    "temperatureC": 21,
    "dewPointC": 14,
    "cloudCeiling": 3000,
    "altimeter": "A3007",
    "timestamp": "2026-05-21T21:51:00+00:00",
    "station": "KSTL"
  }
}