{
  "lastUpdated": "2026-02-11T17:20:34.659963+00:00",
  "kcps": {
    "metar": "KCPS 111653Z 31005KT 10SM CLR 05/M04 A3035 RMK AO2 SLP280 T00501039 $",
    "windDirection": 310,
    "windSpeed": 5,
    "windGust": null,
    "visibility": 10,
    "temperatureC": 5,
    "dewPointC": -4,
    "cloudCeiling": 99999,
    "altimeter": "A3035",
    "timestamp": "2026-02-11T16:53:00+00:00",
    "station": "KCPS"
  },
  "kstl": {
    "metar": "KSTL 111651Z VRB03KT 10SM FEW250 04/M03 A3035 RMK AO2 SLP284 T00441028 $",
    "windDirection": null,
    "windSpeed": null,
    "windGust": null,
    "visibility": 10,
    "temperatureC": 4,
    "dewPointC": -3,
    "cloudCeiling": null,
    "altimeter": "A3035",
    "timestamp": "2026-02-11T16:51:00+00:00",
    "station": "KSTL"
  }
}