{
  "lastUpdated": "2025-12-29T00:45:07.602891+00:00",
  "kcps": {
    "metar": "KCPS 282353Z 29020G44KT 10SM OVC020 07/02 A2978 RMK AO2 PK WND 29044/2345 SLP085 60000 T00670022 10256 20067 51093 $",
    "windDirection": 290,
    "windSpeed": 20,
    "windGust": 44,
    "visibility": 10,
    "temperatureC": 7,
    "dewPointC": 2,
    "cloudCeiling": 2000,
    "altimeter": "A2978",
    "timestamp": "2025-12-28T23:53:00+00:00",
    "station": "KCPS"
  },
  "kstl": {
    "metar": "KSTL 282351Z 29025G44KT 10SM OVC016 04/00 A2980 RMK AO2 PK WND 28046/2329 SLP090 60000 T00390000 10256 20039 51081 $",
    "windDirection": 290,
    "windSpeed": 25,
    "windGust": 44,
    "visibility": 10,
    "temperatureC": 4,
    "dewPointC": 0,
    "cloudCeiling": 1600,
    "altimeter": "A2980",
    "timestamp": "2025-12-28T23:51:00+00:00",
    "station": "KSTL"
  }
}