{
  "lastUpdated": "2026-02-14T23:50:19.244711+00:00",
  "kcps": {
    "metar": "KCPS 142340Z 10007KT 5SM RA BR BKN008 BKN019 OVC031 08/07 A2990 RMK AO2 CIG 007V015 P0011 T00830072 $",
    "windDirection": 100,
    "windSpeed": 7,
    "windGust": null,
    "visibility": 5,
    "temperatureC": 8,
    "dewPointC": 7,
    "cloudCeiling": 800,
    "altimeter": "A2990",
    "timestamp": "2026-02-14T23:40:00+00:00",
    "station": "KCPS"
  },
  "kstl": {
    "metar": "KSTL 142251Z 09013KT 3SM RA BR BKN005 BKN018 OVC024 08/07 A2990 RMK AO2 SLP129 P0012 T00780072 $",
    "windDirection": 90,
    "windSpeed": 13,
    "windGust": null,
    "visibility": 3,
    "temperatureC": 8,
    "dewPointC": 7,
    "cloudCeiling": 500,
    "altimeter": "A2990",
    "timestamp": "2026-02-14T22:51:00+00:00",
    "station": "KSTL"
  }
}