{
  "lastUpdated": "2026-02-17T17:05:57.023309+00:00",
  "kcps": {
    "metar": "KCPS 171653Z 17009KT 10SM CLR 13/08 A2989 RMK AO2 SLP121 T01280083 $",
    "windDirection": 170,
    "windSpeed": 9,
    "windGust": null,
    "visibility": 10,
    "temperatureC": 13,
    "dewPointC": 8,
    "cloudCeiling": 99999,
    "altimeter": "A2989",
    "timestamp": "2026-02-17T16:53:00+00:00",
    "station": "KCPS"
  },
  "kstl": {
    "metar": "KSTL 171651Z 17008KT 10SM BKN180 BKN250 12/07 A2989 RMK AO2 SLP120 T01220072 $",
    "windDirection": 170,
    "windSpeed": 8,
    "windGust": null,
    "visibility": 10,
    "temperatureC": 12,
    "dewPointC": 7,
    "cloudCeiling": 18000,
    "altimeter": "A2989",
    "timestamp": "2026-02-17T16:51:00+00:00",
    "station": "KSTL"
  }
}