{
  "lastUpdated": "2025-10-14T15:46:47.317562+00:00",
  "kcps": {
    "metar": "KCPS 141453Z 17003KT 10SM CLR 22/12 A3028 RMK AO2 SLP251 T02170117 51018",
    "windDirection": 170,
    "windSpeed": 3,
    "windGust": null,
    "visibility": 10,
    "temperatureC": 22,
    "dewPointC": 12,
    "cloudCeiling": 99999,
    "altimeter": "A3028",
    "timestamp": "2025-10-14T14:53:00+00:00",
    "station": "KCPS"
  },
  "kstl": {
    "metar": "KSTL 141451Z 16005KT 10SM SCT140 23/11 A3028 RMK AO2 SLP244 T02280111 51021 $",
    "windDirection": 160,
    "windSpeed": 5,
    "windGust": null,
    "visibility": 10,
    "temperatureC": 23,
    "dewPointC": 11,
    "cloudCeiling": null,
    "altimeter": "A3028",
    "timestamp": "2025-10-14T14:51:00+00:00",
    "station": "KSTL"
  }
}