{
  "lastUpdated": "2026-04-21T16:07:34.617143+00:00",
  "kcps": {
    "metar": "KCPS 211553Z 22008KT 10SM CLR 22/08 A3010 RMK AO2 SLP192 T02170078 $",
    "windDirection": 220,
    "windSpeed": 8,
    "windGust": null,
    "visibility": 10,
    "temperatureC": 22,
    "dewPointC": 8,
    "cloudCeiling": 99999,
    "altimeter": "A3010",
    "timestamp": "2026-04-21T15:53:00+00:00",
    "station": "KCPS"
  },
  "kstl": {
    "metar": "KSTL 211551Z 23015KT 10SM BKN250 22/07 A3010 RMK AO2 SLP186 T02170067 $",
    "windDirection": 230,
    "windSpeed": 15,
    "windGust": null,
    "visibility": 10,
    "temperatureC": 22,
    "dewPointC": 7,
    "cloudCeiling": 25000,
    "altimeter": "A3010",
    "timestamp": "2026-04-21T15:51:00+00:00",
    "station": "KSTL"
  }
}