{
  "lastUpdated": "2026-03-27T13:27:47.456247+00:00",
  "kcps": {
    "metar": "KCPS 271315Z 36014KT 10SM SCT021 BKN050 04/01 A3034 RMK AO2 T00440006 $",
    "windDirection": 360,
    "windSpeed": 14,
    "windGust": null,
    "visibility": 10,
    "temperatureC": 4,
    "dewPointC": 1,
    "cloudCeiling": 5000,
    "altimeter": "A3034",
    "timestamp": "2026-03-27T13:15:00+00:00",
    "station": "KCPS"
  },
  "kstl": {
    "metar": "KSTL 271251Z 36010G21KT 10SM FEW011 OVC130 04/01 A3033 RMK AO2 SLP265 T00440006 $",
    "windDirection": 360,
    "windSpeed": 10,
    "windGust": 21,
    "visibility": 10,
    "temperatureC": 4,
    "dewPointC": 1,
    "cloudCeiling": 13000,
    "altimeter": "A3033",
    "timestamp": "2026-03-27T12:51:00+00:00",
    "station": "KSTL"
  }
}