{
  "lastUpdated": "2026-01-27T08:56:40.070788+00:00",
  "kcps": {
    "metar": "KCPS 270853Z AUTO 21005KT 10SM CLR M08/M15 A3021 RMK AO2 SLP239 T10781150 56020 $",
    "windDirection": 210,
    "windSpeed": 5,
    "windGust": null,
    "visibility": 10,
    "temperatureC": -8,
    "dewPointC": -15,
    "cloudCeiling": 99999,
    "altimeter": "A3021",
    "timestamp": "2026-01-27T08:53:00+00:00",
    "station": "KCPS"
  },
  "kstl": {
    "metar": "KSTL 270851Z 25011KT 10SM CLR M08/M14 A3020 RMK AO2 SLP245 T10831144 56016 $",
    "windDirection": 250,
    "windSpeed": 11,
    "windGust": null,
    "visibility": 10,
    "temperatureC": -8,
    "dewPointC": -14,
    "cloudCeiling": 99999,
    "altimeter": "A3020",
    "timestamp": "2026-01-27T08:51:00+00:00",
    "station": "KSTL"
  }
}