{
  "lastUpdated": "2025-11-21T16:36:59.954845+00:00",
  "kcps": {
    "metar": "KCPS 211634Z 13004KT 1 1/2SM RA BR SCT005 OVC013 13/13 A2993 RMK AO2 P0008 T01330128 $",
    "windDirection": 130,
    "windSpeed": 4,
    "windGust": null,
    "visibility": 0.5,
    "temperatureC": 13,
    "dewPointC": 13,
    "cloudCeiling": 1300,
    "altimeter": "A2993",
    "timestamp": "2025-11-21T16:34:00+00:00",
    "station": "KCPS"
  },
  "kstl": {
    "metar": "KSTL 211617Z 10005KT 4SM -RA BR OVC004 13/12 A2994 RMK AO2 P0002 T01280117 $",
    "windDirection": 100,
    "windSpeed": 5,
    "windGust": null,
    "visibility": 4,
    "temperatureC": 13,
    "dewPointC": 12,
    "cloudCeiling": 400,
    "altimeter": "A2994",
    "timestamp": "2025-11-21T16:17:00+00:00",
    "station": "KSTL"
  }
}