{
  "lastUpdated": "2026-03-16T23:51:53.218278+00:00",
  "kcps": {
    "metar": "KCPS 162253Z 30021G28KT 10SM OVC040 M03/M11 A3009 RMK AO2 PK WND 30028/2252 SLP194 T10281106 $",
    "windDirection": 300,
    "windSpeed": 21,
    "windGust": 28,
    "visibility": 10,
    "temperatureC": -3,
    "dewPointC": -11,
    "cloudCeiling": 4000,
    "altimeter": "A3009",
    "timestamp": "2026-03-16T22:53:00+00:00",
    "station": "KCPS"
  },
  "kstl": {
    "metar": "KSTL 162334Z 29017G28KT 10SM -SN OVC034 M04/M11 A3009 RMK AO2 PK WND 31033/2252 SNB34 P0000 T10391106 $",
    "windDirection": 290,
    "windSpeed": 17,
    "windGust": 28,
    "visibility": 10,
    "temperatureC": -4,
    "dewPointC": -11,
    "cloudCeiling": 3400,
    "altimeter": "A3009",
    "timestamp": "2026-03-16T23:34:00+00:00",
    "station": "KSTL"
  }
}