{
  "lastUpdated": "2026-01-13T22:49:50.634309+00:00",
  "kcps": {
    "metar": "KCPS 132153Z 27009G16KT 10SM CLR 18/M01 A2975 RMK AO2 SLP073 T01781006",
    "windDirection": 270,
    "windSpeed": 9,
    "windGust": 16,
    "visibility": 10,
    "temperatureC": 18,
    "dewPointC": -1,
    "cloudCeiling": 99999,
    "altimeter": "A2975",
    "timestamp": "2026-01-13T21:53:00+00:00",
    "station": "KCPS"
  },
  "kstl": {
    "metar": "KSTL 132151Z 27009KT 10SM BKN140 BKN250 16/M01 A2976 RMK AO2 SLP077 T01611006 $",
    "windDirection": 270,
    "windSpeed": 9,
    "windGust": null,
    "visibility": 10,
    "temperatureC": 16,
    "dewPointC": -1,
    "cloudCeiling": 14000,
    "altimeter": "A2976",
    "timestamp": "2026-01-13T21:51:00+00:00",
    "station": "KSTL"
  }
}