{
  "lastUpdated": "2026-05-18T17:53:18.422166+00:00",
  "kcps": {
    "metar": "KCPS 181746Z 04004KT 6SM TSRA BR SCT034 OVC045 19/19 A3001 RMK AO2 LTG DSNT ALQDS PRESRR P0018 T01940189 $",
    "windDirection": 40,
    "windSpeed": 4,
    "windGust": null,
    "visibility": 6,
    "temperatureC": 19,
    "dewPointC": 19,
    "cloudCeiling": 4500,
    "altimeter": "A3001",
    "timestamp": "2026-05-18T17:46:00+00:00",
    "station": "KCPS"
  },
  "kstl": {
    "metar": "KSTL 181745Z 05004KT 5SM R30R/5000VP6000FT -TSRA BR BKN055CB BKN065 OVC080 19/18 A3002 RMK AO2 TSE17B44 OCNL LTGIC S-SW TS S-SW MOV NE P0008 $",
    "windDirection": 50,
    "windSpeed": 4,
    "windGust": null,
    "visibility": 5,
    "temperatureC": 19,
    "dewPointC": 18,
    "cloudCeiling": 5500,
    "altimeter": "A3002",
    "timestamp": "2026-05-18T17:45:00+00:00",
    "station": "KSTL"
  }
}