{
  "lastUpdated": "2025-12-12T14:02:35.577924+00:00",
  "kcps": {
    "metar": "KCPS 121353Z 04005KT 7SM OVC007 01/M01 A3008 RMK AO2 SLP189 T00061011",
    "windDirection": 40,
    "windSpeed": 5,
    "windGust": null,
    "visibility": 7,
    "temperatureC": 1,
    "dewPointC": -1,
    "cloudCeiling": 700,
    "altimeter": "A3008",
    "timestamp": "2025-12-12T13:53:00+00:00",
    "station": "KCPS"
  },
  "kstl": {
    "metar": "KSTL 121351Z 05006KT 6SM BR OVC006 00/M02 A3008 RMK AO2 SLP194 T00001017 $",
    "windDirection": 50,
    "windSpeed": 6,
    "windGust": null,
    "visibility": 6,
    "temperatureC": 0,
    "dewPointC": -2,
    "cloudCeiling": 600,
    "altimeter": "A3008",
    "timestamp": "2025-12-12T13:51:00+00:00",
    "station": "KSTL"
  }
}