{
  "lastUpdated": "2025-11-14T20:47:24.825688+00:00",
  "kcps": {
    "metar": "KCPS 141953Z 21011G18KT 10SM FEW048 26/14 A2993 RMK AO2 SLP134 T02610139",
    "windDirection": 210,
    "windSpeed": 11,
    "windGust": 18,
    "visibility": 10,
    "temperatureC": 26,
    "dewPointC": 14,
    "cloudCeiling": null,
    "altimeter": "A2993",
    "timestamp": "2025-11-14T19:53:00+00:00",
    "station": "KCPS"
  },
  "kstl": {
    "metar": "KSTL 141951Z 19012KT 10SM FEW050 26/13 A2993 RMK AO2 SLP130 T02610133",
    "windDirection": 190,
    "windSpeed": 12,
    "windGust": null,
    "visibility": 10,
    "temperatureC": 26,
    "dewPointC": 13,
    "cloudCeiling": null,
    "altimeter": "A2993",
    "timestamp": "2025-11-14T19:51:00+00:00",
    "station": "KSTL"
  }
}