{
  "lastUpdated": "2026-04-15T14:14:13.399054+00:00",
  "kcps": {
    "metar": "KCPS 151353Z 23004KT 10SM FEW070 23/17 A2991 RMK AO2 SLP123 T02330167 $",
    "windDirection": 230,
    "windSpeed": 4,
    "windGust": null,
    "visibility": 10,
    "temperatureC": 23,
    "dewPointC": 17,
    "cloudCeiling": null,
    "altimeter": "A2991",
    "timestamp": "2026-04-15T13:53:00+00:00",
    "station": "KCPS"
  },
  "kstl": {
    "metar": "KSTL 151351Z 25015G25KT 10SM BKN050 BKN110 OVC250 23/15 A2992 RMK AO2 PK WND 24026/1339 SLP120 T02280150",
    "windDirection": 250,
    "windSpeed": 15,
    "windGust": 25,
    "visibility": 10,
    "temperatureC": 23,
    "dewPointC": 15,
    "cloudCeiling": 5000,
    "altimeter": "A2992",
    "timestamp": "2026-04-15T13:51:00+00:00",
    "station": "KSTL"
  }
}