{
  "lastUpdated": "2026-05-14T14:14:20.090779+00:00",
  "kcps": {
    "metar": "KCPS 141353Z 14007KT 10SM CLR 15/07 A3014 RMK AO2 SLP204 T01500067 $",
    "windDirection": 140,
    "windSpeed": 7,
    "windGust": null,
    "visibility": 10,
    "temperatureC": 15,
    "dewPointC": 7,
    "cloudCeiling": 99999,
    "altimeter": "A3014",
    "timestamp": "2026-05-14T13:53:00+00:00",
    "station": "KCPS"
  },
  "kstl": {
    "metar": "KSTL 141351Z 16007KT 10SM FEW250 16/06 A3014 RMK AO2 SLP202 T01610061 $",
    "windDirection": 160,
    "windSpeed": 7,
    "windGust": null,
    "visibility": 10,
    "temperatureC": 16,
    "dewPointC": 6,
    "cloudCeiling": null,
    "altimeter": "A3014",
    "timestamp": "2026-05-14T13:51:00+00:00",
    "station": "KSTL"
  }
}