{
  "lastUpdated": "2025-12-07T06:22:42.983107+00:00",
  "kcps": {
    "metar": "KCPS 070613Z AUTO 17007KT 6SM BR SCT011 OVC095 03/01 A2992 RMK AO2 T00280011 $",
    "windDirection": 170,
    "windSpeed": 7,
    "windGust": null,
    "visibility": 6,
    "temperatureC": 3,
    "dewPointC": 1,
    "cloudCeiling": 9500,
    "altimeter": "A2992",
    "timestamp": "2025-12-07T06:13:00+00:00",
    "station": "KCPS"
  },
  "kstl": {
    "metar": "KSTL 070551Z 16006KT 10SM OVC095 04/01 A2992 RMK AO2 SLP137 4/001 T00390006 10067 20039 400831017 53010 $",
    "windDirection": 160,
    "windSpeed": 6,
    "windGust": null,
    "visibility": 10,
    "temperatureC": 4,
    "dewPointC": 1,
    "cloudCeiling": 9500,
    "altimeter": "A2992",
    "timestamp": "2025-12-07T05:51:00+00:00",
    "station": "KSTL"
  }
}