{
  "lastUpdated": "2026-01-29T17:02:26.045213+00:00",
  "kcps": {
    "metar": "KCPS 291653Z 04005KT 10SM CLR M03/M13 A3032 RMK AO2 SLP273 T10331133 $",
    "windDirection": 40,
    "windSpeed": 5,
    "windGust": null,
    "visibility": 10,
    "temperatureC": -3,
    "dewPointC": -13,
    "cloudCeiling": 99999,
    "altimeter": "A3032",
    "timestamp": "2026-01-29T16:53:00+00:00",
    "station": "KCPS"
  },
  "kstl": {
    "metar": "KSTL 291651Z 05006KT 10SM SCT070 BKN170 BKN250 M05/M13 A3032 RMK AO2 SLP280 T10501133 $",
    "windDirection": 50,
    "windSpeed": 6,
    "windGust": null,
    "visibility": 10,
    "temperatureC": -5,
    "dewPointC": -13,
    "cloudCeiling": 17000,
    "altimeter": "A3032",
    "timestamp": "2026-01-29T16:51:00+00:00",
    "station": "KSTL"
  }
}