{
  "lastUpdated": "2026-02-17T10:02:49.780756+00:00",
  "kcps": {
    "metar": "KCPS 170953Z AUTO 15006KT 10SM CLR 06/04 A2994 RMK AO2 SLP138 T00610044 $",
    "windDirection": 150,
    "windSpeed": 6,
    "windGust": null,
    "visibility": 10,
    "temperatureC": 6,
    "dewPointC": 4,
    "cloudCeiling": 99999,
    "altimeter": "A2994",
    "timestamp": "2026-02-17T09:53:00+00:00",
    "station": "KCPS"
  },
  "kstl": {
    "metar": "KSTL 170951Z 12007KT 10SM BKN250 06/04 A2994 RMK AO2 SLP136 T00610044 $",
    "windDirection": 120,
    "windSpeed": 7,
    "windGust": null,
    "visibility": 10,
    "temperatureC": 6,
    "dewPointC": 4,
    "cloudCeiling": 25000,
    "altimeter": "A2994",
    "timestamp": "2026-02-17T09:51:00+00:00",
    "station": "KSTL"
  }
}