{
  "lastUpdated": "2026-01-26T15:05:02.428550+00:00",
  "kcps": {
    "metar": "KCPS 261453Z 28010KT 10SM CLR M17/M22 A3053 RMK AO2 SLP348 T11671217 51023",
    "windDirection": 280,
    "windSpeed": 10,
    "windGust": null,
    "visibility": 10,
    "temperatureC": -17,
    "dewPointC": -22,
    "cloudCeiling": 99999,
    "altimeter": "A3053",
    "timestamp": "2026-01-26T14:53:00+00:00",
    "station": "KCPS"
  },
  "kstl": {
    "metar": "KSTL 261451Z 28009KT 10SM CLR M17/M22 A3051 RMK AO2 SLP357 T11721217 51024 $",
    "windDirection": 280,
    "windSpeed": 9,
    "windGust": null,
    "visibility": 10,
    "temperatureC": -17,
    "dewPointC": -22,
    "cloudCeiling": 99999,
    "altimeter": "A3051",
    "timestamp": "2026-01-26T14:51:00+00:00",
    "station": "KSTL"
  }
}