{
  "lastUpdated": "2025-12-23T12:23:50.816449+00:00",
  "kcps": {
    "metar": "KCPS 231216Z AUTO 00000KT 1 1/2SM BR CLR 02/02 A3011 RMK AO2 T00220022 $",
    "windDirection": 0,
    "windSpeed": 0,
    "windGust": null,
    "visibility": 0.5,
    "temperatureC": 2,
    "dewPointC": 2,
    "cloudCeiling": 99999,
    "altimeter": "A3011",
    "timestamp": "2025-12-23T12:16:00+00:00",
    "station": "KCPS"
  },
  "kstl": {
    "metar": "KSTL 231151Z 14003KT 8SM BKN250 05/04 A3009 RMK AO2 SLP193 T00500044 10072 20039 53005 $",
    "windDirection": 140,
    "windSpeed": 3,
    "windGust": null,
    "visibility": 8,
    "temperatureC": 5,
    "dewPointC": 4,
    "cloudCeiling": 25000,
    "altimeter": "A3009",
    "timestamp": "2025-12-23T11:51:00+00:00",
    "station": "KSTL"
  }
}