{
  "lastUpdated": "2025-11-28T04:03:34.483214+00:00",
  "kcps": {
    "metar": "KCPS 280353Z 31008KT 10SM CLR 01/M08 A3039 RMK AO2 SLP294 T00061083 $",
    "windDirection": 310,
    "windSpeed": 8,
    "windGust": null,
    "visibility": 10,
    "temperatureC": 1,
    "dewPointC": -8,
    "cloudCeiling": 99999,
    "altimeter": "A3039",
    "timestamp": "2025-11-28T03:53:00+00:00",
    "station": "KCPS"
  },
  "kstl": {
    "metar": "KSTL 280351Z 30005KT 10SM FEW080 M01/M08 A3039 RMK AO2 SLP302 T10061083 $",
    "windDirection": 300,
    "windSpeed": 5,
    "windGust": null,
    "visibility": 10,
    "temperatureC": -1,
    "dewPointC": -8,
    "cloudCeiling": null,
    "altimeter": "A3039",
    "timestamp": "2025-11-28T03:51:00+00:00",
    "station": "KSTL"
  }
}