{
  "lastUpdated": "2025-11-28T01:51:10.119021+00:00",
  "kcps": {
    "metar": "KCPS 280053Z 00000KT 10SM CLR M01/M08 A3038 RMK AO2 SLP294 T10061078 $",
    "windDirection": 0,
    "windSpeed": 0,
    "windGust": null,
    "visibility": 10,
    "temperatureC": -1,
    "dewPointC": -8,
    "cloudCeiling": 99999,
    "altimeter": "A3038",
    "timestamp": "2025-11-28T00:53:00+00:00",
    "station": "KCPS"
  },
  "kstl": {
    "metar": "KSTL 280051Z 25005KT 10SM BKN080 01/M08 A3038 RMK AO2 SLP300 T00061083 $",
    "windDirection": 250,
    "windSpeed": 5,
    "windGust": null,
    "visibility": 10,
    "temperatureC": 1,
    "dewPointC": -8,
    "cloudCeiling": 8000,
    "altimeter": "A3038",
    "timestamp": "2025-11-28T00:51:00+00:00",
    "station": "KSTL"
  }
}