{
  "lastUpdated": "2025-10-13T19:20:14.990843+00:00",
  "kcps": {
    "metar": "KCPS 131853Z 14004KT 10SM FEW080 26/14 A3003 RMK AO2 SLP168 T02610144 $",
    "windDirection": 140,
    "windSpeed": 4,
    "windGust": null,
    "visibility": 10,
    "temperatureC": 26,
    "dewPointC": 14,
    "cloudCeiling": null,
    "altimeter": "A3003",
    "timestamp": "2025-10-13T18:53:00+00:00",
    "station": "KCPS"
  },
  "kstl": {
    "metar": "KSTL 131851Z VRB04KT 10SM FEW080 BKN150 26/15 A3004 RMK AO2 SLP163 T02560150 $",
    "windDirection": null,
    "windSpeed": null,
    "windGust": null,
    "visibility": 10,
    "temperatureC": 26,
    "dewPointC": 15,
    "cloudCeiling": 15000,
    "altimeter": "A3004",
    "timestamp": "2025-10-13T18:51:00+00:00",
    "station": "KSTL"
  }
}