{
  "lastUpdated": "2026-05-22T22:19:28.094021+00:00",
  "kcps": {
    "metar": "KCPS 222153Z 06005KT 10SM OVC020 19/15 A2989 RMK AO2 SLP118 T01940150 $",
    "windDirection": 60,
    "windSpeed": 5,
    "windGust": null,
    "visibility": 10,
    "temperatureC": 19,
    "dewPointC": 15,
    "cloudCeiling": 2000,
    "altimeter": "A2989",
    "timestamp": "2026-05-22T21:53:00+00:00",
    "station": "KCPS"
  },
  "kstl": {
    "metar": "KSTL 222151Z 07006KT 10SM OVC019 19/14 A2990 RMK AO2 SLP120 T01940144 $",
    "windDirection": 70,
    "windSpeed": 6,
    "windGust": null,
    "visibility": 10,
    "temperatureC": 19,
    "dewPointC": 14,
    "cloudCeiling": 1900,
    "altimeter": "A2990",
    "timestamp": "2026-05-22T21:51:00+00:00",
    "station": "KSTL"
  }
}