{
  "lastUpdated": "2026-06-01T10:58:38.316554+00:00",
  "kcps": {
    "metar": "KCPS 011053Z AUTO 04008KT 10SM VCTS -RA OVC028 21/19 A2996 RMK AO2 LTG DSNT ALQDS RAB53 TSB33E48 SLP142 P0000 T02110194 $",
    "windDirection": 40,
    "windSpeed": 8,
    "windGust": null,
    "visibility": 10,
    "temperatureC": 21,
    "dewPointC": 19,
    "cloudCeiling": 2800,
    "altimeter": "A2996",
    "timestamp": "2026-06-01T10:53:00+00:00",
    "station": "KCPS"
  },
  "kstl": {
    "metar": "KSTL 011051Z VRB05KT 9SM -TSRA BKN029 BKN040 OVC055CB 21/19 A2996 RMK AO2 RAB28 TSB12 SLP136 CONS LTGICCG ALQDS TS ALQDS MOV SE P0000 T02110194 $",
    "windDirection": null,
    "windSpeed": null,
    "windGust": null,
    "visibility": 9,
    "temperatureC": 21,
    "dewPointC": 19,
    "cloudCeiling": 2900,
    "altimeter": "A2996",
    "timestamp": "2026-06-01T10:51:00+00:00",
    "station": "KSTL"
  }
}