{
  "lastUpdated": "2026-02-18T00:11:21.987588+00:00",
  "kcps": {
    "metar": "KCPS 172353Z 17012G20KT 10SM OVC015 13/10 A2970 RMK AO2 PK WND 17026/2315 SLP057 T01280100 10133 20128 58020 $",
    "windDirection": 170,
    "windSpeed": 12,
    "windGust": 20,
    "visibility": 10,
    "temperatureC": 13,
    "dewPointC": 10,
    "cloudCeiling": 1500,
    "altimeter": "A2970",
    "timestamp": "2026-02-17T23:53:00+00:00",
    "station": "KCPS"
  },
  "kstl": {
    "metar": "KSTL 172351Z 17019G32KT 10SM BKN015 OVC150 13/09 A2967 RMK AO2 PK WND 16035/2341 PRESFR SLP049 T01280094 10133 20128 58022 $",
    "windDirection": 170,
    "windSpeed": 19,
    "windGust": 32,
    "visibility": 10,
    "temperatureC": 13,
    "dewPointC": 9,
    "cloudCeiling": 1500,
    "altimeter": "A2967",
    "timestamp": "2026-02-17T23:51:00+00:00",
    "station": "KSTL"
  }
}