{
  "lastUpdated": "2026-01-05T19:21:35.973477+00:00",
  "kcps": {
    "metar": "KCPS 051853Z 19007KT 10SM CLR 14/04 A2984 RMK AO2 SLP105 T01440044",
    "windDirection": 190,
    "windSpeed": 7,
    "windGust": null,
    "visibility": 10,
    "temperatureC": 14,
    "dewPointC": 4,
    "cloudCeiling": 99999,
    "altimeter": "A2984",
    "timestamp": "2026-01-05T18:53:00+00:00",
    "station": "KCPS"
  },
  "kstl": {
    "metar": "KSTL 051851Z 20006KT 10SM BKN250 14/05 A2983 RMK AO2 SLP103 T01440050 $",
    "windDirection": 200,
    "windSpeed": 6,
    "windGust": null,
    "visibility": 10,
    "temperatureC": 14,
    "dewPointC": 5,
    "cloudCeiling": 25000,
    "altimeter": "A2983",
    "timestamp": "2026-01-05T18:51:00+00:00",
    "station": "KSTL"
  }
}