{
  "lastUpdated": "2026-01-27T16:23:08.415905+00:00",
  "kcps": {
    "metar": "KCPS 271453Z 27008KT 10SM CLR M06/M12 A3028 RMK AO2 SLP258 T10561117 51028 $",
    "windDirection": 270,
    "windSpeed": 8,
    "windGust": null,
    "visibility": 10,
    "temperatureC": -6,
    "dewPointC": -12,
    "cloudCeiling": 99999,
    "altimeter": "A3028",
    "timestamp": "2026-01-27T14:53:00+00:00",
    "station": "KCPS"
  },
  "kstl": {
    "metar": "KSTL 271551Z 28016KT 10SM CLR M04/M10 A3028 RMK AO2 SLP270 T10441100 $",
    "windDirection": 280,
    "windSpeed": 16,
    "windGust": null,
    "visibility": 10,
    "temperatureC": -4,
    "dewPointC": -10,
    "cloudCeiling": 99999,
    "altimeter": "A3028",
    "timestamp": "2026-01-27T15:51:00+00:00",
    "station": "KSTL"
  }
}