{
  "lastUpdated": "2025-11-21T21:21:23.342353+00:00",
  "kcps": {
    "metar": "KCPS 212053Z 03003KT 3SM BR OVC004 14/14 A2984 RMK AO2 SLP104 T01440139 56015",
    "windDirection": 30,
    "windSpeed": 3,
    "windGust": null,
    "visibility": 3,
    "temperatureC": 14,
    "dewPointC": 14,
    "cloudCeiling": 400,
    "altimeter": "A2984",
    "timestamp": "2025-11-21T20:53:00+00:00",
    "station": "KCPS"
  },
  "kstl": {
    "metar": "KSTL 212051Z 05006KT 2SM BR OVC003 13/12 A2985 RMK AO2 SLP108 60000 T01280122 56005 $",
    "windDirection": 50,
    "windSpeed": 6,
    "windGust": null,
    "visibility": 2,
    "temperatureC": 13,
    "dewPointC": 12,
    "cloudCeiling": 300,
    "altimeter": "A2985",
    "timestamp": "2025-11-21T20:51:00+00:00",
    "station": "KSTL"
  }
}