{
  "lastUpdated": "2026-03-23T07:27:20.490224+00:00",
  "kcps": {
    "metar": "KCPS 230653Z AUTO 02012KT 10SM FEW034 07/01 A3019 RMK AO2 PK WND 03026/0618 SLP221 T00670006 $",
    "windDirection": 20,
    "windSpeed": 12,
    "windGust": null,
    "visibility": 10,
    "temperatureC": 7,
    "dewPointC": 1,
    "cloudCeiling": null,
    "altimeter": "A3019",
    "timestamp": "2026-03-23T06:53:00+00:00",
    "station": "KCPS"
  },
  "kstl": {
    "metar": "KSTL 230651Z 36010KT 10SM BKN028 07/01 A3020 RMK AO2 SLP218 T00720011 $",
    "windDirection": 360,
    "windSpeed": 10,
    "windGust": null,
    "visibility": 10,
    "temperatureC": 7,
    "dewPointC": 1,
    "cloudCeiling": 2800,
    "altimeter": "A3020",
    "timestamp": "2026-03-23T06:51:00+00:00",
    "station": "KSTL"
  }
}