{
  "lastUpdated": "2026-06-02T05:51:29.451156+00:00",
  "kcps": {
    "metar": "KCPS 020453Z AUTO 00000KT 10SM CLR 21/19 A3005 RMK AO2 SLP170 T02110194 $",
    "windDirection": 0,
    "windSpeed": 0,
    "windGust": null,
    "visibility": 10,
    "temperatureC": 21,
    "dewPointC": 19,
    "cloudCeiling": 99999,
    "altimeter": "A3005",
    "timestamp": "2026-06-02T04:53:00+00:00",
    "station": "KCPS"
  },
  "kstl": {
    "metar": "KSTL 020451Z 06007KT 10SM CLR 22/19 A3006 RMK AO2 SLP170 T02220194 $",
    "windDirection": 60,
    "windSpeed": 7,
    "windGust": null,
    "visibility": 10,
    "temperatureC": 22,
    "dewPointC": 19,
    "cloudCeiling": 99999,
    "altimeter": "A3006",
    "timestamp": "2026-06-02T04:51:00+00:00",
    "station": "KSTL"
  }
}