{
  "lastUpdated": "2026-05-08T17:58:00.821973+00:00",
  "kcps": {
    "metar": "KCPS 081753Z 22008KT 10SM FEW100 BKN120 21/10 A2984 RMK AO2 SLP105 T02060100 10206 20117 58025 $",
    "windDirection": 220,
    "windSpeed": 8,
    "windGust": null,
    "visibility": 10,
    "temperatureC": 21,
    "dewPointC": 10,
    "cloudCeiling": 12000,
    "altimeter": "A2984",
    "timestamp": "2026-05-08T17:53:00+00:00",
    "station": "KCPS"
  },
  "kstl": {
    "metar": "KSTL 081751Z 25009KT 10SM BKN110 BKN250 19/09 A2985 RMK AO2 SLP103 RAE10 P0000 60000 T01940094 10200 20122 58018 $",
    "windDirection": 250,
    "windSpeed": 9,
    "windGust": null,
    "visibility": 10,
    "temperatureC": 19,
    "dewPointC": 9,
    "cloudCeiling": 11000,
    "altimeter": "A2985",
    "timestamp": "2026-05-08T17:51:00+00:00",
    "station": "KSTL"
  }
}