{
  "lastUpdated": "2026-05-10T06:05:18.053127+00:00",
  "kcps": {
    "metar": "KCPS 100553Z AUTO 00000KT 10SM -RA FEW050 FEW075 OVC100 16/14 A2989 RMK AO2 SLP119 P0001 60002 T01610144 10261 20161 402720133 50025 $",
    "windDirection": 0,
    "windSpeed": 0,
    "windGust": null,
    "visibility": 10,
    "temperatureC": 16,
    "dewPointC": 14,
    "cloudCeiling": 10000,
    "altimeter": "A2989",
    "timestamp": "2026-05-10T05:53:00+00:00",
    "station": "KCPS"
  },
  "kstl": {
    "metar": "KSTL 100551Z 01009KT 10SM OVC110 16/14 A2990 RMK AO2 RAE21 SLP118 P0000 60010 T01610139 10256 20161 402670128 51025 $",
    "windDirection": 10,
    "windSpeed": 9,
    "windGust": null,
    "visibility": 10,
    "temperatureC": 16,
    "dewPointC": 14,
    "cloudCeiling": 11000,
    "altimeter": "A2990",
    "timestamp": "2026-05-10T05:51:00+00:00",
    "station": "KSTL"
  }
}