{
  "lastUpdated": "2026-05-02T05:24:17.924337+00:00",
  "kcps": {
    "metar": "KCPS 020453Z AUTO 00000KT 10SM BKN080 OVC100 11/06 A3003 RMK AO2 SLP169 T01110061 $",
    "windDirection": 0,
    "windSpeed": 0,
    "windGust": null,
    "visibility": 10,
    "temperatureC": 11,
    "dewPointC": 6,
    "cloudCeiling": 8000,
    "altimeter": "A3003",
    "timestamp": "2026-05-02T04:53:00+00:00",
    "station": "KCPS"
  },
  "kstl": {
    "metar": "KSTL 020451Z 04011KT 10SM SCT075 BKN100 12/03 A3004 RMK AO2 SLP172 T01220033",
    "windDirection": 40,
    "windSpeed": 11,
    "windGust": null,
    "visibility": 10,
    "temperatureC": 12,
    "dewPointC": 3,
    "cloudCeiling": 10000,
    "altimeter": "A3004",
    "timestamp": "2026-05-02T04:51:00+00:00",
    "station": "KSTL"
  }
}