{
  "lastUpdated": "2026-02-08T05:53:16.498808+00:00",
  "kcps": {
    "metar": "KCPS 080453Z 14008KT 10SM CLR M02/M08 A3029 RMK AO2 SLP260 T10221083 $",
    "windDirection": 140,
    "windSpeed": 8,
    "windGust": null,
    "visibility": 10,
    "temperatureC": -2,
    "dewPointC": -8,
    "cloudCeiling": 99999,
    "altimeter": "A3029",
    "timestamp": "2026-02-08T04:53:00+00:00",
    "station": "KCPS"
  },
  "kstl": {
    "metar": "KSTL 080451Z 13010KT 10SM BKN250 M02/M08 A3027 RMK AO2 SLP261 T10171083 $",
    "windDirection": 130,
    "windSpeed": 10,
    "windGust": null,
    "visibility": 10,
    "temperatureC": -2,
    "dewPointC": -8,
    "cloudCeiling": 25000,
    "altimeter": "A3027",
    "timestamp": "2026-02-08T04:51:00+00:00",
    "station": "KSTL"
  }
}