{
  "lastUpdated": "2026-03-12T00:08:59.187942+00:00",
  "kcps": {
    "metar": "KCPS 112353Z 33013G22KT 10SM OVC030 06/01 A3017 RMK AO2 PK WND 32032/2313 SLP218 60000 T00610006 10089 20061 53051 $",
    "windDirection": 330,
    "windSpeed": 13,
    "windGust": 22,
    "visibility": 10,
    "temperatureC": 6,
    "dewPointC": 1,
    "cloudCeiling": 3000,
    "altimeter": "A3017",
    "timestamp": "2026-03-11T23:53:00+00:00",
    "station": "KCPS"
  },
  "kstl": {
    "metar": "KSTL 112351Z 32020G27KT 10SM OVC027 06/01 A3017 RMK AO2 PK WND 34028/2302 SLP217 60000 T00560011 10078 20056 53049 $",
    "windDirection": 320,
    "windSpeed": 20,
    "windGust": 27,
    "visibility": 10,
    "temperatureC": 6,
    "dewPointC": 1,
    "cloudCeiling": 2700,
    "altimeter": "A3017",
    "timestamp": "2026-03-11T23:51:00+00:00",
    "station": "KSTL"
  }
}