{
  "lastUpdated": "2026-01-31T12:03:09.556775+00:00",
  "kcps": {
    "metar": "KCPS 311153Z AUTO 32009KT 10SM CLR M13/M18 A3054 RMK AO2 SLP351 60000 T11331178 11094 21133 51006 $",
    "windDirection": 320,
    "windSpeed": 9,
    "windGust": null,
    "visibility": 10,
    "temperatureC": -13,
    "dewPointC": -18,
    "cloudCeiling": 99999,
    "altimeter": "A3054",
    "timestamp": "2026-01-31T11:53:00+00:00",
    "station": "KCPS"
  },
  "kstl": {
    "metar": "KSTL 311151Z 30006KT 10SM CLR M15/M19 A3054 RMK AO2 SLP363 4/004 60000 T11501189 11106 21150 53005 $",
    "windDirection": 300,
    "windSpeed": 6,
    "windGust": null,
    "visibility": 10,
    "temperatureC": -15,
    "dewPointC": -19,
    "cloudCeiling": 99999,
    "altimeter": "A3054",
    "timestamp": "2026-01-31T11:51:00+00:00",
    "station": "KSTL"
  }
}