{
  "lastUpdated": "2025-11-20T13:48:21.267085+00:00",
  "kcps": {
    "metar": "KCPS 201253Z 16005KT 7SM OVC007 09/08 A3009 RMK AO2 RAE46 SLP191 P0001 T00890083",
    "windDirection": 160,
    "windSpeed": 5,
    "windGust": null,
    "visibility": 7,
    "temperatureC": 9,
    "dewPointC": 8,
    "cloudCeiling": 700,
    "altimeter": "A3009",
    "timestamp": "2025-11-20T12:53:00+00:00",
    "station": "KCPS"
  },
  "kstl": {
    "metar": "KSTL 201338Z 17006KT 5SM -RA BR OVC006 09/08 A3008 RMK AO2 RAB11 P0000 T00940083 $",
    "windDirection": 170,
    "windSpeed": 6,
    "windGust": null,
    "visibility": 5,
    "temperatureC": 9,
    "dewPointC": 8,
    "cloudCeiling": 600,
    "altimeter": "A3008",
    "timestamp": "2025-11-20T13:38:00+00:00",
    "station": "KSTL"
  }
}