{
  "lastUpdated": "2026-02-10T23:59:58.658700+00:00",
  "kcps": {
    "metar": "KCPS 102253Z 35012KT 10SM CLR 13/02 A2998 RMK AO2 SLP152 T01330017 $",
    "windDirection": 350,
    "windSpeed": 12,
    "windGust": null,
    "visibility": 10,
    "temperatureC": 13,
    "dewPointC": 2,
    "cloudCeiling": 99999,
    "altimeter": "A2998",
    "timestamp": "2026-02-10T22:53:00+00:00",
    "station": "KCPS"
  },
  "kstl": {
    "metar": "KSTL 102351Z 36008KT 10SM BKN250 11/01 A3004 RMK AO2 SLP175 T01110006 10189 20111 53036 $",
    "windDirection": 360,
    "windSpeed": 8,
    "windGust": null,
    "visibility": 10,
    "temperatureC": 11,
    "dewPointC": 1,
    "cloudCeiling": 25000,
    "altimeter": "A3004",
    "timestamp": "2026-02-10T23:51:00+00:00",
    "station": "KSTL"
  }
}