{
  "lastUpdated": "2026-02-12T00:09:56.268924+00:00",
  "kcps": {
    "metar": "KCPS 112353Z 00000KT 10SM CLR 05/M05 A3031 RMK AO2 SLP266 T00501050 10100 20050 53004 $",
    "windDirection": 0,
    "windSpeed": 0,
    "windGust": null,
    "visibility": 10,
    "temperatureC": 5,
    "dewPointC": -5,
    "cloudCeiling": 99999,
    "altimeter": "A3031",
    "timestamp": "2026-02-11T23:53:00+00:00",
    "station": "KCPS"
  },
  "kstl": {
    "metar": "KSTL 112351Z 31004KT 10SM BKN250 06/M04 A3031 RMK AO2 SLP272 T00611044 10094 20056 53001 $",
    "windDirection": 310,
    "windSpeed": 4,
    "windGust": null,
    "visibility": 10,
    "temperatureC": 6,
    "dewPointC": -4,
    "cloudCeiling": 25000,
    "altimeter": "A3031",
    "timestamp": "2026-02-11T23:51:00+00:00",
    "station": "KSTL"
  }
}