{
  "lastUpdated": "2025-11-25T03:36:12.934839+00:00",
  "kcps": {
    "metar": "KCPS 250309Z 15006KT 10SM SCT015 OVC030 11/09 A2986 RMK AO2 RAE0256 P0000 T01110094 $",
    "windDirection": 150,
    "windSpeed": 6,
    "windGust": null,
    "visibility": 10,
    "temperatureC": 11,
    "dewPointC": 9,
    "cloudCeiling": 3000,
    "altimeter": "A2986",
    "timestamp": "2025-11-25T03:09:00+00:00",
    "station": "KCPS"
  },
  "kstl": {
    "metar": "KSTL 250322Z 16007KT 3SM RA BR OVC030 11/10 A2986 RMK AO2 RAB02 P0001 T01110100 $",
    "windDirection": 160,
    "windSpeed": 7,
    "windGust": null,
    "visibility": 3,
    "temperatureC": 11,
    "dewPointC": 10,
    "cloudCeiling": 3000,
    "altimeter": "A2986",
    "timestamp": "2025-11-25T03:22:00+00:00",
    "station": "KSTL"
  }
}