{
  "lastUpdated": "2026-03-21T22:39:28.099394+00:00",
  "kcps": {
    "metar": "KCPS 212153Z 16005KT 10SM CLR 30/11 A2977 RMK AO2 SLP076 T03000111 $",
    "windDirection": 160,
    "windSpeed": 5,
    "windGust": null,
    "visibility": 10,
    "temperatureC": 30,
    "dewPointC": 11,
    "cloudCeiling": 99999,
    "altimeter": "A2977",
    "timestamp": "2026-03-21T21:53:00+00:00",
    "station": "KCPS"
  },
  "kstl": {
    "metar": "KSTL 212151Z VRB06KT 10SM FEW250 30/09 A2977 RMK AO2 SLP075 T03000094 $",
    "windDirection": null,
    "windSpeed": null,
    "windGust": null,
    "visibility": 10,
    "temperatureC": 30,
    "dewPointC": 9,
    "cloudCeiling": null,
    "altimeter": "A2977",
    "timestamp": "2026-03-21T21:51:00+00:00",
    "station": "KSTL"
  }
}