{
  "lastUpdated": "2025-12-28T14:21:26.052441+00:00",
  "kcps": {
    "metar": "KCPS 281253Z 18007KT 10SM CLR 18/16 A2966 RMK AO2 SLP040 T01830161 $",
    "windDirection": 180,
    "windSpeed": 7,
    "windGust": null,
    "visibility": 10,
    "temperatureC": 18,
    "dewPointC": 16,
    "cloudCeiling": 99999,
    "altimeter": "A2966",
    "timestamp": "2025-12-28T12:53:00+00:00",
    "station": "KCPS"
  },
  "kstl": {
    "metar": "KSTL 281351Z 19009KT 10SM SCT100 BKN250 18/16 A2962 RMK AO2 SLP025 T01830161 $",
    "windDirection": 190,
    "windSpeed": 9,
    "windGust": null,
    "visibility": 10,
    "temperatureC": 18,
    "dewPointC": 16,
    "cloudCeiling": 25000,
    "altimeter": "A2962",
    "timestamp": "2025-12-28T13:51:00+00:00",
    "station": "KSTL"
  }
}