{
  "lastUpdated": "2025-12-14T15:46:26.910539+00:00",
  "kcps": {
    "metar": "KCPS 141453Z 35010KT 10SM CLR M13/M20 A3074 RMK AO2 SLP420 T11281200 51031 $",
    "windDirection": 350,
    "windSpeed": 10,
    "windGust": null,
    "visibility": 10,
    "temperatureC": -13,
    "dewPointC": -20,
    "cloudCeiling": 99999,
    "altimeter": "A3074",
    "timestamp": "2025-12-14T14:53:00+00:00",
    "station": "KCPS"
  },
  "kstl": {
    "metar": "KSTL 141451Z 34012KT 10SM FEW250 M13/M19 A3073 RMK AO2 SLP427 T11281194 53029 $",
    "windDirection": 340,
    "windSpeed": 12,
    "windGust": null,
    "visibility": 10,
    "temperatureC": -13,
    "dewPointC": -19,
    "cloudCeiling": null,
    "altimeter": "A3073",
    "timestamp": "2025-12-14T14:51:00+00:00",
    "station": "KSTL"
  }
}