{
  "lastUpdated": "2026-06-05T21:00:48.716809+00:00",
  "kcps": {
    "metar": "KCPS 051953Z 21009KT 10SM BKN047 BKN055 29/19 A2993 RMK AO2 SLP130 T02890194 $",
    "windDirection": 210,
    "windSpeed": 9,
    "windGust": null,
    "visibility": 10,
    "temperatureC": 29,
    "dewPointC": 19,
    "cloudCeiling": 4700,
    "altimeter": "A2993",
    "timestamp": "2026-06-05T19:53:00+00:00",
    "station": "KCPS"
  },
  "kstl": {
    "metar": "KSTL 052051Z 21012G24KT 10SM BKN042 BKN150 BKN250 30/20 A2992 RMK AO2 SLP120 T03000200 56018 $",
    "windDirection": 210,
    "windSpeed": 12,
    "windGust": 24,
    "visibility": 10,
    "temperatureC": 30,
    "dewPointC": 20,
    "cloudCeiling": 4200,
    "altimeter": "A2992",
    "timestamp": "2026-06-05T20:51:00+00:00",
    "station": "KSTL"
  }
}