{
  "lastUpdated": "2026-01-07T13:28:30.302138+00:00",
  "kcps": {
    "metar": "KCPS 071253Z 00000KT 10SM CLR M01/M02 A2995 RMK AO2 SLP142 T10111017 $",
    "windDirection": 0,
    "windSpeed": 0,
    "windGust": null,
    "visibility": 10,
    "temperatureC": -1,
    "dewPointC": -2,
    "cloudCeiling": 99999,
    "altimeter": "A2995",
    "timestamp": "2026-01-07T12:53:00+00:00",
    "station": "KCPS"
  },
  "kstl": {
    "metar": "KSTL 071251Z 00000KT 10SM CLR 02/00 A2995 RMK AO2 SLP145 T00170000 $",
    "windDirection": 0,
    "windSpeed": 0,
    "windGust": null,
    "visibility": 10,
    "temperatureC": 2,
    "dewPointC": 0,
    "cloudCeiling": 99999,
    "altimeter": "A2995",
    "timestamp": "2026-01-07T12:51:00+00:00",
    "station": "KSTL"
  }
}