{
  "lastUpdated": "2025-12-29T12:24:07.137076+00:00",
  "kcps": {
    "metar": "KCPS 291153Z AUTO 29021G34KT 10SM OVC037 M08/M16 A3021 RMK AO2 PK WND 29034/1152 SNE1058B32E41 SLP234 P0000 60000 T10831161 11044 21089 53031 $",
    "windDirection": 290,
    "windSpeed": 21,
    "windGust": 34,
    "visibility": 10,
    "temperatureC": -8,
    "dewPointC": -16,
    "cloudCeiling": 3700,
    "altimeter": "A3021",
    "timestamp": "2025-12-29T11:53:00+00:00",
    "station": "KCPS"
  },
  "kstl": {
    "metar": "KSTL 291151Z 29024G34KT 10SM BKN034 M09/M16 A3018 RMK AO2 PK WND 28040/1109 SLP233 60000 T10891156 11050 21089 53027 $",
    "windDirection": 290,
    "windSpeed": 24,
    "windGust": 34,
    "visibility": 10,
    "temperatureC": -9,
    "dewPointC": -16,
    "cloudCeiling": 3400,
    "altimeter": "A3018",
    "timestamp": "2025-12-29T11:51:00+00:00",
    "station": "KSTL"
  }
}