{
  "lastUpdated": "2025-10-24T04:47:05.476117+00:00",
  "kcps": {
    "metar": "KCPS 240353Z AUTO 00000KT 10SM CLR 05/04 A3021 RMK AO2 SLP231 T00500039 $",
    "windDirection": 0,
    "windSpeed": 0,
    "windGust": null,
    "visibility": 10,
    "temperatureC": 5,
    "dewPointC": 4,
    "cloudCeiling": 99999,
    "altimeter": "A3021",
    "timestamp": "2025-10-24T03:53:00+00:00",
    "station": "KCPS"
  },
  "kstl": {
    "metar": "KSTL 240351Z 00000KT 10SM BKN250 08/04 A3021 RMK AO2 SLP230 T00830039 $",
    "windDirection": 0,
    "windSpeed": 0,
    "windGust": null,
    "visibility": 10,
    "temperatureC": 8,
    "dewPointC": 4,
    "cloudCeiling": 25000,
    "altimeter": "A3021",
    "timestamp": "2025-10-24T03:51:00+00:00",
    "station": "KSTL"
  }
}