{
  "lastUpdated": "2025-11-30T11:31:46.728422+00:00",
  "kcps": {
    "metar": "KCPS 301053Z AUTO 30013G29KT 10SM BKN034 M02/M08 A3027 RMK AO2 PK WND 29029/1045 SNE04 SLP253 P0000 T10221083 $",
    "windDirection": 300,
    "windSpeed": 13,
    "windGust": 29,
    "visibility": 10,
    "temperatureC": -2,
    "dewPointC": -8,
    "cloudCeiling": 3400,
    "altimeter": "A3027",
    "timestamp": "2025-11-30T10:53:00+00:00",
    "station": "KCPS"
  },
  "kstl": {
    "metar": "KSTL 301051Z 28020G30KT 10SM BKN029 BKN035 M03/M08 A3026 RMK AO2 PK WND 29034/1035 SLP257 T10281083 $",
    "windDirection": 280,
    "windSpeed": 20,
    "windGust": 30,
    "visibility": 10,
    "temperatureC": -3,
    "dewPointC": -8,
    "cloudCeiling": 2900,
    "altimeter": "A3026",
    "timestamp": "2025-11-30T10:51:00+00:00",
    "station": "KSTL"
  }
}