{
  "lastUpdated": "2025-12-17T06:23:24.488386+00:00",
  "kcps": {
    "metar": "KCPS 170553Z AUTO 24006KT 10SM CLR 07/M04 A2997 RMK AO2 SLP150 T00671044 10072 20006 401331061 51011",
    "windDirection": 240,
    "windSpeed": 6,
    "windGust": null,
    "visibility": 10,
    "temperatureC": 7,
    "dewPointC": -4,
    "cloudCeiling": 99999,
    "altimeter": "A2997",
    "timestamp": "2025-12-17T05:53:00+00:00",
    "station": "KCPS"
  },
  "kstl": {
    "metar": "KSTL 170551Z 23008KT 10SM BKN220 06/M04 A2996 RMK AO2 SLP147 T00611039 10083 20050 401391050 51014 $",
    "windDirection": 230,
    "windSpeed": 8,
    "windGust": null,
    "visibility": 10,
    "temperatureC": 6,
    "dewPointC": -4,
    "cloudCeiling": 22000,
    "altimeter": "A2996",
    "timestamp": "2025-12-17T05:51:00+00:00",
    "station": "KSTL"
  }
}