{
  "lastUpdated": "2026-03-10T18:30:30.118453+00:00",
  "kcps": {
    "metar": "KCPS 101753Z 21010G22KT 10SM CLR 27/18 A2982 RMK AO2 PK WND 19026/1721 SLP094 T02720183 10272 20139 58014 $",
    "windDirection": 210,
    "windSpeed": 10,
    "windGust": 22,
    "visibility": 10,
    "temperatureC": 27,
    "dewPointC": 18,
    "cloudCeiling": 99999,
    "altimeter": "A2982",
    "timestamp": "2026-03-10T17:53:00+00:00",
    "station": "KCPS"
  },
  "kstl": {
    "metar": "KSTL 101751Z 21011KT 10SM FEW050 FEW120 SCT250 28/18 A2982 RMK AO2 SLP087 T02830178 10283 20178 58013 $",
    "windDirection": 210,
    "windSpeed": 11,
    "windGust": null,
    "visibility": 10,
    "temperatureC": 28,
    "dewPointC": 18,
    "cloudCeiling": null,
    "altimeter": "A2982",
    "timestamp": "2026-03-10T17:51:00+00:00",
    "station": "KSTL"
  }
}