{
  "lastUpdated": "2026-06-06T07:29:44.163620+00:00",
  "kcps": {
    "metar": "KCPS 060653Z AUTO 00000KT 10SM CLR 23/21 A2994 RMK AO2 SLP135 T02330206 $",
    "windDirection": 0,
    "windSpeed": 0,
    "windGust": null,
    "visibility": 10,
    "temperatureC": 23,
    "dewPointC": 21,
    "cloudCeiling": 99999,
    "altimeter": "A2994",
    "timestamp": "2026-06-06T06:53:00+00:00",
    "station": "KCPS"
  },
  "kstl": {
    "metar": "KSTL 060651Z 23008KT 10SM BKN250 24/21 A2994 RMK AO2 SLP126 T02440206 $",
    "windDirection": 230,
    "windSpeed": 8,
    "windGust": null,
    "visibility": 10,
    "temperatureC": 24,
    "dewPointC": 21,
    "cloudCeiling": 25000,
    "altimeter": "A2994",
    "timestamp": "2026-06-06T06:51:00+00:00",
    "station": "KSTL"
  }
}