{
  "lastUpdated": "2026-01-04T22:36:14.454553+00:00",
  "kcps": {
    "metar": "KCPS 042153Z 15006KT 10SM CLR 06/M02 A3008 RMK AO2 SLP189 T00561022 $",
    "windDirection": 150,
    "windSpeed": 6,
    "windGust": null,
    "visibility": 10,
    "temperatureC": 6,
    "dewPointC": -2,
    "cloudCeiling": 99999,
    "altimeter": "A3008",
    "timestamp": "2026-01-04T21:53:00+00:00",
    "station": "KCPS"
  },
  "kstl": {
    "metar": "KSTL 042151Z 15008KT 10SM BKN200 BKN250 06/M03 A3007 RMK AO2 SLP193 T00561028 $",
    "windDirection": 150,
    "windSpeed": 8,
    "windGust": null,
    "visibility": 10,
    "temperatureC": 6,
    "dewPointC": -3,
    "cloudCeiling": 20000,
    "altimeter": "A3007",
    "timestamp": "2026-01-04T21:51:00+00:00",
    "station": "KSTL"
  }
}