{
  "lastUpdated": "2026-04-04T21:54:45.377850+00:00",
  "kcps": {
    "metar": "KCPS 042118Z 29012KT 10SM OVC029 12/06 A3007 RMK AO2 T01170056 $",
    "windDirection": 290,
    "windSpeed": 12,
    "windGust": null,
    "visibility": 10,
    "temperatureC": 12,
    "dewPointC": 6,
    "cloudCeiling": 2900,
    "altimeter": "A3007",
    "timestamp": "2026-04-04T21:18:00+00:00",
    "station": "KCPS"
  },
  "kstl": {
    "metar": "KSTL 042121Z 29012G25KT 10SM BKN030 OVC250 10/04 A3009 RMK AO2 PK WND 31028/2105 T01000044 $",
    "windDirection": 290,
    "windSpeed": 12,
    "windGust": 25,
    "visibility": 10,
    "temperatureC": 10,
    "dewPointC": 4,
    "cloudCeiling": 3000,
    "altimeter": "A3009",
    "timestamp": "2026-04-04T21:21:00+00:00",
    "station": "KSTL"
  }
}