{
  "lastUpdated": "2025-11-23T13:10:42.868553+00:00",
  "kcps": {
    "metar": "KCPS 231304Z 26004KT 2SM BR BKN008 06/06 A3020 RMK AO2 T00610061",
    "windDirection": 260,
    "windSpeed": 4,
    "windGust": null,
    "visibility": 2,
    "temperatureC": 6,
    "dewPointC": 6,
    "cloudCeiling": 800,
    "altimeter": "A3020",
    "timestamp": "2025-11-23T13:04:00+00:00",
    "station": "KCPS"
  },
  "kstl": {
    "metar": "KSTL 231251Z 26006KT 7SM OVC010 08/07 A3020 RMK AO2 SLP229 T00780072 $",
    "windDirection": 260,
    "windSpeed": 6,
    "windGust": null,
    "visibility": 7,
    "temperatureC": 8,
    "dewPointC": 7,
    "cloudCeiling": 1000,
    "altimeter": "A3020",
    "timestamp": "2025-11-23T12:51:00+00:00",
    "station": "KSTL"
  }
}