{
  "lastUpdated": "2026-01-08T01:10:35.732498+00:00",
  "kcps": {
    "metar": "KCPS 080053Z 17008KT 10SM CLR 12/03 A2990 RMK AO2 SLP128 T01220033 $",
    "windDirection": 170,
    "windSpeed": 8,
    "windGust": null,
    "visibility": 10,
    "temperatureC": 12,
    "dewPointC": 3,
    "cloudCeiling": 99999,
    "altimeter": "A2990",
    "timestamp": "2026-01-08T00:53:00+00:00",
    "station": "KCPS"
  },
  "kstl": {
    "metar": "KSTL 080051Z 16008KT 10SM BKN250 14/02 A2990 RMK AO2 SLP130 T01390017 $",
    "windDirection": 160,
    "windSpeed": 8,
    "windGust": null,
    "visibility": 10,
    "temperatureC": 14,
    "dewPointC": 2,
    "cloudCeiling": 25000,
    "altimeter": "A2990",
    "timestamp": "2026-01-08T00:51:00+00:00",
    "station": "KSTL"
  }
}