{
  "lastUpdated": "2025-10-18T10:46:07.028878+00:00",
  "kcps": {
    "metar": "KCPS 180953Z AUTO 15004KT 10SM CLR 17/14 A2976 RMK AO2 SLP073 T01670144 PNO $",
    "windDirection": 150,
    "windSpeed": 4,
    "windGust": null,
    "visibility": 10,
    "temperatureC": 17,
    "dewPointC": 14,
    "cloudCeiling": 99999,
    "altimeter": "A2976",
    "timestamp": "2025-10-18T09:53:00+00:00",
    "station": "KCPS"
  },
  "kstl": {
    "metar": "KSTL 180951Z 21008KT 10SM SCT250 21/15 A2975 RMK AO2 SLP063 T02060150 $",
    "windDirection": 210,
    "windSpeed": 8,
    "windGust": null,
    "visibility": 10,
    "temperatureC": 21,
    "dewPointC": 15,
    "cloudCeiling": null,
    "altimeter": "A2975",
    "timestamp": "2025-10-18T09:51:00+00:00",
    "station": "KSTL"
  }
}