{
  "lastUpdated": "2026-04-14T11:22:01.228458+00:00",
  "kcps": {
    "metar": "KCPS 141053Z AUTO 17005KT 10SM BKN050 22/17 A2990 RMK AO2 SLP121 T02220172 $",
    "windDirection": 170,
    "windSpeed": 5,
    "windGust": null,
    "visibility": 10,
    "temperatureC": 22,
    "dewPointC": 17,
    "cloudCeiling": 5000,
    "altimeter": "A2990",
    "timestamp": "2026-04-14T10:53:00+00:00",
    "station": "KCPS"
  },
  "kstl": {
    "metar": "KSTL 141051Z 19006KT 10SM BKN048 22/16 A2990 RMK AO2 SLP113 T02170161 $",
    "windDirection": 190,
    "windSpeed": 6,
    "windGust": null,
    "visibility": 10,
    "temperatureC": 22,
    "dewPointC": 16,
    "cloudCeiling": 4800,
    "altimeter": "A2990",
    "timestamp": "2026-04-14T10:51:00+00:00",
    "station": "KSTL"
  }
}