{
  "lastUpdated": "2026-02-04T09:27:57.655653+00:00",
  "kcps": {
    "metar": "KCPS 040853Z AUTO 02005KT 10SM OVC080 M02/M07 A3031 RMK AO2 SLP270 T10221067 55002 $",
    "windDirection": 20,
    "windSpeed": 5,
    "windGust": null,
    "visibility": 10,
    "temperatureC": -2,
    "dewPointC": -7,
    "cloudCeiling": 8000,
    "altimeter": "A3031",
    "timestamp": "2026-02-04T08:53:00+00:00",
    "station": "KCPS"
  },
  "kstl": {
    "metar": "KSTL 040851Z 02006KT 10SM BKN080 M03/M08 A3032 RMK AO2 SLP277 T10281078 55002",
    "windDirection": 20,
    "windSpeed": 6,
    "windGust": null,
    "visibility": 10,
    "temperatureC": -3,
    "dewPointC": -8,
    "cloudCeiling": 8000,
    "altimeter": "A3032",
    "timestamp": "2026-02-04T08:51:00+00:00",
    "station": "KSTL"
  }
}