{
  "lastUpdated": "2026-04-22T06:21:16.821379+00:00",
  "kcps": {
    "metar": "KCPS 220453Z AUTO 24004KT 10SM CLR 21/08 A3003 RMK AO2 SLP167 T02060083 $",
    "windDirection": 240,
    "windSpeed": 4,
    "windGust": null,
    "visibility": 10,
    "temperatureC": 21,
    "dewPointC": 8,
    "cloudCeiling": 99999,
    "altimeter": "A3003",
    "timestamp": "2026-04-22T04:53:00+00:00",
    "station": "KCPS"
  },
  "kstl": {
    "metar": "KSTL 220551Z 24007KT 10SM FEW075 19/09 A3005 RMK AO2 SLP165 T01940089 10261 20189 402780111 51010 $",
    "windDirection": 240,
    "windSpeed": 7,
    "windGust": null,
    "visibility": 10,
    "temperatureC": 19,
    "dewPointC": 9,
    "cloudCeiling": null,
    "altimeter": "A3005",
    "timestamp": "2026-04-22T05:51:00+00:00",
    "station": "KSTL"
  }
}