{
  "lastUpdated": "2026-04-03T19:45:57.587278+00:00",
  "kcps": {
    "metar": "KCPS 031853Z 18011G23KT 10SM FEW046 SCT055 28/18 A2996 RMK AO2 SLP140 T02780178 $",
    "windDirection": 180,
    "windSpeed": 11,
    "windGust": 23,
    "visibility": 10,
    "temperatureC": 28,
    "dewPointC": 18,
    "cloudCeiling": null,
    "altimeter": "A2996",
    "timestamp": "2026-04-03T18:53:00+00:00",
    "station": "KCPS"
  },
  "kstl": {
    "metar": "KSTL 031851Z 16014G21KT 10SM SCT047 SCT065 BKN250 28/17 A2995 RMK AO2 SLP135 T02780167 $",
    "windDirection": 160,
    "windSpeed": 14,
    "windGust": 21,
    "visibility": 10,
    "temperatureC": 28,
    "dewPointC": 17,
    "cloudCeiling": 25000,
    "altimeter": "A2995",
    "timestamp": "2026-04-03T18:51:00+00:00",
    "station": "KSTL"
  }
}