{
  "lastUpdated": "2026-01-17T12:23:30.499290+00:00",
  "kcps": {
    "metar": "KCPS 171153Z AUTO 33009KT 10SM OVC048 M04/M14 A3003 RMK AO2 SLP172 T10441139 11022 21044 53016 $",
    "windDirection": 330,
    "windSpeed": 9,
    "windGust": null,
    "visibility": 10,
    "temperatureC": -4,
    "dewPointC": -14,
    "cloudCeiling": 4800,
    "altimeter": "A3003",
    "timestamp": "2026-01-17T11:53:00+00:00",
    "station": "KCPS"
  },
  "kstl": {
    "metar": "KSTL 171151Z 31010KT 10SM -SN OVC047 M06/M13 A3003 RMK AO2 SNB50 SLP178 P0000 60000 T10561133 11033 21056 53018 $",
    "windDirection": 310,
    "windSpeed": 10,
    "windGust": null,
    "visibility": 10,
    "temperatureC": -6,
    "dewPointC": -13,
    "cloudCeiling": 4700,
    "altimeter": "A3003",
    "timestamp": "2026-01-17T11:51:00+00:00",
    "station": "KSTL"
  }
}