{
  "lastUpdated": "2026-03-14T07:29:19.652979+00:00",
  "kcps": {
    "metar": "KCPS 140653Z AUTO 00000KT 10SM CLR 04/M01 A3009 RMK AO2 SLP191 T00391006 $",
    "windDirection": 0,
    "windSpeed": 0,
    "windGust": null,
    "visibility": 10,
    "temperatureC": 4,
    "dewPointC": -1,
    "cloudCeiling": 99999,
    "altimeter": "A3009",
    "timestamp": "2026-03-14T06:53:00+00:00",
    "station": "KCPS"
  },
  "kstl": {
    "metar": "KSTL 140651Z 03006KT 10SM SCT250 07/M03 A3011 RMK AO2 SLP196 T00671033 $",
    "windDirection": 30,
    "windSpeed": 6,
    "windGust": null,
    "visibility": 10,
    "temperatureC": 7,
    "dewPointC": -3,
    "cloudCeiling": null,
    "altimeter": "A3011",
    "timestamp": "2026-03-14T06:51:00+00:00",
    "station": "KSTL"
  }
}