{
  "lastUpdated": "2026-02-20T18:22:16.304397+00:00",
  "kcps": {
    "metar": "KCPS 201753Z 29012G22KT 10SM CLR 04/M06 A2993 RMK AO2 SLP138 6//// T00441061 10044 21011 51019 PNO $",
    "windDirection": 290,
    "windSpeed": 12,
    "windGust": 22,
    "visibility": 10,
    "temperatureC": 4,
    "dewPointC": -6,
    "cloudCeiling": 99999,
    "altimeter": "A2993",
    "timestamp": "2026-02-20T17:53:00+00:00",
    "station": "KCPS"
  },
  "kstl": {
    "metar": "KSTL 201751Z 28013G23KT 10SM FEW032 FEW250 04/M06 A2993 RMK AO2 SLP140 T00441061 10044 21011 51020 $",
    "windDirection": 280,
    "windSpeed": 13,
    "windGust": 23,
    "visibility": 10,
    "temperatureC": 4,
    "dewPointC": -6,
    "cloudCeiling": null,
    "altimeter": "A2993",
    "timestamp": "2026-02-20T17:51:00+00:00",
    "station": "KSTL"
  }
}