{
  "lastUpdated": "2026-03-13T16:24:08.632979+00:00",
  "kcps": {
    "metar": "KCPS 131553Z 29010KT 10SM CLR 13/M01 A2991 RMK AO2 SLP128 T01331006 $",
    "windDirection": 290,
    "windSpeed": 10,
    "windGust": null,
    "visibility": 10,
    "temperatureC": 13,
    "dewPointC": -1,
    "cloudCeiling": 99999,
    "altimeter": "A2991",
    "timestamp": "2026-03-13T15:53:00+00:00",
    "station": "KCPS"
  },
  "kstl": {
    "metar": "KSTL 131551Z 31016G26KT 10SM OVC250 14/M01 A2991 RMK AO2 PK WND 31028/1537 SLP129 T01391006 $",
    "windDirection": 310,
    "windSpeed": 16,
    "windGust": 26,
    "visibility": 10,
    "temperatureC": 14,
    "dewPointC": -1,
    "cloudCeiling": 25000,
    "altimeter": "A2991",
    "timestamp": "2026-03-13T15:51:00+00:00",
    "station": "KSTL"
  }
}