{
  "lastUpdated": "2026-04-27T19:29:36.527453+00:00",
  "kcps": {
    "metar": "KCPS 271853Z 10009G20KT 10SM VCTS FEW017 BKN027 OVC033 21/17 A2965 RMK AO2 LTG DSNT W-NE SLP039 T02060172 $",
    "windDirection": 100,
    "windSpeed": 9,
    "windGust": 20,
    "visibility": 10,
    "temperatureC": 21,
    "dewPointC": 17,
    "cloudCeiling": 2700,
    "altimeter": "A2965",
    "timestamp": "2026-04-27T18:53:00+00:00",
    "station": "KCPS"
  },
  "kstl": {
    "metar": "KSTL 271914Z 12015KT 10SM SCT022 BKN060 OVC100 19/18 A2964 RMK AO2 WSHFT 1847 RAE10 TSE14 CB DSNT NE-SE MOV E P0011 T01890178 $",
    "windDirection": 120,
    "windSpeed": 15,
    "windGust": null,
    "visibility": 10,
    "temperatureC": 19,
    "dewPointC": 18,
    "cloudCeiling": 6000,
    "altimeter": "A2964",
    "timestamp": "2026-04-27T19:14:00+00:00",
    "station": "KSTL"
  }
}