{
  "lastUpdated": "2026-05-23T10:14:32.415661+00:00",
  "kcps": {
    "metar": "KCPS 230953Z AUTO 00000KT 10SM OVC018 18/16 A2994 RMK AO2 SLP137 T01780161 $",
    "windDirection": 0,
    "windSpeed": 0,
    "windGust": null,
    "visibility": 10,
    "temperatureC": 18,
    "dewPointC": 16,
    "cloudCeiling": 1800,
    "altimeter": "A2994",
    "timestamp": "2026-05-23T09:53:00+00:00",
    "station": "KCPS"
  },
  "kstl": {
    "metar": "KSTL 230851Z 00000KT 10SM OVC018 18/16 A2994 RMK AO2 SLP132 T01830156 53004 $",
    "windDirection": 0,
    "windSpeed": 0,
    "windGust": null,
    "visibility": 10,
    "temperatureC": 18,
    "dewPointC": 16,
    "cloudCeiling": 1800,
    "altimeter": "A2994",
    "timestamp": "2026-05-23T08:51:00+00:00",
    "station": "KSTL"
  }
}