{
  "lastUpdated": "2026-05-11T00:07:31.567267+00:00",
  "kcps": {
    "metar": "KCPS 102353Z 36007KT 10SM BKN120 19/03 A3010 RMK AO2 SLP192 T01890028 10211 20189 53001 $",
    "windDirection": 360,
    "windSpeed": 7,
    "windGust": null,
    "visibility": 10,
    "temperatureC": 19,
    "dewPointC": 3,
    "cloudCeiling": 12000,
    "altimeter": "A3010",
    "timestamp": "2026-05-10T23:53:00+00:00",
    "station": "KCPS"
  },
  "kstl": {
    "metar": "KSTL 102351Z 32005KT 10SM BKN110 BKN250 19/03 A3012 RMK AO2 SLP195 T01890028 10211 20183 53002 $",
    "windDirection": 320,
    "windSpeed": 5,
    "windGust": null,
    "visibility": 10,
    "temperatureC": 19,
    "dewPointC": 3,
    "cloudCeiling": 11000,
    "altimeter": "A3012",
    "timestamp": "2026-05-10T23:51:00+00:00",
    "station": "KSTL"
  }
}