{
  "lastUpdated": "2025-11-09T14:20:44.615565+00:00",
  "kcps": {
    "metar": "KCPS 091403Z 32020G26KT 10SM OVC029 04/M02 A3017 RMK AO2 PK WND 31026/1403 T00391022 $",
    "windDirection": 320,
    "windSpeed": 20,
    "windGust": 26,
    "visibility": 10,
    "temperatureC": 4,
    "dewPointC": -2,
    "cloudCeiling": 2900,
    "altimeter": "A3017",
    "timestamp": "2025-11-09T14:03:00+00:00",
    "station": "KCPS"
  },
  "kstl": {
    "metar": "KSTL 091351Z 33017G25KT 10SM BKN026 OVC033 03/M03 A3017 RMK AO2 PK WND 33032/1341 SLP218 T00281033 $",
    "windDirection": 330,
    "windSpeed": 17,
    "windGust": 25,
    "visibility": 10,
    "temperatureC": 3,
    "dewPointC": -3,
    "cloudCeiling": 2600,
    "altimeter": "A3017",
    "timestamp": "2025-11-09T13:51:00+00:00",
    "station": "KSTL"
  }
}