{
  "lastUpdated": "2026-03-17T03:36:13.030580+00:00",
  "kcps": {
    "metar": "KCPS 170253Z AUTO 29015G30KT 10SM BKN050 M04/M15 A3015 RMK AO2 PK WND 29030/0245 SNE05 SLP216 P0000 60000 T10391150 51015 $",
    "windDirection": 290,
    "windSpeed": 15,
    "windGust": 30,
    "visibility": 10,
    "temperatureC": -4,
    "dewPointC": -15,
    "cloudCeiling": 5000,
    "altimeter": "A3015",
    "timestamp": "2026-03-17T02:53:00+00:00",
    "station": "KCPS"
  },
  "kstl": {
    "metar": "KSTL 170251Z 28019KT 10SM BKN050 M04/M14 A3015 RMK AO2 PK WND 28031/0222 SNE10 SLP224 P0000 60000 T10441144 51016 $",
    "windDirection": 280,
    "windSpeed": 19,
    "windGust": null,
    "visibility": 10,
    "temperatureC": -4,
    "dewPointC": -14,
    "cloudCeiling": 5000,
    "altimeter": "A3015",
    "timestamp": "2026-03-17T02:51:00+00:00",
    "station": "KSTL"
  }
}