{
  "lastUpdated": "2026-04-27T23:03:36.586788+00:00",
  "kcps": {
    "metar": "KCPS 272253Z 18010G22KT 10SM CLR 27/21 A2957 RMK AO2 SLP009 T02720206 $",
    "windDirection": 180,
    "windSpeed": 10,
    "windGust": 22,
    "visibility": 10,
    "temperatureC": 27,
    "dewPointC": 21,
    "cloudCeiling": 99999,
    "altimeter": "A2957",
    "timestamp": "2026-04-27T22:53:00+00:00",
    "station": "KCPS"
  },
  "kstl": {
    "metar": "KSTL 272251Z 18013G20KT 10SM FEW045 SCT060 OVC230 27/20 A2955 RMK AO2 SLP998 T02670200 $",
    "windDirection": 180,
    "windSpeed": 13,
    "windGust": 20,
    "visibility": 10,
    "temperatureC": 27,
    "dewPointC": 20,
    "cloudCeiling": 23000,
    "altimeter": "A2955",
    "timestamp": "2026-04-27T22:51:00+00:00",
    "station": "KSTL"
  }
}