{
  "lastUpdated": "2025-10-18T18:36:42.329787+00:00",
  "kcps": {
    "metar": "KCPS 181823Z 23004KT 4SM -TSRA BR FEW050 SCT070 OVC100 19/18 A2975 RMK AO2 LTG DSNT ALQDS P0008 T01890178 $",
    "windDirection": 230,
    "windSpeed": 4,
    "windGust": null,
    "visibility": 4,
    "temperatureC": 19,
    "dewPointC": 18,
    "cloudCeiling": 10000,
    "altimeter": "A2975",
    "timestamp": "2025-10-18T18:23:00+00:00",
    "station": "KCPS"
  },
  "kstl": {
    "metar": "KSTL 181803Z 18008KT 10SM -TSRA SCT070CB BKN095 OVC110 19/18 A2976 RMK AO2 TSB02 OCNL LTGIC E-SW TS E-SW MOV NE P0002 T01890178 $",
    "windDirection": 180,
    "windSpeed": 8,
    "windGust": null,
    "visibility": 10,
    "temperatureC": 19,
    "dewPointC": 18,
    "cloudCeiling": 9500,
    "altimeter": "A2976",
    "timestamp": "2025-10-18T18:03:00+00:00",
    "station": "KSTL"
  }
}