{
  "lastUpdated": "2025-11-25T17:03:21.948515+00:00",
  "kcps": {
    "metar": "KCPS 251653Z 29004KT 10SM OVC009 13/12 A2985 RMK AO2 SLP109 T01330122",
    "windDirection": 290,
    "windSpeed": 4,
    "windGust": null,
    "visibility": 10,
    "temperatureC": 13,
    "dewPointC": 12,
    "cloudCeiling": 900,
    "altimeter": "A2985",
    "timestamp": "2025-11-25T16:53:00+00:00",
    "station": "KCPS"
  },
  "kstl": {
    "metar": "KSTL 251651Z 29006KT 6SM BR OVC008 13/12 A2986 RMK AO2 SLP111 T01280117 $",
    "windDirection": 290,
    "windSpeed": 6,
    "windGust": null,
    "visibility": 6,
    "temperatureC": 13,
    "dewPointC": 12,
    "cloudCeiling": 800,
    "altimeter": "A2986",
    "timestamp": "2025-11-25T16:51:00+00:00",
    "station": "KSTL"
  }
}