{
  "lastUpdated": "2025-11-20T06:51:54.212833+00:00",
  "kcps": {
    "metar": "KCPS 200553Z AUTO 00000KT 6SM BR OVC008 09/07 A3015 RMK AO2 SLP210 T00890072 10094 20089 401000067 58015",
    "windDirection": 0,
    "windSpeed": 0,
    "windGust": null,
    "visibility": 6,
    "temperatureC": 9,
    "dewPointC": 7,
    "cloudCeiling": 800,
    "altimeter": "A3015",
    "timestamp": "2025-11-20T05:53:00+00:00",
    "station": "KCPS"
  },
  "kstl": {
    "metar": "KSTL 200555Z 13006KT 5SM BR OVC006 09/07 A3015 RMK AO2 T00890072 $",
    "windDirection": 130,
    "windSpeed": 6,
    "windGust": null,
    "visibility": 5,
    "temperatureC": 9,
    "dewPointC": 7,
    "cloudCeiling": 600,
    "altimeter": "A3015",
    "timestamp": "2025-11-20T05:55:00+00:00",
    "station": "KSTL"
  }
}