{
  "lastUpdated": "2026-02-21T17:38:39.081916+00:00",
  "kcps": {
    "metar": "KCPS 211653Z 35007KT 10SM OVC085 01/M07 A3022 RMK AO2 SLP236 T00061067 PNO $",
    "windDirection": 350,
    "windSpeed": 7,
    "windGust": null,
    "visibility": 10,
    "temperatureC": 1,
    "dewPointC": -7,
    "cloudCeiling": 8500,
    "altimeter": "A3022",
    "timestamp": "2026-02-21T16:53:00+00:00",
    "station": "KCPS"
  },
  "kstl": {
    "metar": "KSTL 211651Z 36010KT 10SM SCT075 BKN090 BKN250 01/M07 A3021 RMK AO2 SLP240 T00111072 $",
    "windDirection": 360,
    "windSpeed": 10,
    "windGust": null,
    "visibility": 10,
    "temperatureC": 1,
    "dewPointC": -7,
    "cloudCeiling": 9000,
    "altimeter": "A3021",
    "timestamp": "2026-02-21T16:51:00+00:00",
    "station": "KSTL"
  }
}