{
  "lastUpdated": "2026-04-27T10:19:33.466171+00:00",
  "kcps": {
    "metar": "KCPS 271011Z AUTO 20009KT 1 3/4SM +TSRA BR SCT036 BKN070 OVC110 17/16 A2980 RMK AO2 LTG DSNT SE-SW P0019 T01670156 $",
    "windDirection": 200,
    "windSpeed": 9,
    "windGust": null,
    "visibility": 0.75,
    "temperatureC": 17,
    "dewPointC": 16,
    "cloudCeiling": 7000,
    "altimeter": "A2980",
    "timestamp": "2026-04-27T10:11:00+00:00",
    "station": "KCPS"
  },
  "kstl": {
    "metar": "KSTL 271003Z 12011KT 10SM -RA SCT044 SCT070 BKN100 OVC160 17/15 A2978 RMK AO2 LTG DSNT SE-W TSE03 CONS LTGICCC DSNT SE-S OCNL LTGIC DSNT NW CB DSNT SE-S AND DSNT NW MOV NE P0001 T01670150 $",
    "windDirection": 120,
    "windSpeed": 11,
    "windGust": null,
    "visibility": 10,
    "temperatureC": 17,
    "dewPointC": 15,
    "cloudCeiling": 10000,
    "altimeter": "A2978",
    "timestamp": "2026-04-27T10:03:00+00:00",
    "station": "KSTL"
  }
}