{
  "lastUpdated": "2025-12-23T06:23:18.216354+00:00",
  "kcps": {
    "metar": "KCPS 230553Z AUTO 15004KT 10SM CLR 04/02 A3008 RMK AO2 SLP186 T00390022 10094 20033 401281044 53001 $",
    "windDirection": 150,
    "windSpeed": 4,
    "windGust": null,
    "visibility": 10,
    "temperatureC": 4,
    "dewPointC": 2,
    "cloudCeiling": 99999,
    "altimeter": "A3008",
    "timestamp": "2025-12-23T05:53:00+00:00",
    "station": "KCPS"
  },
  "kstl": {
    "metar": "KSTL 230551Z 20004KT 10SM FEW250 06/03 A3007 RMK AO2 SLP186 T00610028 10111 20061 401281022 53003 $",
    "windDirection": 200,
    "windSpeed": 4,
    "windGust": null,
    "visibility": 10,
    "temperatureC": 6,
    "dewPointC": 3,
    "cloudCeiling": null,
    "altimeter": "A3007",
    "timestamp": "2025-12-23T05:51:00+00:00",
    "station": "KSTL"
  }
}