{
  "lastUpdated": "2026-01-08T02:37:01.131406+00:00",
  "kcps": {
    "metar": "KCPS 080153Z 15006KT 10SM CLR 10/04 A2991 RMK AO2 SLP129 T01000039 $",
    "windDirection": 150,
    "windSpeed": 6,
    "windGust": null,
    "visibility": 10,
    "temperatureC": 10,
    "dewPointC": 4,
    "cloudCeiling": 99999,
    "altimeter": "A2991",
    "timestamp": "2026-01-08T01:53:00+00:00",
    "station": "KCPS"
  },
  "kstl": {
    "metar": "KSTL 080151Z 15008KT 10SM BKN250 13/02 A2990 RMK AO2 SLP129 T01280017 $",
    "windDirection": 150,
    "windSpeed": 8,
    "windGust": null,
    "visibility": 10,
    "temperatureC": 13,
    "dewPointC": 2,
    "cloudCeiling": 25000,
    "altimeter": "A2990",
    "timestamp": "2026-01-08T01:51:00+00:00",
    "station": "KSTL"
  }
}