{
  "lastUpdated": "2025-11-07T00:07:25.968097+00:00",
  "kcps": {
    "metar": "KCPS 062353Z 15005KT 10SM CLR 15/06 A2993 RMK AO2 SLP134 T01500061 10200 20150 56017 $",
    "windDirection": 150,
    "windSpeed": 5,
    "windGust": null,
    "visibility": 10,
    "temperatureC": 15,
    "dewPointC": 6,
    "cloudCeiling": 99999,
    "altimeter": "A2993",
    "timestamp": "2025-11-06T23:53:00+00:00",
    "station": "KCPS"
  },
  "kstl": {
    "metar": "KSTL 062351Z 14011KT 10SM BKN250 17/07 A2992 RMK AO2 SLP133 T01670067 10189 20167 56016 $",
    "windDirection": 140,
    "windSpeed": 11,
    "windGust": null,
    "visibility": 10,
    "temperatureC": 17,
    "dewPointC": 7,
    "cloudCeiling": 25000,
    "altimeter": "A2992",
    "timestamp": "2025-11-06T23:51:00+00:00",
    "station": "KSTL"
  }
}