{
  "lastUpdated": "2025-11-17T23:21:10.478275+00:00",
  "kcps": {
    "metar": "KCPS 172253Z 13008KT 10SM BKN060 OVC080 15/M04 A2997 RMK AO2 SLP149 T01501044",
    "windDirection": 130,
    "windSpeed": 8,
    "windGust": null,
    "visibility": 10,
    "temperatureC": 15,
    "dewPointC": -4,
    "cloudCeiling": 6000,
    "altimeter": "A2997",
    "timestamp": "2025-11-17T22:53:00+00:00",
    "station": "KCPS"
  },
  "kstl": {
    "metar": "KSTL 172251Z 12012KT 10SM BKN060 OVC250 15/M06 A2996 RMK AO2 SLP147 T01501056 $",
    "windDirection": 120,
    "windSpeed": 12,
    "windGust": null,
    "visibility": 10,
    "temperatureC": 15,
    "dewPointC": -6,
    "cloudCeiling": 6000,
    "altimeter": "A2996",
    "timestamp": "2025-11-17T22:51:00+00:00",
    "station": "KSTL"
  }
}