{
  "lastUpdated": "2025-12-11T14:49:18.095218+00:00",
  "kcps": {
    "metar": "KCPS 111400Z 21003KT 10SM BKN080 BKN100 M01/M05 A3007 RMK AO2 T10111050 $",
    "windDirection": 210,
    "windSpeed": 3,
    "windGust": null,
    "visibility": 10,
    "temperatureC": -1,
    "dewPointC": -5,
    "cloudCeiling": 8000,
    "altimeter": "A3007",
    "timestamp": "2025-12-11T14:00:00+00:00",
    "station": "KCPS"
  },
  "kstl": {
    "metar": "KSTL 111351Z 00000KT 10SM BKN075 BKN100 BKN160 M01/M05 A3006 RMK AO2 SLP189 T10111050 $",
    "windDirection": 0,
    "windSpeed": 0,
    "windGust": null,
    "visibility": 10,
    "temperatureC": -1,
    "dewPointC": -5,
    "cloudCeiling": 7500,
    "altimeter": "A3006",
    "timestamp": "2025-12-11T13:51:00+00:00",
    "station": "KSTL"
  }
}