{
  "lastUpdated": "2026-05-14T15:58:41.443479+00:00",
  "kcps": {
    "metar": "KCPS 141553Z 17009KT 10SM CLR 19/07 A3013 RMK AO2 SLP202 T01940067 $",
    "windDirection": 170,
    "windSpeed": 9,
    "windGust": null,
    "visibility": 10,
    "temperatureC": 19,
    "dewPointC": 7,
    "cloudCeiling": 99999,
    "altimeter": "A3013",
    "timestamp": "2026-05-14T15:53:00+00:00",
    "station": "KCPS"
  },
  "kstl": {
    "metar": "KSTL 141551Z 11008KT 10SM FEW250 19/05 A3013 RMK AO2 SLP199 T01940050 $",
    "windDirection": 110,
    "windSpeed": 8,
    "windGust": null,
    "visibility": 10,
    "temperatureC": 19,
    "dewPointC": 5,
    "cloudCeiling": null,
    "altimeter": "A3013",
    "timestamp": "2026-05-14T15:51:00+00:00",
    "station": "KSTL"
  }
}