{
  "lastUpdated": "2025-12-22T15:48:38.759055+00:00",
  "kcps": {
    "metar": "KCPS 221453Z 16007G17KT 10SM OVC048 03/M06 A3026 RMK AO2 SLP253 T00281056 58020 $",
    "windDirection": 160,
    "windSpeed": 7,
    "windGust": 17,
    "visibility": 10,
    "temperatureC": 3,
    "dewPointC": -6,
    "cloudCeiling": 4800,
    "altimeter": "A3026",
    "timestamp": "2025-12-22T14:53:00+00:00",
    "station": "KCPS"
  },
  "kstl": {
    "metar": "KSTL 221451Z 16005KT 10SM BKN047 BKN250 05/M08 A3024 RMK AO2 SLP250 T00501083 58021 $",
    "windDirection": 160,
    "windSpeed": 5,
    "windGust": null,
    "visibility": 10,
    "temperatureC": 5,
    "dewPointC": -8,
    "cloudCeiling": 4700,
    "altimeter": "A3024",
    "timestamp": "2025-12-22T14:51:00+00:00",
    "station": "KSTL"
  }
}