{
  "lastUpdated": "2025-12-23T15:22:05.037796+00:00",
  "kcps": {
    "metar": "KCPS 231453Z 24005KT 9SM FEW016 13/12 A3015 RMK AO2 SLP209 T01280117 51014 $",
    "windDirection": 240,
    "windSpeed": 5,
    "windGust": null,
    "visibility": 9,
    "temperatureC": 13,
    "dewPointC": 12,
    "cloudCeiling": null,
    "altimeter": "A3015",
    "timestamp": "2025-12-23T14:53:00+00:00",
    "station": "KCPS"
  },
  "kstl": {
    "metar": "KSTL 231503Z 23005KT 8SM BKN010 12/11 A3015 RMK AO2 T01220111 $",
    "windDirection": 230,
    "windSpeed": 5,
    "windGust": null,
    "visibility": 8,
    "temperatureC": 12,
    "dewPointC": 11,
    "cloudCeiling": 1000,
    "altimeter": "A3015",
    "timestamp": "2025-12-23T15:03:00+00:00",
    "station": "KSTL"
  }
}