{
  "lastUpdated": "2026-05-09T12:03:58.224695+00:00",
  "kcps": {
    "metar": "KCPS 091153Z 25006KT 10SM OVC007 14/13 A2979 RMK AO2 CIG 006V010 SLP087 70049 T01390128 10144 20133 51008 $",
    "windDirection": 250,
    "windSpeed": 6,
    "windGust": null,
    "visibility": 10,
    "temperatureC": 14,
    "dewPointC": 13,
    "cloudCeiling": 700,
    "altimeter": "A2979",
    "timestamp": "2026-05-09T11:53:00+00:00",
    "station": "KCPS"
  },
  "kstl": {
    "metar": "KSTL 091151Z 25009KT 10SM BKN006 14/13 A2980 RMK AO2 SLP084 70026 T01390128 10139 20128 53008 $",
    "windDirection": 250,
    "windSpeed": 9,
    "windGust": null,
    "visibility": 10,
    "temperatureC": 14,
    "dewPointC": 13,
    "cloudCeiling": 600,
    "altimeter": "A2980",
    "timestamp": "2026-05-09T11:51:00+00:00",
    "station": "KSTL"
  }
}