{
  "lastUpdated": "2026-01-19T04:09:13.767770+00:00",
  "kcps": {
    "metar": "KCPS 190353Z AUTO 28009KT 10SM OVC048 01/M11 A3003 RMK AO2 SLP173 T00061106 $",
    "windDirection": 280,
    "windSpeed": 9,
    "windGust": null,
    "visibility": 10,
    "temperatureC": 1,
    "dewPointC": -11,
    "cloudCeiling": 4800,
    "altimeter": "A3003",
    "timestamp": "2026-01-19T03:53:00+00:00",
    "station": "KCPS"
  },
  "kstl": {
    "metar": "KSTL 190351Z 31013G27KT 10SM BKN044 01/M09 A3002 RMK AO2 PK WND 29027/0344 SLP182 T00061094 $",
    "windDirection": 310,
    "windSpeed": 13,
    "windGust": 27,
    "visibility": 10,
    "temperatureC": 1,
    "dewPointC": -9,
    "cloudCeiling": 4400,
    "altimeter": "A3002",
    "timestamp": "2026-01-19T03:51:00+00:00",
    "station": "KSTL"
  }
}