{
  "lastUpdated": "2026-03-22T03:37:11.788492+00:00",
  "kcps": {
    "metar": "KCPS 220253Z 15005KT 10SM CLR 21/13 A2976 RMK AO2 SLP073 T02110128 50002 $",
    "windDirection": 150,
    "windSpeed": 5,
    "windGust": null,
    "visibility": 10,
    "temperatureC": 21,
    "dewPointC": 13,
    "cloudCeiling": 99999,
    "altimeter": "A2976",
    "timestamp": "2026-03-22T02:53:00+00:00",
    "station": "KCPS"
  },
  "kstl": {
    "metar": "KSTL 220251Z 16009KT 10SM CLR 25/12 A2976 RMK AO2 SLP069 T02500122 50002 $",
    "windDirection": 160,
    "windSpeed": 9,
    "windGust": null,
    "visibility": 10,
    "temperatureC": 25,
    "dewPointC": 12,
    "cloudCeiling": 99999,
    "altimeter": "A2976",
    "timestamp": "2026-03-22T02:51:00+00:00",
    "station": "KSTL"
  }
}