{
  "lastUpdated": "2025-12-21T15:21:27.529099+00:00",
  "kcps": {
    "metar": "KCPS 211453Z 00000KT 10SM CLR M01/M05 A3048 RMK AO2 SLP324 T10061050 51032 $",
    "windDirection": 0,
    "windSpeed": 0,
    "windGust": null,
    "visibility": 10,
    "temperatureC": -1,
    "dewPointC": -5,
    "cloudCeiling": 99999,
    "altimeter": "A3048",
    "timestamp": "2025-12-21T14:53:00+00:00",
    "station": "KCPS"
  },
  "kstl": {
    "metar": "KSTL 211451Z 07003KT 10SM BKN150 BKN250 00/M07 A3046 RMK AO2 SLP325 T00001067 51029 $",
    "windDirection": 70,
    "windSpeed": 3,
    "windGust": null,
    "visibility": 10,
    "temperatureC": 0,
    "dewPointC": -7,
    "cloudCeiling": 15000,
    "altimeter": "A3046",
    "timestamp": "2025-12-21T14:51:00+00:00",
    "station": "KSTL"
  }
}