{
  "lastUpdated": "2026-05-28T22:18:18.798326+00:00",
  "kcps": {
    "metar": "KCPS 282153Z 08010G20KT 10SM CLR 30/17 A3000 RMK AO2 SLP154 T03000167 $",
    "windDirection": 80,
    "windSpeed": 10,
    "windGust": 20,
    "visibility": 10,
    "temperatureC": 30,
    "dewPointC": 17,
    "cloudCeiling": 99999,
    "altimeter": "A3000",
    "timestamp": "2026-05-28T21:53:00+00:00",
    "station": "KCPS"
  },
  "kstl": {
    "metar": "KSTL 282151Z 08014G20KT 10SM FEW055 SCT150 BKN250 29/17 A3001 RMK AO2 SLP152 T02940167 $",
    "windDirection": 80,
    "windSpeed": 14,
    "windGust": 20,
    "visibility": 10,
    "temperatureC": 29,
    "dewPointC": 17,
    "cloudCeiling": 25000,
    "altimeter": "A3001",
    "timestamp": "2026-05-28T21:51:00+00:00",
    "station": "KSTL"
  }
}