{
  "lastUpdated": "2025-11-14T08:38:38.372008+00:00",
  "kcps": {
    "metar": "KCPS 140753Z AUTO 15003KT 10SM CLR 06/04 A3008 RMK AO2 SLP185 T00610039",
    "windDirection": 150,
    "windSpeed": 3,
    "windGust": null,
    "visibility": 10,
    "temperatureC": 6,
    "dewPointC": 4,
    "cloudCeiling": 99999,
    "altimeter": "A3008",
    "timestamp": "2025-11-14T07:53:00+00:00",
    "station": "KCPS"
  },
  "kstl": {
    "metar": "KSTL 140751Z 00000KT 10SM CLR 12/06 A3007 RMK AO2 SLP180 T01220061",
    "windDirection": 0,
    "windSpeed": 0,
    "windGust": null,
    "visibility": 10,
    "temperatureC": 12,
    "dewPointC": 6,
    "cloudCeiling": 99999,
    "altimeter": "A3007",
    "timestamp": "2025-11-14T07:51:00+00:00",
    "station": "KSTL"
  }
}