{
  "lastUpdated": "2025-11-19T06:52:12.577671+00:00",
  "kcps": {
    "metar": "KCPS 190553Z AUTO 34004KT 4SM BR CLR 07/07 A3006 RMK AO2 SLP177 T00720072 10156 20072 402220072 51013",
    "windDirection": 340,
    "windSpeed": 4,
    "windGust": null,
    "visibility": 4,
    "temperatureC": 7,
    "dewPointC": 7,
    "cloudCeiling": 99999,
    "altimeter": "A3006",
    "timestamp": "2025-11-19T05:53:00+00:00",
    "station": "KCPS"
  },
  "kstl": {
    "metar": "KSTL 190633Z 34005KT 10SM OVC012 10/09 A3007 RMK AO2 T01000089 $",
    "windDirection": 340,
    "windSpeed": 5,
    "windGust": null,
    "visibility": 10,
    "temperatureC": 10,
    "dewPointC": 9,
    "cloudCeiling": 1200,
    "altimeter": "A3007",
    "timestamp": "2025-11-19T06:33:00+00:00",
    "station": "KSTL"
  }
}