{
  "lastUpdated": "2025-10-10T07:21:11.360305+00:00",
  "kcps": {
    "metar": "KCPS 100653Z AUTO 00000KT 10SM CLR 07/06 A3029 RMK AO2 SLP255 T00720061",
    "windDirection": 0,
    "windSpeed": 0,
    "windGust": null,
    "visibility": 10,
    "temperatureC": 7,
    "dewPointC": 6,
    "cloudCeiling": 99999,
    "altimeter": "A3029",
    "timestamp": "2025-10-10T06:53:00+00:00",
    "station": "KCPS"
  },
  "kstl": {
    "metar": "KSTL 100651Z 12005KT 10SM CLR 13/06 A3029 RMK AO2 SLP251 T01280061 $",
    "windDirection": 120,
    "windSpeed": 5,
    "windGust": null,
    "visibility": 10,
    "temperatureC": 13,
    "dewPointC": 6,
    "cloudCeiling": 99999,
    "altimeter": "A3029",
    "timestamp": "2025-10-10T06:51:00+00:00",
    "station": "KSTL"
  }
}