{
  "lastUpdated": "2026-04-15T00:59:03.377636+00:00",
  "kcps": {
    "metar": "KCPS 150053Z 19008G17KT 10SM CLR 26/18 A2983 RMK AO2 SLP096 T02610178 $",
    "windDirection": 190,
    "windSpeed": 8,
    "windGust": 17,
    "visibility": 10,
    "temperatureC": 26,
    "dewPointC": 18,
    "cloudCeiling": 99999,
    "altimeter": "A2983",
    "timestamp": "2026-04-15T00:53:00+00:00",
    "station": "KCPS"
  },
  "kstl": {
    "metar": "KSTL 142351Z 19015G26KT 170V230 10SM FEW065 BKN250 29/17 A2981 RMK AO2 PK WND 21026/2344 SLP082 T02940172 10317 20283 56002 $",
    "windDirection": 190,
    "windSpeed": 15,
    "windGust": 26,
    "visibility": 10,
    "temperatureC": 29,
    "dewPointC": 17,
    "cloudCeiling": 25000,
    "altimeter": "A2981",
    "timestamp": "2026-04-14T23:51:00+00:00",
    "station": "KSTL"
  }
}