{
  "lastUpdated": "2025-11-19T01:51:15.111775+00:00",
  "kcps": {
    "metar": "KCPS 190053Z 35010KT 10SM SCT025 14/11 A2995 RMK AO2 SLP141 T01390106",
    "windDirection": 350,
    "windSpeed": 10,
    "windGust": null,
    "visibility": 10,
    "temperatureC": 14,
    "dewPointC": 11,
    "cloudCeiling": null,
    "altimeter": "A2995",
    "timestamp": "2025-11-19T00:53:00+00:00",
    "station": "KCPS"
  },
  "kstl": {
    "metar": "KSTL 190051Z 36006KT 10SM FEW024 12/10 A2996 RMK AO2 SLP145 T01220100 $",
    "windDirection": 360,
    "windSpeed": 6,
    "windGust": null,
    "visibility": 10,
    "temperatureC": 12,
    "dewPointC": 10,
    "cloudCeiling": null,
    "altimeter": "A2996",
    "timestamp": "2025-11-19T00:51:00+00:00",
    "station": "KSTL"
  }
}