{
  "lastUpdated": "2025-11-09T05:34:13.484225+00:00",
  "kcps": {
    "metar": "KCPS 090444Z AUTO 30017G25KT 10SM OVC030 09/03 A2989 RMK AO2 PK WND 28027/0356 T00890028 TSNO $",
    "windDirection": 300,
    "windSpeed": 17,
    "windGust": 25,
    "visibility": 10,
    "temperatureC": 9,
    "dewPointC": 3,
    "cloudCeiling": 3000,
    "altimeter": "A2989",
    "timestamp": "2025-11-09T04:44:00+00:00",
    "station": "KCPS"
  },
  "kstl": {
    "metar": "KSTL 090451Z 29015G28KT 10SM BKN029 08/03 A2990 RMK AO2 PK WND 29034/0433 SLP125 T00830028 $",
    "windDirection": 290,
    "windSpeed": 15,
    "windGust": 28,
    "visibility": 10,
    "temperatureC": 8,
    "dewPointC": 3,
    "cloudCeiling": 2900,
    "altimeter": "A2990",
    "timestamp": "2025-11-09T04:51:00+00:00",
    "station": "KSTL"
  }
}