{
  "lastUpdated": "2026-02-03T12:45:43.953671+00:00",
  "kcps": {
    "metar": "KCPS 031153Z AUTO 02005KT 9SM CLR M01/M04 A3008 RMK AO2 SLP190 T10111044 11006 21022 56009 $",
    "windDirection": 20,
    "windSpeed": 5,
    "windGust": null,
    "visibility": 9,
    "temperatureC": -1,
    "dewPointC": -4,
    "cloudCeiling": 99999,
    "altimeter": "A3008",
    "timestamp": "2026-02-03T11:53:00+00:00",
    "station": "KCPS"
  },
  "kstl": {
    "metar": "KSTL 031151Z 05005KT 10SM BKN120 OVC150 M01/M04 A3009 RMK AO2 SLP197 4/003 T10061039 10006 21006 55008 $",
    "windDirection": 50,
    "windSpeed": 5,
    "windGust": null,
    "visibility": 10,
    "temperatureC": -1,
    "dewPointC": -4,
    "cloudCeiling": 12000,
    "altimeter": "A3009",
    "timestamp": "2026-02-03T11:51:00+00:00",
    "station": "KSTL"
  }
}