{
  "lastUpdated": "2026-02-23T19:06:30.866428+00:00",
  "kcps": {
    "metar": "KCPS 231853Z 34009G16KT 10SM CLR M02/M13 A3056 RMK AO2 SLP353 T10221128 PNO $",
    "windDirection": 340,
    "windSpeed": 9,
    "windGust": 16,
    "visibility": 10,
    "temperatureC": -2,
    "dewPointC": -13,
    "cloudCeiling": 99999,
    "altimeter": "A3056",
    "timestamp": "2026-02-23T18:53:00+00:00",
    "station": "KCPS"
  },
  "kstl": {
    "metar": "KSTL 231851Z 32008G16KT 10SM FEW035 M03/M13 A3055 RMK AO2 SLP361 T10281128 $",
    "windDirection": 320,
    "windSpeed": 8,
    "windGust": 16,
    "visibility": 10,
    "temperatureC": -3,
    "dewPointC": -13,
    "cloudCeiling": null,
    "altimeter": "A3055",
    "timestamp": "2026-02-23T18:51:00+00:00",
    "station": "KSTL"
  }
}