{
  "lastUpdated": "2026-06-04T02:24:54.533982+00:00",
  "kcps": {
    "metar": "KCPS 040153Z 00000KT 10SM CLR 22/13 A3015 RMK AO2 SLP205 T02170128 $",
    "windDirection": 0,
    "windSpeed": 0,
    "windGust": null,
    "visibility": 10,
    "temperatureC": 22,
    "dewPointC": 13,
    "cloudCeiling": 99999,
    "altimeter": "A3015",
    "timestamp": "2026-06-04T01:53:00+00:00",
    "station": "KCPS"
  },
  "kstl": {
    "metar": "KSTL 040151Z 16005KT 10SM BKN250 24/09 A3016 RMK AO2 SLP203 T02440089 $",
    "windDirection": 160,
    "windSpeed": 5,
    "windGust": null,
    "visibility": 10,
    "temperatureC": 24,
    "dewPointC": 9,
    "cloudCeiling": 25000,
    "altimeter": "A3016",
    "timestamp": "2026-06-04T01:51:00+00:00",
    "station": "KSTL"
  }
}