{
  "lastUpdated": "2026-03-31T17:46:37.752214+00:00",
  "kcps": {
    "metar": "KCPS 311653Z 21013G28KT 10SM CLR 27/14 A2988 RMK AO2 PK WND 19029/1558 SLP115 T02670144 $",
    "windDirection": 210,
    "windSpeed": 13,
    "windGust": 28,
    "visibility": 10,
    "temperatureC": 27,
    "dewPointC": 14,
    "cloudCeiling": 99999,
    "altimeter": "A2988",
    "timestamp": "2026-03-31T16:53:00+00:00",
    "station": "KCPS"
  },
  "kstl": {
    "metar": "KSTL 311651Z 21015G25KT 10SM FEW050 SCT100 BKN180 BKN250 26/13 A2988 RMK AO2 PK WND 21028/1634 SLP107 T02560133 $",
    "windDirection": 210,
    "windSpeed": 15,
    "windGust": 25,
    "visibility": 10,
    "temperatureC": 26,
    "dewPointC": 13,
    "cloudCeiling": 18000,
    "altimeter": "A2988",
    "timestamp": "2026-03-31T16:51:00+00:00",
    "station": "KSTL"
  }
}