{
  "lastUpdated": "2026-02-10T21:59:45.440555+00:00",
  "kcps": {
    "metar": "KCPS 102153Z 36019G24KT 10SM CLR 15/02 A2994 RMK AO2 SLP141 T01500017 $",
    "windDirection": 360,
    "windSpeed": 19,
    "windGust": 24,
    "visibility": 10,
    "temperatureC": 15,
    "dewPointC": 2,
    "cloudCeiling": 99999,
    "altimeter": "A2994",
    "timestamp": "2026-02-10T21:53:00+00:00",
    "station": "KCPS"
  },
  "kstl": {
    "metar": "KSTL 102151Z 36012KT 10SM SCT250 14/01 A2997 RMK AO2 SLP147 T01440011 $",
    "windDirection": 360,
    "windSpeed": 12,
    "windGust": null,
    "visibility": 10,
    "temperatureC": 14,
    "dewPointC": 1,
    "cloudCeiling": null,
    "altimeter": "A2997",
    "timestamp": "2026-02-10T21:51:00+00:00",
    "station": "KSTL"
  }
}