{
  "lastUpdated": "2025-10-22T12:03:21.614074+00:00",
  "kcps": {
    "metar": "KCPS 221153Z 23003KT 10SM CLR 07/01 A3005 RMK AO2 SLP177 T00720011 10094 20067 51010",
    "windDirection": 230,
    "windSpeed": 3,
    "windGust": null,
    "visibility": 10,
    "temperatureC": 7,
    "dewPointC": 1,
    "cloudCeiling": 99999,
    "altimeter": "A3005",
    "timestamp": "2025-10-22T11:53:00+00:00",
    "station": "KCPS"
  },
  "kstl": {
    "metar": "KSTL 221151Z 27011KT 10SM CLR 08/01 A3005 RMK AO2 SLP176 T00780006 10100 20078 52008 $",
    "windDirection": 270,
    "windSpeed": 11,
    "windGust": null,
    "visibility": 10,
    "temperatureC": 8,
    "dewPointC": 1,
    "cloudCeiling": 99999,
    "altimeter": "A3005",
    "timestamp": "2025-10-22T11:51:00+00:00",
    "station": "KSTL"
  }
}