{
  "lastUpdated": "2026-02-04T20:06:13.427199+00:00",
  "kcps": {
    "metar": "KCPS 041953Z VRB06KT 10SM OVC026 M02/M08 A3039 RMK AO2 SLP294 T10171078 $",
    "windDirection": null,
    "windSpeed": null,
    "windGust": null,
    "visibility": 10,
    "temperatureC": -2,
    "dewPointC": -8,
    "cloudCeiling": 2600,
    "altimeter": "A3039",
    "timestamp": "2026-02-04T19:53:00+00:00",
    "station": "KCPS"
  },
  "kstl": {
    "metar": "KSTL 041951Z 35006KT 10SM SCT027 M02/M08 A3038 RMK AO2 SLP301 T10171078",
    "windDirection": 350,
    "windSpeed": 6,
    "windGust": null,
    "visibility": 10,
    "temperatureC": -2,
    "dewPointC": -8,
    "cloudCeiling": null,
    "altimeter": "A3038",
    "timestamp": "2026-02-04T19:51:00+00:00",
    "station": "KSTL"
  }
}