{
  "lastUpdated": "2026-04-23T05:17:54.164682+00:00",
  "kcps": {
    "metar": "KCPS 230453Z AUTO 15003KT 10SM CLR 17/13 A2996 RMK AO2 SLP142 T01670133 $",
    "windDirection": 150,
    "windSpeed": 3,
    "windGust": null,
    "visibility": 10,
    "temperatureC": 17,
    "dewPointC": 13,
    "cloudCeiling": 99999,
    "altimeter": "A2996",
    "timestamp": "2026-04-23T04:53:00+00:00",
    "station": "KCPS"
  },
  "kstl": {
    "metar": "KSTL 230451Z 19006KT 10SM FEW250 19/14 A2996 RMK AO2 SLP137 T01940139 $",
    "windDirection": 190,
    "windSpeed": 6,
    "windGust": null,
    "visibility": 10,
    "temperatureC": 19,
    "dewPointC": 14,
    "cloudCeiling": null,
    "altimeter": "A2996",
    "timestamp": "2026-04-23T04:51:00+00:00",
    "station": "KSTL"
  }
}