{
  "lastUpdated": "2025-12-20T15:34:00.623196+00:00",
  "kcps": {
    "metar": "KCPS 201453Z 18006KT 10SM CLR 05/M03 A2986 RMK AO2 SLP115 T00501028 53003 $",
    "windDirection": 180,
    "windSpeed": 6,
    "windGust": null,
    "visibility": 10,
    "temperatureC": 5,
    "dewPointC": -3,
    "cloudCeiling": 99999,
    "altimeter": "A2986",
    "timestamp": "2025-12-20T14:53:00+00:00",
    "station": "KCPS"
  },
  "kstl": {
    "metar": "KSTL 201451Z 20009KT 10SM BKN250 06/M03 A2985 RMK AO2 SLP115 T00611028 53008 $",
    "windDirection": 200,
    "windSpeed": 9,
    "windGust": null,
    "visibility": 10,
    "temperatureC": 6,
    "dewPointC": -3,
    "cloudCeiling": 25000,
    "altimeter": "A2985",
    "timestamp": "2025-12-20T14:51:00+00:00",
    "station": "KSTL"
  }
}