{
  "lastUpdated": "2026-01-28T22:40:53.494283+00:00",
  "kcps": {
    "metar": "KCPS 282153Z AUTO 22004KT 10SM OVC090 M01/M16 A3024 RMK AO2 SLP245 T10061156 $",
    "windDirection": 220,
    "windSpeed": 4,
    "windGust": null,
    "visibility": 10,
    "temperatureC": -1,
    "dewPointC": -16,
    "cloudCeiling": 9000,
    "altimeter": "A3024",
    "timestamp": "2026-01-28T21:53:00+00:00",
    "station": "KCPS"
  },
  "kstl": {
    "metar": "KSTL 282151Z 23007KT 10SM FEW075 BKN090 M01/M14 A3023 RMK AO2 SLP251 T10061144 $",
    "windDirection": 230,
    "windSpeed": 7,
    "windGust": null,
    "visibility": 10,
    "temperatureC": -1,
    "dewPointC": -14,
    "cloudCeiling": 9000,
    "altimeter": "A3023",
    "timestamp": "2026-01-28T21:51:00+00:00",
    "station": "KSTL"
  }
}