{
  "lastUpdated": "2025-11-07T07:21:45.122672+00:00",
  "kcps": {
    "metar": "KCPS 070653Z AUTO 16005KT 10SM SCT085 13/09 A2974 RMK AO2 SLP069 T01330094 TSNO $",
    "windDirection": 160,
    "windSpeed": 5,
    "windGust": null,
    "visibility": 10,
    "temperatureC": 13,
    "dewPointC": 9,
    "cloudCeiling": null,
    "altimeter": "A2974",
    "timestamp": "2025-11-07T06:53:00+00:00",
    "station": "KCPS"
  },
  "kstl": {
    "metar": "KSTL 070651Z 19009KT 10SM BKN090 OVC250 14/10 A2973 RMK AO2 SLP063 T01440100 $",
    "windDirection": 190,
    "windSpeed": 9,
    "windGust": null,
    "visibility": 10,
    "temperatureC": 14,
    "dewPointC": 10,
    "cloudCeiling": 9000,
    "altimeter": "A2973",
    "timestamp": "2025-11-07T06:51:00+00:00",
    "station": "KSTL"
  }
}