{
  "lastUpdated": "2025-12-28T18:22:51.527159+00:00",
  "kcps": {
    "metar": "KCPS 281653Z 20010G20KT 10SM OVC034 22/17 A2959 RMK AO2 SLP017 T02220167 $",
    "windDirection": 200,
    "windSpeed": 10,
    "windGust": 20,
    "visibility": 10,
    "temperatureC": 22,
    "dewPointC": 17,
    "cloudCeiling": 3400,
    "altimeter": "A2959",
    "timestamp": "2025-12-28T16:53:00+00:00",
    "station": "KCPS"
  },
  "kstl": {
    "metar": "KSTL 281751Z 22013KT 10SM SCT035 OVC046 23/16 A2955 RMK AO2 SLP999 T02280161 10228 20178 58023 $",
    "windDirection": 220,
    "windSpeed": 13,
    "windGust": null,
    "visibility": 10,
    "temperatureC": 23,
    "dewPointC": 16,
    "cloudCeiling": 4600,
    "altimeter": "A2955",
    "timestamp": "2025-12-28T17:51:00+00:00",
    "station": "KSTL"
  }
}