{
  "lastUpdated": "2025-11-16T19:46:32.916845+00:00",
  "kcps": {
    "metar": "KCPS 161853Z 01004KT 10SM CLR 13/M07 A3003 RMK AO2 SLP169 T01331067 $",
    "windDirection": 10,
    "windSpeed": 4,
    "windGust": null,
    "visibility": 10,
    "temperatureC": 13,
    "dewPointC": -7,
    "cloudCeiling": 99999,
    "altimeter": "A3003",
    "timestamp": "2025-11-16T18:53:00+00:00",
    "station": "KCPS"
  },
  "kstl": {
    "metar": "KSTL 161851Z VRB03KT 10SM SCT250 13/M08 A3003 RMK AO2 SLP169 T01331078 $",
    "windDirection": null,
    "windSpeed": null,
    "windGust": null,
    "visibility": 10,
    "temperatureC": 13,
    "dewPointC": -8,
    "cloudCeiling": null,
    "altimeter": "A3003",
    "timestamp": "2025-11-16T18:51:00+00:00",
    "station": "KSTL"
  }
}