{
  "lastUpdated": "2026-01-15T23:02:29.508282+00:00",
  "kcps": {
    "metar": "KCPS 152153Z 19006KT 10SM CLR 00/M15 A2996 RMK AO2 SLP149 T00001150 $",
    "windDirection": 190,
    "windSpeed": 6,
    "windGust": null,
    "visibility": 10,
    "temperatureC": 0,
    "dewPointC": -15,
    "cloudCeiling": 99999,
    "altimeter": "A2996",
    "timestamp": "2026-01-15T21:53:00+00:00",
    "station": "KCPS"
  },
  "kstl": {
    "metar": "KSTL 152251Z 20005KT 10SM FEW140 SCT250 M01/M15 A2992 RMK AO2 SLP145 T10061150 $",
    "windDirection": 200,
    "windSpeed": 5,
    "windGust": null,
    "visibility": 10,
    "temperatureC": -1,
    "dewPointC": -15,
    "cloudCeiling": null,
    "altimeter": "A2992",
    "timestamp": "2026-01-15T22:51:00+00:00",
    "station": "KSTL"
  }
}