{
  "lastUpdated": "2026-05-11T19:07:25.774600+00:00",
  "kcps": {
    "metar": "KCPS 111853Z 33007KT 10SM CLR 24/04 A3017 RMK AO2 SLP215 T02440044 $",
    "windDirection": 330,
    "windSpeed": 7,
    "windGust": null,
    "visibility": 10,
    "temperatureC": 24,
    "dewPointC": 4,
    "cloudCeiling": 99999,
    "altimeter": "A3017",
    "timestamp": "2026-05-11T18:53:00+00:00",
    "station": "KCPS"
  },
  "kstl": {
    "metar": "KSTL 111851Z 26009G20KT 10SM FEW250 23/04 A3018 RMK AO2 SLP216 T02330044 $",
    "windDirection": 260,
    "windSpeed": 9,
    "windGust": 20,
    "visibility": 10,
    "temperatureC": 23,
    "dewPointC": 4,
    "cloudCeiling": null,
    "altimeter": "A3018",
    "timestamp": "2026-05-11T18:51:00+00:00",
    "station": "KSTL"
  }
}