{
  "lastUpdated": "2026-01-01T09:49:06.704059+00:00",
  "kcps": {
    "metar": "KCPS 010853Z AUTO 00000KT 7SM CLR M03/M04 A2998 RMK AO2 SLP156 I1000 I3000 T10331039 53006 $",
    "windDirection": 0,
    "windSpeed": 0,
    "windGust": null,
    "visibility": 7,
    "temperatureC": -3,
    "dewPointC": -4,
    "cloudCeiling": 99999,
    "altimeter": "A2998",
    "timestamp": "2026-01-01T08:53:00+00:00",
    "station": "KCPS"
  },
  "kstl": {
    "metar": "KSTL 010851Z 00000KT 10SM CLR M02/M03 A2999 RMK AO2 SLP163 T10221033 53008 $",
    "windDirection": 0,
    "windSpeed": 0,
    "windGust": null,
    "visibility": 10,
    "temperatureC": -2,
    "dewPointC": -3,
    "cloudCeiling": 99999,
    "altimeter": "A2999",
    "timestamp": "2026-01-01T08:51:00+00:00",
    "station": "KSTL"
  }
}