{
  "lastUpdated": "2026-04-23T23:14:44.714563+00:00",
  "kcps": {
    "metar": "KCPS 232253Z 19014G24KT 10SM CLR 27/14 A2974 RMK AO2 SLP067 T02720144 $",
    "windDirection": 190,
    "windSpeed": 14,
    "windGust": 24,
    "visibility": 10,
    "temperatureC": 27,
    "dewPointC": 14,
    "cloudCeiling": 99999,
    "altimeter": "A2974",
    "timestamp": "2026-04-23T22:53:00+00:00",
    "station": "KCPS"
  },
  "kstl": {
    "metar": "KSTL 232251Z 20014G24KT 10SM FEW065 BKN250 27/14 A2973 RMK AO2 PK WND 19027/2211 SLP060 T02720144 $",
    "windDirection": 200,
    "windSpeed": 14,
    "windGust": 24,
    "visibility": 10,
    "temperatureC": 27,
    "dewPointC": 14,
    "cloudCeiling": 25000,
    "altimeter": "A2973",
    "timestamp": "2026-04-23T22:51:00+00:00",
    "station": "KSTL"
  }
}