{
  "lastUpdated": "2026-03-15T12:04:49.286645+00:00",
  "kcps": {
    "metar": "KCPS 151153Z 15009KT 10SM CLR 17/11 A2949 RMK AO2 SLP983 T01670106 10172 20106 56033 $",
    "windDirection": 150,
    "windSpeed": 9,
    "windGust": null,
    "visibility": 10,
    "temperatureC": 17,
    "dewPointC": 11,
    "cloudCeiling": 99999,
    "altimeter": "A2949",
    "timestamp": "2026-03-15T11:53:00+00:00",
    "station": "KCPS"
  },
  "kstl": {
    "metar": "KSTL 151151Z 17016G24KT 10SM BKN200 17/10 A2947 RMK AO2 PK WND 16026/1111 SLP973 T01670100 10167 20122 56038 $",
    "windDirection": 170,
    "windSpeed": 16,
    "windGust": 24,
    "visibility": 10,
    "temperatureC": 17,
    "dewPointC": 10,
    "cloudCeiling": 20000,
    "altimeter": "A2947",
    "timestamp": "2026-03-15T11:51:00+00:00",
    "station": "KSTL"
  }
}