{
  "lastUpdated": "2026-04-24T07:43:02.358770+00:00",
  "kcps": {
    "metar": "KCPS 240738Z AUTO 9SM -TSRA SCT043 BKN050 OVC110 20/16 A2974 RMK AO2 LTG DSNT N AND SW RAB18 TSB32 P0000 T02000156 $",
    "windDirection": null,
    "windSpeed": null,
    "windGust": null,
    "visibility": 9,
    "temperatureC": 20,
    "dewPointC": 16,
    "cloudCeiling": 5000,
    "altimeter": "A2974",
    "timestamp": "2026-04-24T07:38:00+00:00",
    "station": "KCPS"
  },
  "kstl": {
    "metar": "KSTL 240723Z 16010KT 10SM TS SCT050 SCT085CB OVC150 21/16 A2972 RMK AO2 TSB23 PRESFR OCNL LTGICCG S AND DSNT W-N TS S MOV NE CB DSNT W-N MOV NE T02110156 $",
    "windDirection": 160,
    "windSpeed": 10,
    "windGust": null,
    "visibility": 10,
    "temperatureC": 21,
    "dewPointC": 16,
    "cloudCeiling": 15000,
    "altimeter": "A2972",
    "timestamp": "2026-04-24T07:23:00+00:00",
    "station": "KSTL"
  }
}