{
  "lastUpdated": "2026-01-25T16:22:20.472041+00:00",
  "kcps": {
    "metar": "KCPS 251610Z 35014G22KT 1 1/2SM -SN BKN028 BKN036 OVC045 M13/M16 A3014 RMK AO2 P0000 T11281161 $",
    "windDirection": 350,
    "windSpeed": 14,
    "windGust": 22,
    "visibility": 0.5,
    "temperatureC": -13,
    "dewPointC": -16,
    "cloudCeiling": 2800,
    "altimeter": "A3014",
    "timestamp": "2026-01-25T16:10:00+00:00",
    "station": "KCPS"
  },
  "kstl": {
    "metar": "KSTL 251558Z 35012KT 4SM -SN BKN029 OVC037 M13/M17 A3014 RMK AO2 PRESRR P0000 T11331167 $",
    "windDirection": 350,
    "windSpeed": 12,
    "windGust": null,
    "visibility": 4,
    "temperatureC": -13,
    "dewPointC": -17,
    "cloudCeiling": 2900,
    "altimeter": "A3014",
    "timestamp": "2026-01-25T15:58:00+00:00",
    "station": "KSTL"
  }
}