{
  "lastUpdated": "2026-03-16T16:06:26.974952+00:00",
  "kcps": {
    "metar": "KCPS 161553Z 29017G29KT 9SM OVC030 M05/M11 A2998 RMK AO2 PK WND 30033/1519 SNE48 SLP156 P0000 T10501111 $",
    "windDirection": 290,
    "windSpeed": 17,
    "windGust": 29,
    "visibility": 9,
    "temperatureC": -5,
    "dewPointC": -11,
    "cloudCeiling": 3000,
    "altimeter": "A2998",
    "timestamp": "2026-03-16T15:53:00+00:00",
    "station": "KCPS"
  },
  "kstl": {
    "metar": "KSTL 161551Z 30018G30KT 10SM BKN027 BKN250 M06/M12 A2998 RMK AO2 PK WND 29033/1457 SNE01 SLP163 P0000 T10561117 $",
    "windDirection": 300,
    "windSpeed": 18,
    "windGust": 30,
    "visibility": 10,
    "temperatureC": -6,
    "dewPointC": -12,
    "cloudCeiling": 2700,
    "altimeter": "A2998",
    "timestamp": "2026-03-16T15:51:00+00:00",
    "station": "KSTL"
  }
}