{
  "lastUpdated": "2026-06-06T13:13:35.411211+00:00",
  "kcps": {
    "metar": "KCPS 061153Z 21006KT 10SM CLR 23/19 A2993 RMK AO2 SLP133 T02330194 10239 20222 50001 $",
    "windDirection": 210,
    "windSpeed": 6,
    "windGust": null,
    "visibility": 10,
    "temperatureC": 23,
    "dewPointC": 19,
    "cloudCeiling": 99999,
    "altimeter": "A2993",
    "timestamp": "2026-06-06T11:53:00+00:00",
    "station": "KCPS"
  },
  "kstl": {
    "metar": "KSTL 061251Z 23010KT 10SM SCT100 BKN250 25/20 A2994 RMK AO2 SLP126 T02500200 $",
    "windDirection": 230,
    "windSpeed": 10,
    "windGust": null,
    "visibility": 10,
    "temperatureC": 25,
    "dewPointC": 20,
    "cloudCeiling": 25000,
    "altimeter": "A2994",
    "timestamp": "2026-06-06T12:51:00+00:00",
    "station": "KSTL"
  }
}