{
  "lastUpdated": "2025-12-27T17:34:07.671259+00:00",
  "kcps": {
    "metar": "KCPS 271705Z 13007KT 1SM BR OVC003 10/09 A2993 RMK AO2 T01000094 $",
    "windDirection": 130,
    "windSpeed": 7,
    "windGust": null,
    "visibility": 1,
    "temperatureC": 10,
    "dewPointC": 9,
    "cloudCeiling": 300,
    "altimeter": "A2993",
    "timestamp": "2025-12-27T17:05:00+00:00",
    "station": "KCPS"
  },
  "kstl": {
    "metar": "KSTL 271731Z 10010KT 1/2SM R30R/2800V3000FT FG OVC001 10/09 A2991 RMK AO2 T01000094 $",
    "windDirection": 100,
    "windSpeed": 10,
    "windGust": null,
    "visibility": 0.5,
    "temperatureC": 10,
    "dewPointC": 9,
    "cloudCeiling": 100,
    "altimeter": "A2991",
    "timestamp": "2025-12-27T17:31:00+00:00",
    "station": "KSTL"
  }
}