{
  "lastUpdated": "2025-12-27T01:51:31.291297+00:00",
  "kcps": {
    "metar": "KCPS 270053Z 35006KT 10SM CLR 11/09 A2990 RMK AO2 SLP125 T01110089 $",
    "windDirection": 350,
    "windSpeed": 6,
    "windGust": null,
    "visibility": 10,
    "temperatureC": 11,
    "dewPointC": 9,
    "cloudCeiling": 99999,
    "altimeter": "A2990",
    "timestamp": "2025-12-27T00:53:00+00:00",
    "station": "KCPS"
  },
  "kstl": {
    "metar": "KSTL 270051Z 34004KT 10SM SCT250 11/09 A2991 RMK AO2 SLP126 T01060089 $",
    "windDirection": 340,
    "windSpeed": 4,
    "windGust": null,
    "visibility": 10,
    "temperatureC": 11,
    "dewPointC": 9,
    "cloudCeiling": null,
    "altimeter": "A2991",
    "timestamp": "2025-12-27T00:51:00+00:00",
    "station": "KSTL"
  }
}