{
  "lastUpdated": "2026-01-31T05:43:22.032067+00:00",
  "kcps": {
    "metar": "KCPS 310521Z AUTO 33012KT 9SM SCT023 OVC036 M09/M13 A3050 RMK AO2 SNE0459 P0000 T10941133 $",
    "windDirection": 330,
    "windSpeed": 12,
    "windGust": null,
    "visibility": 9,
    "temperatureC": -9,
    "dewPointC": -13,
    "cloudCeiling": 3600,
    "altimeter": "A3050",
    "timestamp": "2026-01-31T05:21:00+00:00",
    "station": "KCPS"
  },
  "kstl": {
    "metar": "KSTL 310451Z 32008KT 8SM -SN SCT041 BKN060 OVC070 M10/M14 A3050 RMK AO2 SLP350 P0000 T11001139 $",
    "windDirection": 320,
    "windSpeed": 8,
    "windGust": null,
    "visibility": 8,
    "temperatureC": -10,
    "dewPointC": -14,
    "cloudCeiling": 6000,
    "altimeter": "A3050",
    "timestamp": "2026-01-31T04:51:00+00:00",
    "station": "KSTL"
  }
}