{
  "lastUpdated": "2026-02-04T21:15:26.743142+00:00",
  "kcps": {
    "metar": "KCPS 042053Z 02007KT 10SM SCT026 M01/M08 A3039 RMK AO2 SLP295 T10111078 55006 $",
    "windDirection": 20,
    "windSpeed": 7,
    "windGust": null,
    "visibility": 10,
    "temperatureC": -1,
    "dewPointC": -8,
    "cloudCeiling": null,
    "altimeter": "A3039",
    "timestamp": "2026-02-04T20:53:00+00:00",
    "station": "KCPS"
  },
  "kstl": {
    "metar": "KSTL 042051Z 31006KT 10SM SCT027 M01/M08 A3039 RMK AO2 SLP304 T10111078 55006",
    "windDirection": 310,
    "windSpeed": 6,
    "windGust": null,
    "visibility": 10,
    "temperatureC": -1,
    "dewPointC": -8,
    "cloudCeiling": null,
    "altimeter": "A3039",
    "timestamp": "2026-02-04T20:51:00+00:00",
    "station": "KSTL"
  }
}