{
  "lastUpdated": "2025-12-21T05:36:05.180445+00:00",
  "kcps": {
    "metar": "KCPS 210453Z AUTO 34004KT 10SM CLR 02/M07 A3029 RMK AO2 SLP259 T00221072 $",
    "windDirection": 340,
    "windSpeed": 4,
    "windGust": null,
    "visibility": 10,
    "temperatureC": 2,
    "dewPointC": -7,
    "cloudCeiling": 99999,
    "altimeter": "A3029",
    "timestamp": "2025-12-21T04:53:00+00:00",
    "station": "KCPS"
  },
  "kstl": {
    "metar": "KSTL 210451Z 33006KT 10SM FEW150 BKN220 02/M07 A3028 RMK AO2 SLP260 T00221067 $",
    "windDirection": 330,
    "windSpeed": 6,
    "windGust": null,
    "visibility": 10,
    "temperatureC": 2,
    "dewPointC": -7,
    "cloudCeiling": 22000,
    "altimeter": "A3028",
    "timestamp": "2025-12-21T04:51:00+00:00",
    "station": "KSTL"
  }
}