{
  "lastUpdated": "2025-11-12T06:41:53.741924+00:00",
  "kcps": {
    "metar": "KCPS 120453Z 00000KT 10SM CLR 03/M02 A2997 RMK AO2 SLP149 T00331022 $",
    "windDirection": 0,
    "windSpeed": 0,
    "windGust": null,
    "visibility": 10,
    "temperatureC": 3,
    "dewPointC": -2,
    "cloudCeiling": 99999,
    "altimeter": "A2997",
    "timestamp": "2025-11-12T04:53:00+00:00",
    "station": "KCPS"
  },
  "kstl": {
    "metar": "KSTL 120551Z 26004KT 10SM CLR 07/M01 A2998 RMK AO2 SLP154 T00671011 10117 20056 401561028 51012 $",
    "windDirection": 260,
    "windSpeed": 4,
    "windGust": null,
    "visibility": 10,
    "temperatureC": 7,
    "dewPointC": -1,
    "cloudCeiling": 99999,
    "altimeter": "A2998",
    "timestamp": "2025-11-12T05:51:00+00:00",
    "station": "KSTL"
  }
}