{
  "lastUpdated": "2026-01-21T05:40:26.330484+00:00",
  "kcps": {
    "metar": "KCPS 210453Z AUTO 17005KT 10SM CLR 01/M14 A3017 RMK AO2 SLP221 T00061139 $",
    "windDirection": 170,
    "windSpeed": 5,
    "windGust": null,
    "visibility": 10,
    "temperatureC": 1,
    "dewPointC": -14,
    "cloudCeiling": 99999,
    "altimeter": "A3017",
    "timestamp": "2026-01-21T04:53:00+00:00",
    "station": "KCPS"
  },
  "kstl": {
    "metar": "KSTL 210451Z 19009G18KT 10SM BKN190 01/M15 A3014 RMK AO2 SLP218 T00111150 $",
    "windDirection": 190,
    "windSpeed": 9,
    "windGust": 18,
    "visibility": 10,
    "temperatureC": 1,
    "dewPointC": -15,
    "cloudCeiling": 19000,
    "altimeter": "A3014",
    "timestamp": "2026-01-21T04:51:00+00:00",
    "station": "KSTL"
  }
}