{
  "lastUpdated": "2026-05-21T21:46:10.730592+00:00",
  "kcps": {
    "metar": "KCPS 212053Z 07006KT 10SM BKN026 OVC030 21/14 A3009 RMK AO2 SLP186 6//// T02060144 56014 PNO $",
    "windDirection": 70,
    "windSpeed": 6,
    "windGust": null,
    "visibility": 10,
    "temperatureC": 21,
    "dewPointC": 14,
    "cloudCeiling": 2600,
    "altimeter": "A3009",
    "timestamp": "2026-05-21T20:53:00+00:00",
    "station": "KCPS"
  },
  "kstl": {
    "metar": "KSTL 212051Z AUTO 07007KT 10SM OVC031 21/14 A3009 RMK AO2 SLP187 T02060139 $",
    "windDirection": 70,
    "windSpeed": 7,
    "windGust": null,
    "visibility": 10,
    "temperatureC": 21,
    "dewPointC": 14,
    "cloudCeiling": 3100,
    "altimeter": "A3009",
    "timestamp": "2026-05-21T20:51:00+00:00",
    "station": "KSTL"
  }
}