{
  "lastUpdated": "2025-12-01T20:02:36.708992+00:00",
  "kcps": {
    "metar": "KCPS 011953Z 00000KT 2SM SN BR FEW006 BKN026 OVC046 M03/M05 A3023 RMK AO2 SLP241 P0003 T10331050 $",
    "windDirection": 0,
    "windSpeed": 0,
    "windGust": null,
    "visibility": 2,
    "temperatureC": -3,
    "dewPointC": -5,
    "cloudCeiling": 2600,
    "altimeter": "A3023",
    "timestamp": "2025-12-01T19:53:00+00:00",
    "station": "KCPS"
  },
  "kstl": {
    "station": "KSTL",
    "metar": "Data unavailable",
    "error": "Failed to fetch METAR"
  }
}