{
  "lastUpdated": "2026-05-06T12:40:36.677707+00:00",
  "kcps": {
    "metar": "KCPS 061153Z 27006KT 10SM OVC080 09/07 A2996 RMK AO2 SLP147 60005 7//// T00890072 10089 20083 53016 $",
    "windDirection": 270,
    "windSpeed": 6,
    "windGust": null,
    "visibility": 10,
    "temperatureC": 9,
    "dewPointC": 7,
    "cloudCeiling": 8000,
    "altimeter": "A2996",
    "timestamp": "2026-05-06T11:53:00+00:00",
    "station": "KCPS"
  },
  "kstl": {
    "metar": "KSTL 061151Z 25007KT 10SM -RA FEW005 OVC085 08/08 A2998 RMK AO2 RAE04B49 SLP153 P0000 60006 70057 T00830078 10083 20078 53018 $",
    "windDirection": 250,
    "windSpeed": 7,
    "windGust": null,
    "visibility": 10,
    "temperatureC": 8,
    "dewPointC": 8,
    "cloudCeiling": 8500,
    "altimeter": "A2998",
    "timestamp": "2026-05-06T11:51:00+00:00",
    "station": "KSTL"
  }
}