{
  "lastUpdated": "2026-01-19T09:47:00.570935+00:00",
  "kcps": {
    "metar": "KCPS 190853Z AUTO 33017G25KT 10SM BKN047 M02/M10 A3015 RMK AO2 SLP215 T10221100 53026 $",
    "windDirection": 330,
    "windSpeed": 17,
    "windGust": 25,
    "visibility": 10,
    "temperatureC": -2,
    "dewPointC": -10,
    "cloudCeiling": 4700,
    "altimeter": "A3015",
    "timestamp": "2026-01-19T08:53:00+00:00",
    "station": "KCPS"
  },
  "kstl": {
    "metar": "KSTL 190851Z 33013G25KT 10SM BKN042 M04/M11 A3016 RMK AO2 SLP226 T10441106 53029 $",
    "windDirection": 330,
    "windSpeed": 13,
    "windGust": 25,
    "visibility": 10,
    "temperatureC": -4,
    "dewPointC": -11,
    "cloudCeiling": 4200,
    "altimeter": "A3016",
    "timestamp": "2026-01-19T08:51:00+00:00",
    "station": "KSTL"
  }
}