{
  "lastUpdated": "2025-12-08T13:53:03.891116+00:00",
  "kcps": {
    "metar": "KCPS 081253Z 35005KT 10SM OVC110 M04/M08 A3034 RMK AO2 SLP280 T10441078 $",
    "windDirection": 350,
    "windSpeed": 5,
    "windGust": null,
    "visibility": 10,
    "temperatureC": -4,
    "dewPointC": -8,
    "cloudCeiling": 11000,
    "altimeter": "A3034",
    "timestamp": "2025-12-08T12:53:00+00:00",
    "station": "KCPS"
  },
  "kstl": {
    "metar": "KSTL 081331Z 00000KT 10SM SCT023 BKN090 M05/M08 A3034 RMK AO2 T10501078 $",
    "windDirection": 0,
    "windSpeed": 0,
    "windGust": null,
    "visibility": 10,
    "temperatureC": -5,
    "dewPointC": -8,
    "cloudCeiling": 9000,
    "altimeter": "A3034",
    "timestamp": "2025-12-08T13:31:00+00:00",
    "station": "KSTL"
  }
}