{
  "lastUpdated": "2025-11-14T22:21:23.869198+00:00",
  "kcps": {
    "metar": "KCPS 142153Z 21008KT 10SM CLR 26/13 A2990 RMK AO2 SLP122 T02560128",
    "windDirection": 210,
    "windSpeed": 8,
    "windGust": null,
    "visibility": 10,
    "temperatureC": 26,
    "dewPointC": 13,
    "cloudCeiling": 99999,
    "altimeter": "A2990",
    "timestamp": "2025-11-14T21:53:00+00:00",
    "station": "KCPS"
  },
  "kstl": {
    "metar": "KSTL 142151Z 20011KT 10SM FEW250 26/13 A2990 RMK AO2 SLP120 T02560128",
    "windDirection": 200,
    "windSpeed": 11,
    "windGust": null,
    "visibility": 10,
    "temperatureC": 26,
    "dewPointC": 13,
    "cloudCeiling": null,
    "altimeter": "A2990",
    "timestamp": "2025-11-14T21:51:00+00:00",
    "station": "KSTL"
  }
}