{
  "lastUpdated": "2025-10-21T03:24:37.017891+00:00",
  "kcps": {
    "metar": "KCPS 210253Z 21007KT 180V240 10SM FEW075 BKN100 19/08 A2979 RMK AO2 SLP086 T01890083 53003",
    "windDirection": 210,
    "windSpeed": 7,
    "windGust": null,
    "visibility": 10,
    "temperatureC": 19,
    "dewPointC": 8,
    "cloudCeiling": 10000,
    "altimeter": "A2979",
    "timestamp": "2025-10-21T02:53:00+00:00",
    "station": "KCPS"
  },
  "kstl": {
    "metar": "KSTL 210251Z 26011G17KT 10SM BKN065 OVC095 20/08 A2982 RMK AO2 SLP094 T02000078 53018 $",
    "windDirection": 260,
    "windSpeed": 11,
    "windGust": 17,
    "visibility": 10,
    "temperatureC": 20,
    "dewPointC": 8,
    "cloudCeiling": 6500,
    "altimeter": "A2982",
    "timestamp": "2025-10-21T02:51:00+00:00",
    "station": "KSTL"
  }
}