{
  "lastUpdated": "2026-01-26T20:39:24.030693+00:00",
  "kcps": {
    "metar": "KCPS 261953Z 28011KT 10SM CLR M09/M18 A3046 RMK AO2 SLP322 T10941178 $",
    "windDirection": 280,
    "windSpeed": 11,
    "windGust": null,
    "visibility": 10,
    "temperatureC": -9,
    "dewPointC": -18,
    "cloudCeiling": 99999,
    "altimeter": "A3046",
    "timestamp": "2026-01-26T19:53:00+00:00",
    "station": "KCPS"
  },
  "kstl": {
    "metar": "KSTL 261951Z 25009KT 10SM FEW035 FEW250 M10/M18 A3043 RMK AO2 SLP329 T11001178 $",
    "windDirection": 250,
    "windSpeed": 9,
    "windGust": null,
    "visibility": 10,
    "temperatureC": -10,
    "dewPointC": -18,
    "cloudCeiling": null,
    "altimeter": "A3043",
    "timestamp": "2026-01-26T19:51:00+00:00",
    "station": "KSTL"
  }
}