{
  "lastUpdated": "2026-01-28T16:44:01.386698+00:00",
  "kcps": {
    "metar": "KCPS 281553Z 28006KT 10SM OVC070 M06/M14 A3037 RMK AO2 SLP291 T10561139 $",
    "windDirection": 280,
    "windSpeed": 6,
    "windGust": null,
    "visibility": 10,
    "temperatureC": -6,
    "dewPointC": -14,
    "cloudCeiling": 7000,
    "altimeter": "A3037",
    "timestamp": "2026-01-28T15:53:00+00:00",
    "station": "KCPS"
  },
  "kstl": {
    "metar": "KSTL 281551Z 26007KT 10SM SCT070 BKN250 M06/M13 A3036 RMK AO2 SLP297 T10561133 $",
    "windDirection": 260,
    "windSpeed": 7,
    "windGust": null,
    "visibility": 10,
    "temperatureC": -6,
    "dewPointC": -13,
    "cloudCeiling": 25000,
    "altimeter": "A3036",
    "timestamp": "2026-01-28T15:51:00+00:00",
    "station": "KSTL"
  }
}