{
  "lastUpdated": "2026-05-10T02:16:19.948667+00:00",
  "kcps": {
    "metar": "KCPS 100153Z 18003KT 10SM CLR 19/13 A2979 RMK AO2 SLP086 T01940128 $",
    "windDirection": 180,
    "windSpeed": 3,
    "windGust": null,
    "visibility": 10,
    "temperatureC": 19,
    "dewPointC": 13,
    "cloudCeiling": 99999,
    "altimeter": "A2979",
    "timestamp": "2026-05-10T01:53:00+00:00",
    "station": "KCPS"
  },
  "kstl": {
    "metar": "KSTL 100151Z 00000KT 10SM SCT120 SCT250 22/11 A2980 RMK AO2 SLP085 T02170111 $",
    "windDirection": 0,
    "windSpeed": 0,
    "windGust": null,
    "visibility": 10,
    "temperatureC": 22,
    "dewPointC": 11,
    "cloudCeiling": null,
    "altimeter": "A2980",
    "timestamp": "2026-05-10T01:51:00+00:00",
    "station": "KSTL"
  }
}