{
  "lastUpdated": "2025-11-18T16:40:21.468751+00:00",
  "kcps": {
    "metar": "KCPS 181603Z VRB03KT 10SM SCT026 OVC037 17/13 A2983 RMK AO2 T01720128",
    "windDirection": null,
    "windSpeed": null,
    "windGust": null,
    "visibility": 10,
    "temperatureC": 17,
    "dewPointC": 13,
    "cloudCeiling": 3700,
    "altimeter": "A2983",
    "timestamp": "2025-11-18T16:03:00+00:00",
    "station": "KCPS"
  },
  "kstl": {
    "metar": "KSTL 181551Z 00000KT 10SM SCT027 BKN033 BKN039 16/12 A2983 RMK AO2 SLP100 T01560122 $",
    "windDirection": 0,
    "windSpeed": 0,
    "windGust": null,
    "visibility": 10,
    "temperatureC": 16,
    "dewPointC": 12,
    "cloudCeiling": 3300,
    "altimeter": "A2983",
    "timestamp": "2025-11-18T15:51:00+00:00",
    "station": "KSTL"
  }
}