{
  "lastUpdated": "2025-11-29T18:22:35.550860+00:00",
  "kcps": {
    "metar": "KCPS 291753Z 13016G23KT 3SM RA BR FEW038 OVC065 01/M01 A2999 RMK AO2 RAB05SNE05 PRESFR SLP160 P0016 60057 T00111006 10011 21006 58053 $",
    "windDirection": 130,
    "windSpeed": 16,
    "windGust": 23,
    "visibility": 3,
    "temperatureC": 1,
    "dewPointC": -1,
    "cloudCeiling": 6500,
    "altimeter": "A2999",
    "timestamp": "2025-11-29T17:53:00+00:00",
    "station": "KCPS"
  },
  "kstl": {
    "metar": "KSTL 291751Z 15009KT 7SM RA BKN010 OVC014 01/00 A3001 RMK AO2 SNE05 SLP169 P0003 60044 T00110000 10011 21006 58044 $",
    "windDirection": 150,
    "windSpeed": 9,
    "windGust": null,
    "visibility": 7,
    "temperatureC": 1,
    "dewPointC": 0,
    "cloudCeiling": 1000,
    "altimeter": "A3001",
    "timestamp": "2025-11-29T17:51:00+00:00",
    "station": "KSTL"
  }
}