{
  "lastUpdated": "2026-05-20T10:25:43.161904+00:00",
  "kcps": {
    "metar": "KCPS 200953Z AUTO 36012KT 10SM OVC020 15/11 A3018 RMK AO2 SLP218 T01500111 $",
    "windDirection": 360,
    "windSpeed": 12,
    "windGust": null,
    "visibility": 10,
    "temperatureC": 15,
    "dewPointC": 11,
    "cloudCeiling": 2000,
    "altimeter": "A3018",
    "timestamp": "2026-05-20T09:53:00+00:00",
    "station": "KCPS"
  },
  "kstl": {
    "metar": "KSTL 200951Z 01011G16KT 10SM FEW018 BKN031 OVC055 13/10 A3019 RMK AO2 SLP218 T01330100 $",
    "windDirection": 10,
    "windSpeed": 11,
    "windGust": 16,
    "visibility": 10,
    "temperatureC": 13,
    "dewPointC": 10,
    "cloudCeiling": 3100,
    "altimeter": "A3019",
    "timestamp": "2026-05-20T09:51:00+00:00",
    "station": "KSTL"
  }
}