{
  "lastUpdated": "2025-12-23T01:09:07.146330+00:00",
  "kcps": {
    "metar": "KCPS 230053Z 18006KT 10SM CLR 08/M01 A3006 RMK AO2 SLP181 T00831011 $",
    "windDirection": 180,
    "windSpeed": 6,
    "windGust": null,
    "visibility": 10,
    "temperatureC": 8,
    "dewPointC": -1,
    "cloudCeiling": 99999,
    "altimeter": "A3006",
    "timestamp": "2025-12-23T00:53:00+00:00",
    "station": "KCPS"
  },
  "kstl": {
    "metar": "KSTL 230051Z 17008KT 10SM FEW027 10/00 A3005 RMK AO2 SLP182 T01000000 $",
    "windDirection": 170,
    "windSpeed": 8,
    "windGust": null,
    "visibility": 10,
    "temperatureC": 10,
    "dewPointC": 0,
    "cloudCeiling": null,
    "altimeter": "A3005",
    "timestamp": "2025-12-23T00:51:00+00:00",
    "station": "KSTL"
  }
}