{
  "lastUpdated": "2025-12-29T10:50:20.399363+00:00",
  "kcps": {
    "metar": "KCPS 290953Z AUTO 29016G34KT 9SM -SN SCT041 BKN050 M08/M16 A3015 RMK AO2 PK WND 30042/0923 SLP213 P0000 T10781156 $",
    "windDirection": 290,
    "windSpeed": 16,
    "windGust": 34,
    "visibility": 9,
    "temperatureC": -8,
    "dewPointC": -16,
    "cloudCeiling": 5000,
    "altimeter": "A3015",
    "timestamp": "2025-12-29T09:53:00+00:00",
    "station": "KCPS"
  },
  "kstl": {
    "metar": "KSTL 290951Z 30022G36KT 10SM BKN037 M09/M17 A3013 RMK AO2 PK WND 29037/0855 SNE23 SLP211 P0000 T10891167 $",
    "windDirection": 300,
    "windSpeed": 22,
    "windGust": 36,
    "visibility": 10,
    "temperatureC": -9,
    "dewPointC": -17,
    "cloudCeiling": 3700,
    "altimeter": "A3013",
    "timestamp": "2025-12-29T09:51:00+00:00",
    "station": "KSTL"
  }
}