{
  "lastUpdated": "2025-12-30T03:17:04.895460+00:00",
  "kcps": {
    "metar": "KCPS 300253Z 29011G21KT 10SM OVC027 M05/M11 A3042 RMK AO2 PK WND 32027/0236 SLP306 T10501106 51010",
    "windDirection": 290,
    "windSpeed": 11,
    "windGust": 21,
    "visibility": 10,
    "temperatureC": -5,
    "dewPointC": -11,
    "cloudCeiling": 2700,
    "altimeter": "A3042",
    "timestamp": "2025-12-30T02:53:00+00:00",
    "station": "KCPS"
  },
  "kstl": {
    "metar": "KSTL 300304Z 29011G20KT 10SM SCT026 M06/M11 A3041 RMK AO2 T10611111 $",
    "windDirection": 290,
    "windSpeed": 11,
    "windGust": 20,
    "visibility": 10,
    "temperatureC": -6,
    "dewPointC": -11,
    "cloudCeiling": null,
    "altimeter": "A3041",
    "timestamp": "2025-12-30T03:04:00+00:00",
    "station": "KSTL"
  }
}