{
  "lastUpdated": "2025-11-17T08:22:55.815905+00:00",
  "kcps": {
    "metar": "KCPS 170753Z AUTO 00000KT 10SM CLR 01/M02 A3005 RMK AO2 SLP178 T00061017 $",
    "windDirection": 0,
    "windSpeed": 0,
    "windGust": null,
    "visibility": 10,
    "temperatureC": 1,
    "dewPointC": -2,
    "cloudCeiling": 99999,
    "altimeter": "A3005",
    "timestamp": "2025-11-17T07:53:00+00:00",
    "station": "KCPS"
  },
  "kstl": {
    "metar": "KSTL 170751Z 00000KT 10SM CLR 04/M04 A3005 RMK AO2 SLP178 T00391044 $",
    "windDirection": 0,
    "windSpeed": 0,
    "windGust": null,
    "visibility": 10,
    "temperatureC": 4,
    "dewPointC": -4,
    "cloudCeiling": 99999,
    "altimeter": "A3005",
    "timestamp": "2025-11-17T07:51:00+00:00",
    "station": "KSTL"
  }
}