{
  "lastUpdated": "2025-11-30T01:57:35.954433+00:00",
  "kcps": {
    "metar": "KCPS 300153Z 27008KT 4SM -RA BR FEW007 BKN011 OVC022 04/04 A2993 RMK AO2 RAB02 SLP138 P0002 T00440039 $",
    "windDirection": 270,
    "windSpeed": 8,
    "windGust": null,
    "visibility": 4,
    "temperatureC": 4,
    "dewPointC": 4,
    "cloudCeiling": 1100,
    "altimeter": "A2993",
    "timestamp": "2025-11-30T01:53:00+00:00",
    "station": "KCPS"
  },
  "kstl": {
    "metar": "KSTL 300151Z 24006KT 8SM -RA FEW006 OVC014 03/03 A2993 RMK AO2 SLP145 P0005 T00330033 $",
    "windDirection": 240,
    "windSpeed": 6,
    "windGust": null,
    "visibility": 8,
    "temperatureC": 3,
    "dewPointC": 3,
    "cloudCeiling": 1400,
    "altimeter": "A2993",
    "timestamp": "2025-11-30T01:51:00+00:00",
    "station": "KSTL"
  }
}