{
  "lastUpdated": "2025-11-26T18:49:34.457326+00:00",
  "kcps": {
    "metar": "KCPS 261753Z 29017G28KT 10SM BKN050 07/M05 A3020 RMK AO2 PK WND 31039/1731 RAE1656 SLP229 P0000 60000 T00671050 10067 20033 51011",
    "windDirection": 290,
    "windSpeed": 17,
    "windGust": 28,
    "visibility": 10,
    "temperatureC": 7,
    "dewPointC": -5,
    "cloudCeiling": 5000,
    "altimeter": "A3020",
    "timestamp": "2025-11-26T17:53:00+00:00",
    "station": "KCPS"
  },
  "kstl": {
    "metar": "KSTL 261751Z 28021G32KT 10SM BKN048 06/M06 A3020 RMK AO2 PK WND 29034/1727 SLP231 T00611056 10061 20028 51013 $",
    "windDirection": 280,
    "windSpeed": 21,
    "windGust": 32,
    "visibility": 10,
    "temperatureC": 6,
    "dewPointC": -6,
    "cloudCeiling": 4800,
    "altimeter": "A3020",
    "timestamp": "2025-11-26T17:51:00+00:00",
    "station": "KSTL"
  }
}