{
  "lastUpdated": "2026-03-23T18:30:56.383336+00:00",
  "kcps": {
    "metar": "KCPS 231753Z 05005G16KT 10SM CLR 09/M02 A3044 RMK AO2 SLP309 T00891022 10094 20033 50009 $",
    "windDirection": 50,
    "windSpeed": 5,
    "windGust": 16,
    "visibility": 10,
    "temperatureC": 9,
    "dewPointC": -2,
    "cloudCeiling": 99999,
    "altimeter": "A3044",
    "timestamp": "2026-03-23T17:53:00+00:00",
    "station": "KCPS"
  },
  "kstl": {
    "metar": "KSTL 231751Z 35010KT 10SM FEW040 BKN250 08/M03 A3044 RMK AO2 SLP311 T00831033 10083 20028 50008 $",
    "windDirection": 350,
    "windSpeed": 10,
    "windGust": null,
    "visibility": 10,
    "temperatureC": 8,
    "dewPointC": -3,
    "cloudCeiling": 25000,
    "altimeter": "A3044",
    "timestamp": "2026-03-23T17:51:00+00:00",
    "station": "KSTL"
  }
}