{
  "lastUpdated": "2026-01-30T04:20:48.299163+00:00",
  "kcps": {
    "metar": "KCPS 300353Z 01008KT 10SM OVC060 M08/M12 A3036 RMK AO2 SLP286 T10781122 $",
    "windDirection": 10,
    "windSpeed": 8,
    "windGust": null,
    "visibility": 10,
    "temperatureC": -8,
    "dewPointC": -12,
    "cloudCeiling": 6000,
    "altimeter": "A3036",
    "timestamp": "2026-01-30T03:53:00+00:00",
    "station": "KCPS"
  },
  "kstl": {
    "metar": "KSTL 300351Z 02007KT 10SM FEW060 SCT100 BKN140 M08/M13 A3035 RMK AO2 SNE33 SLP294 P0000 T10831133 $",
    "windDirection": 20,
    "windSpeed": 7,
    "windGust": null,
    "visibility": 10,
    "temperatureC": -8,
    "dewPointC": -13,
    "cloudCeiling": 14000,
    "altimeter": "A3035",
    "timestamp": "2026-01-30T03:51:00+00:00",
    "station": "KSTL"
  }
}