{
  "lastUpdated": "2026-05-15T12:52:01.604352+00:00",
  "kcps": {
    "metar": "KCPS 151153Z 16007KT 10SM CLR 16/07 A2992 RMK AO2 SLP128 T01560067 10156 20144 53003 $",
    "windDirection": 160,
    "windSpeed": 7,
    "windGust": null,
    "visibility": 10,
    "temperatureC": 16,
    "dewPointC": 7,
    "cloudCeiling": 99999,
    "altimeter": "A2992",
    "timestamp": "2026-05-15T11:53:00+00:00",
    "station": "KCPS"
  },
  "kstl": {
    "metar": "KSTL 151151Z 08005KT 10SM FEW075 BKN150 BKN200 BKN250 16/07 A2993 RMK AO2 SLP129 ACC SE-S T01610067 10183 20161 53013 $",
    "windDirection": 80,
    "windSpeed": 5,
    "windGust": null,
    "visibility": 10,
    "temperatureC": 16,
    "dewPointC": 7,
    "cloudCeiling": 15000,
    "altimeter": "A2993",
    "timestamp": "2026-05-15T11:51:00+00:00",
    "station": "KSTL"
  }
}