{
  "lastUpdated": "2026-03-24T11:34:12.707596+00:00",
  "kcps": {
    "metar": "KCPS 241053Z 09006KT 10SM CLR 04/M02 A3032 RMK AO2 SLP268 T00391022 $",
    "windDirection": 90,
    "windSpeed": 6,
    "windGust": null,
    "visibility": 10,
    "temperatureC": 4,
    "dewPointC": -2,
    "cloudCeiling": 99999,
    "altimeter": "A3032",
    "timestamp": "2026-03-24T10:53:00+00:00",
    "station": "KCPS"
  },
  "kstl": {
    "metar": "KSTL 241051Z 09009KT 10SM BKN140 OVC250 05/M02 A3032 RMK AO2 SLP269 T00501022 $",
    "windDirection": 90,
    "windSpeed": 9,
    "windGust": null,
    "visibility": 10,
    "temperatureC": 5,
    "dewPointC": -2,
    "cloudCeiling": 14000,
    "altimeter": "A3032",
    "timestamp": "2026-03-24T10:51:00+00:00",
    "station": "KSTL"
  }
}