{
  "lastUpdated": "2025-12-23T12:44:27.514802+00:00",
  "kcps": {
    "metar": "KCPS 231240Z 00000KT 3/4SM BR VV003 02/02 A3012 RMK AO2 T00170017 $",
    "windDirection": 0,
    "windSpeed": 0,
    "windGust": null,
    "visibility": 0.75,
    "temperatureC": 2,
    "dewPointC": 2,
    "cloudCeiling": 300,
    "altimeter": "A3012",
    "timestamp": "2025-12-23T12:40:00+00:00",
    "station": "KCPS"
  },
  "kstl": {
    "metar": "KSTL 231151Z 14003KT 8SM BKN250 05/04 A3009 RMK AO2 SLP193 T00500044 10072 20039 53005 $",
    "windDirection": 140,
    "windSpeed": 3,
    "windGust": null,
    "visibility": 8,
    "temperatureC": 5,
    "dewPointC": 4,
    "cloudCeiling": 25000,
    "altimeter": "A3009",
    "timestamp": "2025-12-23T11:51:00+00:00",
    "station": "KSTL"
  }
}