{
  "lastUpdated": "2026-04-10T16:31:39.183736+00:00",
  "kcps": {
    "metar": "KCPS 101553Z 27006KT 10SM BKN060 22/11 A3023 RMK AO2 SLP233 T02170106 $",
    "windDirection": 270,
    "windSpeed": 6,
    "windGust": null,
    "visibility": 10,
    "temperatureC": 22,
    "dewPointC": 11,
    "cloudCeiling": 6000,
    "altimeter": "A3023",
    "timestamp": "2026-04-10T15:53:00+00:00",
    "station": "KCPS"
  },
  "kstl": {
    "metar": "KSTL 101551Z 31010KT 10SM BKN041 BKN250 19/13 A3024 RMK AO2 SLP234 T01890128 $",
    "windDirection": 310,
    "windSpeed": 10,
    "windGust": null,
    "visibility": 10,
    "temperatureC": 19,
    "dewPointC": 13,
    "cloudCeiling": 4100,
    "altimeter": "A3024",
    "timestamp": "2026-04-10T15:51:00+00:00",
    "station": "KSTL"
  }
}