{
  "lastUpdated": "2026-01-01T17:21:32.622486+00:00",
  "kcps": {
    "metar": "KCPS 011653Z 05005KT 10SM BR OVC008 02/M01 A3004 RMK AO2 SLP177 T00171006 $",
    "windDirection": 50,
    "windSpeed": 5,
    "windGust": null,
    "visibility": 10,
    "temperatureC": 2,
    "dewPointC": -1,
    "cloudCeiling": 800,
    "altimeter": "A3004",
    "timestamp": "2026-01-01T16:53:00+00:00",
    "station": "KCPS"
  },
  "kstl": {
    "metar": "KSTL 011651Z 08005KT 5SM BR OVC004 01/M01 A3003 RMK AO2 SLP179 T00061006 $",
    "windDirection": 80,
    "windSpeed": 5,
    "windGust": null,
    "visibility": 5,
    "temperatureC": 1,
    "dewPointC": -1,
    "cloudCeiling": 400,
    "altimeter": "A3003",
    "timestamp": "2026-01-01T16:51:00+00:00",
    "station": "KSTL"
  }
}