{
  "lastUpdated": "2026-01-26T14:41:17.412842+00:00",
  "kcps": {
    "metar": "KCPS 261353Z 27007KT 10SM CLR M18/M22 A3051 RMK AO2 SLP341 T11781222",
    "windDirection": 270,
    "windSpeed": 7,
    "windGust": null,
    "visibility": 10,
    "temperatureC": -18,
    "dewPointC": -22,
    "cloudCeiling": 99999,
    "altimeter": "A3051",
    "timestamp": "2026-01-26T13:53:00+00:00",
    "station": "KCPS"
  },
  "kstl": {
    "metar": "KSTL 261351Z 28009KT 10SM CLR M19/M23 A3049 RMK AO2 SLP351 T11891228 $",
    "windDirection": 280,
    "windSpeed": 9,
    "windGust": null,
    "visibility": 10,
    "temperatureC": -19,
    "dewPointC": -23,
    "cloudCeiling": 99999,
    "altimeter": "A3049",
    "timestamp": "2026-01-26T13:51:00+00:00",
    "station": "KSTL"
  }
}