{
  "lastUpdated": "2025-12-09T21:02:27.025315+00:00",
  "kcps": {
    "metar": "KCPS 092053Z 17010KT 10SM CLR 12/01 A2974 RMK AO2 SLP071 T01170011 58037",
    "windDirection": 170,
    "windSpeed": 10,
    "windGust": null,
    "visibility": 10,
    "temperatureC": 12,
    "dewPointC": 1,
    "cloudCeiling": 99999,
    "altimeter": "A2974",
    "timestamp": "2025-12-09T20:53:00+00:00",
    "station": "KCPS"
  },
  "kstl": {
    "metar": "KSTL 092051Z 19011KT 10SM FEW110 BKN220 13/01 A2972 RMK AO2 SLP068 T01330006 58039 $",
    "windDirection": 190,
    "windSpeed": 11,
    "windGust": null,
    "visibility": 10,
    "temperatureC": 13,
    "dewPointC": 1,
    "cloudCeiling": 22000,
    "altimeter": "A2972",
    "timestamp": "2025-12-09T20:51:00+00:00",
    "station": "KSTL"
  }
}