{
  "lastUpdated": "2026-05-08T01:07:51.818856+00:00",
  "kcps": {
    "metar": "KCPS 080053Z 23003KT 10SM CLR 18/03 A2992 RMK AO2 SLP130 T01780028 $",
    "windDirection": 230,
    "windSpeed": 3,
    "windGust": null,
    "visibility": 10,
    "temperatureC": 18,
    "dewPointC": 3,
    "cloudCeiling": 99999,
    "altimeter": "A2992",
    "timestamp": "2026-05-08T00:53:00+00:00",
    "station": "KCPS"
  },
  "kstl": {
    "metar": "KSTL 080051Z 22005KT 10SM FEW080 SCT250 17/03 A2992 RMK AO2 SLP130 T01720028 $",
    "windDirection": 220,
    "windSpeed": 5,
    "windGust": null,
    "visibility": 10,
    "temperatureC": 17,
    "dewPointC": 3,
    "cloudCeiling": null,
    "altimeter": "A2992",
    "timestamp": "2026-05-08T00:51:00+00:00",
    "station": "KSTL"
  }
}