{
  "lastUpdated": "2026-01-28T23:50:29.916013+00:00",
  "kcps": {
    "metar": "KCPS 282253Z 00000KT 10SM OVC090 M01/M14 A3024 RMK AO2 SLP247 T10061144 $",
    "windDirection": 0,
    "windSpeed": 0,
    "windGust": null,
    "visibility": 10,
    "temperatureC": -1,
    "dewPointC": -14,
    "cloudCeiling": 9000,
    "altimeter": "A3024",
    "timestamp": "2026-01-28T22:53:00+00:00",
    "station": "KCPS"
  },
  "kstl": {
    "metar": "KSTL 282251Z 26005KT 10SM BKN090 BKN250 M01/M13 A3024 RMK AO2 SLP254 T10111133 $",
    "windDirection": 260,
    "windSpeed": 5,
    "windGust": null,
    "visibility": 10,
    "temperatureC": -1,
    "dewPointC": -13,
    "cloudCeiling": 9000,
    "altimeter": "A3024",
    "timestamp": "2026-01-28T22:51:00+00:00",
    "station": "KSTL"
  }
}