{
  "lastUpdated": "2025-12-02T13:44:48.579559+00:00",
  "kcps": {
    "metar": "KCPS 021301Z 33008KT 10SM OVC014 M05/M08 A3012 RMK AO2 T10501078 $",
    "windDirection": 330,
    "windSpeed": 8,
    "windGust": null,
    "visibility": 10,
    "temperatureC": -5,
    "dewPointC": -8,
    "cloudCeiling": 1400,
    "altimeter": "A3012",
    "timestamp": "2025-12-02T13:01:00+00:00",
    "station": "KCPS"
  },
  "kstl": {
    "metar": "KSTL 021335Z 33005KT 9SM -SN OVC010 M06/M07 A3012 RMK AO2 SNB35 P0000 T10561072 $",
    "windDirection": 330,
    "windSpeed": 5,
    "windGust": null,
    "visibility": 9,
    "temperatureC": -6,
    "dewPointC": -7,
    "cloudCeiling": 1000,
    "altimeter": "A3012",
    "timestamp": "2025-12-02T13:35:00+00:00",
    "station": "KSTL"
  }
}