{
  "lastUpdated": "2025-11-20T21:31:58.527659+00:00",
  "kcps": {
    "metar": "KCPS 202119Z 13004KT 3SM BR OVC007 12/11 A3004 RMK AO2 RAB03E13 CIG 005V011 P0000 T01170111",
    "windDirection": 130,
    "windSpeed": 4,
    "windGust": null,
    "visibility": 3,
    "temperatureC": 12,
    "dewPointC": 11,
    "cloudCeiling": 700,
    "altimeter": "A3004",
    "timestamp": "2025-11-20T21:19:00+00:00",
    "station": "KCPS"
  },
  "kstl": {
    "metar": "KSTL 202128Z 14006KT 2SM BR OVC005 12/11 A3004 RMK AO2 T01170111 $",
    "windDirection": 140,
    "windSpeed": 6,
    "windGust": null,
    "visibility": 2,
    "temperatureC": 12,
    "dewPointC": 11,
    "cloudCeiling": 500,
    "altimeter": "A3004",
    "timestamp": "2025-11-20T21:28:00+00:00",
    "station": "KSTL"
  }
}