{
  "lastUpdated": "2026-02-01T21:36:56.566107+00:00",
  "kcps": {
    "metar": "KCPS 012053Z 16008KT 10SM OVC070 M03/M11 A3024 RMK AO2 SLP246 T10331111 56039 $",
    "windDirection": 160,
    "windSpeed": 8,
    "windGust": null,
    "visibility": 10,
    "temperatureC": -3,
    "dewPointC": -11,
    "cloudCeiling": 7000,
    "altimeter": "A3024",
    "timestamp": "2026-02-01T20:53:00+00:00",
    "station": "KCPS"
  },
  "kstl": {
    "metar": "KSTL 012051Z 17011KT 10SM OVC060 M03/M12 A3021 RMK AO2 SLP251 T10331117 56043 $",
    "windDirection": 170,
    "windSpeed": 11,
    "windGust": null,
    "visibility": 10,
    "temperatureC": -3,
    "dewPointC": -12,
    "cloudCeiling": 6000,
    "altimeter": "A3021",
    "timestamp": "2026-02-01T20:51:00+00:00",
    "station": "KSTL"
  }
}