{
  "lastUpdated": "2025-12-03T23:02:18.271587+00:00",
  "kcps": {
    "metar": "KCPS 032253Z 04003KT 10SM OVC100 02/M01 A3012 RMK AO2 SLP204 T00171006 $",
    "windDirection": 40,
    "windSpeed": 3,
    "windGust": null,
    "visibility": 10,
    "temperatureC": 2,
    "dewPointC": -1,
    "cloudCeiling": 10000,
    "altimeter": "A3012",
    "timestamp": "2025-12-03T22:53:00+00:00",
    "station": "KCPS"
  },
  "kstl": {
    "metar": "KSTL 032251Z 00000KT 10SM SCT049 BKN095 OVC200 03/M01 A3011 RMK AO2 SLP209 T00281011 $",
    "windDirection": 0,
    "windSpeed": 0,
    "windGust": null,
    "visibility": 10,
    "temperatureC": 3,
    "dewPointC": -1,
    "cloudCeiling": 9500,
    "altimeter": "A3011",
    "timestamp": "2025-12-03T22:51:00+00:00",
    "station": "KSTL"
  }
}