{
  "lastUpdated": "2025-11-22T00:06:55.763348+00:00",
  "kcps": {
    "metar": "KCPS 212353Z 36007KT 9SM -RA OVC003 13/13 A2987 RMK AO2 RAB11 SLP115 P0009 60009 T01330128 10144 20133 53007",
    "windDirection": 360,
    "windSpeed": 7,
    "windGust": null,
    "visibility": 9,
    "temperatureC": 13,
    "dewPointC": 13,
    "cloudCeiling": 300,
    "altimeter": "A2987",
    "timestamp": "2025-11-21T23:53:00+00:00",
    "station": "KCPS"
  },
  "kstl": {
    "metar": "KSTL 212351Z 03006KT 5SM BR OVC003 12/12 A2989 RMK AO2 RAE32DZB35E50 SLP121 P0001 60002 T01220117 10133 20122 53013 $",
    "windDirection": 30,
    "windSpeed": 6,
    "windGust": null,
    "visibility": 5,
    "temperatureC": 12,
    "dewPointC": 12,
    "cloudCeiling": 300,
    "altimeter": "A2989",
    "timestamp": "2025-11-21T23:51:00+00:00",
    "station": "KSTL"
  }
}