{
  "lastUpdated": "2026-05-09T08:08:23.009313+00:00",
  "kcps": {
    "metar": "KCPS 090753Z AUTO 00000KT 10SM OVC007 14/13 A2976 RMK AO2 CIG 004V008 SLP077 T01390133 $",
    "windDirection": 0,
    "windSpeed": 0,
    "windGust": null,
    "visibility": 10,
    "temperatureC": 14,
    "dewPointC": 13,
    "cloudCeiling": 700,
    "altimeter": "A2976",
    "timestamp": "2026-05-09T07:53:00+00:00",
    "station": "KCPS"
  },
  "kstl": {
    "metar": "KSTL 090758Z 24006KT 5SM BR OVC004 13/13 A2977 RMK AO2 T01330133 $",
    "windDirection": 240,
    "windSpeed": 6,
    "windGust": null,
    "visibility": 5,
    "temperatureC": 13,
    "dewPointC": 13,
    "cloudCeiling": 400,
    "altimeter": "A2977",
    "timestamp": "2026-05-09T07:58:00+00:00",
    "station": "KSTL"
  }
}