{
  "lastUpdated": "2025-11-27T11:21:30.319565+00:00",
  "kcps": {
    "metar": "KCPS 271053Z AUTO 30006KT 10SM CLR 00/M06 A3034 RMK AO2 SLP277 T00001061 $",
    "windDirection": 300,
    "windSpeed": 6,
    "windGust": null,
    "visibility": 10,
    "temperatureC": 0,
    "dewPointC": -6,
    "cloudCeiling": 99999,
    "altimeter": "A3034",
    "timestamp": "2025-11-27T10:53:00+00:00",
    "station": "KCPS"
  },
  "kstl": {
    "metar": "KSTL 271051Z 31010KT 10SM FEW160 BKN210 00/M07 A3034 RMK AO2 SLP282 T00001067 $",
    "windDirection": 310,
    "windSpeed": 10,
    "windGust": null,
    "visibility": 10,
    "temperatureC": 0,
    "dewPointC": -7,
    "cloudCeiling": 21000,
    "altimeter": "A3034",
    "timestamp": "2025-11-27T10:51:00+00:00",
    "station": "KSTL"
  }
}