{
  "lastUpdated": "2025-10-17T06:22:48.881974+00:00",
  "kcps": {
    "metar": "KCPS 170553Z AUTO 16005KT 10SM CLR 19/14 A2999 RMK AO2 SLP153 T01890139 10228 20183 402940133 58006",
    "windDirection": 160,
    "windSpeed": 5,
    "windGust": null,
    "visibility": 10,
    "temperatureC": 19,
    "dewPointC": 14,
    "cloudCeiling": 99999,
    "altimeter": "A2999",
    "timestamp": "2025-10-17T05:53:00+00:00",
    "station": "KCPS"
  },
  "kstl": {
    "metar": "KSTL 170551Z 15012KT 10SM BKN250 21/14 A2999 RMK AO2 SLP144 T02060139 10256 20206 402780167 58008 $",
    "windDirection": 150,
    "windSpeed": 12,
    "windGust": null,
    "visibility": 10,
    "temperatureC": 21,
    "dewPointC": 14,
    "cloudCeiling": 25000,
    "altimeter": "A2999",
    "timestamp": "2025-10-17T05:51:00+00:00",
    "station": "KSTL"
  }
}