{
  "lastUpdated": "2026-06-10T12:45:58.824542+00:00",
  "kcps": {
    "metar": "KCPS 101153Z 17005KT 10SM CLR 25/22 A2989 RMK AO2 SLP117 T02500222 10283 20244 50000 $",
    "windDirection": 170,
    "windSpeed": 5,
    "windGust": null,
    "visibility": 10,
    "temperatureC": 25,
    "dewPointC": 22,
    "cloudCeiling": 99999,
    "altimeter": "A2989",
    "timestamp": "2026-06-10T11:53:00+00:00",
    "station": "KCPS"
  },
  "kstl": {
    "metar": "KSTL 101151Z 18008KT 10SM FEW250 26/22 A2989 RMK AO2 SLP108 T02610217 10283 20256 58001 $",
    "windDirection": 180,
    "windSpeed": 8,
    "windGust": null,
    "visibility": 10,
    "temperatureC": 26,
    "dewPointC": 22,
    "cloudCeiling": null,
    "altimeter": "A2989",
    "timestamp": "2026-06-10T11:51:00+00:00",
    "station": "KSTL"
  }
}