{
  "lastUpdated": "2026-06-03T14:30:24.337400+00:00",
  "kcps": {
    "metar": "KCPS 031353Z 10003KT 10SM CLR 21/10 A3030 RMK AO2 SLP259 T02110100 $",
    "windDirection": 100,
    "windSpeed": 3,
    "windGust": null,
    "visibility": 10,
    "temperatureC": 21,
    "dewPointC": 10,
    "cloudCeiling": 99999,
    "altimeter": "A3030",
    "timestamp": "2026-06-03T13:53:00+00:00",
    "station": "KCPS"
  },
  "kstl": {
    "metar": "KSTL 031351Z 10006KT 10SM FEW250 21/09 A3031 RMK AO2 SLP255 T02110094 $",
    "windDirection": 100,
    "windSpeed": 6,
    "windGust": null,
    "visibility": 10,
    "temperatureC": 21,
    "dewPointC": 9,
    "cloudCeiling": null,
    "altimeter": "A3031",
    "timestamp": "2026-06-03T13:51:00+00:00",
    "station": "KSTL"
  }
}