{
  "lastUpdated": "2026-05-22T02:17:44.252109+00:00",
  "kcps": {
    "metar": "KCPS 220153Z 07005KT 10SM OVC025 18/13 A3007 RMK AO2 SLP180 T01780133 PNO $",
    "windDirection": 70,
    "windSpeed": 5,
    "windGust": null,
    "visibility": 10,
    "temperatureC": 18,
    "dewPointC": 13,
    "cloudCeiling": 2500,
    "altimeter": "A3007",
    "timestamp": "2026-05-22T01:53:00+00:00",
    "station": "KCPS"
  },
  "kstl": {
    "metar": "KSTL 220206Z AUTO 09008KT 10SM FEW023 SCT028 OVC034 18/13 A3008 RMK AO2 T01780128 $",
    "windDirection": 90,
    "windSpeed": 8,
    "windGust": null,
    "visibility": 10,
    "temperatureC": 18,
    "dewPointC": 13,
    "cloudCeiling": 3400,
    "altimeter": "A3008",
    "timestamp": "2026-05-22T02:06:00+00:00",
    "station": "KSTL"
  }
}