{
  "lastUpdated": "2026-01-26T16:23:34.975755+00:00",
  "kcps": {
    "metar": "KCPS 261553Z 28007KT 10SM CLR M15/M21 A3054 RMK AO2 SLP352 T11501211 $",
    "windDirection": 280,
    "windSpeed": 7,
    "windGust": null,
    "visibility": 10,
    "temperatureC": -15,
    "dewPointC": -21,
    "cloudCeiling": 99999,
    "altimeter": "A3054",
    "timestamp": "2026-01-26T15:53:00+00:00",
    "station": "KCPS"
  },
  "kstl": {
    "metar": "KSTL 261551Z 28012KT 10SM CLR M15/M21 A3052 RMK AO2 SLP360 T11501206 $",
    "windDirection": 280,
    "windSpeed": 12,
    "windGust": null,
    "visibility": 10,
    "temperatureC": -15,
    "dewPointC": -21,
    "cloudCeiling": 99999,
    "altimeter": "A3052",
    "timestamp": "2026-01-26T15:51:00+00:00",
    "station": "KSTL"
  }
}