{
  "lastUpdated": "2025-12-13T23:21:21.379991+00:00",
  "kcps": {
    "metar": "KCPS 132253Z 35011KT 8SM OVC016 M08/M12 A3034 RMK AO2 SNE04B26E36 SLP281 P0000 T10831117 $",
    "windDirection": 350,
    "windSpeed": 11,
    "windGust": null,
    "visibility": 8,
    "temperatureC": -8,
    "dewPointC": -12,
    "cloudCeiling": 1600,
    "altimeter": "A3034",
    "timestamp": "2025-12-13T22:53:00+00:00",
    "station": "KCPS"
  },
  "kstl": {
    "metar": "KSTL 132251Z 36011KT 8SM -SN OVC015 M09/M12 A3034 RMK AO2 SLP287 P0000 T10941122 $",
    "windDirection": 360,
    "windSpeed": 11,
    "windGust": null,
    "visibility": 8,
    "temperatureC": -9,
    "dewPointC": -12,
    "cloudCeiling": 1500,
    "altimeter": "A3034",
    "timestamp": "2025-12-13T22:51:00+00:00",
    "station": "KSTL"
  }
}