{
  "lastUpdated": "2026-05-23T16:05:23.505314+00:00",
  "kcps": {
    "metar": "KCPS 231553Z 00000KT 10SM OVC020 21/16 A2999 RMK AO2 SLP154 T02110161 $",
    "windDirection": 0,
    "windSpeed": 0,
    "windGust": null,
    "visibility": 10,
    "temperatureC": 21,
    "dewPointC": 16,
    "cloudCeiling": 2000,
    "altimeter": "A2999",
    "timestamp": "2026-05-23T15:53:00+00:00",
    "station": "KCPS"
  },
  "kstl": {
    "metar": "KSTL 231551Z VRB03KT 10SM OVC019 21/16 A3000 RMK AO2 SLP154 T02060161 $",
    "windDirection": null,
    "windSpeed": null,
    "windGust": null,
    "visibility": 10,
    "temperatureC": 21,
    "dewPointC": 16,
    "cloudCeiling": 1900,
    "altimeter": "A3000",
    "timestamp": "2026-05-23T15:51:00+00:00",
    "station": "KSTL"
  }
}