{
  "lastUpdated": "2026-04-27T07:35:50.123931+00:00",
  "kcps": {
    "metar": "KCPS 270653Z AUTO 12006KT 10SM -RA FEW055 OVC100 18/14 A2982 RMK AO2 LTG DSNT SW AND W RAB07 PRESFR SLP096 P0002 T01780144 $",
    "windDirection": 120,
    "windSpeed": 6,
    "windGust": null,
    "visibility": 10,
    "temperatureC": 18,
    "dewPointC": 14,
    "cloudCeiling": 10000,
    "altimeter": "A2982",
    "timestamp": "2026-04-27T06:53:00+00:00",
    "station": "KCPS"
  },
  "kstl": {
    "metar": "KSTL 270651Z 14010KT 10SM -TSRA OVC100CB 19/14 A2984 RMK AO2 RAB03 TSB03 SLP094 OCNL LTGCCCG SW-W TS SW-W MOV NE P0002 T01890144 $",
    "windDirection": 140,
    "windSpeed": 10,
    "windGust": null,
    "visibility": 10,
    "temperatureC": 19,
    "dewPointC": 14,
    "cloudCeiling": 10000,
    "altimeter": "A2984",
    "timestamp": "2026-04-27T06:51:00+00:00",
    "station": "KSTL"
  }
}