{
  "lastUpdated": "2026-05-16T21:34:49.348305+00:00",
  "kcps": {
    "metar": "KCPS 162053Z 04004KT 10SM CLR 24/19 A2991 RMK AO2 LTG DSNT E AND SE SLP125 60001 T02390189 50008 $",
    "windDirection": 40,
    "windSpeed": 4,
    "windGust": null,
    "visibility": 10,
    "temperatureC": 24,
    "dewPointC": 19,
    "cloudCeiling": 99999,
    "altimeter": "A2991",
    "timestamp": "2026-05-16T20:53:00+00:00",
    "station": "KCPS"
  },
  "kstl": {
    "metar": "KSTL 162051Z 12007KT 10SM BKN100 OVC120 23/19 A2991 RMK AO2 SLP118 60002 T02330189 50003 $",
    "windDirection": 120,
    "windSpeed": 7,
    "windGust": null,
    "visibility": 10,
    "temperatureC": 23,
    "dewPointC": 19,
    "cloudCeiling": 10000,
    "altimeter": "A2991",
    "timestamp": "2026-05-16T20:51:00+00:00",
    "station": "KSTL"
  }
}