{
  "lastUpdated": "2026-04-05T10:07:51.248625+00:00",
  "kcps": {
    "metar": "KCPS 050953Z AUTO 30010KT 10SM CLR 06/00 A3021 RMK AO2 SLP232 T00610000 $",
    "windDirection": 300,
    "windSpeed": 10,
    "windGust": null,
    "visibility": 10,
    "temperatureC": 6,
    "dewPointC": 0,
    "cloudCeiling": 99999,
    "altimeter": "A3021",
    "timestamp": "2026-04-05T09:53:00+00:00",
    "station": "KCPS"
  },
  "kstl": {
    "metar": "KSTL 050951Z 29011G19KT 10SM CLR 05/01 A3021 RMK AO2 SLP233 T00500006 $",
    "windDirection": 290,
    "windSpeed": 11,
    "windGust": 19,
    "visibility": 10,
    "temperatureC": 5,
    "dewPointC": 1,
    "cloudCeiling": 99999,
    "altimeter": "A3021",
    "timestamp": "2026-04-05T09:51:00+00:00",
    "station": "KSTL"
  }
}