{
  "lastUpdated": "2026-02-01T03:41:33.311773+00:00",
  "kcps": {
    "metar": "KCPS 010153Z 31012KT 10SM CLR M09/M16 A3050 RMK AO2 SLP338 T10891156 $",
    "windDirection": 310,
    "windSpeed": 12,
    "windGust": null,
    "visibility": 10,
    "temperatureC": -9,
    "dewPointC": -16,
    "cloudCeiling": 99999,
    "altimeter": "A3050",
    "timestamp": "2026-02-01T01:53:00+00:00",
    "station": "KCPS"
  },
  "kstl": {
    "metar": "KSTL 010251Z 30005KT 10SM CLR M11/M17 A3049 RMK AO2 SLP348 T11111167 50002 $",
    "windDirection": 300,
    "windSpeed": 5,
    "windGust": null,
    "visibility": 10,
    "temperatureC": -11,
    "dewPointC": -17,
    "cloudCeiling": 99999,
    "altimeter": "A3049",
    "timestamp": "2026-02-01T02:51:00+00:00",
    "station": "KSTL"
  }
}