{
  "lastUpdated": "2026-03-20T22:41:13.455541+00:00",
  "kcps": {
    "metar": "KCPS 202153Z 25008KT 10SM CLR 32/04 A2981 RMK AO2 SLP092 T03170044 $",
    "windDirection": 250,
    "windSpeed": 8,
    "windGust": null,
    "visibility": 10,
    "temperatureC": 32,
    "dewPointC": 4,
    "cloudCeiling": 99999,
    "altimeter": "A2981",
    "timestamp": "2026-03-20T21:53:00+00:00",
    "station": "KCPS"
  },
  "kstl": {
    "metar": "KSTL 202151Z 31009G15KT 10SM BKN250 31/07 A2983 RMK AO2 SLP093 T03060072 $",
    "windDirection": 310,
    "windSpeed": 9,
    "windGust": 15,
    "visibility": 10,
    "temperatureC": 31,
    "dewPointC": 7,
    "cloudCeiling": 25000,
    "altimeter": "A2983",
    "timestamp": "2026-03-20T21:51:00+00:00",
    "station": "KSTL"
  }
}