{
  "lastUpdated": "2025-10-20T15:34:01.676534+00:00",
  "kcps": {
    "metar": "KCPS 201453Z 17007KT 10SM CLR 16/04 A3004 RMK AO2 SLP171 T01560039 58006",
    "windDirection": 170,
    "windSpeed": 7,
    "windGust": null,
    "visibility": 10,
    "temperatureC": 16,
    "dewPointC": 4,
    "cloudCeiling": 99999,
    "altimeter": "A3004",
    "timestamp": "2025-10-20T14:53:00+00:00",
    "station": "KCPS"
  },
  "kstl": {
    "metar": "KSTL 201451Z 17014G21KT 10SM CLR 16/02 A3002 RMK AO2 SLP165 T01560022 56006 $",
    "windDirection": 170,
    "windSpeed": 14,
    "windGust": 21,
    "visibility": 10,
    "temperatureC": 16,
    "dewPointC": 2,
    "cloudCeiling": 99999,
    "altimeter": "A3002",
    "timestamp": "2025-10-20T14:51:00+00:00",
    "station": "KSTL"
  }
}