{
  "lastUpdated": "2026-04-18T09:14:47.933948+00:00",
  "kcps": {
    "metar": "KCPS 180853Z AUTO 24005KT 3SM +RA BR BKN070 OVC090 17/16 A2981 RMK AO2 PRESRR SLP090 P0016 60043 T01670161 55003 $",
    "windDirection": 240,
    "windSpeed": 5,
    "windGust": null,
    "visibility": 3,
    "temperatureC": 17,
    "dewPointC": 16,
    "cloudCeiling": 7000,
    "altimeter": "A2981",
    "timestamp": "2026-04-18T08:53:00+00:00",
    "station": "KCPS"
  },
  "kstl": {
    "metar": "KSTL 180851Z 32014G23KT 7SM RA FEW009 BKN050 OVC090 11/09 A2983 RMK AO2 PK WND 32031/0828 WSHFT 0827 SLP094 FROPA P0022 60040 T01060089 53006 $",
    "windDirection": 320,
    "windSpeed": 14,
    "windGust": 23,
    "visibility": 7,
    "temperatureC": 11,
    "dewPointC": 9,
    "cloudCeiling": 5000,
    "altimeter": "A2983",
    "timestamp": "2026-04-18T08:51:00+00:00",
    "station": "KSTL"
  }
}