{
  "lastUpdated": "2025-12-13T00:07:35.094725+00:00",
  "kcps": {
    "metar": "KCPS 122353Z 00000KT 10SM OVC015 02/M01 A3019 RMK AO2 SLP225 T00221011 10033 20022 51014",
    "windDirection": 0,
    "windSpeed": 0,
    "windGust": null,
    "visibility": 10,
    "temperatureC": 2,
    "dewPointC": -1,
    "cloudCeiling": 1500,
    "altimeter": "A3019",
    "timestamp": "2025-12-12T23:53:00+00:00",
    "station": "KCPS"
  },
  "kstl": {
    "metar": "KSTL 122351Z 25006KT 10SM BKN014 01/M02 A3017 RMK AO2 SLP227 T00111017 10022 20011 50007 $",
    "windDirection": 250,
    "windSpeed": 6,
    "windGust": null,
    "visibility": 10,
    "temperatureC": 1,
    "dewPointC": -2,
    "cloudCeiling": 1400,
    "altimeter": "A3017",
    "timestamp": "2025-12-12T23:51:00+00:00",
    "station": "KSTL"
  }
}