{
  "lastUpdated": "2026-01-09T04:15:48.499075+00:00",
  "kcps": {
    "metar": "KCPS 090353Z 21012G23KT 10SM FEW047 19/16 A2956 RMK AO2 PK WND 21027/0256 SLP007 T01940161",
    "windDirection": 210,
    "windSpeed": 12,
    "windGust": 23,
    "visibility": 10,
    "temperatureC": 19,
    "dewPointC": 16,
    "cloudCeiling": null,
    "altimeter": "A2956",
    "timestamp": "2026-01-09T03:53:00+00:00",
    "station": "KCPS"
  },
  "kstl": {
    "metar": "KSTL 090351Z 22016G24KT 10SM FEW070 19/15 A2955 RMK AO2 SLP001 T01890150 $",
    "windDirection": 220,
    "windSpeed": 16,
    "windGust": 24,
    "visibility": 10,
    "temperatureC": 19,
    "dewPointC": 15,
    "cloudCeiling": null,
    "altimeter": "A2955",
    "timestamp": "2026-01-09T03:51:00+00:00",
    "station": "KSTL"
  }
}