{
  "lastUpdated": "2026-01-04T09:34:21.143641+00:00",
  "kcps": {
    "metar": "KCPS 040853Z AUTO 00000KT 8SM CLR M06/M07 A3016 RMK AO2 SLP218 I1000 I3000 T10611072 53002 $",
    "windDirection": 0,
    "windSpeed": 0,
    "windGust": null,
    "visibility": 8,
    "temperatureC": -6,
    "dewPointC": -7,
    "cloudCeiling": 99999,
    "altimeter": "A3016",
    "timestamp": "2026-01-04T08:53:00+00:00",
    "station": "KCPS"
  },
  "kstl": {
    "metar": "KSTL 040851Z 22003KT 10SM CLR M04/M07 A3016 RMK AO2 SLP222 T10391067 53002 $",
    "windDirection": 220,
    "windSpeed": 3,
    "windGust": null,
    "visibility": 10,
    "temperatureC": -4,
    "dewPointC": -7,
    "cloudCeiling": 99999,
    "altimeter": "A3016",
    "timestamp": "2026-01-04T08:51:00+00:00",
    "station": "KSTL"
  }
}