{
  "lastUpdated": "2026-05-02T17:29:51.314743+00:00",
  "kcps": {
    "metar": "KCPS 021653Z 04013G23KT 10SM SCT045 SCT060 OVC090 13/04 A3012 RMK AO2 SLP198 T01330044 $",
    "windDirection": 40,
    "windSpeed": 13,
    "windGust": 23,
    "visibility": 10,
    "temperatureC": 13,
    "dewPointC": 4,
    "cloudCeiling": 9000,
    "altimeter": "A3012",
    "timestamp": "2026-05-02T16:53:00+00:00",
    "station": "KCPS"
  },
  "kstl": {
    "metar": "KSTL 021651Z 01007KT 10SM SCT070 BKN090 BKN250 14/M01 A3012 RMK AO2 SLP198 T01391006 $",
    "windDirection": 10,
    "windSpeed": 7,
    "windGust": null,
    "visibility": 10,
    "temperatureC": 14,
    "dewPointC": -1,
    "cloudCeiling": 9000,
    "altimeter": "A3012",
    "timestamp": "2026-05-02T16:51:00+00:00",
    "station": "KSTL"
  }
}