{
  "lastUpdated": "2025-11-21T13:37:57.678136+00:00",
  "kcps": {
    "metar": "KCPS 211308Z 07005KT 8SM -RA SCT012 BKN023 OVC043 12/11 A2997 RMK AO2 P0000 T01170111 $",
    "windDirection": 70,
    "windSpeed": 5,
    "windGust": null,
    "visibility": 8,
    "temperatureC": 12,
    "dewPointC": 11,
    "cloudCeiling": 2300,
    "altimeter": "A2997",
    "timestamp": "2025-11-21T13:08:00+00:00",
    "station": "KCPS"
  },
  "kstl": {
    "metar": "KSTL 211333Z 11008KT 6SM -RA BR OVC003 12/11 A2997 RMK AO2 P0001 T01170111 $",
    "windDirection": 110,
    "windSpeed": 8,
    "windGust": null,
    "visibility": 6,
    "temperatureC": 12,
    "dewPointC": 11,
    "cloudCeiling": 300,
    "altimeter": "A2997",
    "timestamp": "2025-11-21T13:33:00+00:00",
    "station": "KSTL"
  }
}