{
  "lastUpdated": "2026-04-28T21:09:50.290440+00:00",
  "kcps": {
    "metar": "KCPS 282053Z VRB06KT 6SM -RA BR OVC100 15/13 A2995 RMK AO2 SLP139 P0006 60006 T01500128 58016 $",
    "windDirection": null,
    "windSpeed": null,
    "windGust": null,
    "visibility": 6,
    "temperatureC": 15,
    "dewPointC": 13,
    "cloudCeiling": 10000,
    "altimeter": "A2995",
    "timestamp": "2026-04-28T20:53:00+00:00",
    "station": "KCPS"
  },
  "kstl": {
    "metar": "KSTL 282051Z 16006KT 10SM FEW029 FEW050 SCT110 BKN140 OVC250 16/09 A2994 RMK AO2 SLP137 T01560094 58020 $",
    "windDirection": 160,
    "windSpeed": 6,
    "windGust": null,
    "visibility": 10,
    "temperatureC": 16,
    "dewPointC": 9,
    "cloudCeiling": 14000,
    "altimeter": "A2994",
    "timestamp": "2026-04-28T20:51:00+00:00",
    "station": "KSTL"
  }
}