{
  "lastUpdated": "2025-12-25T08:51:22.310121+00:00",
  "kcps": {
    "metar": "KCPS 250753Z AUTO 23005KT 10SM BR CLR 17/15 A3003 RMK AO2 SLP165 T01670150 $",
    "windDirection": 230,
    "windSpeed": 5,
    "windGust": null,
    "visibility": 10,
    "temperatureC": 17,
    "dewPointC": 15,
    "cloudCeiling": 99999,
    "altimeter": "A3003",
    "timestamp": "2025-12-25T07:53:00+00:00",
    "station": "KCPS"
  },
  "kstl": {
    "metar": "KSTL 250751Z 25004KT 10SM FEW045 13/13 A3003 RMK AO2 SLP166 T01280128 $",
    "windDirection": 250,
    "windSpeed": 4,
    "windGust": null,
    "visibility": 10,
    "temperatureC": 13,
    "dewPointC": 13,
    "cloudCeiling": null,
    "altimeter": "A3003",
    "timestamp": "2025-12-25T07:51:00+00:00",
    "station": "KSTL"
  }
}