{
  "lastUpdated": "2026-03-25T09:15:43.144000+00:00",
  "kcps": {
    "metar": "KCPS 250853Z AUTO 00000KT 10SM CLR 06/01 A3010 RMK AO2 SLP193 T00610011 58016 $",
    "windDirection": 0,
    "windSpeed": 0,
    "windGust": null,
    "visibility": 10,
    "temperatureC": 6,
    "dewPointC": 1,
    "cloudCeiling": 99999,
    "altimeter": "A3010",
    "timestamp": "2026-03-25T08:53:00+00:00",
    "station": "KCPS"
  },
  "kstl": {
    "metar": "KSTL 250851Z 16004KT 10SM BKN250 11/M02 A3010 RMK AO2 SLP191 T01111022 56016",
    "windDirection": 160,
    "windSpeed": 4,
    "windGust": null,
    "visibility": 10,
    "temperatureC": 11,
    "dewPointC": -2,
    "cloudCeiling": 25000,
    "altimeter": "A3010",
    "timestamp": "2026-03-25T08:51:00+00:00",
    "station": "KSTL"
  }
}