{
  "lastUpdated": "2025-11-01T02:31:10.761257+00:00",
  "kcps": {
    "metar": "KCPS 010153Z 00000KT 10SM CLR 07/04 A3000 RMK AO2 SLP159 T00720039",
    "windDirection": 0,
    "windSpeed": 0,
    "windGust": null,
    "visibility": 10,
    "temperatureC": 7,
    "dewPointC": 4,
    "cloudCeiling": 99999,
    "altimeter": "A3000",
    "timestamp": "2025-11-01T01:53:00+00:00",
    "station": "KCPS"
  },
  "kstl": {
    "metar": "KSTL 010151Z 26005KT 10SM SCT250 11/01 A3000 RMK AO2 SLP163 T01110011 $",
    "windDirection": 260,
    "windSpeed": 5,
    "windGust": null,
    "visibility": 10,
    "temperatureC": 11,
    "dewPointC": 1,
    "cloudCeiling": null,
    "altimeter": "A3000",
    "timestamp": "2025-11-01T01:51:00+00:00",
    "station": "KSTL"
  }
}