{
  "lastUpdated": "2025-11-04T23:02:38.951944+00:00",
  "kcps": {
    "metar": "KCPS 042253Z 17008KT 10SM CLR 20/07 A3002 RMK AO2 SLP166 T02000072",
    "windDirection": 170,
    "windSpeed": 8,
    "windGust": null,
    "visibility": 10,
    "temperatureC": 20,
    "dewPointC": 7,
    "cloudCeiling": 99999,
    "altimeter": "A3002",
    "timestamp": "2025-11-04T22:53:00+00:00",
    "station": "KCPS"
  },
  "kstl": {
    "metar": "KSTL 042251Z 18007KT 10SM BKN250 21/05 A3002 RMK AO2 SLP164 T02110050 $",
    "windDirection": 180,
    "windSpeed": 7,
    "windGust": null,
    "visibility": 10,
    "temperatureC": 21,
    "dewPointC": 5,
    "cloudCeiling": 25000,
    "altimeter": "A3002",
    "timestamp": "2025-11-04T22:51:00+00:00",
    "station": "KSTL"
  }
}