{
  "lastUpdated": "2026-05-22T20:45:54.097410+00:00",
  "kcps": {
    "metar": "KCPS 221953Z 05004KT 10SM OVC020 20/16 A2990 RMK AO2 SLP122 T02000156 $",
    "windDirection": 50,
    "windSpeed": 4,
    "windGust": null,
    "visibility": 10,
    "temperatureC": 20,
    "dewPointC": 16,
    "cloudCeiling": 2000,
    "altimeter": "A2990",
    "timestamp": "2026-05-22T19:53:00+00:00",
    "station": "KCPS"
  },
  "kstl": {
    "metar": "KSTL 221951Z 02007KT 10SM OVC020 19/14 A2992 RMK AO2 SLP125 T01890144 $",
    "windDirection": 20,
    "windSpeed": 7,
    "windGust": null,
    "visibility": 10,
    "temperatureC": 19,
    "dewPointC": 14,
    "cloudCeiling": 2000,
    "altimeter": "A2992",
    "timestamp": "2026-05-22T19:51:00+00:00",
    "station": "KSTL"
  }
}