{
  "lastUpdated": "2025-11-25T00:37:36.223000+00:00",
  "kcps": {
    "metar": "KCPS 242353Z 14009KT 10SM OVC065 11/08 A2993 RMK AO2 SLP136 60003 T01060083 10122 20106 58004 $",
    "windDirection": 140,
    "windSpeed": 9,
    "windGust": null,
    "visibility": 10,
    "temperatureC": 11,
    "dewPointC": 8,
    "cloudCeiling": 6500,
    "altimeter": "A2993",
    "timestamp": "2025-11-24T23:53:00+00:00",
    "station": "KCPS"
  },
  "kstl": {
    "metar": "KSTL 242351Z 13010KT 10SM OVC040 11/08 A2992 RMK AO2 SLP135 60000 T01060083 10117 20106 55006 $",
    "windDirection": 130,
    "windSpeed": 10,
    "windGust": null,
    "visibility": 10,
    "temperatureC": 11,
    "dewPointC": 8,
    "cloudCeiling": 4000,
    "altimeter": "A2992",
    "timestamp": "2025-11-24T23:51:00+00:00",
    "station": "KSTL"
  }
}