{
  "lastUpdated": "2026-01-01T23:34:40.349278+00:00",
  "kcps": {
    "metar": "KCPS 012253Z 07003KT 8SM BR OVC008 02/00 A2992 RMK AO2 SLP135 T00170000 $",
    "windDirection": 70,
    "windSpeed": 3,
    "windGust": null,
    "visibility": 8,
    "temperatureC": 2,
    "dewPointC": 0,
    "cloudCeiling": 800,
    "altimeter": "A2992",
    "timestamp": "2026-01-01T22:53:00+00:00",
    "station": "KCPS"
  },
  "kstl": {
    "metar": "KSTL 012251Z 07004KT 9SM OVC010 01/M01 A2991 RMK AO2 SLP139 T00111011 $",
    "windDirection": 70,
    "windSpeed": 4,
    "windGust": null,
    "visibility": 9,
    "temperatureC": 1,
    "dewPointC": -1,
    "cloudCeiling": 1000,
    "altimeter": "A2991",
    "timestamp": "2026-01-01T22:51:00+00:00",
    "station": "KSTL"
  }
}