{
  "lastUpdated": "2026-05-20T16:45:19.385683+00:00",
  "kcps": {
    "metar": "KCPS 201553Z 36011KT 10SM OVC036 15/10 A3020 RMK AO2 SLP225 T01500100 PNO $",
    "windDirection": 360,
    "windSpeed": 11,
    "windGust": null,
    "visibility": 10,
    "temperatureC": 15,
    "dewPointC": 10,
    "cloudCeiling": 3600,
    "altimeter": "A3020",
    "timestamp": "2026-05-20T15:53:00+00:00",
    "station": "KCPS"
  },
  "kstl": {
    "metar": "KSTL 201551Z 35009KT 10SM FEW021 OVC041 15/09 A3021 RMK AO2 SLP226 T01500094 $",
    "windDirection": 350,
    "windSpeed": 9,
    "windGust": null,
    "visibility": 10,
    "temperatureC": 15,
    "dewPointC": 9,
    "cloudCeiling": 4100,
    "altimeter": "A3021",
    "timestamp": "2026-05-20T15:51:00+00:00",
    "station": "KSTL"
  }
}