{
  "lastUpdated": "2025-12-18T16:54:16.365281+00:00",
  "kcps": {
    "metar": "KCPS 181555Z 18015G26KT 10SM BKN013 13/12 A2953 RMK AO2 T01330117",
    "windDirection": 180,
    "windSpeed": 15,
    "windGust": 26,
    "visibility": 10,
    "temperatureC": 13,
    "dewPointC": 12,
    "cloudCeiling": 1300,
    "altimeter": "A2953",
    "timestamp": "2025-12-18T15:55:00+00:00",
    "station": "KCPS"
  },
  "kstl": {
    "metar": "KSTL 181651Z 17018G27KT 9SM -RA BKN013 BKN021 OVC037 13/12 A2948 RMK AO2 PK WND 18029/1637 RAE14B36 SLP982 P0000 T01330117 $",
    "windDirection": 170,
    "windSpeed": 18,
    "windGust": 27,
    "visibility": 9,
    "temperatureC": 13,
    "dewPointC": 12,
    "cloudCeiling": 1300,
    "altimeter": "A2948",
    "timestamp": "2025-12-18T16:51:00+00:00",
    "station": "KSTL"
  }
}