{
  "lastUpdated": "2025-10-24T15:21:46.305881+00:00",
  "kcps": {
    "metar": "KCPS 241453Z 17003KT 9SM CLR 10/04 A3031 RMK AO2 SLP265 T01000044 51019",
    "windDirection": 170,
    "windSpeed": 3,
    "windGust": null,
    "visibility": 9,
    "temperatureC": 10,
    "dewPointC": 4,
    "cloudCeiling": 99999,
    "altimeter": "A3031",
    "timestamp": "2025-10-24T14:53:00+00:00",
    "station": "KCPS"
  },
  "kstl": {
    "metar": "KSTL 241451Z 10006KT 10SM FEW120 BKN250 12/03 A3030 RMK AO2 SLP263 T01220033 53018 $",
    "windDirection": 100,
    "windSpeed": 6,
    "windGust": null,
    "visibility": 10,
    "temperatureC": 12,
    "dewPointC": 3,
    "cloudCeiling": 25000,
    "altimeter": "A3030",
    "timestamp": "2025-10-24T14:51:00+00:00",
    "station": "KSTL"
  }
}