{
  "lastUpdated": "2026-05-16T22:29:31.296357+00:00",
  "kcps": {
    "metar": "KCPS 162153Z 16010KT 10SM CLR 24/19 A2988 RMK AO2 SLP113 T02390189 $",
    "windDirection": 160,
    "windSpeed": 10,
    "windGust": null,
    "visibility": 10,
    "temperatureC": 24,
    "dewPointC": 19,
    "cloudCeiling": 99999,
    "altimeter": "A2988",
    "timestamp": "2026-05-16T21:53:00+00:00",
    "station": "KCPS"
  },
  "kstl": {
    "metar": "KSTL 162151Z 18005KT 10SM BKN100 OVC120 24/18 A2989 RMK AO2 SLP112 T02390178 $",
    "windDirection": 180,
    "windSpeed": 5,
    "windGust": null,
    "visibility": 10,
    "temperatureC": 24,
    "dewPointC": 18,
    "cloudCeiling": 10000,
    "altimeter": "A2989",
    "timestamp": "2026-05-16T21:51:00+00:00",
    "station": "KSTL"
  }
}