{
  "lastUpdated": "2025-10-26T11:02:22.032595+00:00",
  "kcps": {
    "metar": "KCPS 261053Z AUTO 07006KT 10SM OVC080 11/08 A3020 RMK AO2 RAE07 SLP225 P0000 T01060078 $",
    "windDirection": 70,
    "windSpeed": 6,
    "windGust": null,
    "visibility": 10,
    "temperatureC": 11,
    "dewPointC": 8,
    "cloudCeiling": 8000,
    "altimeter": "A3020",
    "timestamp": "2025-10-26T10:53:00+00:00",
    "station": "KCPS"
  },
  "kstl": {
    "metar": "KSTL 261051Z 09008KT 10SM OVC095 11/07 A3020 RMK AO2 RAB13E43 SLP226 P0000 T01060072 $",
    "windDirection": 90,
    "windSpeed": 8,
    "windGust": null,
    "visibility": 10,
    "temperatureC": 11,
    "dewPointC": 7,
    "cloudCeiling": 9500,
    "altimeter": "A3020",
    "timestamp": "2025-10-26T10:51:00+00:00",
    "station": "KSTL"
  }
}