{
  "lastUpdated": "2026-04-19T04:58:01.455961+00:00",
  "kcps": {
    "metar": "KCPS 190453Z AUTO 25004KT 10SM CLR 08/M01 A3021 RMK AO2 SLP230 T00831006 $",
    "windDirection": 250,
    "windSpeed": 4,
    "windGust": null,
    "visibility": 10,
    "temperatureC": 8,
    "dewPointC": -1,
    "cloudCeiling": 99999,
    "altimeter": "A3021",
    "timestamp": "2026-04-19T04:53:00+00:00",
    "station": "KCPS"
  },
  "kstl": {
    "metar": "KSTL 190451Z 25005KT 10SM CLR 08/M01 A3021 RMK AO2 SLP232 T00781006 $",
    "windDirection": 250,
    "windSpeed": 5,
    "windGust": null,
    "visibility": 10,
    "temperatureC": 8,
    "dewPointC": -1,
    "cloudCeiling": 99999,
    "altimeter": "A3021",
    "timestamp": "2026-04-19T04:51:00+00:00",
    "station": "KSTL"
  }
}