{
  "lastUpdated": "2025-11-17T12:44:16.939113+00:00",
  "kcps": {
    "metar": "KCPS 171153Z AUTO 00000KT 10SM CLR M01/M02 A3008 RMK AO2 SLP190 T10111022 10017 21011 51008 $",
    "windDirection": 0,
    "windSpeed": 0,
    "windGust": null,
    "visibility": 10,
    "temperatureC": -1,
    "dewPointC": -2,
    "cloudCeiling": 99999,
    "altimeter": "A3008",
    "timestamp": "2025-11-17T11:53:00+00:00",
    "station": "KCPS"
  },
  "kstl": {
    "metar": "KSTL 171151Z 11005KT 10SM CLR 03/M03 A3008 RMK AO2 SLP191 T00281028 10050 20017 51008 $",
    "windDirection": 110,
    "windSpeed": 5,
    "windGust": null,
    "visibility": 10,
    "temperatureC": 3,
    "dewPointC": -3,
    "cloudCeiling": 99999,
    "altimeter": "A3008",
    "timestamp": "2025-11-17T11:51:00+00:00",
    "station": "KSTL"
  }
}