{
  "lastUpdated": "2026-01-20T21:47:33.531972+00:00",
  "kcps": {
    "metar": "KCPS 202053Z 19009KT 10SM CLR 03/M14 A3029 RMK AO2 SLP263 T00331144 56036 $",
    "windDirection": 190,
    "windSpeed": 9,
    "windGust": null,
    "visibility": 10,
    "temperatureC": 3,
    "dewPointC": -14,
    "cloudCeiling": 99999,
    "altimeter": "A3029",
    "timestamp": "2026-01-20T20:53:00+00:00",
    "station": "KCPS"
  },
  "kstl": {
    "metar": "KSTL 202051Z 16012KT 10SM SCT100 03/M14 A3027 RMK AO2 SLP266 T00331144 56033 $",
    "windDirection": 160,
    "windSpeed": 12,
    "windGust": null,
    "visibility": 10,
    "temperatureC": 3,
    "dewPointC": -14,
    "cloudCeiling": null,
    "altimeter": "A3027",
    "timestamp": "2026-01-20T20:51:00+00:00",
    "station": "KSTL"
  }
}