{
  "lastUpdated": "2026-01-08T16:55:30.487360+00:00",
  "kcps": {
    "station": "KCPS",
    "metar": "Data unavailable",
    "error": "Failed to fetch METAR"
  },
  "kstl": {
    "metar": "KSTL 081651Z 13016KT 7SM -RA FEW015 FEW042 BKN100 BKN250 13/12 A2971 RMK AO2 RAB12 PRESFR SLP060 P0000 T01280117 $",
    "windDirection": 130,
    "windSpeed": 16,
    "windGust": null,
    "visibility": 7,
    "temperatureC": 13,
    "dewPointC": 12,
    "cloudCeiling": 10000,
    "altimeter": "A2971",
    "timestamp": "2026-01-08T16:51:00+00:00",
    "station": "KSTL"
  }
}