{
  "lastUpdated": "2026-01-23T13:30:09.189940+00:00",
  "kcps": {
    "metar": "KCPS 231253Z 01016KT 10SM CLR M11/M19 A3058 RMK AO2 SLP363 T11061189 $",
    "windDirection": 10,
    "windSpeed": 16,
    "windGust": null,
    "visibility": 10,
    "temperatureC": -11,
    "dewPointC": -19,
    "cloudCeiling": 99999,
    "altimeter": "A3058",
    "timestamp": "2026-01-23T12:53:00+00:00",
    "station": "KCPS"
  },
  "kstl": {
    "metar": "KSTL 231251Z 36013G22KT 10SM SCT150 BKN190 BKN250 M12/M21 A3057 RMK AO2 PK WND 36026/1156 SLP368 T11221211 $",
    "windDirection": 360,
    "windSpeed": 13,
    "windGust": 22,
    "visibility": 10,
    "temperatureC": -12,
    "dewPointC": -21,
    "cloudCeiling": 19000,
    "altimeter": "A3057",
    "timestamp": "2026-01-23T12:51:00+00:00",
    "station": "KSTL"
  }
}