{
  "lastUpdated": "2026-05-17T01:19:49.951230+00:00",
  "kcps": {
    "metar": "KCPS 170053Z 16005KT 10SM CLR 24/19 A2985 RMK AO2 SLP104 T02390194 $",
    "windDirection": 160,
    "windSpeed": 5,
    "windGust": null,
    "visibility": 10,
    "temperatureC": 24,
    "dewPointC": 19,
    "cloudCeiling": 99999,
    "altimeter": "A2985",
    "timestamp": "2026-05-17T00:53:00+00:00",
    "station": "KCPS"
  },
  "kstl": {
    "metar": "KSTL 170051Z 17012KT 10SM BKN100 OVC250 24/19 A2985 RMK AO2 SLP099 T02440194 $",
    "windDirection": 170,
    "windSpeed": 12,
    "windGust": null,
    "visibility": 10,
    "temperatureC": 24,
    "dewPointC": 19,
    "cloudCeiling": 10000,
    "altimeter": "A2985",
    "timestamp": "2026-05-17T00:51:00+00:00",
    "station": "KSTL"
  }
}