{
  "lastUpdated": "2025-11-01T19:18:57.405228+00:00",
  "kcps": {
    "metar": "KCPS 011853Z 29007KT 10SM BKN065 12/M02 A3009 RMK AO2 SLP188 T01221017",
    "windDirection": 290,
    "windSpeed": 7,
    "windGust": null,
    "visibility": 10,
    "temperatureC": 12,
    "dewPointC": -2,
    "cloudCeiling": 6500,
    "altimeter": "A3009",
    "timestamp": "2025-11-01T18:53:00+00:00",
    "station": "KCPS"
  },
  "kstl": {
    "metar": "KSTL 011851Z 27008KT 10SM BKN060 BKN170 BKN250 11/00 A3010 RMK AO2 SLP194 T01110000 $",
    "windDirection": 270,
    "windSpeed": 8,
    "windGust": null,
    "visibility": 10,
    "temperatureC": 11,
    "dewPointC": 0,
    "cloudCeiling": 6000,
    "altimeter": "A3010",
    "timestamp": "2025-11-01T18:51:00+00:00",
    "station": "KSTL"
  }
}