{
  "lastUpdated": "2026-01-25T06:02:49.484791+00:00",
  "kcps": {
    "metar": "KCPS 250553Z AUTO 02009KT 1SM -SN BR VV014 M13/M15 A3021 RMK AO2 SLP238 P0000 60010 T11281150 11122 21128 411221167 58039 $",
    "windDirection": 20,
    "windSpeed": 9,
    "windGust": null,
    "visibility": 1,
    "temperatureC": -13,
    "dewPointC": -15,
    "cloudCeiling": 1400,
    "altimeter": "A3021",
    "timestamp": "2026-01-25T05:53:00+00:00",
    "station": "KCPS"
  },
  "kstl": {
    "metar": "KSTL 250526Z 03008KT 1/2SM R30R/6000VP6000FT SN FZFG VV014 M13/M15 A3022 RMK AO2 P0002 T11281150 $",
    "windDirection": 30,
    "windSpeed": 8,
    "windGust": null,
    "visibility": 0.5,
    "temperatureC": -13,
    "dewPointC": -15,
    "cloudCeiling": 1400,
    "altimeter": "A3022",
    "timestamp": "2026-01-25T05:26:00+00:00",
    "station": "KSTL"
  }
}