{
  "lastUpdated": "2025-12-26T07:34:58.806997+00:00",
  "kcps": {
    "metar": "KCPS 260723Z AUTO 16003KT 2SM BR CLR 14/14 A2978 RMK AO2 T01390139 $",
    "windDirection": 160,
    "windSpeed": 3,
    "windGust": null,
    "visibility": 2,
    "temperatureC": 14,
    "dewPointC": 14,
    "cloudCeiling": 99999,
    "altimeter": "A2978",
    "timestamp": "2025-12-26T07:23:00+00:00",
    "station": "KCPS"
  },
  "kstl": {
    "metar": "KSTL 260651Z 18003KT 7SM BKN230 14/14 A2978 RMK AO2 SLP079 T01440144 $",
    "windDirection": 180,
    "windSpeed": 3,
    "windGust": null,
    "visibility": 7,
    "temperatureC": 14,
    "dewPointC": 14,
    "cloudCeiling": 23000,
    "altimeter": "A2978",
    "timestamp": "2025-12-26T06:51:00+00:00",
    "station": "KSTL"
  }
}