{
  "lastUpdated": "2025-12-22T01:55:08.533481+00:00",
  "kcps": {
    "metar": "KCPS 220053Z 00000KT 10SM CLR M02/M07 A3044 RMK AO2 SLP314 T10171067 $",
    "windDirection": 0,
    "windSpeed": 0,
    "windGust": null,
    "visibility": 10,
    "temperatureC": -2,
    "dewPointC": -7,
    "cloudCeiling": 99999,
    "altimeter": "A3044",
    "timestamp": "2025-12-22T00:53:00+00:00",
    "station": "KCPS"
  },
  "kstl": {
    "metar": "KSTL 220051Z 11006KT 10SM BKN250 01/M07 A3044 RMK AO2 SLP319 T00061072 $",
    "windDirection": 110,
    "windSpeed": 6,
    "windGust": null,
    "visibility": 10,
    "temperatureC": 1,
    "dewPointC": -7,
    "cloudCeiling": 25000,
    "altimeter": "A3044",
    "timestamp": "2025-12-22T00:51:00+00:00",
    "station": "KSTL"
  }
}