{
  "lastUpdated": "2026-02-21T20:22:07.460011+00:00",
  "kcps": {
    "metar": "KCPS 211953Z 31012G21KT 10SM CLR 05/M08 A3022 RMK AO2 SLP237 T00501078 PNO $",
    "windDirection": 310,
    "windSpeed": 12,
    "windGust": 21,
    "visibility": 10,
    "temperatureC": 5,
    "dewPointC": -8,
    "cloudCeiling": 99999,
    "altimeter": "A3022",
    "timestamp": "2026-02-21T19:53:00+00:00",
    "station": "KCPS"
  },
  "kstl": {
    "metar": "KSTL 211951Z 29009G20KT 10SM FEW095 04/M07 A3022 RMK AO2 SLP242 T00441072 $",
    "windDirection": 290,
    "windSpeed": 9,
    "windGust": 20,
    "visibility": 10,
    "temperatureC": 4,
    "dewPointC": -7,
    "cloudCeiling": null,
    "altimeter": "A3022",
    "timestamp": "2026-02-21T19:51:00+00:00",
    "station": "KSTL"
  }
}