{
  "lastUpdated": "2025-11-14T03:34:48.479232+00:00",
  "kcps": {
    "metar": "KCPS 140253Z 18003KT 10SM CLR 13/03 A3010 RMK AO2 SLP194 T01280033 56006",
    "windDirection": 180,
    "windSpeed": 3,
    "windGust": null,
    "visibility": 10,
    "temperatureC": 13,
    "dewPointC": 3,
    "cloudCeiling": 99999,
    "altimeter": "A3010",
    "timestamp": "2025-11-14T02:53:00+00:00",
    "station": "KCPS"
  },
  "kstl": {
    "metar": "KSTL 140251Z 17006G14KT 10SM CLR 14/03 A3010 RMK AO2 SLP192 T01390028 58004",
    "windDirection": 170,
    "windSpeed": 6,
    "windGust": 14,
    "visibility": 10,
    "temperatureC": 14,
    "dewPointC": 3,
    "cloudCeiling": 99999,
    "altimeter": "A3010",
    "timestamp": "2025-11-14T02:51:00+00:00",
    "station": "KSTL"
  }
}