{
  "lastUpdated": "2025-10-24T13:48:52.613990+00:00",
  "kcps": {
    "metar": "KCPS 241253Z 00000KT 10SM CLR 02/02 A3027 RMK AO2 SLP252 T00170017",
    "windDirection": 0,
    "windSpeed": 0,
    "windGust": null,
    "visibility": 10,
    "temperatureC": 2,
    "dewPointC": 2,
    "cloudCeiling": 99999,
    "altimeter": "A3027",
    "timestamp": "2025-10-24T12:53:00+00:00",
    "station": "KCPS"
  },
  "kstl": {
    "metar": "KSTL 241251Z 00000KT 9SM FEW090 BKN250 05/03 A3026 RMK AO2 SLP250 T00500033 $",
    "windDirection": 0,
    "windSpeed": 0,
    "windGust": null,
    "visibility": 9,
    "temperatureC": 5,
    "dewPointC": 3,
    "cloudCeiling": 25000,
    "altimeter": "A3026",
    "timestamp": "2025-10-24T12:51:00+00:00",
    "station": "KSTL"
  }
}