{
  "lastUpdated": "2025-11-13T19:02:22.906114+00:00",
  "kcps": {
    "metar": "KCPS 131853Z 12008KT 10SM CLR 19/00 A3019 RMK AO2 SLP223 T01890000",
    "windDirection": 120,
    "windSpeed": 8,
    "windGust": null,
    "visibility": 10,
    "temperatureC": 19,
    "dewPointC": 0,
    "cloudCeiling": 99999,
    "altimeter": "A3019",
    "timestamp": "2025-11-13T18:53:00+00:00",
    "station": "KCPS"
  },
  "kstl": {
    "metar": "KSTL 131851Z 13007KT 10SM FEW200 FEW250 18/01 A3019 RMK AO2 SLP224 T01830006",
    "windDirection": 130,
    "windSpeed": 7,
    "windGust": null,
    "visibility": 10,
    "temperatureC": 18,
    "dewPointC": 1,
    "cloudCeiling": null,
    "altimeter": "A3019",
    "timestamp": "2025-11-13T18:51:00+00:00",
    "station": "KSTL"
  }
}