{
  "lastUpdated": "2025-10-25T17:32:28.992148+00:00",
  "kcps": {
    "metar": "KCPS 251653Z 14007KT 10SM OVC090 14/04 A3027 RMK AO2 SLP249 T01440044 $",
    "windDirection": 140,
    "windSpeed": 7,
    "windGust": null,
    "visibility": 10,
    "temperatureC": 14,
    "dewPointC": 4,
    "cloudCeiling": 9000,
    "altimeter": "A3027",
    "timestamp": "2025-10-25T16:53:00+00:00",
    "station": "KCPS"
  },
  "kstl": {
    "metar": "KSTL 251651Z 12008KT 10SM OVC075 14/04 A3027 RMK AO2 SLP248 T01390039 $",
    "windDirection": 120,
    "windSpeed": 8,
    "windGust": null,
    "visibility": 10,
    "temperatureC": 14,
    "dewPointC": 4,
    "cloudCeiling": 7500,
    "altimeter": "A3027",
    "timestamp": "2025-10-25T16:51:00+00:00",
    "station": "KSTL"
  }
}