{
  "lastUpdated": "2026-05-11T08:45:43.989093+00:00",
  "kcps": {
    "metar": "KCPS 110753Z AUTO 00000KT 10SM CLR 07/07 A3016 RMK AO2 SLP212 T00720067 $",
    "windDirection": 0,
    "windSpeed": 0,
    "windGust": null,
    "visibility": 10,
    "temperatureC": 7,
    "dewPointC": 7,
    "cloudCeiling": 99999,
    "altimeter": "A3016",
    "timestamp": "2026-05-11T07:53:00+00:00",
    "station": "KCPS"
  },
  "kstl": {
    "metar": "KSTL 110751Z 00000KT 10SM FEW250 09/06 A3016 RMK AO2 SLP212 T00940056 $",
    "windDirection": 0,
    "windSpeed": 0,
    "windGust": null,
    "visibility": 10,
    "temperatureC": 9,
    "dewPointC": 6,
    "cloudCeiling": null,
    "altimeter": "A3016",
    "timestamp": "2026-05-11T07:51:00+00:00",
    "station": "KSTL"
  }
}