{
  "lastUpdated": "2026-05-27T19:15:49.059336+00:00",
  "kcps": {
    "metar": "KCPS 271853Z 17005KT 10SM BKN043 BKN050 OVC080 27/19 A2998 RMK AO2 SLP147 T02720189 $",
    "windDirection": 170,
    "windSpeed": 5,
    "windGust": null,
    "visibility": 10,
    "temperatureC": 27,
    "dewPointC": 19,
    "cloudCeiling": 4300,
    "altimeter": "A2998",
    "timestamp": "2026-05-27T18:53:00+00:00",
    "station": "KCPS"
  },
  "kstl": {
    "metar": "KSTL 271851Z 08005KT 10SM SCT048 BKN080 BKN250 28/17 A2999 RMK AO2 SLP143 T02830172 $",
    "windDirection": 80,
    "windSpeed": 5,
    "windGust": null,
    "visibility": 10,
    "temperatureC": 28,
    "dewPointC": 17,
    "cloudCeiling": 8000,
    "altimeter": "A2999",
    "timestamp": "2026-05-27T18:51:00+00:00",
    "station": "KSTL"
  }
}