{
  "lastUpdated": "2026-06-03T02:38:56.340051+00:00",
  "kcps": {
    "metar": "KCPS 030153Z 00000KT 10SM CLR 22/10 A3020 RMK AO2 SLP225 T02170100 $",
    "windDirection": 0,
    "windSpeed": 0,
    "windGust": null,
    "visibility": 10,
    "temperatureC": 22,
    "dewPointC": 10,
    "cloudCeiling": 99999,
    "altimeter": "A3020",
    "timestamp": "2026-06-03T01:53:00+00:00",
    "station": "KCPS"
  },
  "kstl": {
    "metar": "KSTL 030151Z 12005KT 10SM SCT250 23/09 A3021 RMK AO2 SLP223 T02280094 $",
    "windDirection": 120,
    "windSpeed": 5,
    "windGust": null,
    "visibility": 10,
    "temperatureC": 23,
    "dewPointC": 9,
    "cloudCeiling": null,
    "altimeter": "A3021",
    "timestamp": "2026-06-03T01:51:00+00:00",
    "station": "KSTL"
  }
}