{
  "lastUpdated": "2026-03-28T03:36:48.357170+00:00",
  "kcps": {
    "metar": "KCPS 280253Z 35010KT 10SM CLR 08/M04 A3058 RMK AO2 SLP357 T00831039 53023 $",
    "windDirection": 350,
    "windSpeed": 10,
    "windGust": null,
    "visibility": 10,
    "temperatureC": 8,
    "dewPointC": -4,
    "cloudCeiling": 99999,
    "altimeter": "A3058",
    "timestamp": "2026-03-28T02:53:00+00:00",
    "station": "KCPS"
  },
  "kstl": {
    "metar": "KSTL 280251Z 35007KT 10SM SCT250 07/M04 A3059 RMK AO2 SLP363 T00721044 52023 $",
    "windDirection": 350,
    "windSpeed": 7,
    "windGust": null,
    "visibility": 10,
    "temperatureC": 7,
    "dewPointC": -4,
    "cloudCeiling": null,
    "altimeter": "A3059",
    "timestamp": "2026-03-28T02:51:00+00:00",
    "station": "KSTL"
  }
}