{
  "lastUpdated": "2025-10-26T20:02:39.040464+00:00",
  "kcps": {
    "metar": "KCPS 261953Z 08005KT 7SM -RA OVC050 12/10 A3014 RMK AO2 SLP207 P0006 T01170100 $",
    "windDirection": 80,
    "windSpeed": 5,
    "windGust": null,
    "visibility": 7,
    "temperatureC": 12,
    "dewPointC": 10,
    "cloudCeiling": 5000,
    "altimeter": "A3014",
    "timestamp": "2025-10-26T19:53:00+00:00",
    "station": "KCPS"
  },
  "kstl": {
    "metar": "KSTL 261951Z 10012KT 10SM -RA OVC055 12/09 A3014 RMK AO2 SLP208 P0003 T01170094 $",
    "windDirection": 100,
    "windSpeed": 12,
    "windGust": null,
    "visibility": 10,
    "temperatureC": 12,
    "dewPointC": 9,
    "cloudCeiling": 5500,
    "altimeter": "A3014",
    "timestamp": "2025-10-26T19:51:00+00:00",
    "station": "KSTL"
  }
}