{
  "lastUpdated": "2026-01-20T19:10:23.268787+00:00",
  "kcps": {
    "metar": "KCPS 201853Z 19009G18KT 10SM SCT080 BKN090 01/M14 A3035 RMK AO2 SLP284 T00111144 $",
    "windDirection": 190,
    "windSpeed": 9,
    "windGust": 18,
    "visibility": 10,
    "temperatureC": 1,
    "dewPointC": -14,
    "cloudCeiling": 9000,
    "altimeter": "A3035",
    "timestamp": "2026-01-20T18:53:00+00:00",
    "station": "KCPS"
  },
  "kstl": {
    "metar": "KSTL 201851Z 18012G17KT 10SM FEW090 SCT150 SCT220 01/M14 A3034 RMK AO2 SLP289 T00111144 $",
    "windDirection": 180,
    "windSpeed": 12,
    "windGust": 17,
    "visibility": 10,
    "temperatureC": 1,
    "dewPointC": -14,
    "cloudCeiling": null,
    "altimeter": "A3034",
    "timestamp": "2026-01-20T18:51:00+00:00",
    "station": "KSTL"
  }
}