{
  "lastUpdated": "2025-11-13T09:21:59.659620+00:00",
  "kcps": {
    "metar": "KCPS 130853Z AUTO 00000KT 10SM CLR 02/01 A3021 RMK AO2 SLP230 T00170006 51006 TSNO",
    "windDirection": 0,
    "windSpeed": 0,
    "windGust": null,
    "visibility": 10,
    "temperatureC": 2,
    "dewPointC": 1,
    "cloudCeiling": 99999,
    "altimeter": "A3021",
    "timestamp": "2025-11-13T08:53:00+00:00",
    "station": "KCPS"
  },
  "kstl": {
    "metar": "KSTL 130851Z 00000KT 10SM OVC220 06/02 A3021 RMK AO2 SLP229 T00610022 53005",
    "windDirection": 0,
    "windSpeed": 0,
    "windGust": null,
    "visibility": 10,
    "temperatureC": 6,
    "dewPointC": 2,
    "cloudCeiling": 22000,
    "altimeter": "A3021",
    "timestamp": "2025-11-13T08:51:00+00:00",
    "station": "KSTL"
  }
}