{
  "lastUpdated": "2026-04-09T15:48:19.835070+00:00",
  "kcps": {
    "metar": "KCPS 091453Z 22008G18KT 10SM CLR 21/06 A3021 RMK AO2 SLP227 T02110061 50006 $",
    "windDirection": 220,
    "windSpeed": 8,
    "windGust": 18,
    "visibility": 10,
    "temperatureC": 21,
    "dewPointC": 6,
    "cloudCeiling": 99999,
    "altimeter": "A3021",
    "timestamp": "2026-04-09T14:53:00+00:00",
    "station": "KCPS"
  },
  "kstl": {
    "metar": "KSTL 091451Z 22010KT 10SM FEW090 FEW250 22/05 A3021 RMK AO2 SLP222 ACC N T02170050 51007 $",
    "windDirection": 220,
    "windSpeed": 10,
    "windGust": null,
    "visibility": 10,
    "temperatureC": 22,
    "dewPointC": 5,
    "cloudCeiling": null,
    "altimeter": "A3021",
    "timestamp": "2026-04-09T14:51:00+00:00",
    "station": "KSTL"
  }
}