{
  "lastUpdated": "2025-11-28T23:46:31.072806+00:00",
  "kcps": {
    "metar": "KCPS 282253Z 16003KT 10SM SCT120 01/M07 A3039 RMK AO2 SLP295 T00111072 $",
    "windDirection": 160,
    "windSpeed": 3,
    "windGust": null,
    "visibility": 10,
    "temperatureC": 1,
    "dewPointC": -7,
    "cloudCeiling": null,
    "altimeter": "A3039",
    "timestamp": "2025-11-28T22:53:00+00:00",
    "station": "KCPS"
  },
  "kstl": {
    "metar": "KSTL 282251Z 09006KT 10SM BKN130 OVC250 02/M08 A3038 RMK AO2 SLP299 T00171083 $",
    "windDirection": 90,
    "windSpeed": 6,
    "windGust": null,
    "visibility": 10,
    "temperatureC": 2,
    "dewPointC": -8,
    "cloudCeiling": 13000,
    "altimeter": "A3038",
    "timestamp": "2025-11-28T22:51:00+00:00",
    "station": "KSTL"
  }
}