{
  "lastUpdated": "2026-06-08T19:32:36.535861+00:00",
  "kcps": {
    "metar": "KCPS 081853Z 13006KT 10SM FEW038 28/24 A2989 RMK AO2 SLP119 T02780244 $",
    "windDirection": 130,
    "windSpeed": 6,
    "windGust": null,
    "visibility": 10,
    "temperatureC": 28,
    "dewPointC": 24,
    "cloudCeiling": null,
    "altimeter": "A2989",
    "timestamp": "2026-06-08T18:53:00+00:00",
    "station": "KCPS"
  },
  "kstl": {
    "metar": "KSTL 081851Z 16012KT 10SM FEW015 SCT130 SCT180 BKN250 27/23 A2991 RMK AO2 SLP115 T02720233 $",
    "windDirection": 160,
    "windSpeed": 12,
    "windGust": null,
    "visibility": 10,
    "temperatureC": 27,
    "dewPointC": 23,
    "cloudCeiling": 25000,
    "altimeter": "A2991",
    "timestamp": "2026-06-08T18:51:00+00:00",
    "station": "KSTL"
  }
}