{
  "lastUpdated": "2025-11-24T23:02:20.676015+00:00",
  "kcps": {
    "metar": "KCPS 242253Z 13007KT 10SM FEW025 OVC100 11/08 A2993 RMK AO2 RAE2158B40E49 SLP134 P0000 T01060083 $",
    "windDirection": 130,
    "windSpeed": 7,
    "windGust": null,
    "visibility": 10,
    "temperatureC": 11,
    "dewPointC": 8,
    "cloudCeiling": 10000,
    "altimeter": "A2993",
    "timestamp": "2025-11-24T22:53:00+00:00",
    "station": "KCPS"
  },
  "kstl": {
    "metar": "KSTL 242251Z 12011KT 10SM FEW013 SCT043 OVC095 11/08 A2992 RMK AO2 RAB2157E34 SLP133 P0000 T01060083 $",
    "windDirection": 120,
    "windSpeed": 11,
    "windGust": null,
    "visibility": 10,
    "temperatureC": 11,
    "dewPointC": 8,
    "cloudCeiling": 9500,
    "altimeter": "A2992",
    "timestamp": "2025-11-24T22:51:00+00:00",
    "station": "KSTL"
  }
}