{
  "lastUpdated": "2026-01-19T19:04:23.827551+00:00",
  "kcps": {
    "metar": "KCPS 191853Z 31015G22KT 10SM CLR M06/M19 A3043 RMK AO2 PK WND 29026/1811 SLP310 T10561189 $",
    "windDirection": 310,
    "windSpeed": 15,
    "windGust": 22,
    "visibility": 10,
    "temperatureC": -6,
    "dewPointC": -19,
    "cloudCeiling": 99999,
    "altimeter": "A3043",
    "timestamp": "2026-01-19T18:53:00+00:00",
    "station": "KCPS"
  },
  "kstl": {
    "metar": "KSTL 191851Z 28014G25KT 10SM FEW200 SCT250 M07/M20 A3042 RMK AO2 SLP317 T10671200 $",
    "windDirection": 280,
    "windSpeed": 14,
    "windGust": 25,
    "visibility": 10,
    "temperatureC": -7,
    "dewPointC": -20,
    "cloudCeiling": null,
    "altimeter": "A3042",
    "timestamp": "2026-01-19T18:51:00+00:00",
    "station": "KSTL"
  }
}