{
  "lastUpdated": "2026-04-29T09:27:20.709678+00:00",
  "kcps": {
    "metar": "KCPS 290853Z AUTO 34005KT 10SM FEW040 BKN070 13/12 A2993 RMK AO2 SLP134 60001 T01280117 55003 $",
    "windDirection": 340,
    "windSpeed": 5,
    "windGust": null,
    "visibility": 10,
    "temperatureC": 13,
    "dewPointC": 12,
    "cloudCeiling": 7000,
    "altimeter": "A2993",
    "timestamp": "2026-04-29T08:53:00+00:00",
    "station": "KCPS"
  },
  "kstl": {
    "metar": "KSTL 290851Z 33007KT 10SM FEW045 FEW080 12/11 A2994 RMK AO2 RAE0755 SLP137 P0000 60008 T01220111 55005 $",
    "windDirection": 330,
    "windSpeed": 7,
    "windGust": null,
    "visibility": 10,
    "temperatureC": 12,
    "dewPointC": 11,
    "cloudCeiling": null,
    "altimeter": "A2994",
    "timestamp": "2026-04-29T08:51:00+00:00",
    "station": "KSTL"
  }
}