{
  "lastUpdated": "2025-11-21T22:02:12.466145+00:00",
  "kcps": {
    "metar": "KCPS 212153Z 02004KT 2 1/2SM BR OVC003 14/14 A2985 RMK AO2 SLP107 T01440139",
    "windDirection": 20,
    "windSpeed": 4,
    "windGust": null,
    "visibility": 0.5,
    "temperatureC": 14,
    "dewPointC": 14,
    "cloudCeiling": 300,
    "altimeter": "A2985",
    "timestamp": "2025-11-21T21:53:00+00:00",
    "station": "KCPS"
  },
  "kstl": {
    "metar": "KSTL 212151Z 04007KT 2SM BR OVC003 13/12 A2986 RMK AO2 SLP111 T01280122 $",
    "windDirection": 40,
    "windSpeed": 7,
    "windGust": null,
    "visibility": 2,
    "temperatureC": 13,
    "dewPointC": 12,
    "cloudCeiling": 300,
    "altimeter": "A2986",
    "timestamp": "2025-11-21T21:51:00+00:00",
    "station": "KSTL"
  }
}