{
  "lastUpdated": "2025-12-07T06:02:33.817077+00:00",
  "kcps": {
    "metar": "KCPS 070553Z AUTO 16009KT 6SM BR BKN011 OVC090 03/01 A2993 RMK AO2 SLP138 T00280011 10061 20028 401001028 53008 $",
    "windDirection": 160,
    "windSpeed": 9,
    "windGust": null,
    "visibility": 6,
    "temperatureC": 3,
    "dewPointC": 1,
    "cloudCeiling": 1100,
    "altimeter": "A2993",
    "timestamp": "2025-12-07T05:53:00+00:00",
    "station": "KCPS"
  },
  "kstl": {
    "metar": "KSTL 070551Z 16006KT 10SM OVC095 04/01 A2992 RMK AO2 SLP137 4/001 T00390006 10067 20039 400831017 53010 $",
    "windDirection": 160,
    "windSpeed": 6,
    "windGust": null,
    "visibility": 10,
    "temperatureC": 4,
    "dewPointC": 1,
    "cloudCeiling": 9500,
    "altimeter": "A2992",
    "timestamp": "2025-12-07T05:51:00+00:00",
    "station": "KSTL"
  }
}