{
  "lastUpdated": "2025-11-15T21:20:35.597390+00:00",
  "kcps": {
    "metar": "KCPS 152053Z 30008KT 10SM CLR 27/14 A2964 RMK AO2 SLP034 T02670139 55010 $",
    "windDirection": 300,
    "windSpeed": 8,
    "windGust": null,
    "visibility": 10,
    "temperatureC": 27,
    "dewPointC": 14,
    "cloudCeiling": 99999,
    "altimeter": "A2964",
    "timestamp": "2025-11-15T20:53:00+00:00",
    "station": "KCPS"
  },
  "kstl": {
    "metar": "KSTL 152051Z 30012KT 10SM FEW150 FEW250 26/14 A2966 RMK AO2 SLP036 T02560139 55007 $",
    "windDirection": 300,
    "windSpeed": 12,
    "windGust": null,
    "visibility": 10,
    "temperatureC": 26,
    "dewPointC": 14,
    "cloudCeiling": null,
    "altimeter": "A2966",
    "timestamp": "2025-11-15T20:51:00+00:00",
    "station": "KSTL"
  }
}