{
  "lastUpdated": "2026-02-08T10:22:30.309261+00:00",
  "kcps": {
    "metar": "KCPS 080953Z 15009KT 10SM CLR M03/M09 A3022 RMK AO2 SLP237 T10331089 $",
    "windDirection": 150,
    "windSpeed": 9,
    "windGust": null,
    "visibility": 10,
    "temperatureC": -3,
    "dewPointC": -9,
    "cloudCeiling": 99999,
    "altimeter": "A3022",
    "timestamp": "2026-02-08T09:53:00+00:00",
    "station": "KCPS"
  },
  "kstl": {
    "metar": "KSTL 080951Z 13010KT 10SM FEW080 SCT250 M03/M09 A3020 RMK AO2 SLP235 T10281089 $",
    "windDirection": 130,
    "windSpeed": 10,
    "windGust": null,
    "visibility": 10,
    "temperatureC": -3,
    "dewPointC": -9,
    "cloudCeiling": null,
    "altimeter": "A3020",
    "timestamp": "2026-02-08T09:51:00+00:00",
    "station": "KSTL"
  }
}