{
  "lastUpdated": "2025-12-15T15:38:10.226293+00:00",
  "kcps": {
    "metar": "KCPS 151353Z 17009KT 10SM CLR M11/M16 A3046 RMK AO2 SLP321 T11061156 $",
    "windDirection": 170,
    "windSpeed": 9,
    "windGust": null,
    "visibility": 10,
    "temperatureC": -11,
    "dewPointC": -16,
    "cloudCeiling": 99999,
    "altimeter": "A3046",
    "timestamp": "2025-12-15T13:53:00+00:00",
    "station": "KCPS"
  },
  "kstl": {
    "metar": "KSTL 151451Z 19010KT 10SM FEW150 FEW250 M08/M16 A3039 RMK AO2 SLP309 T10781161 58026 $",
    "windDirection": 190,
    "windSpeed": 10,
    "windGust": null,
    "visibility": 10,
    "temperatureC": -8,
    "dewPointC": -16,
    "cloudCeiling": null,
    "altimeter": "A3039",
    "timestamp": "2025-12-15T14:51:00+00:00",
    "station": "KSTL"
  }
}