{
  "lastUpdated": "2025-11-04T08:02:50.190693+00:00",
  "kcps": {
    "metar": "KCPS 040753Z AUTO 00000KT 10SM CLR 03/03 A3030 RMK AO2 SLP260 T00330033 TSNO",
    "windDirection": 0,
    "windSpeed": 0,
    "windGust": null,
    "visibility": 10,
    "temperatureC": 3,
    "dewPointC": 3,
    "cloudCeiling": 99999,
    "altimeter": "A3030",
    "timestamp": "2025-11-04T07:53:00+00:00",
    "station": "KCPS"
  },
  "kstl": {
    "metar": "KSTL 040751Z 00000KT 10SM BKN250 06/03 A3030 RMK AO2 SLP258 T00610028 $",
    "windDirection": 0,
    "windSpeed": 0,
    "windGust": null,
    "visibility": 10,
    "temperatureC": 6,
    "dewPointC": 3,
    "cloudCeiling": 25000,
    "altimeter": "A3030",
    "timestamp": "2025-11-04T07:51:00+00:00",
    "station": "KSTL"
  }
}