{
  "lastUpdated": "2025-11-30T18:39:11.966160+00:00",
  "kcps": {
    "metar": "KCPS 301753Z 31016KT 10SM FEW032 M02/M08 A3041 RMK AO2 SLP301 T10171083 11017 21033 51018 $",
    "windDirection": 310,
    "windSpeed": 16,
    "windGust": null,
    "visibility": 10,
    "temperatureC": -2,
    "dewPointC": -8,
    "cloudCeiling": null,
    "altimeter": "A3041",
    "timestamp": "2025-11-30T17:53:00+00:00",
    "station": "KCPS"
  },
  "kstl": {
    "metar": "KSTL 301751Z 32013G22KT 10SM SCT027 BKN250 M03/M09 A3041 RMK AO2 SLP310 4/003 933003 T10331089 11028 21044 51020 $",
    "windDirection": 320,
    "windSpeed": 13,
    "windGust": 22,
    "visibility": 10,
    "temperatureC": -3,
    "dewPointC": -9,
    "cloudCeiling": 25000,
    "altimeter": "A3041",
    "timestamp": "2025-11-30T17:51:00+00:00",
    "station": "KSTL"
  }
}