{
  "lastUpdated": "2026-03-21T15:49:58.343679+00:00",
  "kcps": {
    "metar": "KCPS 211453Z 09004KT 10SM CLR 20/09 A2988 RMK AO2 SLP115 T02000094 50003 $",
    "windDirection": 90,
    "windSpeed": 4,
    "windGust": null,
    "visibility": 10,
    "temperatureC": 20,
    "dewPointC": 9,
    "cloudCeiling": 99999,
    "altimeter": "A2988",
    "timestamp": "2026-03-21T14:53:00+00:00",
    "station": "KCPS"
  },
  "kstl": {
    "metar": "KSTL 211451Z 11006KT 10SM FEW120 FEW250 19/09 A2989 RMK AO2 SLP113 T01890089 50003 $",
    "windDirection": 110,
    "windSpeed": 6,
    "windGust": null,
    "visibility": 10,
    "temperatureC": 19,
    "dewPointC": 9,
    "cloudCeiling": null,
    "altimeter": "A2989",
    "timestamp": "2026-03-21T14:51:00+00:00",
    "station": "KSTL"
  }
}