{
  "lastUpdated": "2026-01-31T17:22:03.564785+00:00",
  "kcps": {
    "metar": "KCPS 311653Z 31012KT 10SM CLR M11/M17 A3056 RMK AO2 SLP355 T11061172 $",
    "windDirection": 310,
    "windSpeed": 12,
    "windGust": null,
    "visibility": 10,
    "temperatureC": -11,
    "dewPointC": -17,
    "cloudCeiling": 99999,
    "altimeter": "A3056",
    "timestamp": "2026-01-31T16:53:00+00:00",
    "station": "KCPS"
  },
  "kstl": {
    "metar": "KSTL 311651Z 30009KT 10SM FEW120 M12/M18 A3055 RMK AO2 SLP367 T11171178 $",
    "windDirection": 300,
    "windSpeed": 9,
    "windGust": null,
    "visibility": 10,
    "temperatureC": -12,
    "dewPointC": -18,
    "cloudCeiling": null,
    "altimeter": "A3055",
    "timestamp": "2026-01-31T16:51:00+00:00",
    "station": "KSTL"
  }
}