{
  "lastUpdated": "2026-05-30T15:52:20.011599+00:00",
  "kcps": {
    "metar": "KCPS 301453Z 09003KT 10SM CLR 26/21 A2995 RMK AO2 SLP137 T02610206 50007 $",
    "windDirection": 90,
    "windSpeed": 3,
    "windGust": null,
    "visibility": 10,
    "temperatureC": 26,
    "dewPointC": 21,
    "cloudCeiling": 99999,
    "altimeter": "A2995",
    "timestamp": "2026-05-30T14:53:00+00:00",
    "station": "KCPS"
  },
  "kstl": {
    "metar": "KSTL 301451Z 10003KT 10SM FEW030 BKN140 BKN250 25/19 A2996 RMK AO2 SLP134 T02500189 50008 $",
    "windDirection": 100,
    "windSpeed": 3,
    "windGust": null,
    "visibility": 10,
    "temperatureC": 25,
    "dewPointC": 19,
    "cloudCeiling": 14000,
    "altimeter": "A2996",
    "timestamp": "2026-05-30T14:51:00+00:00",
    "station": "KSTL"
  }
}