{
  "lastUpdated": "2026-01-10T08:22:47.213503+00:00",
  "kcps": {
    "metar": "KCPS 100753Z AUTO 34005KT 10SM CLR 04/03 A3008 RMK AO2 SLP187 T00440028 $",
    "windDirection": 340,
    "windSpeed": 5,
    "windGust": null,
    "visibility": 10,
    "temperatureC": 4,
    "dewPointC": 3,
    "cloudCeiling": 99999,
    "altimeter": "A3008",
    "timestamp": "2026-01-10T07:53:00+00:00",
    "station": "KCPS"
  },
  "kstl": {
    "metar": "KSTL 100751Z 34004KT 10SM SCT150 OVC250 04/03 A3008 RMK AO2 SLP191 T00440028 $",
    "windDirection": 340,
    "windSpeed": 4,
    "windGust": null,
    "visibility": 10,
    "temperatureC": 4,
    "dewPointC": 3,
    "cloudCeiling": 25000,
    "altimeter": "A3008",
    "timestamp": "2026-01-10T07:51:00+00:00",
    "station": "KSTL"
  }
}