{
  "lastUpdated": "2026-04-19T21:57:04.911837+00:00",
  "kcps": {
    "metar": "KCPS 192153Z 32014G25KT 10SM SCT040 SCT110 19/M01 A3016 RMK AO2 PK WND 31030/2130 SLP214 T01891011 $",
    "windDirection": 320,
    "windSpeed": 14,
    "windGust": 25,
    "visibility": 10,
    "temperatureC": 19,
    "dewPointC": -1,
    "cloudCeiling": null,
    "altimeter": "A3016",
    "timestamp": "2026-04-19T21:53:00+00:00",
    "station": "KCPS"
  },
  "kstl": {
    "metar": "KSTL 192151Z 28011G23KT 10SM FEW100 19/M01 A3017 RMK AO2 SLP216 T01891006 $",
    "windDirection": 280,
    "windSpeed": 11,
    "windGust": 23,
    "visibility": 10,
    "temperatureC": 19,
    "dewPointC": -1,
    "cloudCeiling": null,
    "altimeter": "A3017",
    "timestamp": "2026-04-19T21:51:00+00:00",
    "station": "KSTL"
  }
}