{
  "lastUpdated": "2026-02-17T18:03:13.465617+00:00",
  "kcps": {
    "metar": "KCPS 171753Z 16008KT 10SM CLR 13/08 A2986 RMK AO2 SLP111 T01330083 10133 20061 58018 $",
    "windDirection": 160,
    "windSpeed": 8,
    "windGust": null,
    "visibility": 10,
    "temperatureC": 13,
    "dewPointC": 8,
    "cloudCeiling": 99999,
    "altimeter": "A2986",
    "timestamp": "2026-02-17T17:53:00+00:00",
    "station": "KCPS"
  },
  "kstl": {
    "metar": "KSTL 171751Z AUTO 17010KT 10SM BKN180 BKN250 13/08 A2985 RMK AO2 SLP108 T01330078 10133 20067 58017 $",
    "windDirection": 170,
    "windSpeed": 10,
    "windGust": null,
    "visibility": 10,
    "temperatureC": 13,
    "dewPointC": 8,
    "cloudCeiling": 18000,
    "altimeter": "A2985",
    "timestamp": "2026-02-17T17:51:00+00:00",
    "station": "KSTL"
  }
}