{
  "lastUpdated": "2026-05-18T13:33:58.941417+00:00",
  "kcps": {
    "metar": "KCPS 181253Z 17007KT 10SM FEW035 FEW120 25/21 A2990 RMK AO2 SLP120 T02500206",
    "windDirection": 170,
    "windSpeed": 7,
    "windGust": null,
    "visibility": 10,
    "temperatureC": 25,
    "dewPointC": 21,
    "cloudCeiling": null,
    "altimeter": "A2990",
    "timestamp": "2026-05-18T12:53:00+00:00",
    "station": "KCPS"
  },
  "kstl": {
    "metar": "KSTL 181251Z 17014KT 10SM FEW035 SCT075 BKN100 BKN200 BKN250 26/21 A2989 RMK AO2 SLP108 T02610206 $",
    "windDirection": 170,
    "windSpeed": 14,
    "windGust": null,
    "visibility": 10,
    "temperatureC": 26,
    "dewPointC": 21,
    "cloudCeiling": 10000,
    "altimeter": "A2989",
    "timestamp": "2026-05-18T12:51:00+00:00",
    "station": "KSTL"
  }
}