{
  "lastUpdated": "2026-01-14T16:03:05.771635+00:00",
  "kcps": {
    "metar": "KCPS 141553Z 32023G31KT 10SM FEW038 04/M03 A2991 RMK AO2 PK WND 33036/1531 RAB38E47 SLP129 P0000 T00391033",
    "windDirection": 320,
    "windSpeed": 23,
    "windGust": 31,
    "visibility": 10,
    "temperatureC": 4,
    "dewPointC": -3,
    "cloudCeiling": null,
    "altimeter": "A2991",
    "timestamp": "2026-01-14T15:53:00+00:00",
    "station": "KCPS"
  },
  "kstl": {
    "metar": "KSTL 141551Z 32017G30KT 10SM FEW025 03/M05 A2991 RMK AO2 PK WND 32038/1528 SLP134 T00331050 $",
    "windDirection": 320,
    "windSpeed": 17,
    "windGust": 30,
    "visibility": 10,
    "temperatureC": 3,
    "dewPointC": -5,
    "cloudCeiling": null,
    "altimeter": "A2991",
    "timestamp": "2026-01-14T15:51:00+00:00",
    "station": "KSTL"
  }
}