{
  "lastUpdated": "2025-11-17T18:02:40.751087+00:00",
  "kcps": {
    "metar": "KCPS 171753Z 15012KT 10SM CLR 14/M06 A3004 RMK AO2 SLP174 T01441056 10144 21011 58025",
    "windDirection": 150,
    "windSpeed": 12,
    "windGust": null,
    "visibility": 10,
    "temperatureC": 14,
    "dewPointC": -6,
    "cloudCeiling": 99999,
    "altimeter": "A3004",
    "timestamp": "2025-11-17T17:53:00+00:00",
    "station": "KCPS"
  },
  "kstl": {
    "metar": "KSTL 171751Z 12014KT 10SM FEW120 BKN150 BKN250 13/M06 A3004 RMK AO2 SLP175 T01331061 10139 20022 58021 $",
    "windDirection": 120,
    "windSpeed": 14,
    "windGust": null,
    "visibility": 10,
    "temperatureC": 13,
    "dewPointC": -6,
    "cloudCeiling": 15000,
    "altimeter": "A3004",
    "timestamp": "2025-11-17T17:51:00+00:00",
    "station": "KSTL"
  }
}