{
  "lastUpdated": "2026-03-25T16:48:09.571870+00:00",
  "kcps": {
    "metar": "KCPS 251553Z 23008KT 10SM CLR 17/01 A3005 RMK AO2 SLP174 T01720006 $",
    "windDirection": 230,
    "windSpeed": 8,
    "windGust": null,
    "visibility": 10,
    "temperatureC": 17,
    "dewPointC": 1,
    "cloudCeiling": 99999,
    "altimeter": "A3005",
    "timestamp": "2026-03-25T15:53:00+00:00",
    "station": "KCPS"
  },
  "kstl": {
    "metar": "KSTL 251551Z 22008KT 10SM FEW250 18/02 A3005 RMK AO2 SLP171 T01830017",
    "windDirection": 220,
    "windSpeed": 8,
    "windGust": null,
    "visibility": 10,
    "temperatureC": 18,
    "dewPointC": 2,
    "cloudCeiling": null,
    "altimeter": "A3005",
    "timestamp": "2026-03-25T15:51:00+00:00",
    "station": "KSTL"
  }
}