{
  "lastUpdated": "2026-01-10T12:23:48.630261+00:00",
  "kcps": {
    "metar": "KCPS 101153Z AUTO 33004KT 9SM BKN042 BKN050 04/03 A3002 RMK AO2 SLP167 T00390033 10056 20022 55024 $",
    "windDirection": 330,
    "windSpeed": 4,
    "windGust": null,
    "visibility": 9,
    "temperatureC": 4,
    "dewPointC": 3,
    "cloudCeiling": 4200,
    "altimeter": "A3002",
    "timestamp": "2026-01-10T11:53:00+00:00",
    "station": "KCPS"
  },
  "kstl": {
    "metar": "KSTL 101151Z 32009KT 10SM OVC037 04/03 A3004 RMK AO2 SLP176 T00390028 10061 20033 55015 $",
    "windDirection": 320,
    "windSpeed": 9,
    "windGust": null,
    "visibility": 10,
    "temperatureC": 4,
    "dewPointC": 3,
    "cloudCeiling": 3700,
    "altimeter": "A3004",
    "timestamp": "2026-01-10T11:51:00+00:00",
    "station": "KSTL"
  }
}