{
  "lastUpdated": "2025-12-30T22:21:40.756314+00:00",
  "kcps": {
    "metar": "KCPS 302153Z 22004KT 10SM FEW110 01/M11 A3021 RMK AO2 SLP236 T00111111 $",
    "windDirection": 220,
    "windSpeed": 4,
    "windGust": null,
    "visibility": 10,
    "temperatureC": 1,
    "dewPointC": -11,
    "cloudCeiling": null,
    "altimeter": "A3021",
    "timestamp": "2025-12-30T21:53:00+00:00",
    "station": "KCPS"
  },
  "kstl": {
    "metar": "KSTL 302151Z 25007KT 10SM FEW100 BKN130 BKN250 02/M11 A3021 RMK AO2 SLP242 T00171111 $",
    "windDirection": 250,
    "windSpeed": 7,
    "windGust": null,
    "visibility": 10,
    "temperatureC": 2,
    "dewPointC": -11,
    "cloudCeiling": 13000,
    "altimeter": "A3021",
    "timestamp": "2025-12-30T21:51:00+00:00",
    "station": "KSTL"
  }
}