{
  "lastUpdated": "2025-11-19T21:32:10.987168+00:00",
  "kcps": {
    "metar": "KCPS 192112Z 04004KT 4SM BR OVC010 09/07 A3018 RMK AO2 CIG 009V013 T00940072",
    "windDirection": 40,
    "windSpeed": 4,
    "windGust": null,
    "visibility": 4,
    "temperatureC": 9,
    "dewPointC": 7,
    "cloudCeiling": 1000,
    "altimeter": "A3018",
    "timestamp": "2025-11-19T21:12:00+00:00",
    "station": "KCPS"
  },
  "kstl": {
    "metar": "KSTL 192051Z 03004KT 5SM BR OVC013 10/08 A3017 RMK AO2 SLP220 T01000078 56007 $",
    "windDirection": 30,
    "windSpeed": 4,
    "windGust": null,
    "visibility": 5,
    "temperatureC": 10,
    "dewPointC": 8,
    "cloudCeiling": 1300,
    "altimeter": "A3017",
    "timestamp": "2025-11-19T20:51:00+00:00",
    "station": "KSTL"
  }
}