{
  "lastUpdated": "2026-04-07T18:33:13.283172+00:00",
  "kcps": {
    "metar": "KCPS 071753Z 11007KT 10SM CLR 11/02 A3040 RMK AO2 SLP296 T01110022 10111 20061 58012 $",
    "windDirection": 110,
    "windSpeed": 7,
    "windGust": null,
    "visibility": 10,
    "temperatureC": 11,
    "dewPointC": 2,
    "cloudCeiling": 99999,
    "altimeter": "A3040",
    "timestamp": "2026-04-07T17:53:00+00:00",
    "station": "KCPS"
  },
  "kstl": {
    "metar": "KSTL 071751Z 07011G16KT 10SM FEW038 FEW100 BKN140 BKN250 09/01 A3041 RMK AO2 SLP299 60000 T00940006 10100 20056 58009 $",
    "windDirection": 70,
    "windSpeed": 11,
    "windGust": 16,
    "visibility": 10,
    "temperatureC": 9,
    "dewPointC": 1,
    "cloudCeiling": 14000,
    "altimeter": "A3041",
    "timestamp": "2026-04-07T17:51:00+00:00",
    "station": "KSTL"
  }
}