{
  "lastUpdated": "2026-04-27T22:02:58.861095+00:00",
  "kcps": {
    "metar": "KCPS 272153Z 17014G23KT 10SM FEW044 28/21 A2958 RMK AO2 PK WND 17029/2114 LTG DSNT N SLP015 T02780206 $",
    "windDirection": 170,
    "windSpeed": 14,
    "windGust": 23,
    "visibility": 10,
    "temperatureC": 28,
    "dewPointC": 21,
    "cloudCeiling": null,
    "altimeter": "A2958",
    "timestamp": "2026-04-27T21:53:00+00:00",
    "station": "KCPS"
  },
  "kstl": {
    "metar": "KSTL 272151Z 17015G21KT 9SM BKN045TCU BKN085 BKN100 OVC250 27/21 A2958 RMK AO2 SLP007 TCU S-SW T02670206 $",
    "windDirection": 170,
    "windSpeed": 15,
    "windGust": 21,
    "visibility": 9,
    "temperatureC": 27,
    "dewPointC": 21,
    "cloudCeiling": 4500,
    "altimeter": "A2958",
    "timestamp": "2026-04-27T21:51:00+00:00",
    "station": "KSTL"
  }
}