{
  "lastUpdated": "2026-04-20T18:04:36.247660+00:00",
  "kcps": {
    "metar": "KCPS 201753Z 12008KT 10SM CLR 16/01 A3031 RMK AO2 SLP265 T01560011 10156 20050 58013 $",
    "windDirection": 120,
    "windSpeed": 8,
    "windGust": null,
    "visibility": 10,
    "temperatureC": 16,
    "dewPointC": 1,
    "cloudCeiling": 99999,
    "altimeter": "A3031",
    "timestamp": "2026-04-20T17:53:00+00:00",
    "station": "KCPS"
  },
  "kstl": {
    "metar": "KSTL 201751Z 13009KT 10SM FEW250 16/01 A3031 RMK AO2 SLP264 T01560006 10156 20061 58013 $",
    "windDirection": 130,
    "windSpeed": 9,
    "windGust": null,
    "visibility": 10,
    "temperatureC": 16,
    "dewPointC": 1,
    "cloudCeiling": null,
    "altimeter": "A3031",
    "timestamp": "2026-04-20T17:51:00+00:00",
    "station": "KSTL"
  }
}