{
  "lastUpdated": "2025-11-22T07:32:06.049791+00:00",
  "kcps": {
    "metar": "KCPS 220653Z AUTO 02007KT 5SM BR OVC006 10/09 A2999 RMK AO2 CIG 005V011 SLP155 T01000094",
    "windDirection": 20,
    "windSpeed": 7,
    "windGust": null,
    "visibility": 5,
    "temperatureC": 10,
    "dewPointC": 9,
    "cloudCeiling": 600,
    "altimeter": "A2999",
    "timestamp": "2025-11-22T06:53:00+00:00",
    "station": "KCPS"
  },
  "kstl": {
    "metar": "KSTL 220651Z 04004KT 9SM OVC006 09/08 A3000 RMK AO2 DZE26 SLP157 P0000 T00940083 $",
    "windDirection": 40,
    "windSpeed": 4,
    "windGust": null,
    "visibility": 9,
    "temperatureC": 9,
    "dewPointC": 8,
    "cloudCeiling": 600,
    "altimeter": "A3000",
    "timestamp": "2025-11-22T06:51:00+00:00",
    "station": "KSTL"
  }
}