{
  "lastUpdated": "2026-05-20T17:45:49.350506+00:00",
  "kcps": {
    "metar": "KCPS 201653Z 35008KT 10SM BKN035 BKN048 17/11 A3019 RMK AO2 SLP221 T01720111 PNO $",
    "windDirection": 350,
    "windSpeed": 8,
    "windGust": null,
    "visibility": 10,
    "temperatureC": 17,
    "dewPointC": 11,
    "cloudCeiling": 3500,
    "altimeter": "A3019",
    "timestamp": "2026-05-20T16:53:00+00:00",
    "station": "KCPS"
  },
  "kstl": {
    "metar": "KSTL 201651Z 35006KT 10SM FEW030 OVC046 16/11 A3020 RMK AO2 SLP223 T01610106 $",
    "windDirection": 350,
    "windSpeed": 6,
    "windGust": null,
    "visibility": 10,
    "temperatureC": 16,
    "dewPointC": 11,
    "cloudCeiling": 4600,
    "altimeter": "A3020",
    "timestamp": "2026-05-20T16:51:00+00:00",
    "station": "KSTL"
  }
}