{
  "lastUpdated": "2026-02-27T21:05:17.223656+00:00",
  "kcps": {
    "metar": "KCPS 272053Z 24015G22KT 10SM CLR 24/M01 A2985 RMK AO2 SLP107 T02391011 56034 $",
    "windDirection": 240,
    "windSpeed": 15,
    "windGust": 22,
    "visibility": 10,
    "temperatureC": 24,
    "dewPointC": -1,
    "cloudCeiling": 99999,
    "altimeter": "A2985",
    "timestamp": "2026-02-27T20:53:00+00:00",
    "station": "KCPS"
  },
  "kstl": {
    "metar": "KSTL 272051Z 23017G27KT 10SM FEW250 24/M02 A2985 RMK AO2 PK WND 25027/2042 SLP109 T02391017 56032 $",
    "windDirection": 230,
    "windSpeed": 17,
    "windGust": 27,
    "visibility": 10,
    "temperatureC": 24,
    "dewPointC": -2,
    "cloudCeiling": null,
    "altimeter": "A2985",
    "timestamp": "2026-02-27T20:51:00+00:00",
    "station": "KSTL"
  }
}