{
  "lastUpdated": "2026-01-21T12:45:00.908596+00:00",
  "kcps": {
    "metar": "KCPS 211153Z AUTO 21008G14KT 10SM CLR 03/M07 A3006 RMK AO2 SLP181 T00331072 10033 20006 56019 $",
    "windDirection": 210,
    "windSpeed": 8,
    "windGust": 14,
    "visibility": 10,
    "temperatureC": 3,
    "dewPointC": -7,
    "cloudCeiling": 99999,
    "altimeter": "A3006",
    "timestamp": "2026-01-21T11:53:00+00:00",
    "station": "KCPS"
  },
  "kstl": {
    "metar": "KSTL 211151Z 22010KT 10SM SCT180 BKN240 03/M08 A3004 RMK AO2 SLP181 T00281078 10028 20011 56018 $",
    "windDirection": 220,
    "windSpeed": 10,
    "windGust": null,
    "visibility": 10,
    "temperatureC": 3,
    "dewPointC": -8,
    "cloudCeiling": 24000,
    "altimeter": "A3004",
    "timestamp": "2026-01-21T11:51:00+00:00",
    "station": "KSTL"
  }
}