{
  "lastUpdated": "2025-12-04T04:39:56.299442+00:00",
  "kcps": {
    "metar": "KCPS 040353Z AUTO 35007KT 10SM BKN023 BKN070 OVC090 02/M01 A3021 RMK AO2 SLP235 T00171011 $",
    "windDirection": 350,
    "windSpeed": 7,
    "windGust": null,
    "visibility": 10,
    "temperatureC": 2,
    "dewPointC": -1,
    "cloudCeiling": 2300,
    "altimeter": "A3021",
    "timestamp": "2025-12-04T03:53:00+00:00",
    "station": "KCPS"
  },
  "kstl": {
    "metar": "KSTL 040351Z 35008KT 10SM OVC014 02/M01 A3021 RMK AO2 SLP241 T00171011 $",
    "windDirection": 350,
    "windSpeed": 8,
    "windGust": null,
    "visibility": 10,
    "temperatureC": 2,
    "dewPointC": -1,
    "cloudCeiling": 1400,
    "altimeter": "A3021",
    "timestamp": "2025-12-04T03:51:00+00:00",
    "station": "KSTL"
  }
}