{
  "lastUpdated": "2026-01-01T14:36:18.287985+00:00",
  "kcps": {
    "metar": "KCPS 011353Z 00000KT 5SM BR OVC009 M02/M03 A3003 RMK AO2 SLP171 T10171028 $",
    "windDirection": 0,
    "windSpeed": 0,
    "windGust": null,
    "visibility": 5,
    "temperatureC": -2,
    "dewPointC": -3,
    "cloudCeiling": 900,
    "altimeter": "A3003",
    "timestamp": "2026-01-01T13:53:00+00:00",
    "station": "KCPS"
  },
  "kstl": {
    "metar": "KSTL 011351Z 05009KT 6SM BR OVC008 01/M01 A3002 RMK AO2 SLP175 T00061006 $",
    "windDirection": 50,
    "windSpeed": 9,
    "windGust": null,
    "visibility": 6,
    "temperatureC": 1,
    "dewPointC": -1,
    "cloudCeiling": 800,
    "altimeter": "A3002",
    "timestamp": "2026-01-01T13:51:00+00:00",
    "station": "KSTL"
  }
}