{
  "lastUpdated": "2026-03-21T08:42:53.898313+00:00",
  "kcps": {
    "metar": "KCPS 210753Z 00000KT 10SM CLR 12/08 A2989 RMK AO2 SLP118 T01170083 $",
    "windDirection": 0,
    "windSpeed": 0,
    "windGust": null,
    "visibility": 10,
    "temperatureC": 12,
    "dewPointC": 8,
    "cloudCeiling": 99999,
    "altimeter": "A2989",
    "timestamp": "2026-03-21T07:53:00+00:00",
    "station": "KCPS"
  },
  "kstl": {
    "metar": "KSTL 210751Z 00000KT 10SM FEW250 14/08 A2990 RMK AO2 SLP116 T01390078 $",
    "windDirection": 0,
    "windSpeed": 0,
    "windGust": null,
    "visibility": 10,
    "temperatureC": 14,
    "dewPointC": 8,
    "cloudCeiling": null,
    "altimeter": "A2990",
    "timestamp": "2026-03-21T07:51:00+00:00",
    "station": "KSTL"
  }
}