{
  "lastUpdated": "2025-11-23T02:45:40.578086+00:00",
  "kcps": {
    "metar": "KCPS 230153Z 22003KT 10SM CLR 08/07 A3014 RMK AO2 SLP209 T00830067",
    "windDirection": 220,
    "windSpeed": 3,
    "windGust": null,
    "visibility": 10,
    "temperatureC": 8,
    "dewPointC": 7,
    "cloudCeiling": 99999,
    "altimeter": "A3014",
    "timestamp": "2025-11-23T01:53:00+00:00",
    "station": "KCPS"
  },
  "kstl": {
    "metar": "KSTL 230151Z 26005KT 10SM FEW250 09/07 A3015 RMK AO2 SLP211 T00890067 $",
    "windDirection": 260,
    "windSpeed": 5,
    "windGust": null,
    "visibility": 10,
    "temperatureC": 9,
    "dewPointC": 7,
    "cloudCeiling": null,
    "altimeter": "A3015",
    "timestamp": "2025-11-23T01:51:00+00:00",
    "station": "KSTL"
  }
}