{
  "lastUpdated": "2025-12-03T05:47:40.102337+00:00",
  "kcps": {
    "metar": "KCPS 030353Z 15006KT 10SM CLR M06/M07 A3010 RMK AO2 SLP196 T10561072",
    "windDirection": 150,
    "windSpeed": 6,
    "windGust": null,
    "visibility": 10,
    "temperatureC": -6,
    "dewPointC": -7,
    "cloudCeiling": 99999,
    "altimeter": "A3010",
    "timestamp": "2025-12-03T03:53:00+00:00",
    "station": "KCPS"
  },
  "kstl": {
    "metar": "KSTL 030451Z 17006KT 10SM BKN250 M04/M07 A3009 RMK AO2 SLP203 T10391067 $",
    "windDirection": 170,
    "windSpeed": 6,
    "windGust": null,
    "visibility": 10,
    "temperatureC": -4,
    "dewPointC": -7,
    "cloudCeiling": 25000,
    "altimeter": "A3009",
    "timestamp": "2025-12-03T04:51:00+00:00",
    "station": "KSTL"
  }
}