{
  "lastUpdated": "2026-04-09T08:45:34.839900+00:00",
  "kcps": {
    "metar": "KCPS 090753Z AUTO 20004KT 10SM CLR 17/06 A3014 RMK AO2 SLP205 T01670056 $",
    "windDirection": 200,
    "windSpeed": 4,
    "windGust": null,
    "visibility": 10,
    "temperatureC": 17,
    "dewPointC": 6,
    "cloudCeiling": 99999,
    "altimeter": "A3014",
    "timestamp": "2026-04-09T07:53:00+00:00",
    "station": "KCPS"
  },
  "kstl": {
    "metar": "KSTL 090751Z 20008KT 10SM CLR 18/05 A3014 RMK AO2 SLP197 T01780050 $",
    "windDirection": 200,
    "windSpeed": 8,
    "windGust": null,
    "visibility": 10,
    "temperatureC": 18,
    "dewPointC": 5,
    "cloudCeiling": 99999,
    "altimeter": "A3014",
    "timestamp": "2026-04-09T07:51:00+00:00",
    "station": "KSTL"
  }
}