{
  "lastUpdated": "2026-02-25T08:23:26.949024+00:00",
  "kcps": {
    "metar": "KCPS 250753Z AUTO 23006KT 10SM CLR 07/M04 A2966 RMK AO2 SLP044 T00671039 $",
    "windDirection": 230,
    "windSpeed": 6,
    "windGust": null,
    "visibility": 10,
    "temperatureC": 7,
    "dewPointC": -4,
    "cloudCeiling": 99999,
    "altimeter": "A2966",
    "timestamp": "2026-02-25T07:53:00+00:00",
    "station": "KCPS"
  },
  "kstl": {
    "metar": "KSTL 250751Z 30004KT 10SM FEW110 BKN150 BKN250 07/M04 A2967 RMK AO2 SLP047 T00721039 $",
    "windDirection": 300,
    "windSpeed": 4,
    "windGust": null,
    "visibility": 10,
    "temperatureC": 7,
    "dewPointC": -4,
    "cloudCeiling": 15000,
    "altimeter": "A2967",
    "timestamp": "2026-02-25T07:51:00+00:00",
    "station": "KSTL"
  }
}