{
  "lastUpdated": "2026-02-07T02:36:00.859570+00:00",
  "kcps": {
    "metar": "KCPS 070153Z 27004KT 10SM CLR 04/M01 A3016 RMK AO2 SLP215 T00391011 $",
    "windDirection": 270,
    "windSpeed": 4,
    "windGust": null,
    "visibility": 10,
    "temperatureC": 4,
    "dewPointC": -1,
    "cloudCeiling": 99999,
    "altimeter": "A3016",
    "timestamp": "2026-02-07T01:53:00+00:00",
    "station": "KCPS"
  },
  "kstl": {
    "metar": "KSTL 070151Z 29003KT 10SM CLR 02/M01 A3016 RMK AO2 SLP222 T00221011 $",
    "windDirection": 290,
    "windSpeed": 3,
    "windGust": null,
    "visibility": 10,
    "temperatureC": 2,
    "dewPointC": -1,
    "cloudCeiling": 99999,
    "altimeter": "A3016",
    "timestamp": "2026-02-07T01:51:00+00:00",
    "station": "KSTL"
  }
}