{
  "lastUpdated": "2025-12-11T03:14:42.952094+00:00",
  "kcps": {
    "metar": "KCPS 110253Z 34003KT 10SM BKN075 M02/M06 A3006 RMK AO2 SLP181 T10221056 53008 $",
    "windDirection": 340,
    "windSpeed": 3,
    "windGust": null,
    "visibility": 10,
    "temperatureC": -2,
    "dewPointC": -6,
    "cloudCeiling": 7500,
    "altimeter": "A3006",
    "timestamp": "2025-12-11T02:53:00+00:00",
    "station": "KCPS"
  },
  "kstl": {
    "metar": "KSTL 110251Z 26003KT 10SM FEW031 M01/M05 A3005 RMK AO2 SLP184 T10111050 53008 $",
    "windDirection": 260,
    "windSpeed": 3,
    "windGust": null,
    "visibility": 10,
    "temperatureC": -1,
    "dewPointC": -5,
    "cloudCeiling": null,
    "altimeter": "A3005",
    "timestamp": "2025-12-11T02:51:00+00:00",
    "station": "KSTL"
  }
}