{
  "lastUpdated": "2025-12-13T22:34:52.717309+00:00",
  "kcps": {
    "metar": "KCPS 132153Z 35016KT 3SM -SN OVC018 M08/M11 A3030 RMK AO2 SNB51 SLP265 P0000 T10781106 $",
    "windDirection": 350,
    "windSpeed": 16,
    "windGust": null,
    "visibility": 3,
    "temperatureC": -8,
    "dewPointC": -11,
    "cloudCeiling": 1800,
    "altimeter": "A3030",
    "timestamp": "2025-12-13T21:53:00+00:00",
    "station": "KCPS"
  },
  "kstl": {
    "metar": "KSTL 132151Z 35011KT 9SM -SN OVC015 M09/M12 A3030 RMK AO2 SNB02 SLP274 P0000 T10891117 $",
    "windDirection": 350,
    "windSpeed": 11,
    "windGust": null,
    "visibility": 9,
    "temperatureC": -9,
    "dewPointC": -12,
    "cloudCeiling": 1500,
    "altimeter": "A3030",
    "timestamp": "2025-12-13T21:51:00+00:00",
    "station": "KSTL"
  }
}