{
  "lastUpdated": "2025-12-30T17:36:21.040553+00:00",
  "kcps": {
    "metar": "KCPS 301553Z 26006KT 10SM CLR M05/M12 A3040 RMK AO2 SLP301 T10501117 $",
    "windDirection": 260,
    "windSpeed": 6,
    "windGust": null,
    "visibility": 10,
    "temperatureC": -5,
    "dewPointC": -12,
    "cloudCeiling": 99999,
    "altimeter": "A3040",
    "timestamp": "2025-12-30T15:53:00+00:00",
    "station": "KCPS"
  },
  "kstl": {
    "metar": "KSTL 301651Z 24007KT 10SM SCT250 M03/M12 A3035 RMK AO2 SLP292 T10331117 $",
    "windDirection": 240,
    "windSpeed": 7,
    "windGust": null,
    "visibility": 10,
    "temperatureC": -3,
    "dewPointC": -12,
    "cloudCeiling": null,
    "altimeter": "A3035",
    "timestamp": "2025-12-30T16:51:00+00:00",
    "station": "KSTL"
  }
}