{
  "lastUpdated": "2026-02-04T19:31:28.245815+00:00",
  "kcps": {
    "metar": "KCPS 041853Z 35007KT 10SM OVC023 M02/M07 A3039 RMK AO2 SLP296 T10171072 $",
    "windDirection": 350,
    "windSpeed": 7,
    "windGust": null,
    "visibility": 10,
    "temperatureC": -2,
    "dewPointC": -7,
    "cloudCeiling": 2300,
    "altimeter": "A3039",
    "timestamp": "2026-02-04T18:53:00+00:00",
    "station": "KCPS"
  },
  "kstl": {
    "metar": "KSTL 041851Z VRB03KT 10SM SCT024 M02/M08 A3039 RMK AO2 SLP304 T10221078",
    "windDirection": null,
    "windSpeed": null,
    "windGust": null,
    "visibility": 10,
    "temperatureC": -2,
    "dewPointC": -8,
    "cloudCeiling": null,
    "altimeter": "A3039",
    "timestamp": "2026-02-04T18:51:00+00:00",
    "station": "KSTL"
  }
}