{
  "lastUpdated": "2026-04-15T23:14:10.741547+00:00",
  "kcps": {
    "metar": "KCPS 152253Z 18009KT 10SM FEW065 23/19 A2986 RMK AO2 SLP108 T02280189 $",
    "windDirection": 180,
    "windSpeed": 9,
    "windGust": null,
    "visibility": 10,
    "temperatureC": 23,
    "dewPointC": 19,
    "cloudCeiling": null,
    "altimeter": "A2986",
    "timestamp": "2026-04-15T22:53:00+00:00",
    "station": "KCPS"
  },
  "kstl": {
    "metar": "KSTL 152251Z 19010G15KT 10SM FEW020 BKN050 BKN130 OVC250 23/18 A2985 RMK AO2 SLP099 T02280183",
    "windDirection": 190,
    "windSpeed": 10,
    "windGust": 15,
    "visibility": 10,
    "temperatureC": 23,
    "dewPointC": 18,
    "cloudCeiling": 5000,
    "altimeter": "A2985",
    "timestamp": "2026-04-15T22:51:00+00:00",
    "station": "KSTL"
  }
}