{
  "lastUpdated": "2026-03-28T19:51:49.404580+00:00",
  "kcps": {
    "metar": "KCPS 281853Z 10SM CLR 10/M06 A3057 RMK AO2 SLP353 T01001061 $",
    "windDirection": null,
    "windSpeed": null,
    "windGust": null,
    "visibility": 10,
    "temperatureC": 10,
    "dewPointC": -6,
    "cloudCeiling": 99999,
    "altimeter": "A3057",
    "timestamp": "2026-03-28T18:53:00+00:00",
    "station": "KCPS"
  },
  "kstl": {
    "metar": "KSTL 281851Z 13006KT 10SM FEW250 10/M07 A3056 RMK AO2 SLP356 T01001067 $",
    "windDirection": 130,
    "windSpeed": 6,
    "windGust": null,
    "visibility": 10,
    "temperatureC": 10,
    "dewPointC": -7,
    "cloudCeiling": null,
    "altimeter": "A3056",
    "timestamp": "2026-03-28T18:51:00+00:00",
    "station": "KSTL"
  }
}