{
  "lastUpdated": "2025-12-28T07:02:50.782219+00:00",
  "kcps": {
    "metar": "KCPS 280653Z AUTO 17004KT 9SM FEW018 17/16 A2973 RMK AO2 SLP066 T01720156 $",
    "windDirection": 170,
    "windSpeed": 4,
    "windGust": null,
    "visibility": 9,
    "temperatureC": 17,
    "dewPointC": 16,
    "cloudCeiling": null,
    "altimeter": "A2973",
    "timestamp": "2025-12-28T06:53:00+00:00",
    "station": "KCPS"
  },
  "kstl": {
    "metar": "KSTL 280651Z 00000KT 10SM BKN150 BKN240 16/16 A2973 RMK AO2 SLP068 T01610156 $",
    "windDirection": 0,
    "windSpeed": 0,
    "windGust": null,
    "visibility": 10,
    "temperatureC": 16,
    "dewPointC": 16,
    "cloudCeiling": 15000,
    "altimeter": "A2973",
    "timestamp": "2025-12-28T06:51:00+00:00",
    "station": "KSTL"
  }
}