{
  "lastUpdated": "2025-10-26T17:32:46.268365+00:00",
  "kcps": {
    "metar": "KCPS 261653Z 08008KT 7SM -RA OVC065 11/08 A3019 RMK AO2 RAB14 SLP222 P0003 T01110083 $",
    "windDirection": 80,
    "windSpeed": 8,
    "windGust": null,
    "visibility": 7,
    "temperatureC": 11,
    "dewPointC": 8,
    "cloudCeiling": 6500,
    "altimeter": "A3019",
    "timestamp": "2025-10-26T16:53:00+00:00",
    "station": "KCPS"
  },
  "kstl": {
    "metar": "KSTL 261651Z 10009KT 9SM -RA SCT075 OVC095 12/08 A3019 RMK AO2 RAB30 SLP222 P0000 T01220083 $",
    "windDirection": 100,
    "windSpeed": 9,
    "windGust": null,
    "visibility": 9,
    "temperatureC": 12,
    "dewPointC": 8,
    "cloudCeiling": 9500,
    "altimeter": "A3019",
    "timestamp": "2025-10-26T16:51:00+00:00",
    "station": "KSTL"
  }
}