{
  "lastUpdated": "2026-03-12T00:44:36.732809+00:00",
  "kcps": {
    "metar": "KCPS 120028Z 33017G24KT 10SM OVC028 06/01 A3019 RMK AO2 T00610011 $",
    "windDirection": 330,
    "windSpeed": 17,
    "windGust": 24,
    "visibility": 10,
    "temperatureC": 6,
    "dewPointC": 1,
    "cloudCeiling": 2800,
    "altimeter": "A3019",
    "timestamp": "2026-03-12T00:28:00+00:00",
    "station": "KCPS"
  },
  "kstl": {
    "metar": "KSTL 112351Z 32020G27KT 10SM OVC027 06/01 A3017 RMK AO2 PK WND 34028/2302 SLP217 60000 T00560011 10078 20056 53049 $",
    "windDirection": 320,
    "windSpeed": 20,
    "windGust": 27,
    "visibility": 10,
    "temperatureC": 6,
    "dewPointC": 1,
    "cloudCeiling": 2700,
    "altimeter": "A3017",
    "timestamp": "2026-03-11T23:51:00+00:00",
    "station": "KSTL"
  }
}