{
  "lastUpdated": "2025-10-17T00:07:12.035118+00:00",
  "kcps": {
    "metar": "KCPS 162353Z 14005KT 10SM CLR 23/15 A2999 RMK AO2 SLP154 T02280150 10294 20222 55005",
    "windDirection": 140,
    "windSpeed": 5,
    "windGust": null,
    "visibility": 10,
    "temperatureC": 23,
    "dewPointC": 15,
    "cloudCeiling": 99999,
    "altimeter": "A2999",
    "timestamp": "2025-10-16T23:53:00+00:00",
    "station": "KCPS"
  },
  "kstl": {
    "metar": "KSTL 162351Z 13006KT 10SM SCT250 25/14 A3000 RMK AO2 SLP150 T02500144 10278 20244 56007 $",
    "windDirection": 130,
    "windSpeed": 6,
    "windGust": null,
    "visibility": 10,
    "temperatureC": 25,
    "dewPointC": 14,
    "cloudCeiling": null,
    "altimeter": "A3000",
    "timestamp": "2025-10-16T23:51:00+00:00",
    "station": "KSTL"
  }
}