{
  "lastUpdated": "2025-12-23T16:02:43.226475+00:00",
  "kcps": {
    "station": "KCPS",
    "metar": "Data unavailable",
    "error": "Failed to fetch METAR"
  },
  "kstl": {
    "metar": "KSTL 231551Z 24007KT 9SM FEW016 15/12 A3017 RMK AO2 SLP216 T01500117 $",
    "windDirection": 240,
    "windSpeed": 7,
    "windGust": null,
    "visibility": 9,
    "temperatureC": 15,
    "dewPointC": 12,
    "cloudCeiling": null,
    "altimeter": "A3017",
    "timestamp": "2025-12-23T15:51:00+00:00",
    "station": "KSTL"
  }
}