{
  "lastUpdated": "2025-11-04T18:02:47.103825+00:00",
  "kcps": {
    "metar": "KCPS 041753Z 19008G17KT 10SM CLR 21/09 A3017 RMK AO2 SLP218 T02110094 10211 20044 58037",
    "windDirection": 190,
    "windSpeed": 8,
    "windGust": 17,
    "visibility": 10,
    "temperatureC": 21,
    "dewPointC": 9,
    "cloudCeiling": 99999,
    "altimeter": "A3017",
    "timestamp": "2025-11-04T17:53:00+00:00",
    "station": "KCPS"
  },
  "kstl": {
    "metar": "KSTL 041751Z 16009KT 10SM FEW050 FEW150 BKN250 19/09 A3017 RMK AO2 SLP217 T01890089 10189 20067 58034",
    "windDirection": 160,
    "windSpeed": 9,
    "windGust": null,
    "visibility": 10,
    "temperatureC": 19,
    "dewPointC": 9,
    "cloudCeiling": 25000,
    "altimeter": "A3017",
    "timestamp": "2025-11-04T17:51:00+00:00",
    "station": "KSTL"
  }
}