{
  "lastUpdated": "2025-10-27T12:44:27.108530+00:00",
  "kcps": {
    "metar": "KCPS 271153Z 07005KT 9SM OVC008 09/09 A3008 RMK AO2 CIG 006V011 SLP187 60007 70053 T00940089 10111 20094 55000 $",
    "windDirection": 70,
    "windSpeed": 5,
    "windGust": null,
    "visibility": 9,
    "temperatureC": 9,
    "dewPointC": 9,
    "cloudCeiling": 800,
    "altimeter": "A3008",
    "timestamp": "2025-10-27T11:53:00+00:00",
    "station": "KCPS"
  },
  "kstl": {
    "metar": "KSTL 271151Z 08008KT 5SM -DZ BR OVC006 10/09 A3009 RMK AO2 SLP189 P0001 60007 70050 T01000089 10111 20100 53003 $",
    "windDirection": 80,
    "windSpeed": 8,
    "windGust": null,
    "visibility": 5,
    "temperatureC": 10,
    "dewPointC": 9,
    "cloudCeiling": 600,
    "altimeter": "A3009",
    "timestamp": "2025-10-27T11:51:00+00:00",
    "station": "KSTL"
  }
}