{
  "lastUpdated": "2026-01-18T18:02:25.039458+00:00",
  "kcps": {
    "metar": "KCPS 181553Z 27006KT 10SM CLR M09/M17 A3019 RMK AO2 SLP230 T10891167 $",
    "windDirection": 270,
    "windSpeed": 6,
    "windGust": null,
    "visibility": 10,
    "temperatureC": -9,
    "dewPointC": -17,
    "cloudCeiling": 99999,
    "altimeter": "A3019",
    "timestamp": "2026-01-18T15:53:00+00:00",
    "station": "KCPS"
  },
  "kstl": {
    "metar": "KSTL 181751Z 18007KT 10SM BKN090 OVC200 M07/M16 A3008 RMK AO2 SLP204 T10671161 11067 21117 58036 $",
    "windDirection": 180,
    "windSpeed": 7,
    "windGust": null,
    "visibility": 10,
    "temperatureC": -7,
    "dewPointC": -16,
    "cloudCeiling": 9000,
    "altimeter": "A3008",
    "timestamp": "2026-01-18T17:51:00+00:00",
    "station": "KSTL"
  }
}