{
  "lastUpdated": "2026-02-13T05:40:12.941035+00:00",
  "kcps": {
    "metar": "KCPS 130453Z AUTO 16004KT 10SM BKN110 05/M02 A3021 RMK AO2 SLP229 T00501022 $",
    "windDirection": 160,
    "windSpeed": 4,
    "windGust": null,
    "visibility": 10,
    "temperatureC": 5,
    "dewPointC": -2,
    "cloudCeiling": 11000,
    "altimeter": "A3021",
    "timestamp": "2026-02-13T04:53:00+00:00",
    "station": "KCPS"
  },
  "kstl": {
    "metar": "KSTL 130451Z 13007KT 10SM FEW055 BKN100 05/M03 A3020 RMK AO2 SLP231 T00501028 $",
    "windDirection": 130,
    "windSpeed": 7,
    "windGust": null,
    "visibility": 10,
    "temperatureC": 5,
    "dewPointC": -3,
    "cloudCeiling": 10000,
    "altimeter": "A3020",
    "timestamp": "2026-02-13T04:51:00+00:00",
    "station": "KSTL"
  }
}