{
  "lastUpdated": "2026-02-19T21:42:21.898195+00:00",
  "kcps": {
    "metar": "KCPS 192053Z 15007KT 10SM CLR 21/14 A2941 RMK AO2 SLP958 60000 T02060144 56041 $",
    "windDirection": 150,
    "windSpeed": 7,
    "windGust": null,
    "visibility": 10,
    "temperatureC": 21,
    "dewPointC": 14,
    "cloudCeiling": 99999,
    "altimeter": "A2941",
    "timestamp": "2026-02-19T20:53:00+00:00",
    "station": "KCPS"
  },
  "kstl": {
    "metar": "KSTL 192051Z 11011KT 10SM FEW019 SCT065 BKN250 19/14 A2942 RMK AO2 SLP959 TCU DSNT S 60000 T01940144 56038 $",
    "windDirection": 110,
    "windSpeed": 11,
    "windGust": null,
    "visibility": 10,
    "temperatureC": 19,
    "dewPointC": 14,
    "cloudCeiling": 25000,
    "altimeter": "A2942",
    "timestamp": "2026-02-19T20:51:00+00:00",
    "station": "KSTL"
  }
}