{
  "lastUpdated": "2025-11-25T06:02:46.954623+00:00",
  "kcps": {
    "metar": "KCPS 250553Z AUTO 16005KT 4SM BR OVC006 11/11 A2984 RMK AO2 RAB01E19 CIG 004V009 SLP105 P0001 60006 T01110106 10111 20106 401220072 56009 $",
    "windDirection": 160,
    "windSpeed": 5,
    "windGust": null,
    "visibility": 4,
    "temperatureC": 11,
    "dewPointC": 11,
    "cloudCeiling": 600,
    "altimeter": "A2984",
    "timestamp": "2025-11-25T05:53:00+00:00",
    "station": "KCPS"
  },
  "kstl": {
    "metar": "KSTL 250551Z 18006KT 10SM OVC005 11/10 A2984 RMK AO2 SLP104 60010 T01110100 10111 20106 401170078 56009 $",
    "windDirection": 180,
    "windSpeed": 6,
    "windGust": null,
    "visibility": 10,
    "temperatureC": 11,
    "dewPointC": 10,
    "cloudCeiling": 500,
    "altimeter": "A2984",
    "timestamp": "2025-11-25T05:51:00+00:00",
    "station": "KSTL"
  }
}