{
  "lastUpdated": "2026-04-24T22:00:25.449136+00:00",
  "kcps": {
    "metar": "KCPS 242153Z 04003KT 10SM SCT060 23/15 A2976 RMK AO2 SLP076 T02330150 $",
    "windDirection": 40,
    "windSpeed": 3,
    "windGust": null,
    "visibility": 10,
    "temperatureC": 23,
    "dewPointC": 15,
    "cloudCeiling": null,
    "altimeter": "A2976",
    "timestamp": "2026-04-24T21:53:00+00:00",
    "station": "KCPS"
  },
  "kstl": {
    "metar": "KSTL 242151Z 00000KT 10SM OVC200 23/12 A2977 RMK AO2 SLP074 T02330122 $",
    "windDirection": 0,
    "windSpeed": 0,
    "windGust": null,
    "visibility": 10,
    "temperatureC": 23,
    "dewPointC": 12,
    "cloudCeiling": 20000,
    "altimeter": "A2977",
    "timestamp": "2026-04-24T21:51:00+00:00",
    "station": "KSTL"
  }
}