{
  "lastUpdated": "2026-01-28T15:42:32.663712+00:00",
  "kcps": {
    "metar": "KCPS 281453Z 24003KT 10SM OVC075 M07/M13 A3038 RMK AO2 SLP295 T10721133 55003 $",
    "windDirection": 240,
    "windSpeed": 3,
    "windGust": null,
    "visibility": 10,
    "temperatureC": -7,
    "dewPointC": -13,
    "cloudCeiling": 7500,
    "altimeter": "A3038",
    "timestamp": "2026-01-28T14:53:00+00:00",
    "station": "KCPS"
  },
  "kstl": {
    "metar": "KSTL 281451Z 26008KT 10SM BKN070 BKN100 BKN250 M07/M13 A3036 RMK AO2 SLP299 T10671133 55006 $",
    "windDirection": 260,
    "windSpeed": 8,
    "windGust": null,
    "visibility": 10,
    "temperatureC": -7,
    "dewPointC": -13,
    "cloudCeiling": 7000,
    "altimeter": "A3036",
    "timestamp": "2026-01-28T14:51:00+00:00",
    "station": "KSTL"
  }
}