{
  "lastUpdated": "2026-02-21T02:35:49.849779+00:00",
  "kcps": {
    "metar": "KCPS 210053Z 01005KT 10SM CLR 02/M05 A2997 RMK AO2 SLP151 T00221050 PNO $",
    "windDirection": 10,
    "windSpeed": 5,
    "windGust": null,
    "visibility": 10,
    "temperatureC": 2,
    "dewPointC": -5,
    "cloudCeiling": 99999,
    "altimeter": "A2997",
    "timestamp": "2026-02-21T00:53:00+00:00",
    "station": "KCPS"
  },
  "kstl": {
    "metar": "KSTL 210151Z 30003KT 10SM FEW250 02/M06 A3000 RMK AO2 SLP167 T00221056 $",
    "windDirection": 300,
    "windSpeed": 3,
    "windGust": null,
    "visibility": 10,
    "temperatureC": 2,
    "dewPointC": -6,
    "cloudCeiling": null,
    "altimeter": "A3000",
    "timestamp": "2026-02-21T01:51:00+00:00",
    "station": "KSTL"
  }
}