{
  "lastUpdated": "2026-02-04T10:47:54.029573+00:00",
  "kcps": {
    "metar": "KCPS 040953Z AUTO 02009KT 10SM OVC080 M03/M08 A3033 RMK AO2 SLP276 T10281078 $",
    "windDirection": 20,
    "windSpeed": 9,
    "windGust": null,
    "visibility": 10,
    "temperatureC": -3,
    "dewPointC": -8,
    "cloudCeiling": 8000,
    "altimeter": "A3033",
    "timestamp": "2026-02-04T09:53:00+00:00",
    "station": "KCPS"
  },
  "kstl": {
    "metar": "KSTL 040951Z 35007KT 10SM BKN085 M03/M08 A3033 RMK AO2 SLP283 T10331078",
    "windDirection": 350,
    "windSpeed": 7,
    "windGust": null,
    "visibility": 10,
    "temperatureC": -3,
    "dewPointC": -8,
    "cloudCeiling": 8500,
    "altimeter": "A3033",
    "timestamp": "2026-02-04T09:51:00+00:00",
    "station": "KSTL"
  }
}