{
  "lastUpdated": "2026-01-26T12:24:05.030965+00:00",
  "kcps": {
    "metar": "KCPS 261153Z AUTO 30008KT 10SM CLR M18/M23 A3046 RMK AO2 SLP325 T11781228 11139 21183 53013 $",
    "windDirection": 300,
    "windSpeed": 8,
    "windGust": null,
    "visibility": 10,
    "temperatureC": -18,
    "dewPointC": -23,
    "cloudCeiling": 99999,
    "altimeter": "A3046",
    "timestamp": "2026-01-26T11:53:00+00:00",
    "station": "KCPS"
  },
  "kstl": {
    "metar": "KSTL 261151Z 29008KT 10SM CLR M20/M23 A3044 RMK AO2 SLP334 4/006 70009 T12001233 11161 21200 53010 $",
    "windDirection": 290,
    "windSpeed": 8,
    "windGust": null,
    "visibility": 10,
    "temperatureC": -20,
    "dewPointC": -23,
    "cloudCeiling": 99999,
    "altimeter": "A3044",
    "timestamp": "2026-01-26T11:51:00+00:00",
    "station": "KSTL"
  }
}