{
  "lastUpdated": "2026-05-09T09:56:16.221242+00:00",
  "kcps": {
    "metar": "KCPS 090953Z AUTO 24004KT 10SM OVC009 14/13 A2978 RMK AO2 SLP082 T01440133 $",
    "windDirection": 240,
    "windSpeed": 4,
    "windGust": null,
    "visibility": 10,
    "temperatureC": 14,
    "dewPointC": 13,
    "cloudCeiling": 900,
    "altimeter": "A2978",
    "timestamp": "2026-05-09T09:53:00+00:00",
    "station": "KCPS"
  },
  "kstl": {
    "metar": "KSTL 090951Z 24006KT 7SM OVC004 13/13 A2977 RMK AO2 SLP076 T01330128 $",
    "windDirection": 240,
    "windSpeed": 6,
    "windGust": null,
    "visibility": 7,
    "temperatureC": 13,
    "dewPointC": 13,
    "cloudCeiling": 400,
    "altimeter": "A2977",
    "timestamp": "2026-05-09T09:51:00+00:00",
    "station": "KSTL"
  }
}