{
  "lastUpdated": "2025-12-13T13:00:36.927368+00:00",
  "kcps": {
    "metar": "KCPS 131253Z 02008KT 5SM BR OVC007 M01/M03 A3020 RMK AO2 CIG 007V010 SLP229 T10061028 $",
    "windDirection": 20,
    "windSpeed": 8,
    "windGust": null,
    "visibility": 5,
    "temperatureC": -1,
    "dewPointC": -3,
    "cloudCeiling": 700,
    "altimeter": "A3020",
    "timestamp": "2025-12-13T12:53:00+00:00",
    "station": "KCPS"
  },
  "kstl": {
    "metar": "KSTL 131251Z 02009KT 9SM -SN OVC011 M02/M04 A3020 RMK AO2 SNB31 SLP236 P0000 T10171039 $",
    "windDirection": 20,
    "windSpeed": 9,
    "windGust": null,
    "visibility": 9,
    "temperatureC": -2,
    "dewPointC": -4,
    "cloudCeiling": 1100,
    "altimeter": "A3020",
    "timestamp": "2025-12-13T12:51:00+00:00",
    "station": "KSTL"
  }
}