{
  "lastUpdated": "2026-01-03T19:02:10.420838+00:00",
  "kcps": {
    "metar": "KCPS 031853Z 35007KT 10SM CLR 03/M06 A3008 RMK AO2 SLP189 T00281056 $",
    "windDirection": 350,
    "windSpeed": 7,
    "windGust": null,
    "visibility": 10,
    "temperatureC": 3,
    "dewPointC": -6,
    "cloudCeiling": 99999,
    "altimeter": "A3008",
    "timestamp": "2026-01-03T18:53:00+00:00",
    "station": "KCPS"
  },
  "kstl": {
    "metar": "KSTL 031851Z 00000KT 10SM FEW110 FEW250 02/M06 A3007 RMK AO2 SLP193 T00221061 $",
    "windDirection": 0,
    "windSpeed": 0,
    "windGust": null,
    "visibility": 10,
    "temperatureC": 2,
    "dewPointC": -6,
    "cloudCeiling": null,
    "altimeter": "A3007",
    "timestamp": "2026-01-03T18:51:00+00:00",
    "station": "KSTL"
  }
}