{
  "lastUpdated": "2025-12-11T11:21:29.921383+00:00",
  "kcps": {
    "metar": "KCPS 111053Z AUTO 35004KT 10SM BKN027 M01/M06 A3005 RMK AO2 SLP180 T10111061 $",
    "windDirection": 350,
    "windSpeed": 4,
    "windGust": null,
    "visibility": 10,
    "temperatureC": -1,
    "dewPointC": -6,
    "cloudCeiling": 2700,
    "altimeter": "A3005",
    "timestamp": "2025-12-11T10:53:00+00:00",
    "station": "KCPS"
  },
  "kstl": {
    "metar": "KSTL 111118Z 31003KT 10SM BKN025 OVC120 M02/M06 A3006 RMK AO2 T10171061 $",
    "windDirection": 310,
    "windSpeed": 3,
    "windGust": null,
    "visibility": 10,
    "temperatureC": -2,
    "dewPointC": -6,
    "cloudCeiling": 2500,
    "altimeter": "A3006",
    "timestamp": "2025-12-11T11:18:00+00:00",
    "station": "KSTL"
  }
}