{
  "lastUpdated": "2026-05-18T01:17:09.410219+00:00",
  "kcps": {
    "metar": "KCPS 180053Z 17009G16KT 10SM CLR 28/18 A2984 RMK AO2 SLP100 T02830178 $",
    "windDirection": 170,
    "windSpeed": 9,
    "windGust": 16,
    "visibility": 10,
    "temperatureC": 28,
    "dewPointC": 18,
    "cloudCeiling": 99999,
    "altimeter": "A2984",
    "timestamp": "2026-05-18T00:53:00+00:00",
    "station": "KCPS"
  },
  "kstl": {
    "metar": "KSTL 180051Z 17010G19KT 10SM FEW060 28/18 A2984 RMK AO2 SLP092 T02830178 $",
    "windDirection": 170,
    "windSpeed": 10,
    "windGust": 19,
    "visibility": 10,
    "temperatureC": 28,
    "dewPointC": 18,
    "cloudCeiling": null,
    "altimeter": "A2984",
    "timestamp": "2026-05-18T00:51:00+00:00",
    "station": "KSTL"
  }
}