{
  "lastUpdated": "2026-01-17T02:32:36.637684+00:00",
  "kcps": {
    "metar": "KCPS 170222Z 29009G19KT 9SM -SN BKN029 OVC037 02/M01 A2987 RMK AO2 RAE00SNB04 P0000 T00171011 $",
    "windDirection": 290,
    "windSpeed": 9,
    "windGust": 19,
    "visibility": 9,
    "temperatureC": 2,
    "dewPointC": -1,
    "cloudCeiling": 2900,
    "altimeter": "A2987",
    "timestamp": "2026-01-17T02:22:00+00:00",
    "station": "KCPS"
  },
  "kstl": {
    "metar": "KSTL 170227Z 27017G23KT 9SM FEW019 BKN065 OVC080 02/M02 A2986 RMK AO2 SNE27 P0000 T00171017 $",
    "windDirection": 270,
    "windSpeed": 17,
    "windGust": 23,
    "visibility": 9,
    "temperatureC": 2,
    "dewPointC": -2,
    "cloudCeiling": 6500,
    "altimeter": "A2986",
    "timestamp": "2026-01-17T02:27:00+00:00",
    "station": "KSTL"
  }
}