{
  "lastUpdated": "2026-01-09T15:22:13.163492+00:00",
  "kcps": {
    "metar": "KCPS 091453Z 31011KT 10SM OVC024 08/03 A3003 RMK AO2 SLP168 T00780033 51048",
    "windDirection": 310,
    "windSpeed": 11,
    "windGust": null,
    "visibility": 10,
    "temperatureC": 8,
    "dewPointC": 3,
    "cloudCeiling": 2400,
    "altimeter": "A3003",
    "timestamp": "2026-01-09T14:53:00+00:00",
    "station": "KCPS"
  },
  "kstl": {
    "metar": "KSTL 091451Z 30008KT 10SM BKN021 BKN250 07/03 A3003 RMK AO2 SLP167 T00720028 51047 $",
    "windDirection": 300,
    "windSpeed": 8,
    "windGust": null,
    "visibility": 10,
    "temperatureC": 7,
    "dewPointC": 3,
    "cloudCeiling": 2100,
    "altimeter": "A3003",
    "timestamp": "2026-01-09T14:51:00+00:00",
    "station": "KSTL"
  }
}