{
  "lastUpdated": "2026-04-21T22:28:39.003391+00:00",
  "kcps": {
    "metar": "KCPS 212153Z 24009G16KT 10SM CLR 28/08 A2996 RMK AO2 SLP143 T02830078 $",
    "windDirection": 240,
    "windSpeed": 9,
    "windGust": 16,
    "visibility": 10,
    "temperatureC": 28,
    "dewPointC": 8,
    "cloudCeiling": 99999,
    "altimeter": "A2996",
    "timestamp": "2026-04-21T21:53:00+00:00",
    "station": "KCPS"
  },
  "kstl": {
    "metar": "KSTL 212151Z 22016G26KT 10SM FEW250 27/10 A2997 RMK AO2 PK WND 22027/2141 SLP143 T02720100 $",
    "windDirection": 220,
    "windSpeed": 16,
    "windGust": 26,
    "visibility": 10,
    "temperatureC": 27,
    "dewPointC": 10,
    "cloudCeiling": null,
    "altimeter": "A2997",
    "timestamp": "2026-04-21T21:51:00+00:00",
    "station": "KSTL"
  }
}