{
  "lastUpdated": "2026-04-06T23:57:07.723520+00:00",
  "kcps": {
    "metar": "KCPS 062353Z 35010KT 10SM FEW120 16/M03 A3025 RMK AO2 SLP242 T01561033 10183 20156 56003 $",
    "windDirection": 350,
    "windSpeed": 10,
    "windGust": null,
    "visibility": 10,
    "temperatureC": 16,
    "dewPointC": -3,
    "cloudCeiling": null,
    "altimeter": "A3025",
    "timestamp": "2026-04-06T23:53:00+00:00",
    "station": "KCPS"
  },
  "kstl": {
    "metar": "KSTL 062351Z 34011G17KT 10SM SCT120 BKN250 14/M07 A3026 RMK AO2 SLP249 T01441072 10172 20144 56003 $",
    "windDirection": 340,
    "windSpeed": 11,
    "windGust": 17,
    "visibility": 10,
    "temperatureC": 14,
    "dewPointC": -7,
    "cloudCeiling": 25000,
    "altimeter": "A3026",
    "timestamp": "2026-04-06T23:51:00+00:00",
    "station": "KSTL"
  }
}