{
  "lastUpdated": "2026-02-13T04:29:25.883401+00:00",
  "kcps": {
    "metar": "KCPS 130353Z 16006KT 10SM FEW110 06/M03 A3019 RMK AO2 SLP226 T00561028 $",
    "windDirection": 160,
    "windSpeed": 6,
    "windGust": null,
    "visibility": 10,
    "temperatureC": 6,
    "dewPointC": -3,
    "cloudCeiling": null,
    "altimeter": "A3019",
    "timestamp": "2026-02-13T03:53:00+00:00",
    "station": "KCPS"
  },
  "kstl": {
    "metar": "KSTL 130351Z 15006KT 10SM SCT110 06/M03 A3019 RMK AO2 SLP227 T00611033 $",
    "windDirection": 150,
    "windSpeed": 6,
    "windGust": null,
    "visibility": 10,
    "temperatureC": 6,
    "dewPointC": -3,
    "cloudCeiling": null,
    "altimeter": "A3019",
    "timestamp": "2026-02-13T03:51:00+00:00",
    "station": "KSTL"
  }
}