{
  "lastUpdated": "2026-04-04T22:22:48.119140+00:00",
  "kcps": {
    "metar": "KCPS 042207Z 33014KT 10SM BKN030 OVC037 11/05 A3009 RMK AO2 T01060050 $",
    "windDirection": 330,
    "windSpeed": 14,
    "windGust": null,
    "visibility": 10,
    "temperatureC": 11,
    "dewPointC": 5,
    "cloudCeiling": 3000,
    "altimeter": "A3009",
    "timestamp": "2026-04-04T22:07:00+00:00",
    "station": "KCPS"
  },
  "kstl": {
    "metar": "KSTL 042151Z 29018G27KT 10SM BKN030 BKN250 11/03 A3009 RMK AO2 PK WND 31028/2105 SLP186 T01060033 $",
    "windDirection": 290,
    "windSpeed": 18,
    "windGust": 27,
    "visibility": 10,
    "temperatureC": 11,
    "dewPointC": 3,
    "cloudCeiling": 3000,
    "altimeter": "A3009",
    "timestamp": "2026-04-04T21:51:00+00:00",
    "station": "KSTL"
  }
}