{
  "lastUpdated": "2025-12-10T13:56:33.868457+00:00",
  "kcps": {
    "metar": "KCPS 101353Z 29015G28KT 10SM SCT046 08/00 A2967 RMK AO2 PK WND 31034/1256 SLP047 T00780000",
    "windDirection": 290,
    "windSpeed": 15,
    "windGust": 28,
    "visibility": 10,
    "temperatureC": 8,
    "dewPointC": 0,
    "cloudCeiling": null,
    "altimeter": "A2967",
    "timestamp": "2025-12-10T13:53:00+00:00",
    "station": "KCPS"
  },
  "kstl": {
    "metar": "KSTL 101351Z 29016G27KT 10SM BKN039 OVC047 07/M01 A2967 RMK AO2 PK WND 31029/1253 SLP048 T00721006 $",
    "windDirection": 290,
    "windSpeed": 16,
    "windGust": 27,
    "visibility": 10,
    "temperatureC": 7,
    "dewPointC": -1,
    "cloudCeiling": 3900,
    "altimeter": "A2967",
    "timestamp": "2025-12-10T13:51:00+00:00",
    "station": "KSTL"
  }
}