{
  "lastUpdated": "2025-12-26T08:22:41.777635+00:00",
  "kcps": {
    "metar": "KCPS 260753Z AUTO 17005KT 8SM CLR 13/13 A2977 RMK AO2 SLP080 T01330133 $",
    "windDirection": 170,
    "windSpeed": 5,
    "windGust": null,
    "visibility": 8,
    "temperatureC": 13,
    "dewPointC": 13,
    "cloudCeiling": 99999,
    "altimeter": "A2977",
    "timestamp": "2025-12-26T07:53:00+00:00",
    "station": "KCPS"
  },
  "kstl": {
    "metar": "KSTL 260751Z 20007KT 10SM BKN250 16/14 A2977 RMK AO2 SLP075 T01610144 $",
    "windDirection": 200,
    "windSpeed": 7,
    "windGust": null,
    "visibility": 10,
    "temperatureC": 16,
    "dewPointC": 14,
    "cloudCeiling": 25000,
    "altimeter": "A2977",
    "timestamp": "2025-12-26T07:51:00+00:00",
    "station": "KSTL"
  }
}