{
  "lastUpdated": "2026-01-21T06:58:49.190156+00:00",
  "kcps": {
    "metar": "KCPS 210653Z AUTO 24003KT 10SM CLR 01/M13 A3015 RMK AO2 SLP214 T00111133 $",
    "windDirection": 240,
    "windSpeed": 3,
    "windGust": null,
    "visibility": 10,
    "temperatureC": 1,
    "dewPointC": -13,
    "cloudCeiling": 99999,
    "altimeter": "A3015",
    "timestamp": "2026-01-21T06:53:00+00:00",
    "station": "KCPS"
  },
  "kstl": {
    "metar": "KSTL 210651Z 21011KT 10SM OVC170 02/M13 A3013 RMK AO2 SLP213 T00171133 $",
    "windDirection": 210,
    "windSpeed": 11,
    "windGust": null,
    "visibility": 10,
    "temperatureC": 2,
    "dewPointC": -13,
    "cloudCeiling": 17000,
    "altimeter": "A3013",
    "timestamp": "2026-01-21T06:51:00+00:00",
    "station": "KSTL"
  }
}