{
  "lastUpdated": "2026-03-28T09:00:51.353971+00:00",
  "kcps": {
    "metar": "KCPS 280853Z 36009KT 10SM CLR 03/M07 A3063 RMK AO2 SLP374 T00281072 51004 $",
    "windDirection": 360,
    "windSpeed": 9,
    "windGust": null,
    "visibility": 10,
    "temperatureC": 3,
    "dewPointC": -7,
    "cloudCeiling": 99999,
    "altimeter": "A3063",
    "timestamp": "2026-03-28T08:53:00+00:00",
    "station": "KCPS"
  },
  "kstl": {
    "metar": "KSTL 280851Z 01010KT 10SM FEW250 03/M07 A3063 RMK AO2 SLP375 T00281072 50001 $",
    "windDirection": 10,
    "windSpeed": 10,
    "windGust": null,
    "visibility": 10,
    "temperatureC": 3,
    "dewPointC": -7,
    "cloudCeiling": null,
    "altimeter": "A3063",
    "timestamp": "2026-03-28T08:51:00+00:00",
    "station": "KSTL"
  }
}