{
  "lastUpdated": "2026-04-24T00:00:41.359123+00:00",
  "kcps": {
    "metar": "KCPS 232353Z 18010G23KT 10SM CLR 26/14 A2973 RMK AO2 PK WND 22026/2317 SLP063 T02610144 10294 20261 58013 $",
    "windDirection": 180,
    "windSpeed": 10,
    "windGust": 23,
    "visibility": 10,
    "temperatureC": 26,
    "dewPointC": 14,
    "cloudCeiling": 99999,
    "altimeter": "A2973",
    "timestamp": "2026-04-23T23:53:00+00:00",
    "station": "KCPS"
  },
  "kstl": {
    "metar": "KSTL 232351Z 20015G24KT 10SM FEW060 BKN250 26/14 A2972 RMK AO2 PK WND 19028/2309 SLP055 T02610144 10283 20261 56014 $",
    "windDirection": 200,
    "windSpeed": 15,
    "windGust": 24,
    "visibility": 10,
    "temperatureC": 26,
    "dewPointC": 14,
    "cloudCeiling": 25000,
    "altimeter": "A2972",
    "timestamp": "2026-04-23T23:51:00+00:00",
    "station": "KSTL"
  }
}