{
  "lastUpdated": "2025-11-25T12:23:54.139962+00:00",
  "kcps": {
    "metar": "KCPS 251153Z AUTO 00000KT 2SM -RA BR OVC013 11/11 A2981 RMK AO2 RAB28 SLP093 P0001 60007 70016 T01110111 10117 20106 51003 $",
    "windDirection": 0,
    "windSpeed": 0,
    "windGust": null,
    "visibility": 2,
    "temperatureC": 11,
    "dewPointC": 11,
    "cloudCeiling": 1300,
    "altimeter": "A2981",
    "timestamp": "2025-11-25T11:53:00+00:00",
    "station": "KCPS"
  },
  "kstl": {
    "metar": "KSTL 251151Z 23004KT 8SM BKN005 OVC009 12/11 A2981 RMK AO2 DZE39 SLP094 P0000 60002 70012 T01170111 10117 20111 53003 $",
    "windDirection": 230,
    "windSpeed": 4,
    "windGust": null,
    "visibility": 8,
    "temperatureC": 12,
    "dewPointC": 11,
    "cloudCeiling": 500,
    "altimeter": "A2981",
    "timestamp": "2025-11-25T11:51:00+00:00",
    "station": "KSTL"
  }
}