{
  "lastUpdated": "2026-02-21T14:22:25.762351+00:00",
  "kcps": {
    "metar": "KCPS 211353Z 35007KT 10SM SCT070 OVC085 M01/M07 A3019 RMK AO2 SLP227 T10111067 PNO $",
    "windDirection": 350,
    "windSpeed": 7,
    "windGust": null,
    "visibility": 10,
    "temperatureC": -1,
    "dewPointC": -7,
    "cloudCeiling": 8500,
    "altimeter": "A3019",
    "timestamp": "2026-02-21T13:53:00+00:00",
    "station": "KCPS"
  },
  "kstl": {
    "metar": "KSTL 211400Z 31010KT 10SM -SN OVC070 M02/M07 A3021 RMK AO2 SNB00 P0000 T10171072 $",
    "windDirection": 310,
    "windSpeed": 10,
    "windGust": null,
    "visibility": 10,
    "temperatureC": -2,
    "dewPointC": -7,
    "cloudCeiling": 7000,
    "altimeter": "A3021",
    "timestamp": "2026-02-21T14:00:00+00:00",
    "station": "KSTL"
  }
}