{
  "lastUpdated": "2025-11-09T16:47:45.622361+00:00",
  "kcps": {
    "metar": "KCPS 091553Z 30021G25KT 10SM OVC031 03/M03 A3022 RMK AO2 PK WND 33029/1511 SLP235 T00331033 $",
    "windDirection": 300,
    "windSpeed": 21,
    "windGust": 25,
    "visibility": 10,
    "temperatureC": 3,
    "dewPointC": -3,
    "cloudCeiling": 3100,
    "altimeter": "A3022",
    "timestamp": "2025-11-09T15:53:00+00:00",
    "station": "KCPS"
  },
  "kstl": {
    "metar": "KSTL 091551Z 31017G26KT 10SM BKN030 04/M04 A3022 RMK AO2 PK WND 31028/1453 SLP239 T00391044 $",
    "windDirection": 310,
    "windSpeed": 17,
    "windGust": 26,
    "visibility": 10,
    "temperatureC": 4,
    "dewPointC": -4,
    "cloudCeiling": 3000,
    "altimeter": "A3022",
    "timestamp": "2025-11-09T15:51:00+00:00",
    "station": "KSTL"
  }
}