{
  "lastUpdated": "2025-12-24T18:52:50.569068+00:00",
  "kcps": {
    "metar": "KCPS 241753Z 15006KT 5SM BR OVC005 14/12 A3014 RMK AO2 SLP206 T01390122 10139 20089 58025 $",
    "windDirection": 150,
    "windSpeed": 6,
    "windGust": null,
    "visibility": 5,
    "temperatureC": 14,
    "dewPointC": 12,
    "cloudCeiling": 500,
    "altimeter": "A3014",
    "timestamp": "2025-12-24T17:53:00+00:00",
    "station": "KCPS"
  },
  "kstl": {
    "metar": "KSTL 241836Z 13009KT 7SM SCT007 OVC025 14/12 A3011 RMK AO2 T01440117 $",
    "windDirection": 130,
    "windSpeed": 9,
    "windGust": null,
    "visibility": 7,
    "temperatureC": 14,
    "dewPointC": 12,
    "cloudCeiling": 2500,
    "altimeter": "A3011",
    "timestamp": "2025-12-24T18:36:00+00:00",
    "station": "KSTL"
  }
}