{
  "lastUpdated": "2026-01-21T15:06:19.877870+00:00",
  "kcps": {
    "metar": "KCPS 211453Z 25006KT 10SM CLR 04/M06 A3009 RMK AO2 SLP191 T00391056 51009 $",
    "windDirection": 250,
    "windSpeed": 6,
    "windGust": null,
    "visibility": 10,
    "temperatureC": 4,
    "dewPointC": -6,
    "cloudCeiling": 99999,
    "altimeter": "A3009",
    "timestamp": "2026-01-21T14:53:00+00:00",
    "station": "KCPS"
  },
  "kstl": {
    "metar": "KSTL 211451Z 25014G21KT 10SM FEW170 04/M06 A3008 RMK AO2 SLP194 T00391061 51013 $",
    "windDirection": 250,
    "windSpeed": 14,
    "windGust": 21,
    "visibility": 10,
    "temperatureC": 4,
    "dewPointC": -6,
    "cloudCeiling": null,
    "altimeter": "A3008",
    "timestamp": "2026-01-21T14:51:00+00:00",
    "station": "KSTL"
  }
}