{
  "lastUpdated": "2026-04-13T08:25:06.528571+00:00",
  "kcps": {
    "metar": "KCPS 130753Z AUTO 20008KT 10SM OVC048 22/16 A2997 RMK AO2 SLP144 T02220161 $",
    "windDirection": 200,
    "windSpeed": 8,
    "windGust": null,
    "visibility": 10,
    "temperatureC": 22,
    "dewPointC": 16,
    "cloudCeiling": 4800,
    "altimeter": "A2997",
    "timestamp": "2026-04-13T07:53:00+00:00",
    "station": "KCPS"
  },
  "kstl": {
    "metar": "KSTL 130751Z 21011KT 10SM BKN042 BKN049 22/16 A2996 RMK AO2 SLP136 T02170161 $",
    "windDirection": 210,
    "windSpeed": 11,
    "windGust": null,
    "visibility": 10,
    "temperatureC": 22,
    "dewPointC": 16,
    "cloudCeiling": 4200,
    "altimeter": "A2996",
    "timestamp": "2026-04-13T07:51:00+00:00",
    "station": "KSTL"
  }
}