{
  "lastUpdated": "2026-02-17T08:22:41.629314+00:00",
  "kcps": {
    "metar": "KCPS 170753Z AUTO 16005KT 10SM CLR 07/04 A2996 RMK AO2 SLP146 T00670044 $",
    "windDirection": 160,
    "windSpeed": 5,
    "windGust": null,
    "visibility": 10,
    "temperatureC": 7,
    "dewPointC": 4,
    "cloudCeiling": 99999,
    "altimeter": "A2996",
    "timestamp": "2026-02-17T07:53:00+00:00",
    "station": "KCPS"
  },
  "kstl": {
    "metar": "KSTL 170751Z 12004KT 10SM CLR 06/04 A2997 RMK AO2 SLP147 T00610039 $",
    "windDirection": 120,
    "windSpeed": 4,
    "windGust": null,
    "visibility": 10,
    "temperatureC": 6,
    "dewPointC": 4,
    "cloudCeiling": 99999,
    "altimeter": "A2997",
    "timestamp": "2026-02-17T07:51:00+00:00",
    "station": "KSTL"
  }
}