{
  "lastUpdated": "2026-02-13T19:48:20.801207+00:00",
  "kcps": {
    "metar": "KCPS 131853Z 17008G15KT 10SM CLR 15/M02 A3014 RMK AO2 SLP208 T01501017 $",
    "windDirection": 170,
    "windSpeed": 8,
    "windGust": 15,
    "visibility": 10,
    "temperatureC": 15,
    "dewPointC": -2,
    "cloudCeiling": 99999,
    "altimeter": "A3014",
    "timestamp": "2026-02-13T18:53:00+00:00",
    "station": "KCPS"
  },
  "kstl": {
    "metar": "KSTL 131851Z 17009KT 10SM FEW250 14/M03 A3014 RMK AO2 SLP210 T01441028 $",
    "windDirection": 170,
    "windSpeed": 9,
    "windGust": null,
    "visibility": 10,
    "temperatureC": 14,
    "dewPointC": -3,
    "cloudCeiling": null,
    "altimeter": "A3014",
    "timestamp": "2026-02-13T18:51:00+00:00",
    "station": "KSTL"
  }
}