{
  "lastUpdated": "2026-04-13T02:36:58.305243+00:00",
  "kcps": {
    "metar": "KCPS 130153Z 21013G25KT 10SM SCT055 BKN070 OVC090 23/13 A2989 RMK AO2 PK WND 19026/0125 SLP120 T02330128 $",
    "windDirection": 210,
    "windSpeed": 13,
    "windGust": 25,
    "visibility": 10,
    "temperatureC": 23,
    "dewPointC": 13,
    "cloudCeiling": 7000,
    "altimeter": "A2989",
    "timestamp": "2026-04-13T01:53:00+00:00",
    "station": "KCPS"
  },
  "kstl": {
    "metar": "KSTL 130151Z 21013G24KT 10SM OVC048 23/13 A2990 RMK AO2 PK WND 21031/0057 RAB08E23 SLP115 P0000 T02330128 $",
    "windDirection": 210,
    "windSpeed": 13,
    "windGust": 24,
    "visibility": 10,
    "temperatureC": 23,
    "dewPointC": 13,
    "cloudCeiling": 4800,
    "altimeter": "A2990",
    "timestamp": "2026-04-13T01:51:00+00:00",
    "station": "KSTL"
  }
}