{
  "lastUpdated": "2026-06-14T01:26:37.843100+00:00",
  "kcps": {
    "metar": "KCPS 140053Z 17004KT 10SM CLR 25/21 A2986 RMK AO2 SLP106 T02500211 $",
    "windDirection": 170,
    "windSpeed": 4,
    "windGust": null,
    "visibility": 10.0,
    "temperatureC": 25,
    "dewPointC": 21.1,
    "cloudCeiling": null,
    "altimeter": "A2986",
    "timestamp": "2026-06-14T01:00:00.000Z",
    "station": "KCPS"
  },
  "kstl": {
    "metar": "KSTL 140051Z 20008KT 10SM FEW040 SCT120 SCT200 25/20 A2986 RMK AO2 SLP102 T02500200 $",
    "windDirection": 200,
    "windSpeed": 8,
    "windGust": null,
    "visibility": 10.0,
    "temperatureC": 25,
    "dewPointC": 20,
    "cloudCeiling": null,
    "altimeter": "A2986",
    "timestamp": "2026-06-14T01:00:00.000Z",
    "station": "KSTL"
  }
}