{
  "lastUpdated": "2025-11-12T23:02:40.024873+00:00",
  "kcps": {
    "metar": "KCPS 122253Z 29003KT 10SM CLR 14/01 A3012 RMK AO2 SLP201 T01440006",
    "windDirection": 290,
    "windSpeed": 3,
    "windGust": null,
    "visibility": 10,
    "temperatureC": 14,
    "dewPointC": 1,
    "cloudCeiling": 99999,
    "altimeter": "A3012",
    "timestamp": "2025-11-12T22:53:00+00:00",
    "station": "KCPS"
  },
  "kstl": {
    "metar": "KSTL 122251Z 29005KT 10SM FEW200 SCT250 15/01 A3013 RMK AO2 SLP205 T01500006",
    "windDirection": 290,
    "windSpeed": 5,
    "windGust": null,
    "visibility": 10,
    "temperatureC": 15,
    "dewPointC": 1,
    "cloudCeiling": null,
    "altimeter": "A3013",
    "timestamp": "2025-11-12T22:51:00+00:00",
    "station": "KSTL"
  }
}