{
  "lastUpdated": "2026-04-09T18:46:26.268960+00:00",
  "kcps": {
    "metar": "KCPS 091753Z 21011G20KT 180V240 10SM CLR 26/06 A3017 RMK AO2 SLP213 T02610061 10261 20089 58014 $",
    "windDirection": 210,
    "windSpeed": 11,
    "windGust": 20,
    "visibility": 10,
    "temperatureC": 26,
    "dewPointC": 6,
    "cloudCeiling": 99999,
    "altimeter": "A3017",
    "timestamp": "2026-04-09T17:53:00+00:00",
    "station": "KCPS"
  },
  "kstl": {
    "metar": "KSTL 091751Z 22010G18KT 10SM FEW070 FEW250 26/06 A3017 RMK AO2 SLP207 T02610056 10261 20156 58014 $",
    "windDirection": 220,
    "windSpeed": 10,
    "windGust": 18,
    "visibility": 10,
    "temperatureC": 26,
    "dewPointC": 6,
    "cloudCeiling": null,
    "altimeter": "A3017",
    "timestamp": "2026-04-09T17:51:00+00:00",
    "station": "KSTL"
  }
}