{
  "lastUpdated": "2025-10-13T04:22:14.998074+00:00",
  "kcps": {
    "metar": "KCPS 130253Z 17004KT 10SM CLR 19/12 A2991 RMK AO2 SLP127 T01890122 53015 $",
    "windDirection": 170,
    "windSpeed": 4,
    "windGust": null,
    "visibility": 10,
    "temperatureC": 19,
    "dewPointC": 12,
    "cloudCeiling": 99999,
    "altimeter": "A2991",
    "timestamp": "2025-10-13T02:53:00+00:00",
    "station": "KCPS"
  },
  "kstl": {
    "metar": "KSTL 130351Z 16007KT 10SM BKN190 22/12 A2993 RMK AO2 SLP125 T02170117 $",
    "windDirection": 160,
    "windSpeed": 7,
    "windGust": null,
    "visibility": 10,
    "temperatureC": 22,
    "dewPointC": 12,
    "cloudCeiling": 19000,
    "altimeter": "A2993",
    "timestamp": "2025-10-13T03:51:00+00:00",
    "station": "KSTL"
  }
}