{
  "lastUpdated": "2025-12-26T16:22:20.058485+00:00",
  "kcps": {
    "metar": "KCPS 261553Z 25006KT 10SM BKN020 19/15 A2978 RMK AO2 SLP081 T01890150 $",
    "windDirection": 250,
    "windSpeed": 6,
    "windGust": null,
    "visibility": 10,
    "temperatureC": 19,
    "dewPointC": 15,
    "cloudCeiling": 2000,
    "altimeter": "A2978",
    "timestamp": "2025-12-26T15:53:00+00:00",
    "station": "KCPS"
  },
  "kstl": {
    "metar": "KSTL 261551Z 26012KT 10SM BKN016 BKN250 18/15 A2979 RMK AO2 SLP081 T01830150 $",
    "windDirection": 260,
    "windSpeed": 12,
    "windGust": null,
    "visibility": 10,
    "temperatureC": 18,
    "dewPointC": 15,
    "cloudCeiling": 1600,
    "altimeter": "A2979",
    "timestamp": "2025-12-26T15:51:00+00:00",
    "station": "KSTL"
  }
}