{
  "lastUpdated": "2026-03-27T19:29:25.346213+00:00",
  "kcps": {
    "metar": "KCPS 271853Z 36012G22KT 10SM CLR 09/01 A3045 RMK AO2 SLP311 T00890011 $",
    "windDirection": 360,
    "windSpeed": 12,
    "windGust": 22,
    "visibility": 10,
    "temperatureC": 9,
    "dewPointC": 1,
    "cloudCeiling": 99999,
    "altimeter": "A3045",
    "timestamp": "2026-03-27T18:53:00+00:00",
    "station": "KCPS"
  },
  "kstl": {
    "metar": "KSTL 271851Z 34013G23KT 10SM FEW025 SCT170 BKN250 10/01 A3045 RMK AO2 SLP314 T01000006 $",
    "windDirection": 340,
    "windSpeed": 13,
    "windGust": 23,
    "visibility": 10,
    "temperatureC": 10,
    "dewPointC": 1,
    "cloudCeiling": 25000,
    "altimeter": "A3045",
    "timestamp": "2026-03-27T18:51:00+00:00",
    "station": "KSTL"
  }
}