{
  "lastUpdated": "2026-02-27T15:27:27.553834+00:00",
  "kcps": {
    "metar": "KCPS 271453Z 10SM CLR 10/06 A2998 RMK AO2 SLP154 I3000 T01000056 53010 $",
    "windDirection": null,
    "windSpeed": null,
    "windGust": null,
    "visibility": 10,
    "temperatureC": 10,
    "dewPointC": 6,
    "cloudCeiling": 99999,
    "altimeter": "A2998",
    "timestamp": "2026-02-27T14:53:00+00:00",
    "station": "KCPS"
  },
  "kstl": {
    "metar": "KSTL 271451Z 22004KT 10SM FEW250 12/04 A2998 RMK AO2 SLP153 T01170039 53012 $",
    "windDirection": 220,
    "windSpeed": 4,
    "windGust": null,
    "visibility": 10,
    "temperatureC": 12,
    "dewPointC": 4,
    "cloudCeiling": null,
    "altimeter": "A2998",
    "timestamp": "2026-02-27T14:51:00+00:00",
    "station": "KSTL"
  }
}