{
  "lastUpdated": "2026-03-15T11:22:35.309835+00:00",
  "kcps": {
    "metar": "KCPS 151053Z AUTO 14007G16KT 10SM CLR 17/10 A2952 RMK AO2 SLP995 T01670100 $",
    "windDirection": 140,
    "windSpeed": 7,
    "windGust": 16,
    "visibility": 10,
    "temperatureC": 17,
    "dewPointC": 10,
    "cloudCeiling": 99999,
    "altimeter": "A2952",
    "timestamp": "2026-03-15T10:53:00+00:00",
    "station": "KCPS"
  },
  "kstl": {
    "metar": "KSTL 151051Z 17014G21KT 10SM BKN200 17/09 A2951 RMK AO2 SLP986 T01670089 $",
    "windDirection": 170,
    "windSpeed": 14,
    "windGust": 21,
    "visibility": 10,
    "temperatureC": 17,
    "dewPointC": 9,
    "cloudCeiling": 20000,
    "altimeter": "A2951",
    "timestamp": "2026-03-15T10:51:00+00:00",
    "station": "KSTL"
  }
}