{
  "lastUpdated": "2026-05-31T22:05:28.319723+00:00",
  "kcps": {
    "metar": "KCPS 312153Z 11005KT 10SM CLR 25/19 A2992 RMK AO2 SLP127 T02500189 $",
    "windDirection": 110,
    "windSpeed": 5,
    "windGust": null,
    "visibility": 10,
    "temperatureC": 25,
    "dewPointC": 19,
    "cloudCeiling": 99999,
    "altimeter": "A2992",
    "timestamp": "2026-05-31T21:53:00+00:00",
    "station": "KCPS"
  },
  "kstl": {
    "metar": "KSTL 312151Z 12006KT 10SM FEW120 BKN190 25/18 A2993 RMK AO2 SLP127 T02500183 $",
    "windDirection": 120,
    "windSpeed": 6,
    "windGust": null,
    "visibility": 10,
    "temperatureC": 25,
    "dewPointC": 18,
    "cloudCeiling": 19000,
    "altimeter": "A2993",
    "timestamp": "2026-05-31T21:51:00+00:00",
    "station": "KSTL"
  }
}