{
  "lastUpdated": "2025-10-10T08:03:10.147843+00:00",
  "kcps": {
    "metar": "KCPS 100753Z AUTO 00000KT 10SM CLR 08/07 A3028 RMK AO2 SLP255 T00780067",
    "windDirection": 0,
    "windSpeed": 0,
    "windGust": null,
    "visibility": 10,
    "temperatureC": 8,
    "dewPointC": 7,
    "cloudCeiling": 99999,
    "altimeter": "A3028",
    "timestamp": "2025-10-10T07:53:00+00:00",
    "station": "KCPS"
  },
  "kstl": {
    "metar": "KSTL 100751Z 11006KT 10SM CLR 12/06 A3028 RMK AO2 SLP249 T01170061 $",
    "windDirection": 110,
    "windSpeed": 6,
    "windGust": null,
    "visibility": 10,
    "temperatureC": 12,
    "dewPointC": 6,
    "cloudCeiling": 99999,
    "altimeter": "A3028",
    "timestamp": "2025-10-10T07:51:00+00:00",
    "station": "KSTL"
  }
}