{
  "lastUpdated": "2026-01-25T22:02:19.011585+00:00",
  "kcps": {
    "metar": "KCPS 252153Z 31013KT 10SM FEW025 M10/M15 A3018 RMK AO2 UPB2055E03B12E24SNB03E12 SLP228 P0000 T11001150 $",
    "windDirection": 310,
    "windSpeed": 13,
    "windGust": null,
    "visibility": 10,
    "temperatureC": -10,
    "dewPointC": -15,
    "cloudCeiling": null,
    "altimeter": "A3018",
    "timestamp": "2026-01-25T21:53:00+00:00",
    "station": "KCPS"
  },
  "kstl": {
    "metar": "KSTL 252151Z 32013G23KT 10SM FEW025 SCT035 BKN250 M11/M16 A3017 RMK AO2 SNE08 SLP239 P0000 T11061156 $",
    "windDirection": 320,
    "windSpeed": 13,
    "windGust": 23,
    "visibility": 10,
    "temperatureC": -11,
    "dewPointC": -16,
    "cloudCeiling": 25000,
    "altimeter": "A3017",
    "timestamp": "2026-01-25T21:51:00+00:00",
    "station": "KSTL"
  }
}