{
  "lastUpdated": "2026-02-01T05:43:46.022152+00:00",
  "kcps": {
    "metar": "KCPS 010453Z AUTO 00000KT 10SM CLR M14/M17 A3049 RMK AO2 SLP333 T11441167 $",
    "windDirection": 0,
    "windSpeed": 0,
    "windGust": null,
    "visibility": 10,
    "temperatureC": -14,
    "dewPointC": -17,
    "cloudCeiling": 99999,
    "altimeter": "A3049",
    "timestamp": "2026-02-01T04:53:00+00:00",
    "station": "KCPS"
  },
  "kstl": {
    "metar": "KSTL 010451Z 27006KT 10SM CLR M12/M17 A3048 RMK AO2 SLP344 T11221172 $",
    "windDirection": 270,
    "windSpeed": 6,
    "windGust": null,
    "visibility": 10,
    "temperatureC": -12,
    "dewPointC": -17,
    "cloudCeiling": 99999,
    "altimeter": "A3048",
    "timestamp": "2026-02-01T04:51:00+00:00",
    "station": "KSTL"
  }
}