{
  "lastUpdated": "2026-01-05T04:04:18.737028+00:00",
  "kcps": {
    "metar": "KCPS 050353Z 17004KT 10SM CLR 03/M04 A3000 RMK AO2 SLP160 T00281039 $",
    "windDirection": 170,
    "windSpeed": 4,
    "windGust": null,
    "visibility": 10,
    "temperatureC": 3,
    "dewPointC": -4,
    "cloudCeiling": 99999,
    "altimeter": "A3000",
    "timestamp": "2026-01-05T03:53:00+00:00",
    "station": "KCPS"
  },
  "kstl": {
    "metar": "KSTL 050351Z 17008KT 10SM CLR 04/M04 A2998 RMK AO2 SLP162 T00391039 $",
    "windDirection": 170,
    "windSpeed": 8,
    "windGust": null,
    "visibility": 10,
    "temperatureC": 4,
    "dewPointC": -4,
    "cloudCeiling": 99999,
    "altimeter": "A2998",
    "timestamp": "2026-01-05T03:51:00+00:00",
    "station": "KSTL"
  }
}