{
  "lastUpdated": "2026-05-01T06:50:42.873037+00:00",
  "kcps": {
    "metar": "KCPS 010553Z AUTO 32009KT 10SM -RA FEW036 BKN047 OVC055 13/09 A3001 RMK AO2 RAB28 SLP163 P0001 60001 T01280094 10178 20122 401940044 53006 $",
    "windDirection": 320,
    "windSpeed": 9,
    "windGust": null,
    "visibility": 10,
    "temperatureC": 13,
    "dewPointC": 9,
    "cloudCeiling": 4700,
    "altimeter": "A3001",
    "timestamp": "2026-05-01T05:53:00+00:00",
    "station": "KCPS"
  },
  "kstl": {
    "metar": "KSTL 010551Z 32010G17KT 10SM OVC055 12/08 A3002 RMK AO2 SLP164 60002 T01220083 10172 20122 401890056 53009",
    "windDirection": 320,
    "windSpeed": 10,
    "windGust": 17,
    "visibility": 10,
    "temperatureC": 12,
    "dewPointC": 8,
    "cloudCeiling": 5500,
    "altimeter": "A3002",
    "timestamp": "2026-05-01T05:51:00+00:00",
    "station": "KSTL"
  }
}