{
  "lastUpdated": "2026-06-05T19:31:48.576177+00:00",
  "kcps": {
    "metar": "KCPS 051853Z 19009G14KT 170V240 10SM OVC060 29/19 A2994 RMK AO2 SLP135 T02940194 $",
    "windDirection": 190,
    "windSpeed": 9,
    "windGust": 14,
    "visibility": 10,
    "temperatureC": 29,
    "dewPointC": 19,
    "cloudCeiling": 6000,
    "altimeter": "A2994",
    "timestamp": "2026-06-05T18:53:00+00:00",
    "station": "KCPS"
  },
  "kstl": {
    "metar": "KSTL 051851Z 19012G18KT 10SM SCT039 BKN150 BKN250 29/19 A2995 RMK AO2 SLP130 T02890194 $",
    "windDirection": 190,
    "windSpeed": 12,
    "windGust": 18,
    "visibility": 10,
    "temperatureC": 29,
    "dewPointC": 19,
    "cloudCeiling": 15000,
    "altimeter": "A2995",
    "timestamp": "2026-06-05T18:51:00+00:00",
    "station": "KSTL"
  }
}