{
  "lastUpdated": "2026-01-21T22:22:27.895653+00:00",
  "kcps": {
    "metar": "KCPS 212153Z 29013KT 10SM CLR 08/M08 A3005 RMK AO2 SLP176 T00831083 $",
    "windDirection": 290,
    "windSpeed": 13,
    "windGust": null,
    "visibility": 10,
    "temperatureC": 8,
    "dewPointC": -8,
    "cloudCeiling": 99999,
    "altimeter": "A3005",
    "timestamp": "2026-01-21T21:53:00+00:00",
    "station": "KCPS"
  },
  "kstl": {
    "metar": "KSTL 212151Z 28016KT 10SM FEW250 08/M08 A3004 RMK AO2 SLP180 T00781083 $",
    "windDirection": 280,
    "windSpeed": 16,
    "windGust": null,
    "visibility": 10,
    "temperatureC": 8,
    "dewPointC": -8,
    "cloudCeiling": null,
    "altimeter": "A3004",
    "timestamp": "2026-01-21T21:51:00+00:00",
    "station": "KSTL"
  }
}