{
  "lastUpdated": "2026-04-01T07:29:48.512281+00:00",
  "kcps": {
    "metar": "KCPS 010653Z AUTO 23006KT 10SM FEW100 22/12 A2989 RMK AO2 SLP117 T02220117 $",
    "windDirection": 230,
    "windSpeed": 6,
    "windGust": null,
    "visibility": 10,
    "temperatureC": 22,
    "dewPointC": 12,
    "cloudCeiling": null,
    "altimeter": "A2989",
    "timestamp": "2026-04-01T06:53:00+00:00",
    "station": "KCPS"
  },
  "kstl": {
    "metar": "KSTL 010651Z 20008KT 10SM FEW075 BKN110 BKN250 21/13 A2989 RMK AO2 SLP113 T02110128 $",
    "windDirection": 200,
    "windSpeed": 8,
    "windGust": null,
    "visibility": 10,
    "temperatureC": 21,
    "dewPointC": 13,
    "cloudCeiling": 11000,
    "altimeter": "A2989",
    "timestamp": "2026-04-01T06:51:00+00:00",
    "station": "KSTL"
  }
}