{
  "lastUpdated": "2025-12-23T10:22:16.316120+00:00",
  "kcps": {
    "metar": "KCPS 231003Z AUTO 17003KT 3/4SM BR CLR 02/02 A3009 RMK AO2 T00170017 $",
    "windDirection": 170,
    "windSpeed": 3,
    "windGust": null,
    "visibility": 0.75,
    "temperatureC": 2,
    "dewPointC": 2,
    "cloudCeiling": 99999,
    "altimeter": "A3009",
    "timestamp": "2025-12-23T10:03:00+00:00",
    "station": "KCPS"
  },
  "kstl": {
    "metar": "KSTL 230951Z 13003KT 10SM FEW250 06/05 A3008 RMK AO2 SLP188 T00560050 $",
    "windDirection": 130,
    "windSpeed": 3,
    "windGust": null,
    "visibility": 10,
    "temperatureC": 6,
    "dewPointC": 5,
    "cloudCeiling": null,
    "altimeter": "A3008",
    "timestamp": "2025-12-23T09:51:00+00:00",
    "station": "KSTL"
  }
}