{
  "lastUpdated": "2026-01-29T19:52:20.024914+00:00",
  "kcps": {
    "metar": "KCPS 291853Z 03005KT 10SM CLR M03/M13 A3029 RMK AO2 SLP262 T10331133 $",
    "windDirection": 30,
    "windSpeed": 5,
    "windGust": null,
    "visibility": 10,
    "temperatureC": -3,
    "dewPointC": -13,
    "cloudCeiling": 99999,
    "altimeter": "A3029",
    "timestamp": "2026-01-29T18:53:00+00:00",
    "station": "KCPS"
  },
  "kstl": {
    "metar": "KSTL 291851Z 04005KT 10SM SCT090 OVC200 M04/M14 A3029 RMK AO2 SLP269 T10391139 $",
    "windDirection": 40,
    "windSpeed": 5,
    "windGust": null,
    "visibility": 10,
    "temperatureC": -4,
    "dewPointC": -14,
    "cloudCeiling": 20000,
    "altimeter": "A3029",
    "timestamp": "2026-01-29T18:51:00+00:00",
    "station": "KSTL"
  }
}