{
  "lastUpdated": "2026-05-26T02:00:45.005694+00:00",
  "kcps": {
    "metar": "KCPS 260153Z 11003KT 10SM CLR 21/12 A3002 RMK AO2 SLP163 T02110117 $",
    "windDirection": 110,
    "windSpeed": 3,
    "windGust": null,
    "visibility": 10,
    "temperatureC": 21,
    "dewPointC": 12,
    "cloudCeiling": 99999,
    "altimeter": "A3002",
    "timestamp": "2026-05-26T01:53:00+00:00",
    "station": "KCPS"
  },
  "kstl": {
    "metar": "KSTL 260151Z 11005KT 10SM BKN250 22/11 A3003 RMK AO2 SLP162 T02220111 $",
    "windDirection": 110,
    "windSpeed": 5,
    "windGust": null,
    "visibility": 10,
    "temperatureC": 22,
    "dewPointC": 11,
    "cloudCeiling": 25000,
    "altimeter": "A3003",
    "timestamp": "2026-05-26T01:51:00+00:00",
    "station": "KSTL"
  }
}