{
  "lastUpdated": "2026-02-06T11:55:11.915805+00:00",
  "kcps": {
    "metar": "KCPS 060953Z 23006KT 10SM CLR 01/M02 A2980 RMK AO2 SLP094 I1000 T00061022 $",
    "windDirection": 230,
    "windSpeed": 6,
    "windGust": null,
    "visibility": 10,
    "temperatureC": 1,
    "dewPointC": -2,
    "cloudCeiling": 99999,
    "altimeter": "A2980",
    "timestamp": "2026-02-06T09:53:00+00:00",
    "station": "KCPS"
  },
  "kstl": {
    "metar": "KSTL 061151Z 25012KT 10SM CLR 04/00 A2976 RMK AO2 SLP086 4/002 T00440000 10044 21028 58019 $",
    "windDirection": 250,
    "windSpeed": 12,
    "windGust": null,
    "visibility": 10,
    "temperatureC": 4,
    "dewPointC": 0,
    "cloudCeiling": 99999,
    "altimeter": "A2976",
    "timestamp": "2026-02-06T11:51:00+00:00",
    "station": "KSTL"
  }
}