{
  "lastUpdated": "2026-05-18T21:12:30.337393+00:00",
  "kcps": {
    "metar": "KCPS 182053Z 10006KT 10SM OVC060 21/19 A3002 RMK AO2 LTG DSNT NW-E RAE00B04E37 SLP163 P0002 60042 T02060189 51003 $",
    "windDirection": 100,
    "windSpeed": 6,
    "windGust": null,
    "visibility": 10,
    "temperatureC": 21,
    "dewPointC": 19,
    "cloudCeiling": 6000,
    "altimeter": "A3002",
    "timestamp": "2026-05-18T20:53:00+00:00",
    "station": "KCPS"
  },
  "kstl": {
    "metar": "KSTL 182107Z 31013G19KT 3SM R30R/6000VP6000FT -TSRA FEW008 BKN048CB OVC060 19/17 A3003 RMK AO2 TSB2058 OCNL LTGIC NW-N TS NW-N MOV NE P0004 T01940167 $",
    "windDirection": 310,
    "windSpeed": 13,
    "windGust": 19,
    "visibility": 3,
    "temperatureC": 19,
    "dewPointC": 17,
    "cloudCeiling": 4800,
    "altimeter": "A3003",
    "timestamp": "2026-05-18T21:07:00+00:00",
    "station": "KSTL"
  }
}