{
  "lastUpdated": "2025-11-06T03:08:21.762516+00:00",
  "kcps": {
    "metar": "KCPS 060253Z 00000KT 10SM CLR 07/05 A3023 RMK AO2 SLP238 T00670050 51009 $",
    "windDirection": 0,
    "windSpeed": 0,
    "windGust": null,
    "visibility": 10,
    "temperatureC": 7,
    "dewPointC": 5,
    "cloudCeiling": 99999,
    "altimeter": "A3023",
    "timestamp": "2025-11-06T02:53:00+00:00",
    "station": "KCPS"
  },
  "kstl": {
    "metar": "KSTL 060251Z 00000KT 10SM CLR 09/04 A3024 RMK AO2 SLP240 T00940039 51009 $",
    "windDirection": 0,
    "windSpeed": 0,
    "windGust": null,
    "visibility": 10,
    "temperatureC": 9,
    "dewPointC": 4,
    "cloudCeiling": 99999,
    "altimeter": "A3024",
    "timestamp": "2025-11-06T02:51:00+00:00",
    "station": "KSTL"
  }
}