{
  "lastUpdated": "2025-12-13T03:08:51.874886+00:00",
  "kcps": {
    "metar": "KCPS 130253Z 33006KT 9SM OVC015 02/M01 A3020 RMK AO2 SLP228 T00171011 53003",
    "windDirection": 330,
    "windSpeed": 6,
    "windGust": null,
    "visibility": 9,
    "temperatureC": 2,
    "dewPointC": -1,
    "cloudCeiling": 1500,
    "altimeter": "A3020",
    "timestamp": "2025-12-13T02:53:00+00:00",
    "station": "KCPS"
  },
  "kstl": {
    "metar": "KSTL 130251Z 32009KT 10SM OVC012 01/M02 A3019 RMK AO2 SLP234 T00111017 53007 $",
    "windDirection": 320,
    "windSpeed": 9,
    "windGust": null,
    "visibility": 10,
    "temperatureC": 1,
    "dewPointC": -2,
    "cloudCeiling": 1200,
    "altimeter": "A3019",
    "timestamp": "2025-12-13T02:51:00+00:00",
    "station": "KSTL"
  }
}