{
  "lastUpdated": "2025-11-13T11:46:51.529569+00:00",
  "kcps": {
    "metar": "KCPS 131053Z AUTO 00000KT 10SM CLR 03/01 A3023 RMK AO2 SLP236 T00280011 TSNO",
    "windDirection": 0,
    "windSpeed": 0,
    "windGust": null,
    "visibility": 10,
    "temperatureC": 3,
    "dewPointC": 1,
    "cloudCeiling": 99999,
    "altimeter": "A3023",
    "timestamp": "2025-11-13T10:53:00+00:00",
    "station": "KCPS"
  },
  "kstl": {
    "metar": "KSTL 131051Z 22003KT 10SM BKN180 BKN230 06/02 A3023 RMK AO2 SLP236 T00560022",
    "windDirection": 220,
    "windSpeed": 3,
    "windGust": null,
    "visibility": 10,
    "temperatureC": 6,
    "dewPointC": 2,
    "cloudCeiling": 18000,
    "altimeter": "A3023",
    "timestamp": "2025-11-13T10:51:00+00:00",
    "station": "KSTL"
  }
}