{
  "lastUpdated": "2026-03-28T05:07:22.220835+00:00",
  "kcps": {
    "metar": "KCPS 280453Z 34010KT 10SM CLR 07/M06 A3061 RMK AO2 SLP366 T00671061 $",
    "windDirection": 340,
    "windSpeed": 10,
    "windGust": null,
    "visibility": 10,
    "temperatureC": 7,
    "dewPointC": -6,
    "cloudCeiling": 99999,
    "altimeter": "A3061",
    "timestamp": "2026-03-28T04:53:00+00:00",
    "station": "KCPS"
  },
  "kstl": {
    "metar": "KSTL 280451Z 35009KT 10SM FEW250 06/M07 A3061 RMK AO2 SLP371 T00611067 $",
    "windDirection": 350,
    "windSpeed": 9,
    "windGust": null,
    "visibility": 10,
    "temperatureC": 6,
    "dewPointC": -7,
    "cloudCeiling": null,
    "altimeter": "A3061",
    "timestamp": "2026-03-28T04:51:00+00:00",
    "station": "KSTL"
  }
}