{
  "lastUpdated": "2025-11-03T23:21:12.254487+00:00",
  "kcps": {
    "metar": "KCPS 032253Z 00000KT 10SM CLR 13/05 A3027 RMK AO2 SLP251 T01330050",
    "windDirection": 0,
    "windSpeed": 0,
    "windGust": null,
    "visibility": 10,
    "temperatureC": 13,
    "dewPointC": 5,
    "cloudCeiling": 99999,
    "altimeter": "A3027",
    "timestamp": "2025-11-03T22:53:00+00:00",
    "station": "KCPS"
  },
  "kstl": {
    "metar": "KSTL 032251Z 31003KT 10SM FEW250 16/02 A3027 RMK AO2 SLP252 T01610022 $",
    "windDirection": 310,
    "windSpeed": 3,
    "windGust": null,
    "visibility": 10,
    "temperatureC": 16,
    "dewPointC": 2,
    "cloudCeiling": null,
    "altimeter": "A3027",
    "timestamp": "2025-11-03T22:51:00+00:00",
    "station": "KSTL"
  }
}