{
  "lastUpdated": "2025-12-07T01:14:04.074372+00:00",
  "kcps": {
    "metar": "KCPS 070053Z 16007KT 10SM CLR 06/01 A2992 RMK AO2 SLP134 T00610011 $",
    "windDirection": 160,
    "windSpeed": 7,
    "windGust": null,
    "visibility": 10,
    "temperatureC": 6,
    "dewPointC": 1,
    "cloudCeiling": 99999,
    "altimeter": "A2992",
    "timestamp": "2025-12-07T00:53:00+00:00",
    "station": "KCPS"
  },
  "kstl": {
    "metar": "KSTL 070051Z 15010KT 10SM BKN160 BKN220 06/01 A2990 RMK AO2 SLP133 T00610011 $",
    "windDirection": 150,
    "windSpeed": 10,
    "windGust": null,
    "visibility": 10,
    "temperatureC": 6,
    "dewPointC": 1,
    "cloudCeiling": 16000,
    "altimeter": "A2990",
    "timestamp": "2025-12-07T00:51:00+00:00",
    "station": "KSTL"
  }
}