{
  "lastUpdated": "2026-03-14T18:59:35.828582+00:00",
  "kcps": {
    "metar": "KCPS 141853Z 15011G21KT 10SM CLR 16/02 A2998 RMK AO2 SLP152 T01610017 $",
    "windDirection": 150,
    "windSpeed": 11,
    "windGust": 21,
    "visibility": 10,
    "temperatureC": 16,
    "dewPointC": 2,
    "cloudCeiling": 99999,
    "altimeter": "A2998",
    "timestamp": "2026-03-14T18:53:00+00:00",
    "station": "KCPS"
  },
  "kstl": {
    "metar": "KSTL 141851Z 14012KT 10SM FEW140 SCT250 15/M01 A2998 RMK AO2 SLP155 T01501006 $",
    "windDirection": 140,
    "windSpeed": 12,
    "windGust": null,
    "visibility": 10,
    "temperatureC": 15,
    "dewPointC": -1,
    "cloudCeiling": null,
    "altimeter": "A2998",
    "timestamp": "2026-03-14T18:51:00+00:00",
    "station": "KSTL"
  }
}