{
  "lastUpdated": "2026-04-12T05:15:43.963908+00:00",
  "kcps": {
    "metar": "KCPS 120453Z AUTO 16006KT 10SM CLR 19/14 A3012 RMK AO2 SLP199 T01890139 $",
    "windDirection": 160,
    "windSpeed": 6,
    "windGust": null,
    "visibility": 10,
    "temperatureC": 19,
    "dewPointC": 14,
    "cloudCeiling": 99999,
    "altimeter": "A3012",
    "timestamp": "2026-04-12T04:53:00+00:00",
    "station": "KCPS"
  },
  "kstl": {
    "metar": "KSTL 120451Z 16009KT 10SM SCT120 BKN220 19/14 A3012 RMK AO2 SLP196 T01940139 $",
    "windDirection": 160,
    "windSpeed": 9,
    "windGust": null,
    "visibility": 10,
    "temperatureC": 19,
    "dewPointC": 14,
    "cloudCeiling": 22000,
    "altimeter": "A3012",
    "timestamp": "2026-04-12T04:51:00+00:00",
    "station": "KSTL"
  }
}