{
  "lastUpdated": "2026-03-14T17:22:52.731441+00:00",
  "kcps": {
    "metar": "KCPS 141653Z 10008G20KT 10SM CLR 12/M01 A3007 RMK AO2 SLP182 T01171006 $",
    "windDirection": 100,
    "windSpeed": 8,
    "windGust": 20,
    "visibility": 10,
    "temperatureC": 12,
    "dewPointC": -1,
    "cloudCeiling": 99999,
    "altimeter": "A3007",
    "timestamp": "2026-03-14T16:53:00+00:00",
    "station": "KCPS"
  },
  "kstl": {
    "metar": "KSTL 141651Z 11019KT 10SM FEW140 SCT250 11/M02 A3005 RMK AO2 SLP180 T01111022 $",
    "windDirection": 110,
    "windSpeed": 19,
    "windGust": null,
    "visibility": 10,
    "temperatureC": 11,
    "dewPointC": -2,
    "cloudCeiling": null,
    "altimeter": "A3005",
    "timestamp": "2026-03-14T16:51:00+00:00",
    "station": "KSTL"
  }
}