{
  "lastUpdated": "2026-01-25T14:48:17.576955+00:00",
  "kcps": {
    "metar": "KCPS 251353Z 01015KT 1 1/2SM -SN OVC029 M13/M16 A3011 RMK AO2 PRESFR SLP203 P0000 T11281161 $",
    "windDirection": 10,
    "windSpeed": 15,
    "windGust": null,
    "visibility": 0.5,
    "temperatureC": -13,
    "dewPointC": -16,
    "cloudCeiling": 2900,
    "altimeter": "A3011",
    "timestamp": "2026-01-25T13:53:00+00:00",
    "station": "KCPS"
  },
  "kstl": {
    "metar": "KSTL 251421Z 36012KT 1 1/2SM R30R/4500VP6000FT -SN BR OVC028 M14/M16 A3010 RMK AO2 P0001 T11391161 $",
    "windDirection": 360,
    "windSpeed": 12,
    "windGust": null,
    "visibility": 0.5,
    "temperatureC": -14,
    "dewPointC": -16,
    "cloudCeiling": 2800,
    "altimeter": "A3010",
    "timestamp": "2026-01-25T14:21:00+00:00",
    "station": "KSTL"
  }
}