{
  "lastUpdated": "2026-05-02T06:13:01.865371+00:00",
  "kcps": {
    "metar": "KCPS 020553Z AUTO 07005KT 10SM -RA FEW044 BKN075 OVC100 11/05 A3003 RMK AO2 RAB50 SLP169 P0000 60000 T01110050 10161 20100 401780067 55004 $",
    "windDirection": 70,
    "windSpeed": 5,
    "windGust": null,
    "visibility": 10,
    "temperatureC": 11,
    "dewPointC": 5,
    "cloudCeiling": 7500,
    "altimeter": "A3003",
    "timestamp": "2026-05-02T05:53:00+00:00",
    "station": "KCPS"
  },
  "kstl": {
    "metar": "KSTL 020551Z 06006KT 10SM BKN110 12/03 A3004 RMK AO2 SLP171 60000 T01170033 10156 20106 401720061 56002",
    "windDirection": 60,
    "windSpeed": 6,
    "windGust": null,
    "visibility": 10,
    "temperatureC": 12,
    "dewPointC": 3,
    "cloudCeiling": 11000,
    "altimeter": "A3004",
    "timestamp": "2026-05-02T05:51:00+00:00",
    "station": "KSTL"
  }
}