{
  "lastUpdated": "2026-04-05T02:59:42.484567+00:00",
  "kcps": {
    "metar": "KCPS 050253Z 30015G21KT 10SM CLR 09/01 A3021 RMK AO2 PK WND 32031/0214 SLP228 T00890006 53033 $",
    "windDirection": 300,
    "windSpeed": 15,
    "windGust": 21,
    "visibility": 10,
    "temperatureC": 9,
    "dewPointC": 1,
    "cloudCeiling": 99999,
    "altimeter": "A3021",
    "timestamp": "2026-04-05T02:53:00+00:00",
    "station": "KCPS"
  },
  "kstl": {
    "metar": "KSTL 050251Z 31007KT 10SM FEW049 BKN250 08/01 A3021 RMK AO2 SLP231 T00780006 53033 $",
    "windDirection": 310,
    "windSpeed": 7,
    "windGust": null,
    "visibility": 10,
    "temperatureC": 8,
    "dewPointC": 1,
    "cloudCeiling": 25000,
    "altimeter": "A3021",
    "timestamp": "2026-04-05T02:51:00+00:00",
    "station": "KSTL"
  }
}