{
  "lastUpdated": "2025-12-30T18:42:48.925064+00:00",
  "kcps": {
    "metar": "KCPS 301753Z 27007KT 10SM CLR M02/M12 A3031 RMK AO2 SLP270 T10171117 11017 21089 58038 $",
    "windDirection": 270,
    "windSpeed": 7,
    "windGust": null,
    "visibility": 10,
    "temperatureC": -2,
    "dewPointC": -12,
    "cloudCeiling": 99999,
    "altimeter": "A3031",
    "timestamp": "2025-12-30T17:53:00+00:00",
    "station": "KCPS"
  },
  "kstl": {
    "metar": "KSTL 301751Z 25008KT 10SM FEW150 BKN250 M02/M12 A3031 RMK AO2 SLP278 T10221117 11017 21089 58034 $",
    "windDirection": 250,
    "windSpeed": 8,
    "windGust": null,
    "visibility": 10,
    "temperatureC": -2,
    "dewPointC": -12,
    "cloudCeiling": 25000,
    "altimeter": "A3031",
    "timestamp": "2025-12-30T17:51:00+00:00",
    "station": "KSTL"
  }
}