{
  "lastUpdated": "2025-11-30T23:02:30.224147+00:00",
  "kcps": {
    "metar": "KCPS 302253Z 33009KT 10SM OVC023 M04/M08 A3047 RMK AO2 SLP324 T10441083 $",
    "windDirection": 330,
    "windSpeed": 9,
    "windGust": null,
    "visibility": 10,
    "temperatureC": -4,
    "dewPointC": -8,
    "cloudCeiling": 2300,
    "altimeter": "A3047",
    "timestamp": "2025-11-30T22:53:00+00:00",
    "station": "KCPS"
  },
  "kstl": {
    "metar": "KSTL 302151Z 31008G16KT 10SM BKN021 M04/M09 A3044 RMK AO2 SLP321 T10441089 $",
    "windDirection": 310,
    "windSpeed": 8,
    "windGust": 16,
    "visibility": 10,
    "temperatureC": -4,
    "dewPointC": -9,
    "cloudCeiling": 2100,
    "altimeter": "A3044",
    "timestamp": "2025-11-30T21:51:00+00:00",
    "station": "KSTL"
  }
}