{
  "lastUpdated": "2026-05-19T16:04:49.239933+00:00",
  "kcps": {
    "metar": "KCPS 191553Z 19006KT 10SM CLR 24/19 A2999 RMK AO2 SLP153 T02390189 $",
    "windDirection": 190,
    "windSpeed": 6,
    "windGust": null,
    "visibility": 10,
    "temperatureC": 24,
    "dewPointC": 19,
    "cloudCeiling": 99999,
    "altimeter": "A2999",
    "timestamp": "2026-05-19T15:53:00+00:00",
    "station": "KCPS"
  },
  "kstl": {
    "metar": "KSTL 191551Z 17009KT 10SM FEW110 BKN250 25/18 A2998 RMK AO2 SLP143 T02500178 $",
    "windDirection": 170,
    "windSpeed": 9,
    "windGust": null,
    "visibility": 10,
    "temperatureC": 25,
    "dewPointC": 18,
    "cloudCeiling": 25000,
    "altimeter": "A2998",
    "timestamp": "2026-05-19T15:51:00+00:00",
    "station": "KSTL"
  }
}