{
  "lastUpdated": "2025-11-11T05:02:51.451965+00:00",
  "kcps": {
    "metar": "KCPS 110353Z 23005KT 10SM CLR M02/M09 A3034 RMK AO2 SLP278 T10171089",
    "windDirection": 230,
    "windSpeed": 5,
    "windGust": null,
    "visibility": 10,
    "temperatureC": -2,
    "dewPointC": -9,
    "cloudCeiling": 99999,
    "altimeter": "A3034",
    "timestamp": "2025-11-11T03:53:00+00:00",
    "station": "KCPS"
  },
  "kstl": {
    "metar": "KSTL 110451Z 24005KT 10SM FEW250 M02/M09 A3032 RMK AO2 SLP277 T10221089 $",
    "windDirection": 240,
    "windSpeed": 5,
    "windGust": null,
    "visibility": 10,
    "temperatureC": -2,
    "dewPointC": -9,
    "cloudCeiling": null,
    "altimeter": "A3032",
    "timestamp": "2025-11-11T04:51:00+00:00",
    "station": "KSTL"
  }
}