{
  "lastUpdated": "2026-03-24T19:06:20.965836+00:00",
  "kcps": {
    "metar": "KCPS 241853Z 15010KT 10SM CLR 16/M03 A3024 RMK AO2 SLP240 T01561033 $",
    "windDirection": 150,
    "windSpeed": 10,
    "windGust": null,
    "visibility": 10,
    "temperatureC": 16,
    "dewPointC": -3,
    "cloudCeiling": 99999,
    "altimeter": "A3024",
    "timestamp": "2026-03-24T18:53:00+00:00",
    "station": "KCPS"
  },
  "kstl": {
    "metar": "KSTL 241851Z 14007KT 10SM FEW200 BKN250 16/M04 A3024 RMK AO2 SLP242 T01561039",
    "windDirection": 140,
    "windSpeed": 7,
    "windGust": null,
    "visibility": 10,
    "temperatureC": 16,
    "dewPointC": -4,
    "cloudCeiling": 25000,
    "altimeter": "A3024",
    "timestamp": "2026-03-24T18:51:00+00:00",
    "station": "KSTL"
  }
}