{
  "lastUpdated": "2026-06-08T20:31:05.112926+00:00",
  "kcps": {
    "metar": "KCPS 081953Z 17006KT 10SM SCT029 BKN040 OVC055 29/23 A2989 RMK AO2 SLP118 T02940233 $",
    "windDirection": 170,
    "windSpeed": 6,
    "windGust": null,
    "visibility": 10,
    "temperatureC": 29,
    "dewPointC": 23,
    "cloudCeiling": 4000,
    "altimeter": "A2989",
    "timestamp": "2026-06-08T19:53:00+00:00",
    "station": "KCPS"
  },
  "kstl": {
    "metar": "KSTL 081951Z 18008KT 10SM SCT025 SCT150 BKN250 29/24 A2991 RMK AO2 SLP115 TCU DSNT N T02890239 $",
    "windDirection": 180,
    "windSpeed": 8,
    "windGust": null,
    "visibility": 10,
    "temperatureC": 29,
    "dewPointC": 24,
    "cloudCeiling": 25000,
    "altimeter": "A2991",
    "timestamp": "2026-06-08T19:51:00+00:00",
    "station": "KSTL"
  }
}