{
  "lastUpdated": "2025-12-26T15:21:43.628831+00:00",
  "kcps": {
    "metar": "KCPS 261453Z 22007KT 10SM FEW030 18/15 A2977 RMK AO2 SLP078 T01780150 50010 $",
    "windDirection": 220,
    "windSpeed": 7,
    "windGust": null,
    "visibility": 10,
    "temperatureC": 18,
    "dewPointC": 15,
    "cloudCeiling": null,
    "altimeter": "A2977",
    "timestamp": "2025-12-26T14:53:00+00:00",
    "station": "KCPS"
  },
  "kstl": {
    "metar": "KSTL 261451Z 25010KT 10SM FEW028 SCT250 18/15 A2977 RMK AO2 SLP077 T01780150 51004 $",
    "windDirection": 250,
    "windSpeed": 10,
    "windGust": null,
    "visibility": 10,
    "temperatureC": 18,
    "dewPointC": 15,
    "cloudCeiling": null,
    "altimeter": "A2977",
    "timestamp": "2025-12-26T14:51:00+00:00",
    "station": "KSTL"
  }
}