{
  "lastUpdated": "2025-12-18T14:04:25.528705+00:00",
  "kcps": {
    "metar": "KCPS 181353Z 19007KT 10SM OVC010 13/11 A2960 RMK AO2 SLP023 T01280111",
    "windDirection": 190,
    "windSpeed": 7,
    "windGust": null,
    "visibility": 10,
    "temperatureC": 13,
    "dewPointC": 11,
    "cloudCeiling": 1000,
    "altimeter": "A2960",
    "timestamp": "2025-12-18T13:53:00+00:00",
    "station": "KCPS"
  },
  "kstl": {
    "metar": "KSTL 181351Z 17011KT 10SM OVC017 13/11 A2958 RMK AO2 RAB31E39 SLP015 P0000 T01330111 $",
    "windDirection": 170,
    "windSpeed": 11,
    "windGust": null,
    "visibility": 10,
    "temperatureC": 13,
    "dewPointC": 11,
    "cloudCeiling": 1700,
    "altimeter": "A2958",
    "timestamp": "2025-12-18T13:51:00+00:00",
    "station": "KSTL"
  }
}