{
  "lastUpdated": "2026-01-27T19:28:17.076384+00:00",
  "kcps": {
    "metar": "KCPS 271853Z 30011KT 10SM CLR M02/M11 A3029 RMK AO2 SLP264 T10221111 $",
    "windDirection": 300,
    "windSpeed": 11,
    "windGust": null,
    "visibility": 10,
    "temperatureC": -2,
    "dewPointC": -11,
    "cloudCeiling": 99999,
    "altimeter": "A3029",
    "timestamp": "2026-01-27T18:53:00+00:00",
    "station": "KCPS"
  },
  "kstl": {
    "metar": "KSTL 271851Z 30014G23KT 10SM SCT250 M03/M11 A3029 RMK AO2 SLP272 T10331111 $",
    "windDirection": 300,
    "windSpeed": 14,
    "windGust": 23,
    "visibility": 10,
    "temperatureC": -3,
    "dewPointC": -11,
    "cloudCeiling": null,
    "altimeter": "A3029",
    "timestamp": "2026-01-27T18:51:00+00:00",
    "station": "KSTL"
  }
}