{
  "lastUpdated": "2025-12-12T15:48:38.859304+00:00",
  "kcps": {
    "metar": "KCPS 121453Z 01004KT 7SM OVC008 01/M01 A3011 RMK AO2 PRESRR SLP200 T00111011 51037",
    "windDirection": 10,
    "windSpeed": 4,
    "windGust": null,
    "visibility": 7,
    "temperatureC": 1,
    "dewPointC": -1,
    "cloudCeiling": 800,
    "altimeter": "A3011",
    "timestamp": "2025-12-12T14:53:00+00:00",
    "station": "KCPS"
  },
  "kstl": {
    "metar": "KSTL 121451Z 02006KT 7SM OVC006 00/M02 A3012 RMK AO2 PRESRR SLP208 T00001017 51035 $",
    "windDirection": 20,
    "windSpeed": 6,
    "windGust": null,
    "visibility": 7,
    "temperatureC": 0,
    "dewPointC": -2,
    "cloudCeiling": 600,
    "altimeter": "A3012",
    "timestamp": "2025-12-12T14:51:00+00:00",
    "station": "KSTL"
  }
}