{
  "lastUpdated": "2026-06-03T20:24:03.993777+00:00",
  "kcps": {
    "metar": "KCPS 031953Z VRB06KT 10SM CLR 28/12 A3023 RMK AO2 SLP235 T02780117 $",
    "windDirection": null,
    "windSpeed": null,
    "windGust": null,
    "visibility": 10,
    "temperatureC": 28,
    "dewPointC": 12,
    "cloudCeiling": 99999,
    "altimeter": "A3023",
    "timestamp": "2026-06-03T19:53:00+00:00",
    "station": "KCPS"
  },
  "kstl": {
    "metar": "KSTL 031951Z VRB04KT 10SM FEW250 27/09 A3024 RMK AO2 SLP233 T02670094 $",
    "windDirection": null,
    "windSpeed": null,
    "windGust": null,
    "visibility": 10,
    "temperatureC": 27,
    "dewPointC": 9,
    "cloudCeiling": null,
    "altimeter": "A3024",
    "timestamp": "2026-06-03T19:51:00+00:00",
    "station": "KSTL"
  }
}