{
  "lastUpdated": "2026-02-10T17:48:58.800696+00:00",
  "kcps": {
    "metar": "KCPS 101653Z 27008KT 10SM CLR 20/11 A2989 RMK AO2 SLP120 T02000111 $",
    "windDirection": 270,
    "windSpeed": 8,
    "windGust": null,
    "visibility": 10,
    "temperatureC": 20,
    "dewPointC": 11,
    "cloudCeiling": 99999,
    "altimeter": "A2989",
    "timestamp": "2026-02-10T16:53:00+00:00",
    "station": "KCPS"
  },
  "kstl": {
    "metar": "KSTL 101651Z 31015G21KT 10SM FEW250 18/09 A2990 RMK AO2 SLP123 T01830094 $",
    "windDirection": 310,
    "windSpeed": 15,
    "windGust": 21,
    "visibility": 10,
    "temperatureC": 18,
    "dewPointC": 9,
    "cloudCeiling": null,
    "altimeter": "A2990",
    "timestamp": "2026-02-10T16:51:00+00:00",
    "station": "KSTL"
  }
}