{
  "lastUpdated": "2026-02-04T15:22:07.649861+00:00",
  "kcps": {
    "metar": "KCPS 041453Z 35005KT 10SM CLR M05/M09 A3042 RMK AO2 SLP307 T10501089 53022 $",
    "windDirection": 350,
    "windSpeed": 5,
    "windGust": null,
    "visibility": 10,
    "temperatureC": -5,
    "dewPointC": -9,
    "cloudCeiling": 99999,
    "altimeter": "A3042",
    "timestamp": "2026-02-04T14:53:00+00:00",
    "station": "KCPS"
  },
  "kstl": {
    "metar": "KSTL 041451Z 34005KT 10SM FEW080 FEW250 M06/M09 A3042 RMK AO2 SLP313 T10561094 53021",
    "windDirection": 340,
    "windSpeed": 5,
    "windGust": null,
    "visibility": 10,
    "temperatureC": -6,
    "dewPointC": -9,
    "cloudCeiling": null,
    "altimeter": "A3042",
    "timestamp": "2026-02-04T14:51:00+00:00",
    "station": "KSTL"
  }
}