{
  "lastUpdated": "2025-11-10T13:49:47.066893+00:00",
  "kcps": {
    "metar": "KCPS 101253Z 32014G22KT 10SM FEW042 M03/M08 A3036 RMK AO2 SLP286 T10281078 $",
    "windDirection": 320,
    "windSpeed": 14,
    "windGust": 22,
    "visibility": 10,
    "temperatureC": -3,
    "dewPointC": -8,
    "cloudCeiling": null,
    "altimeter": "A3036",
    "timestamp": "2025-11-10T12:53:00+00:00",
    "station": "KCPS"
  },
  "kstl": {
    "metar": "KSTL 101251Z 32009KT 10SM BKN027 M03/M08 A3036 RMK AO2 SLP295 T10281078 $",
    "windDirection": 320,
    "windSpeed": 9,
    "windGust": null,
    "visibility": 10,
    "temperatureC": -3,
    "dewPointC": -8,
    "cloudCeiling": 2700,
    "altimeter": "A3036",
    "timestamp": "2025-11-10T12:51:00+00:00",
    "station": "KSTL"
  }
}