{
  "lastUpdated": "2025-11-03T15:22:02.401210+00:00",
  "kcps": {
    "metar": "KCPS 031453Z 24003KT 10SM CLR 11/04 A3025 RMK AO2 SLP243 T01060044 50014",
    "windDirection": 240,
    "windSpeed": 3,
    "windGust": null,
    "visibility": 10,
    "temperatureC": 11,
    "dewPointC": 4,
    "cloudCeiling": 99999,
    "altimeter": "A3025",
    "timestamp": "2025-11-03T14:53:00+00:00",
    "station": "KCPS"
  },
  "kstl": {
    "metar": "KSTL 031451Z 27010KT 10SM FEW250 11/03 A3025 RMK AO2 SLP247 T01060033 51019 $",
    "windDirection": 270,
    "windSpeed": 10,
    "windGust": null,
    "visibility": 10,
    "temperatureC": 11,
    "dewPointC": 3,
    "cloudCeiling": null,
    "altimeter": "A3025",
    "timestamp": "2025-11-03T14:51:00+00:00",
    "station": "KSTL"
  }
}