{
  "lastUpdated": "2025-11-18T17:47:28.240576+00:00",
  "kcps": {
    "metar": "KCPS 181737Z VRB06KT 10SM BKN027 OVC035 21/14 A2981 RMK AO2 T02060144",
    "windDirection": null,
    "windSpeed": null,
    "windGust": null,
    "visibility": 10,
    "temperatureC": 21,
    "dewPointC": 14,
    "cloudCeiling": 2700,
    "altimeter": "A2981",
    "timestamp": "2025-11-18T17:37:00+00:00",
    "station": "KCPS"
  },
  "kstl": {
    "metar": "KSTL 181651Z 06005KT 10SM BKN020 BKN027 OVC033 16/13 A2983 RMK AO2 SLP100 T01610133 $",
    "windDirection": 60,
    "windSpeed": 5,
    "windGust": null,
    "visibility": 10,
    "temperatureC": 16,
    "dewPointC": 13,
    "cloudCeiling": 2000,
    "altimeter": "A2983",
    "timestamp": "2025-11-18T16:51:00+00:00",
    "station": "KSTL"
  }
}