{
  "lastUpdated": "2026-01-31T01:31:02.792752+00:00",
  "kcps": {
    "metar": "KCPS 310053Z 35008KT 10SM OVC095 M09/M17 A3046 RMK AO2 SLP322 T10891167 $",
    "windDirection": 350,
    "windSpeed": 8,
    "windGust": null,
    "visibility": 10,
    "temperatureC": -9,
    "dewPointC": -17,
    "cloudCeiling": 9500,
    "altimeter": "A3046",
    "timestamp": "2026-01-31T00:53:00+00:00",
    "station": "KCPS"
  },
  "kstl": {
    "metar": "KSTL 310109Z 35007KT 10SM -SN OVC039 M09/M16 A3046 RMK AO2 SNB08 P0000 T10941161 $",
    "windDirection": 350,
    "windSpeed": 7,
    "windGust": null,
    "visibility": 10,
    "temperatureC": -9,
    "dewPointC": -16,
    "cloudCeiling": 3900,
    "altimeter": "A3046",
    "timestamp": "2026-01-31T01:09:00+00:00",
    "station": "KSTL"
  }
}