{
  "lastUpdated": "2026-05-30T03:43:42.098249+00:00",
  "kcps": {
    "metar": "KCPS 300253Z 09003KT 10SM OVC090 23/18 A2991 RMK AO2 SLP123 T02280183 53006 $",
    "windDirection": 90,
    "windSpeed": 3,
    "windGust": null,
    "visibility": 10,
    "temperatureC": 23,
    "dewPointC": 18,
    "cloudCeiling": 9000,
    "altimeter": "A2991",
    "timestamp": "2026-05-30T02:53:00+00:00",
    "station": "KCPS"
  },
  "kstl": {
    "metar": "KSTL 300251Z 10007KT 10SM BKN085 OVC250 24/17 A2991 RMK AO2 SLP119 T02390167 51008 $",
    "windDirection": 100,
    "windSpeed": 7,
    "windGust": null,
    "visibility": 10,
    "temperatureC": 24,
    "dewPointC": 17,
    "cloudCeiling": 8500,
    "altimeter": "A2991",
    "timestamp": "2026-05-30T02:51:00+00:00",
    "station": "KSTL"
  }
}