{
  "lastUpdated": "2026-05-07T01:07:59.338150+00:00",
  "kcps": {
    "metar": "KCPS 070053Z 36006KT 10SM CLR 13/02 A2999 RMK AO2 SLP156 T01330022 $",
    "windDirection": 360,
    "windSpeed": 6,
    "windGust": null,
    "visibility": 10,
    "temperatureC": 13,
    "dewPointC": 2,
    "cloudCeiling": 99999,
    "altimeter": "A2999",
    "timestamp": "2026-05-07T00:53:00+00:00",
    "station": "KCPS"
  },
  "kstl": {
    "metar": "KSTL 070051Z 34006KT 10SM FEW070 FEW250 13/02 A3000 RMK AO2 SLP160 T01280022 $",
    "windDirection": 340,
    "windSpeed": 6,
    "windGust": null,
    "visibility": 10,
    "temperatureC": 13,
    "dewPointC": 2,
    "cloudCeiling": null,
    "altimeter": "A3000",
    "timestamp": "2026-05-07T00:51:00+00:00",
    "station": "KSTL"
  }
}