{
  "lastUpdated": "2026-02-11T23:53:57.694547+00:00",
  "kcps": {
    "metar": "KCPS 112253Z 01003KT 10SM CLR 09/M04 A3030 RMK AO2 SLP261 T00891044 $",
    "windDirection": 10,
    "windSpeed": 3,
    "windGust": null,
    "visibility": 10,
    "temperatureC": 9,
    "dewPointC": -4,
    "cloudCeiling": 99999,
    "altimeter": "A3030",
    "timestamp": "2026-02-11T22:53:00+00:00",
    "station": "KCPS"
  },
  "kstl": {
    "metar": "KSTL 112351Z 31004KT 10SM BKN250 06/M04 A3031 RMK AO2 SLP272 T00611044 10094 20056 53001 $",
    "windDirection": 310,
    "windSpeed": 4,
    "windGust": null,
    "visibility": 10,
    "temperatureC": 6,
    "dewPointC": -4,
    "cloudCeiling": 25000,
    "altimeter": "A3031",
    "timestamp": "2026-02-11T23:51:00+00:00",
    "station": "KSTL"
  }
}