{
  "lastUpdated": "2026-01-17T01:51:29.855328+00:00",
  "kcps": {
    "metar": "KCPS 170053Z 24005KT 10SM SCT055 BKN080 OVC095 06/M05 A2981 RMK AO2 SLP099 T00561050 $",
    "windDirection": 240,
    "windSpeed": 5,
    "windGust": null,
    "visibility": 10,
    "temperatureC": 6,
    "dewPointC": -5,
    "cloudCeiling": 8000,
    "altimeter": "A2981",
    "timestamp": "2026-01-17T00:53:00+00:00",
    "station": "KCPS"
  },
  "kstl": {
    "metar": "KSTL 170137Z 28011KT 6SM -SN FEW029 OVC040 02/M01 A2985 RMK AO2 PK WND 29030/0115 RAB12E25SNB17 P0000 T00171011 $",
    "windDirection": 280,
    "windSpeed": 11,
    "windGust": null,
    "visibility": 6,
    "temperatureC": 2,
    "dewPointC": -1,
    "cloudCeiling": 4000,
    "altimeter": "A2985",
    "timestamp": "2026-01-17T01:37:00+00:00",
    "station": "KSTL"
  }
}