{
  "lastUpdated": "2025-12-09T03:10:05.489557+00:00",
  "kcps": {
    "metar": "KCPS 090253Z 16006KT 10SM CLR M03/M06 A3021 RMK AO2 SLP234 T10281061 56017 $",
    "windDirection": 160,
    "windSpeed": 6,
    "windGust": null,
    "visibility": 10,
    "temperatureC": -3,
    "dewPointC": -6,
    "cloudCeiling": 99999,
    "altimeter": "A3021",
    "timestamp": "2025-12-09T02:53:00+00:00",
    "station": "KCPS"
  },
  "kstl": {
    "metar": "KSTL 090251Z 15007KT 10SM CLR M01/M06 A3020 RMK AO2 SLP238 T10111061 56016 $",
    "windDirection": 150,
    "windSpeed": 7,
    "windGust": null,
    "visibility": 10,
    "temperatureC": -1,
    "dewPointC": -6,
    "cloudCeiling": 99999,
    "altimeter": "A3020",
    "timestamp": "2025-12-09T02:51:00+00:00",
    "station": "KSTL"
  }
}