{
  "lastUpdated": "2026-05-10T08:34:55.203051+00:00",
  "kcps": {
    "metar": "KCPS 100753Z AUTO 00000KT 10SM CLR 15/13 A2991 RMK AO2 SLP124 T01500133 $",
    "windDirection": 0,
    "windSpeed": 0,
    "windGust": null,
    "visibility": 10,
    "temperatureC": 15,
    "dewPointC": 13,
    "cloudCeiling": 99999,
    "altimeter": "A2991",
    "timestamp": "2026-05-10T07:53:00+00:00",
    "station": "KCPS"
  },
  "kstl": {
    "metar": "KSTL 100751Z 24004KT 10SM CLR 14/13 A2992 RMK AO2 SLP124 T01440133 $",
    "windDirection": 240,
    "windSpeed": 4,
    "windGust": null,
    "visibility": 10,
    "temperatureC": 14,
    "dewPointC": 13,
    "cloudCeiling": 99999,
    "altimeter": "A2992",
    "timestamp": "2026-05-10T07:51:00+00:00",
    "station": "KSTL"
  }
}