{
  "lastUpdated": "2025-10-10T19:02:15.598121+00:00",
  "kcps": {
    "metar": "KCPS 101853Z 20005KT 10SM CLR 23/08 A3016 RMK AO2 SLP211 T02280078",
    "windDirection": 200,
    "windSpeed": 5,
    "windGust": null,
    "visibility": 10,
    "temperatureC": 23,
    "dewPointC": 8,
    "cloudCeiling": 99999,
    "altimeter": "A3016",
    "timestamp": "2025-10-10T18:53:00+00:00",
    "station": "KCPS"
  },
  "kstl": {
    "metar": "KSTL 101851Z 17008KT 10SM FEW120 FEW250 22/08 A3016 RMK AO2 SLP208 T02220078 $",
    "windDirection": 170,
    "windSpeed": 8,
    "windGust": null,
    "visibility": 10,
    "temperatureC": 22,
    "dewPointC": 8,
    "cloudCeiling": null,
    "altimeter": "A3016",
    "timestamp": "2025-10-10T18:51:00+00:00",
    "station": "KSTL"
  }
}