{
  "lastUpdated": "2026-02-08T23:23:35.215378+00:00",
  "kcps": {
    "metar": "KCPS 082253Z 09006KT 10SM CLR 04/M04 A3012 RMK AO2 SLP202 T00441039 $",
    "windDirection": 90,
    "windSpeed": 6,
    "windGust": null,
    "visibility": 10,
    "temperatureC": 4,
    "dewPointC": -4,
    "cloudCeiling": 99999,
    "altimeter": "A3012",
    "timestamp": "2026-02-08T22:53:00+00:00",
    "station": "KCPS"
  },
  "kstl": {
    "metar": "KSTL 082251Z 11008KT 10SM SCT250 05/M04 A3012 RMK AO2 SLP209 T00501044 $",
    "windDirection": 110,
    "windSpeed": 8,
    "windGust": null,
    "visibility": 10,
    "temperatureC": 5,
    "dewPointC": -4,
    "cloudCeiling": null,
    "altimeter": "A3012",
    "timestamp": "2026-02-08T22:51:00+00:00",
    "station": "KSTL"
  }
}