{
  "lastUpdated": "2025-12-08T04:24:18.925344+00:00",
  "kcps": {
    "metar": "KCPS 080353Z 01012KT 10SM OVC016 M02/M05 A3029 RMK AO2 SLP259 T10171050 $",
    "windDirection": 10,
    "windSpeed": 12,
    "windGust": null,
    "visibility": 10,
    "temperatureC": -2,
    "dewPointC": -5,
    "cloudCeiling": 1600,
    "altimeter": "A3029",
    "timestamp": "2025-12-08T03:53:00+00:00",
    "station": "KCPS"
  },
  "kstl": {
    "metar": "KSTL 080359Z 36013KT 10SM SCT013 OVC028 M03/M06 A3029 RMK AO2 T10281061 $",
    "windDirection": 360,
    "windSpeed": 13,
    "windGust": null,
    "visibility": 10,
    "temperatureC": -3,
    "dewPointC": -6,
    "cloudCeiling": 2800,
    "altimeter": "A3029",
    "timestamp": "2025-12-08T03:59:00+00:00",
    "station": "KSTL"
  }
}