{
  "lastUpdated": "2025-12-04T09:03:31.939569+00:00",
  "kcps": {
    "metar": "KCPS 040853Z AUTO 34015KT 10SM BKN018 M04/M07 A3032 RMK AO2 SLP271 T10391072 51018 $",
    "windDirection": 340,
    "windSpeed": 15,
    "windGust": null,
    "visibility": 10,
    "temperatureC": -4,
    "dewPointC": -7,
    "cloudCeiling": 1800,
    "altimeter": "A3032",
    "timestamp": "2025-12-04T08:53:00+00:00",
    "station": "KCPS"
  },
  "kstl": {
    "metar": "KSTL 040851Z 35013KT 10SM FEW017 BKN130 M05/M09 A3032 RMK AO2 SLP280 T10501089 51017 $",
    "windDirection": 350,
    "windSpeed": 13,
    "windGust": null,
    "visibility": 10,
    "temperatureC": -5,
    "dewPointC": -9,
    "cloudCeiling": 13000,
    "altimeter": "A3032",
    "timestamp": "2025-12-04T08:51:00+00:00",
    "station": "KSTL"
  }
}