{
  "lastUpdated": "2026-03-17T07:06:26.272793+00:00",
  "kcps": {
    "metar": "KCPS 170653Z AUTO 31009KT 10SM CLR M06/M14 A3016 RMK AO2 SLP218 T10611139 $",
    "windDirection": 310,
    "windSpeed": 9,
    "windGust": null,
    "visibility": 10,
    "temperatureC": -6,
    "dewPointC": -14,
    "cloudCeiling": 99999,
    "altimeter": "A3016",
    "timestamp": "2026-03-17T06:53:00+00:00",
    "station": "KCPS"
  },
  "kstl": {
    "metar": "KSTL 170651Z 31009G18KT 10SM FEW045 M07/M13 A3015 RMK AO2 SLP225 T10671133 $",
    "windDirection": 310,
    "windSpeed": 9,
    "windGust": 18,
    "visibility": 10,
    "temperatureC": -7,
    "dewPointC": -13,
    "cloudCeiling": null,
    "altimeter": "A3015",
    "timestamp": "2026-03-17T06:51:00+00:00",
    "station": "KSTL"
  }
}