{
  "lastUpdated": "2026-04-04T10:15:48.924125+00:00",
  "kcps": {
    "metar": "KCPS 041012Z AUTO 30005KT 9SM -RA BKN029 BKN041 OVC110 18/17 A2993 RMK AO2 LTG DSNT SW RAB0954 P0002 T01830172 $",
    "windDirection": 300,
    "windSpeed": 5,
    "windGust": null,
    "visibility": 9,
    "temperatureC": 18,
    "dewPointC": 17,
    "cloudCeiling": 2900,
    "altimeter": "A2993",
    "timestamp": "2026-04-04T10:12:00+00:00",
    "station": "KCPS"
  },
  "kstl": {
    "metar": "KSTL 041005Z 26009KT 3SM RA BR FEW034 BKN048 OVC090 18/17 A2994 RMK AO2 P0006 T01780167 $",
    "windDirection": 260,
    "windSpeed": 9,
    "windGust": null,
    "visibility": 3,
    "temperatureC": 18,
    "dewPointC": 17,
    "cloudCeiling": 4800,
    "altimeter": "A2994",
    "timestamp": "2026-04-04T10:05:00+00:00",
    "station": "KSTL"
  }
}