{
  "lastUpdated": "2026-02-07T03:32:29.635531+00:00",
  "kcps": {
    "metar": "KCPS 070253Z 25005KT 10SM CLR 03/M01 A3017 RMK AO2 SLP219 T00281011 51011 $",
    "windDirection": 250,
    "windSpeed": 5,
    "windGust": null,
    "visibility": 10,
    "temperatureC": 3,
    "dewPointC": -1,
    "cloudCeiling": 99999,
    "altimeter": "A3017",
    "timestamp": "2026-02-07T02:53:00+00:00",
    "station": "KCPS"
  },
  "kstl": {
    "metar": "KSTL 070251Z 29005KT 10SM CLR 02/M01 A3017 RMK AO2 SLP224 T00221011 51010 $",
    "windDirection": 290,
    "windSpeed": 5,
    "windGust": null,
    "visibility": 10,
    "temperatureC": 2,
    "dewPointC": -1,
    "cloudCeiling": 99999,
    "altimeter": "A3017",
    "timestamp": "2026-02-07T02:51:00+00:00",
    "station": "KSTL"
  }
}