{
  "lastUpdated": "2025-12-12T01:08:59.440401+00:00",
  "kcps": {
    "metar": "KCPS 120053Z 10009KT 10SM OVC085 01/M03 A2994 RMK AO2 SLP142 T00111028",
    "windDirection": 100,
    "windSpeed": 9,
    "windGust": null,
    "visibility": 10,
    "temperatureC": 1,
    "dewPointC": -3,
    "cloudCeiling": 8500,
    "altimeter": "A2994",
    "timestamp": "2025-12-12T00:53:00+00:00",
    "station": "KCPS"
  },
  "kstl": {
    "metar": "KSTL 120051Z 09011KT 10SM BKN080 OVC095 01/M03 A2993 RMK AO2 SLP148 T00061028 $",
    "windDirection": 90,
    "windSpeed": 11,
    "windGust": null,
    "visibility": 10,
    "temperatureC": 1,
    "dewPointC": -3,
    "cloudCeiling": 8000,
    "altimeter": "A2993",
    "timestamp": "2025-12-12T00:51:00+00:00",
    "station": "KSTL"
  }
}