{
  "lastUpdated": "2025-11-20T16:51:12.476258+00:00",
  "kcps": {
    "metar": "KCPS 201553Z 13004KT 7SM OVC006 10/09 A3008 RMK AO2 SLP187 T01000089",
    "windDirection": 130,
    "windSpeed": 4,
    "windGust": null,
    "visibility": 7,
    "temperatureC": 10,
    "dewPointC": 9,
    "cloudCeiling": 600,
    "altimeter": "A3008",
    "timestamp": "2025-11-20T15:53:00+00:00",
    "station": "KCPS"
  },
  "kstl": {
    "metar": "KSTL 201551Z 15007KT 7SM OVC005 10/09 A3008 RMK AO2 SLP188 T01000089 $",
    "windDirection": 150,
    "windSpeed": 7,
    "windGust": null,
    "visibility": 7,
    "temperatureC": 10,
    "dewPointC": 9,
    "cloudCeiling": 500,
    "altimeter": "A3008",
    "timestamp": "2025-11-20T15:51:00+00:00",
    "station": "KSTL"
  }
}