{
  "lastUpdated": "2025-11-18T04:22:16.575914+00:00",
  "kcps": {
    "metar": "KCPS 180353Z 14006G15KT 10SM OVC044 13/M01 A2994 RMK AO2 SLP138 T01331011",
    "windDirection": 140,
    "windSpeed": 6,
    "windGust": 15,
    "visibility": 10,
    "temperatureC": 13,
    "dewPointC": -1,
    "cloudCeiling": 4400,
    "altimeter": "A2994",
    "timestamp": "2025-11-18T03:53:00+00:00",
    "station": "KCPS"
  },
  "kstl": {
    "metar": "KSTL 180351Z 10006KT 10SM OVC042 10/04 A2995 RMK AO2 SLP143 T01000044 $",
    "windDirection": 100,
    "windSpeed": 6,
    "windGust": null,
    "visibility": 10,
    "temperatureC": 10,
    "dewPointC": 4,
    "cloudCeiling": 4200,
    "altimeter": "A2995",
    "timestamp": "2025-11-18T03:51:00+00:00",
    "station": "KSTL"
  }
}