{
  "lastUpdated": "2026-02-06T07:05:17.870414+00:00",
  "kcps": {
    "metar": "KCPS 060653Z 00000KT 4SM BR CLR M06/M07 A2988 RMK AO2 SLP123 T10561067 $",
    "windDirection": 0,
    "windSpeed": 0,
    "windGust": null,
    "visibility": 4,
    "temperatureC": -6,
    "dewPointC": -7,
    "cloudCeiling": 99999,
    "altimeter": "A2988",
    "timestamp": "2026-02-06T06:53:00+00:00",
    "station": "KCPS"
  },
  "kstl": {
    "metar": "KSTL 060651Z 27004KT 10SM FEW250 M01/M03 A2988 RMK AO2 SLP128 T10111033 $",
    "windDirection": 270,
    "windSpeed": 4,
    "windGust": null,
    "visibility": 10,
    "temperatureC": -1,
    "dewPointC": -3,
    "cloudCeiling": null,
    "altimeter": "A2988",
    "timestamp": "2026-02-06T06:51:00+00:00",
    "station": "KSTL"
  }
}