{
  "lastUpdated": "2026-02-05T19:02:54.145959+00:00",
  "kcps": {
    "metar": "KCPS 051853Z 15008KT 10SM OVC110 01/M05 A3003 RMK AO2 SLP174 T00061050 $",
    "windDirection": 150,
    "windSpeed": 8,
    "windGust": null,
    "visibility": 10,
    "temperatureC": 1,
    "dewPointC": -5,
    "cloudCeiling": 11000,
    "altimeter": "A3003",
    "timestamp": "2026-02-05T18:53:00+00:00",
    "station": "KCPS"
  },
  "kstl": {
    "metar": "KSTL 051851Z 17009KT 10SM OVC110 01/M06 A3001 RMK AO2 PRESFR SLP175 T00061056 $",
    "windDirection": 170,
    "windSpeed": 9,
    "windGust": null,
    "visibility": 10,
    "temperatureC": 1,
    "dewPointC": -6,
    "cloudCeiling": 11000,
    "altimeter": "A3001",
    "timestamp": "2026-02-05T18:51:00+00:00",
    "station": "KSTL"
  }
}