{
  "lastUpdated": "2026-03-23T08:45:49.715638+00:00",
  "kcps": {
    "metar": "KCPS 230753Z AUTO 35016G24KT 10SM CLR 06/M01 A3023 RMK AO2 SLP234 T00611011 $",
    "windDirection": 350,
    "windSpeed": 16,
    "windGust": 24,
    "visibility": 10,
    "temperatureC": 6,
    "dewPointC": -1,
    "cloudCeiling": 99999,
    "altimeter": "A3023",
    "timestamp": "2026-03-23T07:53:00+00:00",
    "station": "KCPS"
  },
  "kstl": {
    "metar": "KSTL 230751Z 35009KT 10SM BKN031 06/01 A3023 RMK AO2 SLP230 T00610006 $",
    "windDirection": 350,
    "windSpeed": 9,
    "windGust": null,
    "visibility": 10,
    "temperatureC": 6,
    "dewPointC": 1,
    "cloudCeiling": 3100,
    "altimeter": "A3023",
    "timestamp": "2026-03-23T07:51:00+00:00",
    "station": "KSTL"
  }
}