{
  "lastUpdated": "2026-04-28T10:26:29.824829+00:00",
  "kcps": {
    "metar": "KCPS 280953Z AUTO 31014KT 10SM CLR 14/11 A2990 RMK AO2 SLP123 T01440106 $",
    "windDirection": 310,
    "windSpeed": 14,
    "windGust": null,
    "visibility": 10,
    "temperatureC": 14,
    "dewPointC": 11,
    "cloudCeiling": 99999,
    "altimeter": "A2990",
    "timestamp": "2026-04-28T09:53:00+00:00",
    "station": "KCPS"
  },
  "kstl": {
    "metar": "KSTL 281023Z 29007KT 10SM BKN026 OVC036 13/10 A2993 RMK AO2 T01330100 $",
    "windDirection": 290,
    "windSpeed": 7,
    "windGust": null,
    "visibility": 10,
    "temperatureC": 13,
    "dewPointC": 10,
    "cloudCeiling": 2600,
    "altimeter": "A2993",
    "timestamp": "2026-04-28T10:23:00+00:00",
    "station": "KSTL"
  }
}