{
  "lastUpdated": "2025-11-10T09:36:49.427395+00:00",
  "kcps": {
    "metar": "KCPS 100853Z AUTO 32016KT 10SM FEW041 OVC060 M02/M09 A3032 RMK AO2 SLP271 T10171094 56008 TSNO $",
    "windDirection": 320,
    "windSpeed": 16,
    "windGust": null,
    "visibility": 10,
    "temperatureC": -2,
    "dewPointC": -9,
    "cloudCeiling": 6000,
    "altimeter": "A3032",
    "timestamp": "2025-11-10T08:53:00+00:00",
    "station": "KCPS"
  },
  "kstl": {
    "metar": "KSTL 100851Z 31015G24KT 10SM FEW043 OVC060 M02/M09 A3032 RMK AO2 SLP278 T10171089 58006 $",
    "windDirection": 310,
    "windSpeed": 15,
    "windGust": 24,
    "visibility": 10,
    "temperatureC": -2,
    "dewPointC": -9,
    "cloudCeiling": 6000,
    "altimeter": "A3032",
    "timestamp": "2025-11-10T08:51:00+00:00",
    "station": "KSTL"
  }
}