{
  "lastUpdated": "2026-05-04T05:49:26.227161+00:00",
  "kcps": {
    "metar": "KCPS 040453Z AUTO 21011G21KT 190V260 10SM CLR 19/08 A2976 RMK AO2 PK WND 21027/0414 LTG DSNT N SLP076 T01940083 $",
    "windDirection": 210,
    "windSpeed": 11,
    "windGust": 21,
    "visibility": 10,
    "temperatureC": 19,
    "dewPointC": 8,
    "cloudCeiling": 99999,
    "altimeter": "A2976",
    "timestamp": "2026-05-04T04:53:00+00:00",
    "station": "KCPS"
  },
  "kstl": {
    "metar": "KSTL 040451Z 22014G21KT 10SM FEW055 FEW100 BKN250 20/08 A2976 RMK AO2 RAE09 TSE20 SLP072 CONS LTGCGICCCCA DSNT NW-E CB DSNT NW-E MOV E P0000 T02000083 $",
    "windDirection": 220,
    "windSpeed": 14,
    "windGust": 21,
    "visibility": 10,
    "temperatureC": 20,
    "dewPointC": 8,
    "cloudCeiling": 25000,
    "altimeter": "A2976",
    "timestamp": "2026-05-04T04:51:00+00:00",
    "station": "KSTL"
  }
}