{
  "lastUpdated": "2026-05-29T23:53:22.096151+00:00",
  "kcps": {
    "metar": "KCPS 292253Z 12007KT 10SM CLR 26/18 A2989 RMK AO2 SLP120 T02560183 $",
    "windDirection": 120,
    "windSpeed": 7,
    "windGust": null,
    "visibility": 10,
    "temperatureC": 26,
    "dewPointC": 18,
    "cloudCeiling": 99999,
    "altimeter": "A2989",
    "timestamp": "2026-05-29T22:53:00+00:00",
    "station": "KCPS"
  },
  "kstl": {
    "metar": "KSTL 292351Z 11010KT 10SM FEW050 BKN180 OVC250 26/16 A2989 RMK AO2 SLP112 T02560161 10",
    "windDirection": 110,
    "windSpeed": 10,
    "windGust": null,
    "visibility": 10,
    "temperatureC": 26,
    "dewPointC": 16,
    "cloudCeiling": 18000,
    "altimeter": "A2989",
    "timestamp": "2026-05-29T23:51:00+00:00",
    "station": "KSTL"
  }
}