{
  "lastUpdated": "2025-12-16T21:02:40.457196+00:00",
  "kcps": {
    "metar": "KCPS 161853Z 21011G22KT 10SM CLR 13/M02 A2994 RMK AO2 SLP139 T01281017",
    "windDirection": 210,
    "windSpeed": 11,
    "windGust": 22,
    "visibility": 10,
    "temperatureC": 13,
    "dewPointC": -2,
    "cloudCeiling": 99999,
    "altimeter": "A2994",
    "timestamp": "2025-12-16T18:53:00+00:00",
    "station": "KCPS"
  },
  "kstl": {
    "metar": "KSTL 162051Z 18010KT 10SM BKN032 14/01 A2989 RMK AO2 SLP126 T01390011 56027 $",
    "windDirection": 180,
    "windSpeed": 10,
    "windGust": null,
    "visibility": 10,
    "temperatureC": 14,
    "dewPointC": 1,
    "cloudCeiling": 3200,
    "altimeter": "A2989",
    "timestamp": "2025-12-16T20:51:00+00:00",
    "station": "KSTL"
  }
}