{
  "lastUpdated": "2026-05-30T20:46:04.841864+00:00",
  "kcps": {
    "metar": "KCPS 302001Z 13003KT 10SM -RA SCT050 27/22 A2994 RMK AO2 LTG DSNT S-W P0000 T02670217 $",
    "windDirection": 130,
    "windSpeed": 3,
    "windGust": null,
    "visibility": 10,
    "temperatureC": 27,
    "dewPointC": 22,
    "cloudCeiling": null,
    "altimeter": "A2994",
    "timestamp": "2026-05-30T20:01:00+00:00",
    "station": "KCPS"
  },
  "kstl": {
    "metar": "KSTL 301951Z 07008KT 10SM SCT045 BKN140 OVC220 27/20 A2995 RMK AO2 TSB17E47 SLP133 VCSH S AND W T02720200 $",
    "windDirection": 70,
    "windSpeed": 8,
    "windGust": null,
    "visibility": 10,
    "temperatureC": 27,
    "dewPointC": 20,
    "cloudCeiling": 14000,
    "altimeter": "A2995",
    "timestamp": "2026-05-30T19:51:00+00:00",
    "station": "KSTL"
  }
}