{
  "lastUpdated": "2025-12-02T17:49:10.940999+00:00",
  "kcps": {
    "metar": "KCPS 021725Z 27005KT 10SM OVC015 M04/M07 A3014 RMK AO2 T10441072",
    "windDirection": 270,
    "windSpeed": 5,
    "windGust": null,
    "visibility": 10,
    "temperatureC": -4,
    "dewPointC": -7,
    "cloudCeiling": 1500,
    "altimeter": "A3014",
    "timestamp": "2025-12-02T17:25:00+00:00",
    "station": "KCPS"
  },
  "kstl": {
    "metar": "KSTL 021736Z 31007KT 10SM -SN OVC013 M04/M07 A3013 RMK AO2 SNB35 P0000 T10441072 $",
    "windDirection": 310,
    "windSpeed": 7,
    "windGust": null,
    "visibility": 10,
    "temperatureC": -4,
    "dewPointC": -7,
    "cloudCeiling": 1300,
    "altimeter": "A3013",
    "timestamp": "2025-12-02T17:36:00+00:00",
    "station": "KSTL"
  }
}