{
  "lastUpdated": "2026-06-14T17:45:16.875288+00:00",
  "kcps": {
    "metar": "KCPS 141653Z 36015G27KT 10SM FEW039 SCT050 23/11 A2998 RMK AO2 PK WND 36028/1628 RAE49 SLP149 P0000 T02280111 $",
    "windDirection": 360,
    "windSpeed": 15,
    "windGust": 27,
    "visibility": 10.0,
    "temperatureC": 22.8,
    "dewPointC": 11.1,
    "cloudCeiling": null,
    "altimeter": "A2998",
    "timestamp": "2026-06-14T17:00:00.000Z",
    "station": "KCPS"
  },
  "kstl": {
    "metar": "KSTL 141651Z 33017G24KT 10SM SCT030 SCT070 22/12 A3000 RMK AO2 SLP149 T02220122 $",
    "windDirection": 330,
    "windSpeed": 17,
    "windGust": 24,
    "visibility": 10.0,
    "temperatureC": 22.2,
    "dewPointC": 12.2,
    "cloudCeiling": null,
    "altimeter": "A3000",
    "timestamp": "2026-06-14T17:00:00.000Z",
    "station": "KSTL"
  }
}