{
  "lastUpdated": "2025-12-12T17:21:24.819440+00:00",
  "kcps": {
    "metar": "KCPS 121653Z 35005KT 8SM OVC009 01/M01 A3014 RMK AO2 SLP209 T00111011",
    "windDirection": 350,
    "windSpeed": 5,
    "windGust": null,
    "visibility": 8,
    "temperatureC": 1,
    "dewPointC": -1,
    "cloudCeiling": 900,
    "altimeter": "A3014",
    "timestamp": "2025-12-12T16:53:00+00:00",
    "station": "KCPS"
  },
  "kstl": {
    "metar": "KSTL 121651Z 33004KT 9SM OVC008 01/M01 A3014 RMK AO2 SLP218 T00111011 $",
    "windDirection": 330,
    "windSpeed": 4,
    "windGust": null,
    "visibility": 9,
    "temperatureC": 1,
    "dewPointC": -1,
    "cloudCeiling": 800,
    "altimeter": "A3014",
    "timestamp": "2025-12-12T16:51:00+00:00",
    "station": "KSTL"
  }
}