{
  "lastUpdated": "2025-12-27T09:21:38.617656+00:00",
  "kcps": {
    "metar": "KCPS 270853Z AUTO 10003KT 2 1/2SM BR OVC002 08/08 A2995 RMK AO2 SLP142 T00830083 50005 TSNO $",
    "windDirection": 100,
    "windSpeed": 3,
    "windGust": null,
    "visibility": 0.5,
    "temperatureC": 8,
    "dewPointC": 8,
    "cloudCeiling": 200,
    "altimeter": "A2995",
    "timestamp": "2025-12-27T08:53:00+00:00",
    "station": "KCPS"
  },
  "kstl": {
    "metar": "KSTL 270916Z 11008KT 1/8SM R30R/1800V2000FT FG VV002 08/08 A2995 RMK AO2 T00780078 $",
    "windDirection": 110,
    "windSpeed": 8,
    "windGust": null,
    "visibility": 0.125,
    "temperatureC": 8,
    "dewPointC": 8,
    "cloudCeiling": 200,
    "altimeter": "A2995",
    "timestamp": "2025-12-27T09:16:00+00:00",
    "station": "KSTL"
  }
}