{
  "lastUpdated": "2026-04-17T09:29:05.040242+00:00",
  "kcps": {
    "metar": "KCPS 170853Z AUTO 16004KT 10SM CLR 17/16 A2990 RMK AO2 SLP122 T01670156 57013 $",
    "windDirection": 160,
    "windSpeed": 4,
    "windGust": null,
    "visibility": 10,
    "temperatureC": 17,
    "dewPointC": 16,
    "cloudCeiling": 99999,
    "altimeter": "A2990",
    "timestamp": "2026-04-17T08:53:00+00:00",
    "station": "KCPS"
  },
  "kstl": {
    "metar": "KSTL 170851Z 14007KT 10SM BKN250 18/17 A2989 RMK AO2 SLP112 T01830172 58015 $",
    "windDirection": 140,
    "windSpeed": 7,
    "windGust": null,
    "visibility": 10,
    "temperatureC": 18,
    "dewPointC": 17,
    "cloudCeiling": 25000,
    "altimeter": "A2989",
    "timestamp": "2026-04-17T08:51:00+00:00",
    "station": "KSTL"
  }
}