{
  "lastUpdated": "2025-12-31T23:47:07.523258+00:00",
  "kcps": {
    "metar": "KCPS 312201Z 28009G17KT 10SM SCT023 04/M02 A3002 RMK AO2 T00391017",
    "windDirection": 280,
    "windSpeed": 9,
    "windGust": 17,
    "visibility": 10,
    "temperatureC": 4,
    "dewPointC": -2,
    "cloudCeiling": null,
    "altimeter": "A3002",
    "timestamp": "2025-12-31T22:01:00+00:00",
    "station": "KCPS"
  },
  "kstl": {
    "metar": "KSTL 312251Z 27011KT 10SM SCT020 BKN250 03/M01 A3000 RMK AO2 SLP169 T00281011 $",
    "windDirection": 270,
    "windSpeed": 11,
    "windGust": null,
    "visibility": 10,
    "temperatureC": 3,
    "dewPointC": -1,
    "cloudCeiling": 25000,
    "altimeter": "A3000",
    "timestamp": "2025-12-31T22:51:00+00:00",
    "station": "KSTL"
  }
}