{
  "lastUpdated": "2026-03-13T15:28:20.626143+00:00",
  "kcps": {
    "metar": "KCPS 131453Z 27011G25KT 10SM CLR 13/M01 A2988 RMK AO2 SLP117 T01281011 53024 $",
    "windDirection": 270,
    "windSpeed": 11,
    "windGust": 25,
    "visibility": 10,
    "temperatureC": 13,
    "dewPointC": -1,
    "cloudCeiling": 99999,
    "altimeter": "A2988",
    "timestamp": "2026-03-13T14:53:00+00:00",
    "station": "KCPS"
  },
  "kstl": {
    "metar": "KSTL 131451Z 25011G20KT 10SM OVC250 12/M01 A2988 RMK AO2 SLP119 T01171006 53032 $",
    "windDirection": 250,
    "windSpeed": 11,
    "windGust": 20,
    "visibility": 10,
    "temperatureC": 12,
    "dewPointC": -1,
    "cloudCeiling": 25000,
    "altimeter": "A2988",
    "timestamp": "2026-03-13T14:51:00+00:00",
    "station": "KSTL"
  }
}