{
  "lastUpdated": "2026-02-19T09:50:42.971704+00:00",
  "kcps": {
    "metar": "KCPS 190929Z AUTO 00000KT 1/2SM FG VV003 07/07 A2958 RMK AO2 T00670067 $",
    "windDirection": 0,
    "windSpeed": 0,
    "windGust": null,
    "visibility": 0.5,
    "temperatureC": 7,
    "dewPointC": 7,
    "cloudCeiling": 300,
    "altimeter": "A2958",
    "timestamp": "2026-02-19T09:29:00+00:00",
    "station": "KCPS"
  },
  "kstl": {
    "metar": "KSTL 190851Z 06003KT 10SM BKN240 08/07 A2959 RMK AO2 SLP014 T00830072 56014 $",
    "windDirection": 60,
    "windSpeed": 3,
    "windGust": null,
    "visibility": 10,
    "temperatureC": 8,
    "dewPointC": 7,
    "cloudCeiling": 24000,
    "altimeter": "A2959",
    "timestamp": "2026-02-19T08:51:00+00:00",
    "station": "KSTL"
  }
}