{
  "lastUpdated": "2026-02-02T08:26:21.972016+00:00",
  "kcps": {
    "metar": "KCPS 020753Z AUTO 00000KT 10SM OVC050 M03/M10 A3018 RMK AO2 SLP223 T10331100 $",
    "windDirection": 0,
    "windSpeed": 0,
    "windGust": null,
    "visibility": 10,
    "temperatureC": -3,
    "dewPointC": -10,
    "cloudCeiling": 5000,
    "altimeter": "A3018",
    "timestamp": "2026-02-02T07:53:00+00:00",
    "station": "KCPS"
  },
  "kstl": {
    "metar": "KSTL 020751Z 22005KT 10SM OVC050 M02/M09 A3016 RMK AO2 SLP226 T10221089 $",
    "windDirection": 220,
    "windSpeed": 5,
    "windGust": null,
    "visibility": 10,
    "temperatureC": -2,
    "dewPointC": -9,
    "cloudCeiling": 5000,
    "altimeter": "A3016",
    "timestamp": "2026-02-02T07:51:00+00:00",
    "station": "KSTL"
  }
}