{
  "lastUpdated": "2026-03-14T15:05:16.286212+00:00",
  "kcps": {
    "metar": "KCPS 141453Z 10012G19KT 10SM CLR 08/M02 A3012 RMK AO2 SLP199 T00781017 58000 $",
    "windDirection": 100,
    "windSpeed": 12,
    "windGust": 19,
    "visibility": 10,
    "temperatureC": 8,
    "dewPointC": -2,
    "cloudCeiling": 99999,
    "altimeter": "A3012",
    "timestamp": "2026-03-14T14:53:00+00:00",
    "station": "KCPS"
  },
  "kstl": {
    "metar": "KSTL 141451Z 10016KT 10SM FEW140 SCT250 07/M03 A3012 RMK AO2 SLP200 T00721028 50000 $",
    "windDirection": 100,
    "windSpeed": 16,
    "windGust": null,
    "visibility": 10,
    "temperatureC": 7,
    "dewPointC": -3,
    "cloudCeiling": null,
    "altimeter": "A3012",
    "timestamp": "2026-03-14T14:51:00+00:00",
    "station": "KSTL"
  }
}