{
  "lastUpdated": "2025-12-02T08:41:29.472744+00:00",
  "kcps": {
    "metar": "KCPS 020835Z AUTO 32012KT 10SM OVC013 M04/M07 A3008 RMK AO2 T10441072 $",
    "windDirection": 320,
    "windSpeed": 12,
    "windGust": null,
    "visibility": 10,
    "temperatureC": -4,
    "dewPointC": -7,
    "cloudCeiling": 1300,
    "altimeter": "A3008",
    "timestamp": "2025-12-02T08:35:00+00:00",
    "station": "KCPS"
  },
  "kstl": {
    "metar": "KSTL 020815Z 31011KT 9SM -SN BKN009 OVC013 M06/M07 A3007 RMK AO2 SNB15 P0000 T10561072 $",
    "windDirection": 310,
    "windSpeed": 11,
    "windGust": null,
    "visibility": 9,
    "temperatureC": -6,
    "dewPointC": -7,
    "cloudCeiling": 900,
    "altimeter": "A3007",
    "timestamp": "2025-12-02T08:15:00+00:00",
    "station": "KSTL"
  }
}