{
  "lastUpdated": "2026-02-12T19:21:53.060134+00:00",
  "kcps": {
    "metar": "KCPS 121853Z 15010KT 10SM BKN110 12/M04 A3024 RMK AO2 SLP242 T01221039 $",
    "windDirection": 150,
    "windSpeed": 10,
    "windGust": null,
    "visibility": 10,
    "temperatureC": 12,
    "dewPointC": -4,
    "cloudCeiling": 11000,
    "altimeter": "A3024",
    "timestamp": "2026-02-12T18:53:00+00:00",
    "station": "KCPS"
  },
  "kstl": {
    "metar": "KSTL 121851Z 15011KT 10SM SCT130 BKN250 12/M04 A3024 RMK AO2 SLP244 T01221044 $",
    "windDirection": 150,
    "windSpeed": 11,
    "windGust": null,
    "visibility": 10,
    "temperatureC": 12,
    "dewPointC": -4,
    "cloudCeiling": 25000,
    "altimeter": "A3024",
    "timestamp": "2026-02-12T18:51:00+00:00",
    "station": "KSTL"
  }
}