{
  "lastUpdated": "2026-01-26T02:35:26.798401+00:00",
  "kcps": {
    "metar": "KCPS 260153Z 31012KT 10SM CLR M12/M17 A3028 RMK AO2 SLP262 T11221167 $",
    "windDirection": 310,
    "windSpeed": 12,
    "windGust": null,
    "visibility": 10,
    "temperatureC": -12,
    "dewPointC": -17,
    "cloudCeiling": 99999,
    "altimeter": "A3028",
    "timestamp": "2026-01-26T01:53:00+00:00",
    "station": "KCPS"
  },
  "kstl": {
    "metar": "KSTL 260151Z 31008KT 10SM BKN230 M13/M18 A3027 RMK AO2 SLP275 T11331178 $",
    "windDirection": 310,
    "windSpeed": 8,
    "windGust": null,
    "visibility": 10,
    "temperatureC": -13,
    "dewPointC": -18,
    "cloudCeiling": 23000,
    "altimeter": "A3027",
    "timestamp": "2026-01-26T01:51:00+00:00",
    "station": "KSTL"
  }
}