{
  "lastUpdated": "2026-02-01T13:55:14.192783+00:00",
  "kcps": {
    "metar": "KCPS 011253Z 00000KT 10SM CLR M18/M19 A3041 RMK AO2 SLP307 I1000 T11781189 $",
    "windDirection": 0,
    "windSpeed": 0,
    "windGust": null,
    "visibility": 10,
    "temperatureC": -18,
    "dewPointC": -19,
    "cloudCeiling": 99999,
    "altimeter": "A3041",
    "timestamp": "2026-02-01T12:53:00+00:00",
    "station": "KCPS"
  },
  "kstl": {
    "metar": "KSTL 011351Z 22004KT 10SM FEW200 BKN250 M13/M17 A3040 RMK AO2 SLP316 T11281172 $",
    "windDirection": 220,
    "windSpeed": 4,
    "windGust": null,
    "visibility": 10,
    "temperatureC": -13,
    "dewPointC": -17,
    "cloudCeiling": 25000,
    "altimeter": "A3040",
    "timestamp": "2026-02-01T13:51:00+00:00",
    "station": "KSTL"
  }
}