{
  "lastUpdated": "2026-01-21T00:07:52.254416+00:00",
  "kcps": {
    "metar": "KCPS 202353Z 17009KT 10SM CLR 01/M13 A3024 RMK AO2 SLP246 T00061133 10039 21006 56017 $",
    "windDirection": 170,
    "windSpeed": 9,
    "windGust": null,
    "visibility": 10,
    "temperatureC": 1,
    "dewPointC": -13,
    "cloudCeiling": 99999,
    "altimeter": "A3024",
    "timestamp": "2026-01-20T23:53:00+00:00",
    "station": "KCPS"
  },
  "kstl": {
    "metar": "KSTL 202351Z 15010KT 10SM SCT100 02/M14 A3022 RMK AO2 SLP248 T00221139 10039 21006 56017 $",
    "windDirection": 150,
    "windSpeed": 10,
    "windGust": null,
    "visibility": 10,
    "temperatureC": 2,
    "dewPointC": -14,
    "cloudCeiling": null,
    "altimeter": "A3022",
    "timestamp": "2026-01-20T23:51:00+00:00",
    "station": "KSTL"
  }
}