{
  "lastUpdated": "2026-01-01T10:49:28.197818+00:00",
  "kcps": {
    "metar": "KCPS 010953Z AUTO 00000KT 7SM CLR M04/M05 A2998 RMK AO2 SLP156 I1000 T10441050 $",
    "windDirection": 0,
    "windSpeed": 0,
    "windGust": null,
    "visibility": 7,
    "temperatureC": -4,
    "dewPointC": -5,
    "cloudCeiling": 99999,
    "altimeter": "A2998",
    "timestamp": "2026-01-01T09:53:00+00:00",
    "station": "KCPS"
  },
  "kstl": {
    "metar": "KSTL 010951Z 00000KT 10SM CLR M02/M03 A2998 RMK AO2 SLP161 T10221033 $",
    "windDirection": 0,
    "windSpeed": 0,
    "windGust": null,
    "visibility": 10,
    "temperatureC": -2,
    "dewPointC": -3,
    "cloudCeiling": 99999,
    "altimeter": "A2998",
    "timestamp": "2026-01-01T09:51:00+00:00",
    "station": "KSTL"
  }
}