{
  "lastUpdated": "2025-10-22T04:02:55.555174+00:00",
  "kcps": {
    "metar": "KCPS 220353Z AUTO 25004KT 10SM CLR 11/02 A3001 RMK AO2 SLP162 T01110017",
    "windDirection": 250,
    "windSpeed": 4,
    "windGust": null,
    "visibility": 10,
    "temperatureC": 11,
    "dewPointC": 2,
    "cloudCeiling": 99999,
    "altimeter": "A3001",
    "timestamp": "2025-10-22T03:53:00+00:00",
    "station": "KCPS"
  },
  "kstl": {
    "metar": "KSTL 220351Z 26007KT 10SM CLR 11/02 A3001 RMK AO2 SLP161 T01110017 $",
    "windDirection": 260,
    "windSpeed": 7,
    "windGust": null,
    "visibility": 10,
    "temperatureC": 11,
    "dewPointC": 2,
    "cloudCeiling": 99999,
    "altimeter": "A3001",
    "timestamp": "2025-10-22T03:51:00+00:00",
    "station": "KSTL"
  }
}