{
  "lastUpdated": "2026-03-25T07:35:49.592356+00:00",
  "kcps": {
    "metar": "KCPS 250653Z AUTO 15004KT 10SM CLR 10/M01 A3014 RMK AO2 SLP206 T01001006 $",
    "windDirection": 150,
    "windSpeed": 4,
    "windGust": null,
    "visibility": 10,
    "temperatureC": 10,
    "dewPointC": -1,
    "cloudCeiling": 99999,
    "altimeter": "A3014",
    "timestamp": "2026-03-25T06:53:00+00:00",
    "station": "KCPS"
  },
  "kstl": {
    "metar": "KSTL 250651Z 16007KT 10SM FEW160 BKN250 12/M02 A3014 RMK AO2 SLP203 T01221022",
    "windDirection": 160,
    "windSpeed": 7,
    "windGust": null,
    "visibility": 10,
    "temperatureC": 12,
    "dewPointC": -2,
    "cloudCeiling": 25000,
    "altimeter": "A3014",
    "timestamp": "2026-03-25T06:51:00+00:00",
    "station": "KSTL"
  }
}