{
  "lastUpdated": "2026-01-07T00:06:33.709040+00:00",
  "kcps": {
    "metar": "KCPS 062353Z 25005KT 10SM CLR 16/02 A2977 RMK AO2 SLP078 T01610022 10206 20161 53021 $",
    "windDirection": 250,
    "windSpeed": 5,
    "windGust": null,
    "visibility": 10,
    "temperatureC": 16,
    "dewPointC": 2,
    "cloudCeiling": 99999,
    "altimeter": "A2977",
    "timestamp": "2026-01-06T23:53:00+00:00",
    "station": "KCPS"
  },
  "kstl": {
    "metar": "KSTL 062351Z 26006KT 10SM SCT250 13/03 A2978 RMK AO2 SLP082 T01330028 10200 20133 53022 $",
    "windDirection": 260,
    "windSpeed": 6,
    "windGust": null,
    "visibility": 10,
    "temperatureC": 13,
    "dewPointC": 3,
    "cloudCeiling": null,
    "altimeter": "A2978",
    "timestamp": "2026-01-06T23:51:00+00:00",
    "station": "KSTL"
  }
}