{
  "lastUpdated": "2025-12-23T11:21:18.553779+00:00",
  "kcps": {
    "metar": "KCPS 231115Z AUTO 00000KT 1/4SM FG VV004 03/03 A3010 RMK AO2 T00280028 $",
    "windDirection": 0,
    "windSpeed": 0,
    "windGust": null,
    "visibility": 0.25,
    "temperatureC": 3,
    "dewPointC": 3,
    "cloudCeiling": 400,
    "altimeter": "A3010",
    "timestamp": "2025-12-23T11:15:00+00:00",
    "station": "KCPS"
  },
  "kstl": {
    "metar": "KSTL 231051Z 13004KT 8SM SCT250 04/04 A3009 RMK AO2 SLP192 T00390039 $",
    "windDirection": 130,
    "windSpeed": 4,
    "windGust": null,
    "visibility": 8,
    "temperatureC": 4,
    "dewPointC": 4,
    "cloudCeiling": null,
    "altimeter": "A3009",
    "timestamp": "2025-12-23T10:51:00+00:00",
    "station": "KSTL"
  }
}