{
  "lastUpdated": "2025-11-12T00:07:32.078758+00:00",
  "kcps": {
    "metar": "KCPS 112353Z 19004KT 10SM CLR 12/M03 A2989 RMK AO2 SLP123 T01221028 10161 20089 53005 $",
    "windDirection": 190,
    "windSpeed": 4,
    "windGust": null,
    "visibility": 10,
    "temperatureC": 12,
    "dewPointC": -3,
    "cloudCeiling": 99999,
    "altimeter": "A2989",
    "timestamp": "2025-11-11T23:53:00+00:00",
    "station": "KCPS"
  },
  "kstl": {
    "metar": "KSTL 112351Z 21004KT 10SM FEW150 11/M03 A2989 RMK AO2 SLP126 T01061028 10156 20089 53003 $",
    "windDirection": 210,
    "windSpeed": 4,
    "windGust": null,
    "visibility": 10,
    "temperatureC": 11,
    "dewPointC": -3,
    "cloudCeiling": null,
    "altimeter": "A2989",
    "timestamp": "2025-11-11T23:51:00+00:00",
    "station": "KSTL"
  }
}