{
  "lastUpdated": "2026-04-15T05:40:57.352474+00:00",
  "kcps": {
    "metar": "KCPS 150453Z AUTO 19007KT 10SM CLR 23/18 A2985 RMK AO2 SLP105 T02280178 $",
    "windDirection": 190,
    "windSpeed": 7,
    "windGust": null,
    "visibility": 10,
    "temperatureC": 23,
    "dewPointC": 18,
    "cloudCeiling": 99999,
    "altimeter": "A2985",
    "timestamp": "2026-04-15T04:53:00+00:00",
    "station": "KCPS"
  },
  "kstl": {
    "metar": "KSTL 150451Z 20013KT 10SM BKN250 23/18 A2984 RMK AO2 SLP092 T02330178 $",
    "windDirection": 200,
    "windSpeed": 13,
    "windGust": null,
    "visibility": 10,
    "temperatureC": 23,
    "dewPointC": 18,
    "cloudCeiling": 25000,
    "altimeter": "A2984",
    "timestamp": "2026-04-15T04:51:00+00:00",
    "station": "KSTL"
  }
}