{
  "lastUpdated": "2026-01-27T14:46:45.405281+00:00",
  "kcps": {
    "metar": "KCPS 271353Z 26009KT 10SM CLR M07/M13 A3026 RMK AO2 SLP253 T10721128 $",
    "windDirection": 260,
    "windSpeed": 9,
    "windGust": null,
    "visibility": 10,
    "temperatureC": -7,
    "dewPointC": -13,
    "cloudCeiling": 99999,
    "altimeter": "A3026",
    "timestamp": "2026-01-27T13:53:00+00:00",
    "station": "KCPS"
  },
  "kstl": {
    "metar": "KSTL 271351Z 26012KT 10SM CLR M07/M12 A3024 RMK AO2 SLP259 T10721122 $",
    "windDirection": 260,
    "windSpeed": 12,
    "windGust": null,
    "visibility": 10,
    "temperatureC": -7,
    "dewPointC": -12,
    "cloudCeiling": 99999,
    "altimeter": "A3024",
    "timestamp": "2026-01-27T13:51:00+00:00",
    "station": "KSTL"
  }
}