{
  "lastUpdated": "2025-12-07T20:02:18.095916+00:00",
  "kcps": {
    "metar": "KCPS 071953Z 34014KT 3SM BR OVC007 02/00 A3012 RMK AO2 SLP202 T00170000 $",
    "windDirection": 340,
    "windSpeed": 14,
    "windGust": null,
    "visibility": 3,
    "temperatureC": 2,
    "dewPointC": 0,
    "cloudCeiling": 700,
    "altimeter": "A3012",
    "timestamp": "2025-12-07T19:53:00+00:00",
    "station": "KCPS"
  },
  "kstl": {
    "metar": "KSTL 071951Z 35011KT 4SM BR OVC005 01/M01 A3013 RMK AO2 SLP211 T00061006 $",
    "windDirection": 350,
    "windSpeed": 11,
    "windGust": null,
    "visibility": 4,
    "temperatureC": 1,
    "dewPointC": -1,
    "cloudCeiling": 500,
    "altimeter": "A3013",
    "timestamp": "2025-12-07T19:51:00+00:00",
    "station": "KSTL"
  }
}