{
  "lastUpdated": "2026-05-15T04:35:37.588186+00:00",
  "kcps": {
    "metar": "KCPS 150353Z AUTO 15007KT 10SM CLR 17/07 A2996 RMK AO2 SLP144 T01670067 $",
    "windDirection": 150,
    "windSpeed": 7,
    "windGust": null,
    "visibility": 10,
    "temperatureC": 17,
    "dewPointC": 7,
    "cloudCeiling": 99999,
    "altimeter": "A2996",
    "timestamp": "2026-05-15T03:53:00+00:00",
    "station": "KCPS"
  },
  "kstl": {
    "metar": "KSTL 150351Z 14010KT 10SM FEW180 BKN250 18/06 A2996 RMK AO2 SLP139 T01830061 $",
    "windDirection": 140,
    "windSpeed": 10,
    "windGust": null,
    "visibility": 10,
    "temperatureC": 18,
    "dewPointC": 6,
    "cloudCeiling": 25000,
    "altimeter": "A2996",
    "timestamp": "2026-05-15T03:51:00+00:00",
    "station": "KSTL"
  }
}