{
  "lastUpdated": "2026-01-08T12:24:07.223209+00:00",
  "kcps": {
    "metar": "KCPS 081153Z AUTO 15007KT 10SM CLR 09/07 A2981 RMK AO2 SLP095 T00940072 10100 20083 56014 $",
    "windDirection": 150,
    "windSpeed": 7,
    "windGust": null,
    "visibility": 10,
    "temperatureC": 9,
    "dewPointC": 7,
    "cloudCeiling": 99999,
    "altimeter": "A2981",
    "timestamp": "2026-01-08T11:53:00+00:00",
    "station": "KCPS"
  },
  "kstl": {
    "metar": "KSTL 081151Z 13007KT 10SM BKN170 OVC250 10/07 A2980 RMK AO2 SLP092 T01000067 10117 20100 56013 $",
    "windDirection": 130,
    "windSpeed": 7,
    "windGust": null,
    "visibility": 10,
    "temperatureC": 10,
    "dewPointC": 7,
    "cloudCeiling": 17000,
    "altimeter": "A2980",
    "timestamp": "2026-01-08T11:51:00+00:00",
    "station": "KSTL"
  }
}