{
  "lastUpdated": "2026-03-13T07:31:31.663663+00:00",
  "kcps": {
    "metar": "KCPS 130653Z 19007G18KT 10SM CLR 09/M03 A2983 RMK AO2 SLP100 T00891033 $",
    "windDirection": 190,
    "windSpeed": 7,
    "windGust": 18,
    "visibility": 10,
    "temperatureC": 9,
    "dewPointC": -3,
    "cloudCeiling": 99999,
    "altimeter": "A2983",
    "timestamp": "2026-03-13T06:53:00+00:00",
    "station": "KCPS"
  },
  "kstl": {
    "metar": "KSTL 130651Z 19015G23KT 10SM BKN140 OVC250 09/M04 A2980 RMK AO2 SLP092 T00941039 $",
    "windDirection": 190,
    "windSpeed": 15,
    "windGust": 23,
    "visibility": 10,
    "temperatureC": 9,
    "dewPointC": -4,
    "cloudCeiling": 14000,
    "altimeter": "A2980",
    "timestamp": "2026-03-13T06:51:00+00:00",
    "station": "KSTL"
  }
}