{
  "lastUpdated": "2026-05-05T11:34:46.094206+00:00",
  "kcps": {
    "metar": "KCPS 051053Z AUTO 36015KT 10SM -RA OVC045 14/12 A2974 RMK AO2 RAE0955B23 SLP069 P0000 T01440117 $",
    "windDirection": 360,
    "windSpeed": 15,
    "windGust": null,
    "visibility": 10,
    "temperatureC": 14,
    "dewPointC": 12,
    "cloudCeiling": 4500,
    "altimeter": "A2974",
    "timestamp": "2026-05-05T10:53:00+00:00",
    "station": "KCPS"
  },
  "kstl": {
    "metar": "KSTL 051124Z 35010KT 10SM -TSRA OVC040CB 12/08 A2978 RMK AO2 RAB06 TSB24 OCNL LTGCG NW TS NW MOV NE P0000 T01220078 $",
    "windDirection": 350,
    "windSpeed": 10,
    "windGust": null,
    "visibility": 10,
    "temperatureC": 12,
    "dewPointC": 8,
    "cloudCeiling": 4000,
    "altimeter": "A2978",
    "timestamp": "2026-05-05T11:24:00+00:00",
    "station": "KSTL"
  }
}