{
  "lastUpdated": "2026-01-01T20:22:17.654640+00:00",
  "kcps": {
    "metar": "KCPS 011953Z 03003KT 8SM BR OVC008 02/00 A2996 RMK AO2 SLP148 T00220000 $",
    "windDirection": 30,
    "windSpeed": 3,
    "windGust": null,
    "visibility": 8,
    "temperatureC": 2,
    "dewPointC": 0,
    "cloudCeiling": 800,
    "altimeter": "A2996",
    "timestamp": "2026-01-01T19:53:00+00:00",
    "station": "KCPS"
  },
  "kstl": {
    "metar": "KSTL 011951Z 05003KT 7SM OVC008 01/M01 A2995 RMK AO2 SLP151 T00111006 $",
    "windDirection": 50,
    "windSpeed": 3,
    "windGust": null,
    "visibility": 7,
    "temperatureC": 1,
    "dewPointC": -1,
    "cloudCeiling": 800,
    "altimeter": "A2995",
    "timestamp": "2026-01-01T19:51:00+00:00",
    "station": "KSTL"
  }
}