{
  "lastUpdated": "2026-04-04T01:31:37.841363+00:00",
  "kcps": {
    "metar": "KCPS 040053Z 17008KT 10SM BKN110 25/16 A2992 RMK AO2 SLP129 T02500161 $",
    "windDirection": 170,
    "windSpeed": 8,
    "windGust": null,
    "visibility": 10,
    "temperatureC": 25,
    "dewPointC": 16,
    "cloudCeiling": 11000,
    "altimeter": "A2992",
    "timestamp": "2026-04-04T00:53:00+00:00",
    "station": "KCPS"
  },
  "kstl": {
    "metar": "KSTL 040051Z 17012KT 10SM SCT090 BKN110 OVC250 26/17 A2992 RMK AO2 SLP123 T02560167 $",
    "windDirection": 170,
    "windSpeed": 12,
    "windGust": null,
    "visibility": 10,
    "temperatureC": 26,
    "dewPointC": 17,
    "cloudCeiling": 11000,
    "altimeter": "A2992",
    "timestamp": "2026-04-04T00:51:00+00:00",
    "station": "KSTL"
  }
}