{
  "lastUpdated": "2026-02-02T16:27:37.807876+00:00",
  "kcps": {
    "metar": "KCPS 021553Z 24004KT 10SM OVC045 01/M06 A3020 RMK AO2 SLP232 T00061061 $",
    "windDirection": 240,
    "windSpeed": 4,
    "windGust": null,
    "visibility": 10,
    "temperatureC": 1,
    "dewPointC": -6,
    "cloudCeiling": 4500,
    "altimeter": "A3020",
    "timestamp": "2026-02-02T15:53:00+00:00",
    "station": "KCPS"
  },
  "kstl": {
    "metar": "KSTL 021551Z 26003KT 10SM BKN042 01/M05 A3019 RMK AO2 SLP237 T00111050 $",
    "windDirection": 260,
    "windSpeed": 3,
    "windGust": null,
    "visibility": 10,
    "temperatureC": 1,
    "dewPointC": -5,
    "cloudCeiling": 4200,
    "altimeter": "A3019",
    "timestamp": "2026-02-02T15:51:00+00:00",
    "station": "KSTL"
  }
}