{
  "lastUpdated": "2025-11-01T14:46:21.173227+00:00",
  "kcps": {
    "metar": "KCPS 011253Z 00000KT 10SM OVC100 06/03 A3009 RMK AO2 SLP192 T00610033",
    "windDirection": 0,
    "windSpeed": 0,
    "windGust": null,
    "visibility": 10,
    "temperatureC": 6,
    "dewPointC": 3,
    "cloudCeiling": 10000,
    "altimeter": "A3009",
    "timestamp": "2025-11-01T12:53:00+00:00",
    "station": "KCPS"
  },
  "kstl": {
    "metar": "KSTL 011351Z 26006KT 10SM BKN070 BKN120 08/03 A3012 RMK AO2 SLP202 T00830028 $",
    "windDirection": 260,
    "windSpeed": 6,
    "windGust": null,
    "visibility": 10,
    "temperatureC": 8,
    "dewPointC": 3,
    "cloudCeiling": 7000,
    "altimeter": "A3012",
    "timestamp": "2025-11-01T13:51:00+00:00",
    "station": "KSTL"
  }
}