{
  "lastUpdated": "2025-12-22T23:02:18.716358+00:00",
  "kcps": {
    "metar": "KCPS 222243Z 15012KT 10SM OVC028 11/M02 A3004 RMK AO2 T01111017 $",
    "windDirection": 150,
    "windSpeed": 12,
    "windGust": null,
    "visibility": 10,
    "temperatureC": 11,
    "dewPointC": -2,
    "cloudCeiling": 2800,
    "altimeter": "A3004",
    "timestamp": "2025-12-22T22:43:00+00:00",
    "station": "KCPS"
  },
  "kstl": {
    "metar": "KSTL 222251Z 15011KT 10SM FEW040 SCT250 12/00 A3002 RMK AO2 SLP173 T01170000 $",
    "windDirection": 150,
    "windSpeed": 11,
    "windGust": null,
    "visibility": 10,
    "temperatureC": 12,
    "dewPointC": 0,
    "cloudCeiling": null,
    "altimeter": "A3002",
    "timestamp": "2025-12-22T22:51:00+00:00",
    "station": "KSTL"
  }
}