{
  "lastUpdated": "2026-01-26T17:14:04.327380+00:00",
  "kcps": {
    "metar": "KCPS 261653Z 28008KT 10SM CLR M14/M21 A3054 RMK AO2 SLP351 T11391206 $",
    "windDirection": 280,
    "windSpeed": 8,
    "windGust": null,
    "visibility": 10,
    "temperatureC": -14,
    "dewPointC": -21,
    "cloudCeiling": 99999,
    "altimeter": "A3054",
    "timestamp": "2026-01-26T16:53:00+00:00",
    "station": "KCPS"
  },
  "kstl": {
    "metar": "KSTL 261651Z 29009KT 10SM CLR M14/M20 A3052 RMK AO2 SLP362 T11391200 $",
    "windDirection": 290,
    "windSpeed": 9,
    "windGust": null,
    "visibility": 10,
    "temperatureC": -14,
    "dewPointC": -20,
    "cloudCeiling": 99999,
    "altimeter": "A3052",
    "timestamp": "2026-01-26T16:51:00+00:00",
    "station": "KSTL"
  }
}