{
  "lastUpdated": "2026-02-04T11:54:20.530340+00:00",
  "kcps": {
    "metar": "KCPS 041053Z AUTO 02007KT 10SM OVC085 M03/M08 A3034 RMK AO2 SLP280 T10331078 $",
    "windDirection": 20,
    "windSpeed": 7,
    "windGust": null,
    "visibility": 10,
    "temperatureC": -3,
    "dewPointC": -8,
    "cloudCeiling": 8500,
    "altimeter": "A3034",
    "timestamp": "2026-02-04T10:53:00+00:00",
    "station": "KCPS"
  },
  "kstl": {
    "metar": "KSTL 041151Z 36008KT 10SM SCT080 SCT250 M06/M09 A3035 RMK AO2 SLP292 4/002 T10561094 11011 21056 51012",
    "windDirection": 360,
    "windSpeed": 8,
    "windGust": null,
    "visibility": 10,
    "temperatureC": -6,
    "dewPointC": -9,
    "cloudCeiling": null,
    "altimeter": "A3035",
    "timestamp": "2026-02-04T11:51:00+00:00",
    "station": "KSTL"
  }
}