{
  "lastUpdated": "2026-02-18T01:31:55.260808+00:00",
  "kcps": {
    "metar": "KCPS 180053Z 19013G25KT 10SM OVC019 13/10 A2969 RMK AO2 SLP054 T01330100 $",
    "windDirection": 190,
    "windSpeed": 13,
    "windGust": 25,
    "visibility": 10,
    "temperatureC": 13,
    "dewPointC": 10,
    "cloudCeiling": 1900,
    "altimeter": "A2969",
    "timestamp": "2026-02-18T00:53:00+00:00",
    "station": "KCPS"
  },
  "kstl": {
    "metar": "KSTL 180051Z 18016G28KT 10SM BKN015 OVC150 13/10 A2968 RMK AO2 PK WND 18031/0003 SLP053 T01280100 $",
    "windDirection": 180,
    "windSpeed": 16,
    "windGust": 28,
    "visibility": 10,
    "temperatureC": 13,
    "dewPointC": 10,
    "cloudCeiling": 1500,
    "altimeter": "A2968",
    "timestamp": "2026-02-18T00:51:00+00:00",
    "station": "KSTL"
  }
}