{
  "lastUpdated": "2025-10-17T21:02:24.542436+00:00",
  "kcps": {
    "metar": "KCPS 172053Z 16006KT 10SM CLR 28/14 A2981 RMK AO2 SLP091 T02780144 56036",
    "windDirection": 160,
    "windSpeed": 6,
    "windGust": null,
    "visibility": 10,
    "temperatureC": 28,
    "dewPointC": 14,
    "cloudCeiling": 99999,
    "altimeter": "A2981",
    "timestamp": "2025-10-17T20:53:00+00:00",
    "station": "KCPS"
  },
  "kstl": {
    "metar": "KSTL 172051Z 13009KT 10SM FEW050 BKN200 28/14 A2981 RMK AO2 SLP086 T02780144 56033 $",
    "windDirection": 130,
    "windSpeed": 9,
    "windGust": null,
    "visibility": 10,
    "temperatureC": 28,
    "dewPointC": 14,
    "cloudCeiling": 20000,
    "altimeter": "A2981",
    "timestamp": "2025-10-17T20:51:00+00:00",
    "station": "KSTL"
  }
}