{
  "lastUpdated": "2026-04-16T03:52:17.259466+00:00",
  "kcps": {
    "metar": "KCPS 160330Z AUTO 29020G29KT 1 3/4SM TSRA BR SCT014 BKN039 OVC055 19/18 A2990 RMK AO2 PK WND 27029/0327 LTG DSNT W-NE RAB19 TSB12 PRESRR P0022 T01940178 $",
    "windDirection": 290,
    "windSpeed": 20,
    "windGust": 29,
    "visibility": 0.75,
    "temperatureC": 19,
    "dewPointC": 18,
    "cloudCeiling": 3900,
    "altimeter": "A2990",
    "timestamp": "2026-04-16T03:30:00+00:00",
    "station": "KCPS"
  },
  "kstl": {
    "metar": "KSTL 160339Z 30006KT 10SM -RA FEW005 BKN038 OVC065 17/17 A2989 RMK AO2 TSE39 P0063 T01720167",
    "windDirection": 300,
    "windSpeed": 6,
    "windGust": null,
    "visibility": 10,
    "temperatureC": 17,
    "dewPointC": 17,
    "cloudCeiling": 3800,
    "altimeter": "A2989",
    "timestamp": "2026-04-16T03:39:00+00:00",
    "station": "KSTL"
  }
}