{
  "lastUpdated": "2026-06-08T08:52:17.736095+00:00",
  "kcps": {
    "metar": "KCPS 080703Z AUTO 15006KT 10SM BKN024 24/21 A2987 RMK AO2 T02440211 $",
    "windDirection": 150,
    "windSpeed": 6,
    "windGust": null,
    "visibility": 10,
    "temperatureC": 24,
    "dewPointC": 21,
    "cloudCeiling": 2400,
    "altimeter": "A2987",
    "timestamp": "2026-06-08T07:03:00+00:00",
    "station": "KCPS"
  },
  "kstl": {
    "metar": "KSTL 080836Z 14007KT 10SM SCT020 BKN130 24/22 A2987 RMK AO2 T02390217 $",
    "windDirection": 140,
    "windSpeed": 7,
    "windGust": null,
    "visibility": 10,
    "temperatureC": 24,
    "dewPointC": 22,
    "cloudCeiling": 13000,
    "altimeter": "A2987",
    "timestamp": "2026-06-08T08:36:00+00:00",
    "station": "KSTL"
  }
}