{
  "lastUpdated": "2026-03-27T11:02:22.461606+00:00",
  "kcps": {
    "metar": "KCPS 271053Z AUTO 01020G33KT 6SM RA BR BKN016 BKN055 OVC110 04/03 A3015 RMK AO2 PK WND 01033/1046 PRESFR SLP208 P0009 T00440033 $",
    "windDirection": 10,
    "windSpeed": 20,
    "windGust": 33,
    "visibility": 6,
    "temperatureC": 4,
    "dewPointC": 3,
    "cloudCeiling": 1600,
    "altimeter": "A3015",
    "timestamp": "2026-03-27T10:53:00+00:00",
    "station": "KCPS"
  },
  "kstl": {
    "metar": "KSTL 271051Z 02019G27KT 10SM -RA FEW015 BKN030 OVC110 04/02 A3017 RMK AO2 PK WND 02027/1048 SLP211 P0010 T00440022 $",
    "windDirection": 20,
    "windSpeed": 19,
    "windGust": 27,
    "visibility": 10,
    "temperatureC": 4,
    "dewPointC": 2,
    "cloudCeiling": 3000,
    "altimeter": "A3017",
    "timestamp": "2026-03-27T10:51:00+00:00",
    "station": "KSTL"
  }
}