{
  "lastUpdated": "2026-06-10T01:40:36.818868+00:00",
  "kcps": {
    "metar": "KCPS 100053Z 20004KT 10SM CLR 32/24 A2988 RMK AO2 SLP112 T03170244 $",
    "windDirection": 200,
    "windSpeed": 4,
    "windGust": null,
    "visibility": 10,
    "temperatureC": 32,
    "dewPointC": 24,
    "cloudCeiling": 99999,
    "altimeter": "A2988",
    "timestamp": "2026-06-10T00:53:00+00:00",
    "station": "KCPS"
  },
  "kstl": {
    "metar": "KSTL 100051Z 21006KT 10SM FEW045 FEW180 SCT250 31/24 A2989 RMK AO2 SLP108 T03110244 $",
    "windDirection": 210,
    "windSpeed": 6,
    "windGust": null,
    "visibility": 10,
    "temperatureC": 31,
    "dewPointC": 24,
    "cloudCeiling": null,
    "altimeter": "A2989",
    "timestamp": "2026-06-10T00:51:00+00:00",
    "station": "KSTL"
  }
}