{
  "lastUpdated": "2026-04-29T01:53:40.735032+00:00",
  "kcps": {
    "metar": "KCPS 290151Z 35007KT 4SM VCTS -RA BR SCT042 BKN070 OVC100 14/13 A2990 RMK AO2 LTG DSNT E AND SW AND W RAB24 TSB24E45 P0013 $",
    "windDirection": 350,
    "windSpeed": 7,
    "windGust": null,
    "visibility": 4,
    "temperatureC": 14,
    "dewPointC": 13,
    "cloudCeiling": 7000,
    "altimeter": "A2990",
    "timestamp": "2026-04-29T01:51:00+00:00",
    "station": "KCPS"
  },
  "kstl": {
    "metar": "KSTL 290151Z 31004KT 7SM -RA OVC022 15/12 A2992 RMK AO2 RAB37 TSB27E47 SLP128 OCNL LTGCCCG DSNT SE CB DSNT SE MOV E P",
    "windDirection": 310,
    "windSpeed": 4,
    "windGust": null,
    "visibility": 7,
    "temperatureC": 15,
    "dewPointC": 12,
    "cloudCeiling": 2200,
    "altimeter": "A2992",
    "timestamp": "2026-04-29T01:51:00+00:00",
    "station": "KSTL"
  }
}