{
  "lastUpdated": "2025-12-04T19:33:22.139005+00:00",
  "kcps": {
    "metar": "KCPS 041853Z 04007KT 10SM CLR M05/M13 A3037 RMK AO2 SLP288 T10501133",
    "windDirection": 40,
    "windSpeed": 7,
    "windGust": null,
    "visibility": 10,
    "temperatureC": -5,
    "dewPointC": -13,
    "cloudCeiling": 99999,
    "altimeter": "A3037",
    "timestamp": "2025-12-04T18:53:00+00:00",
    "station": "KCPS"
  },
  "kstl": {
    "metar": "KSTL 041851Z 35003KT 10SM FEW130 FEW250 M05/M12 A3035 RMK AO2 SLP292 T10501122 $",
    "windDirection": 350,
    "windSpeed": 3,
    "windGust": null,
    "visibility": 10,
    "temperatureC": -5,
    "dewPointC": -12,
    "cloudCeiling": null,
    "altimeter": "A3035",
    "timestamp": "2025-12-04T18:51:00+00:00",
    "station": "KSTL"
  }
}