{
  "lastUpdated": "2026-02-25T03:51:52.811757+00:00",
  "kcps": {
    "metar": "KCPS 250253Z 17005KT 10SM CLR 06/M04 A2968 RMK AO2 SLP053 T00611044 53014 $",
    "windDirection": 170,
    "windSpeed": 5,
    "windGust": null,
    "visibility": 10,
    "temperatureC": 6,
    "dewPointC": -4,
    "cloudCeiling": 99999,
    "altimeter": "A2968",
    "timestamp": "2026-02-25T02:53:00+00:00",
    "station": "KCPS"
  },
  "kstl": {
    "metar": "KSTL 250251Z 20008KT 10SM OVC090 09/M05 A2966 RMK AO2 SLP051 T00941050 53013 $",
    "windDirection": 200,
    "windSpeed": 8,
    "windGust": null,
    "visibility": 10,
    "temperatureC": 9,
    "dewPointC": -5,
    "cloudCeiling": 9000,
    "altimeter": "A2966",
    "timestamp": "2026-02-25T02:51:00+00:00",
    "station": "KSTL"
  }
}