{
  "lastUpdated": "2026-04-21T09:50:14.425528+00:00",
  "kcps": {
    "metar": "KCPS 210853Z AUTO VRB03KT 10SM CLR 14/06 A3011 RMK AO2 SLP193 T01440061 55009 $",
    "windDirection": null,
    "windSpeed": null,
    "windGust": null,
    "visibility": 10,
    "temperatureC": 14,
    "dewPointC": 6,
    "cloudCeiling": 99999,
    "altimeter": "A3011",
    "timestamp": "2026-04-21T08:53:00+00:00",
    "station": "KCPS"
  },
  "kstl": {
    "metar": "KSTL 210851Z 22009KT 10SM SCT250 14/04 A3011 RMK AO2 SLP190 T01440044 55007 $",
    "windDirection": 220,
    "windSpeed": 9,
    "windGust": null,
    "visibility": 10,
    "temperatureC": 14,
    "dewPointC": 4,
    "cloudCeiling": null,
    "altimeter": "A3011",
    "timestamp": "2026-04-21T08:51:00+00:00",
    "station": "KSTL"
  }
}