{
  "lastUpdated": "2026-04-10T11:44:54.306412+00:00",
  "kcps": {
    "metar": "KCPS 101053Z 20003KT 10SM SCT075 OVC110 18/09 A3018 RMK AO2 SLP216 T01830089 $",
    "windDirection": 200,
    "windSpeed": 3,
    "windGust": null,
    "visibility": 10,
    "temperatureC": 18,
    "dewPointC": 9,
    "cloudCeiling": 11000,
    "altimeter": "A3018",
    "timestamp": "2026-04-10T10:53:00+00:00",
    "station": "KCPS"
  },
  "kstl": {
    "metar": "KSTL 101051Z 20008KT 10SM SCT070 BKN110 BKN230 19/09 A3017 RMK AO2 SLP207 T01890089 $",
    "windDirection": 200,
    "windSpeed": 8,
    "windGust": null,
    "visibility": 10,
    "temperatureC": 19,
    "dewPointC": 9,
    "cloudCeiling": 11000,
    "altimeter": "A3017",
    "timestamp": "2026-04-10T10:51:00+00:00",
    "station": "KSTL"
  }
}