{
  "lastUpdated": "2026-04-13T03:55:02.751545+00:00",
  "kcps": {
    "metar": "KCPS 130253Z 21010G19KT 10SM CLR 23/14 A2993 RMK AO2 PK WND 21028/0200 SLP130 T02280144 53013 $",
    "windDirection": 210,
    "windSpeed": 10,
    "windGust": 19,
    "visibility": 10,
    "temperatureC": 23,
    "dewPointC": 14,
    "cloudCeiling": 99999,
    "altimeter": "A2993",
    "timestamp": "2026-04-13T02:53:00+00:00",
    "station": "KCPS"
  },
  "kstl": {
    "metar": "KSTL 130351Z 21011KT 10SM FEW040 OVC250 22/15 A2993 RMK AO2 SLP127 T02170150 $",
    "windDirection": 210,
    "windSpeed": 11,
    "windGust": null,
    "visibility": 10,
    "temperatureC": 22,
    "dewPointC": 15,
    "cloudCeiling": 25000,
    "altimeter": "A2993",
    "timestamp": "2026-04-13T03:51:00+00:00",
    "station": "KSTL"
  }
}