{
  "lastUpdated": "2026-04-12T23:16:11.683220+00:00",
  "kcps": {
    "metar": "KCPS 122253Z 19014G33KT 10SM BKN085 BKN100 25/11 A2989 RMK AO2 PK WND 18033/2251 SLP119 T02500111 $",
    "windDirection": 190,
    "windSpeed": 14,
    "windGust": 33,
    "visibility": 10,
    "temperatureC": 25,
    "dewPointC": 11,
    "cloudCeiling": 8500,
    "altimeter": "A2989",
    "timestamp": "2026-04-12T22:53:00+00:00",
    "station": "KCPS"
  },
  "kstl": {
    "metar": "KSTL 122251Z 18018G27KT 10SM FEW065 BKN110 BKN250 24/11 A2988 RMK AO2 PK WND 17030/2214 SLP111 T02440111 $",
    "windDirection": 180,
    "windSpeed": 18,
    "windGust": 27,
    "visibility": 10,
    "temperatureC": 24,
    "dewPointC": 11,
    "cloudCeiling": 11000,
    "altimeter": "A2988",
    "timestamp": "2026-04-12T22:51:00+00:00",
    "station": "KSTL"
  }
}