{
  "lastUpdated": "2025-11-05T23:21:15.353712+00:00",
  "kcps": {
    "metar": "KCPS 052253Z 35013KT 10SM CLR 17/04 A3018 RMK AO2 SLP219 T01720044 $",
    "windDirection": 350,
    "windSpeed": 13,
    "windGust": null,
    "visibility": 10,
    "temperatureC": 17,
    "dewPointC": 4,
    "cloudCeiling": 99999,
    "altimeter": "A3018",
    "timestamp": "2025-11-05T22:53:00+00:00",
    "station": "KCPS"
  },
  "kstl": {
    "metar": "KSTL 052251Z 36008KT 10SM CLR 16/04 A3019 RMK AO2 SLP220 T01610039 $",
    "windDirection": 360,
    "windSpeed": 8,
    "windGust": null,
    "visibility": 10,
    "temperatureC": 16,
    "dewPointC": 4,
    "cloudCeiling": 99999,
    "altimeter": "A3019",
    "timestamp": "2025-11-05T22:51:00+00:00",
    "station": "KSTL"
  }
}