{
  "lastUpdated": "2025-12-28T22:21:23.231721+00:00",
  "kcps": {
    "metar": "KCPS 282153Z 29021G34KT 10SM -RA FEW023 SCT100 16/11 A2961 RMK AO2 PK WND 32040/2130 WSHFT 2105 RAB14 PRESRR SLP026 P0000 T01610111 $",
    "windDirection": 290,
    "windSpeed": 21,
    "windGust": 34,
    "visibility": 10,
    "temperatureC": 16,
    "dewPointC": 11,
    "cloudCeiling": null,
    "altimeter": "A2961",
    "timestamp": "2025-12-28T21:53:00+00:00",
    "station": "KCPS"
  },
  "kstl": {
    "metar": "KSTL 282154Z 30022G36KT 10SM BKN016 OVC033 12/08 A2965 RMK AO2 PK WND 29036/2154 PRESRR T01170078 $",
    "windDirection": 300,
    "windSpeed": 22,
    "windGust": 36,
    "visibility": 10,
    "temperatureC": 12,
    "dewPointC": 8,
    "cloudCeiling": 1600,
    "altimeter": "A2965",
    "timestamp": "2025-12-28T21:54:00+00:00",
    "station": "KSTL"
  }
}