{
  "lastUpdated": "2025-12-04T05:36:25.895771+00:00",
  "kcps": {
    "metar": "KCPS 040503Z AUTO 36010KT 8SM BKN014 OVC019 02/M01 A3023 RMK AO2 T00171006 $",
    "windDirection": 360,
    "windSpeed": 10,
    "windGust": null,
    "visibility": 8,
    "temperatureC": 2,
    "dewPointC": -1,
    "cloudCeiling": 1400,
    "altimeter": "A3023",
    "timestamp": "2025-12-04T05:03:00+00:00",
    "station": "KCPS"
  },
  "kstl": {
    "metar": "KSTL 040451Z 35011KT 7SM OVC010 01/M02 A3023 RMK AO2 SLP249 T00061017 $",
    "windDirection": 350,
    "windSpeed": 11,
    "windGust": null,
    "visibility": 7,
    "temperatureC": 1,
    "dewPointC": -2,
    "cloudCeiling": 1000,
    "altimeter": "A3023",
    "timestamp": "2025-12-04T04:51:00+00:00",
    "station": "KSTL"
  }
}