{
  "lastUpdated": "2026-01-03T09:34:40.266807+00:00",
  "kcps": {
    "metar": "KCPS 030853Z 02004KT 10SM CLR M02/M06 A3002 RMK AO2 SLP168 T10171056 53002 $",
    "windDirection": 20,
    "windSpeed": 4,
    "windGust": null,
    "visibility": 10,
    "temperatureC": -2,
    "dewPointC": -6,
    "cloudCeiling": 99999,
    "altimeter": "A3002",
    "timestamp": "2026-01-03T08:53:00+00:00",
    "station": "KCPS"
  },
  "kstl": {
    "metar": "KSTL 030851Z 01006KT 10SM OVC200 M02/M06 A3002 RMK AO2 SLP176 T10171056 53004 $",
    "windDirection": 10,
    "windSpeed": 6,
    "windGust": null,
    "visibility": 10,
    "temperatureC": -2,
    "dewPointC": -6,
    "cloudCeiling": 20000,
    "altimeter": "A3002",
    "timestamp": "2026-01-03T08:51:00+00:00",
    "station": "KSTL"
  }
}