{
  "lastUpdated": "2025-11-21T17:46:41.837699+00:00",
  "kcps": {
    "metar": "KCPS 211724Z 11003KT 4SM -RA BR BKN005 OVC010 14/13 A2990 RMK AO2 P0001 T01390133 $",
    "windDirection": 110,
    "windSpeed": 3,
    "windGust": null,
    "visibility": 4,
    "temperatureC": 14,
    "dewPointC": 13,
    "cloudCeiling": 500,
    "altimeter": "A2990",
    "timestamp": "2025-11-21T17:24:00+00:00",
    "station": "KCPS"
  },
  "kstl": {
    "metar": "KSTL 211744Z 05006KT 4SM BR OVC004 13/12 A2989 RMK AO2 RAE44 P0004 T01330122 $",
    "windDirection": 50,
    "windSpeed": 6,
    "windGust": null,
    "visibility": 4,
    "temperatureC": 13,
    "dewPointC": 12,
    "cloudCeiling": 400,
    "altimeter": "A2989",
    "timestamp": "2025-11-21T17:44:00+00:00",
    "station": "KSTL"
  }
}