{
  "lastUpdated": "2025-12-07T06:40:03.126042+00:00",
  "kcps": {
    "metar": "KCPS 070635Z AUTO 19004KT 7SM BKN011 BKN100 03/01 A2994 RMK AO2 T00280011 $",
    "windDirection": 190,
    "windSpeed": 4,
    "windGust": null,
    "visibility": 7,
    "temperatureC": 3,
    "dewPointC": 1,
    "cloudCeiling": 1100,
    "altimeter": "A2994",
    "timestamp": "2025-12-07T06:35:00+00:00",
    "station": "KCPS"
  },
  "kstl": {
    "metar": "KSTL 070551Z 16006KT 10SM OVC095 04/01 A2992 RMK AO2 SLP137 4/001 T00390006 10067 20039 400831017 53010 $",
    "windDirection": 160,
    "windSpeed": 6,
    "windGust": null,
    "visibility": 10,
    "temperatureC": 4,
    "dewPointC": 1,
    "cloudCeiling": 9500,
    "altimeter": "A2992",
    "timestamp": "2025-12-07T05:51:00+00:00",
    "station": "KSTL"
  }
}