{
  "lastUpdated": "2025-11-27T08:40:02.952887+00:00",
  "kcps": {
    "metar": "KCPS 270753Z AUTO 29008KT 10SM CLR 02/M06 A3033 RMK AO2 SLP274 T00221061 $",
    "windDirection": 290,
    "windSpeed": 8,
    "windGust": null,
    "visibility": 10,
    "temperatureC": 2,
    "dewPointC": -6,
    "cloudCeiling": 99999,
    "altimeter": "A3033",
    "timestamp": "2025-11-27T07:53:00+00:00",
    "station": "KCPS"
  },
  "kstl": {
    "metar": "KSTL 270751Z 29007KT 10SM FEW130 SCT170 BKN230 01/M06 A3033 RMK AO2 SLP277 T00111056 $",
    "windDirection": 290,
    "windSpeed": 7,
    "windGust": null,
    "visibility": 10,
    "temperatureC": 1,
    "dewPointC": -6,
    "cloudCeiling": 23000,
    "altimeter": "A3033",
    "timestamp": "2025-11-27T07:51:00+00:00",
    "station": "KSTL"
  }
}