{
  "lastUpdated": "2026-04-12T00:14:40.604502+00:00",
  "kcps": {
    "metar": "KCPS 112353Z 15004KT 10SM CLR 21/14 A3017 RMK AO2 SLP217 60000 T02060144 10217 20194 56016 $",
    "windDirection": 150,
    "windSpeed": 4,
    "windGust": null,
    "visibility": 10,
    "temperatureC": 21,
    "dewPointC": 14,
    "cloudCeiling": 99999,
    "altimeter": "A3017",
    "timestamp": "2026-04-11T23:53:00+00:00",
    "station": "KCPS"
  },
  "kstl": {
    "metar": "KSTL 112351Z 13009KT 10SM SCT090 BKN120 BKN220 20/14 A3018 RMK AO2 SLP218 60000 T02000139 10211 20183 56016 $",
    "windDirection": 130,
    "windSpeed": 9,
    "windGust": null,
    "visibility": 10,
    "temperatureC": 20,
    "dewPointC": 14,
    "cloudCeiling": 12000,
    "altimeter": "A3018",
    "timestamp": "2026-04-11T23:51:00+00:00",
    "station": "KSTL"
  }
}