{
  "lastUpdated": "2025-10-22T00:07:21.981961+00:00",
  "kcps": {
    "metar": "KCPS 212353Z 29010G16KT 10SM CLR 16/01 A2997 RMK AO2 PK WND 29027/2254 SLP146 T01560006 10194 20156 53016",
    "windDirection": 290,
    "windSpeed": 10,
    "windGust": 16,
    "visibility": 10,
    "temperatureC": 16,
    "dewPointC": 1,
    "cloudCeiling": 99999,
    "altimeter": "A2997",
    "timestamp": "2025-10-21T23:53:00+00:00",
    "station": "KCPS"
  },
  "kstl": {
    "metar": "KSTL 212351Z 29010KT 10SM FEW050 14/01 A2997 RMK AO2 PK WND 28027/2254 SLP148 T01440006 10183 20144 53017 $",
    "windDirection": 290,
    "windSpeed": 10,
    "windGust": null,
    "visibility": 10,
    "temperatureC": 14,
    "dewPointC": 1,
    "cloudCeiling": null,
    "altimeter": "A2997",
    "timestamp": "2025-10-21T23:51:00+00:00",
    "station": "KSTL"
  }
}