{
  "lastUpdated": "2026-02-02T15:21:45.115011+00:00",
  "kcps": {
    "metar": "KCPS 021453Z 00000KT 10SM OVC045 M01/M07 A3021 RMK AO2 SLP234 T10061067 51009 $",
    "windDirection": 0,
    "windSpeed": 0,
    "windGust": null,
    "visibility": 10,
    "temperatureC": -1,
    "dewPointC": -7,
    "cloudCeiling": 4500,
    "altimeter": "A3021",
    "timestamp": "2026-02-02T14:53:00+00:00",
    "station": "KCPS"
  },
  "kstl": {
    "metar": "KSTL 021451Z 25005KT 10SM OVC043 00/M06 A3020 RMK AO2 SLP237 T00001056 51007 $",
    "windDirection": 250,
    "windSpeed": 5,
    "windGust": null,
    "visibility": 10,
    "temperatureC": 0,
    "dewPointC": -6,
    "cloudCeiling": 4300,
    "altimeter": "A3020",
    "timestamp": "2026-02-02T14:51:00+00:00",
    "station": "KSTL"
  }
}