{
  "lastUpdated": "2025-12-14T19:20:37.484144+00:00",
  "kcps": {
    "metar": "KCPS 141853Z 35007KT 10SM CLR M09/M19 A3072 RMK AO2 SLP410 T10891194 $",
    "windDirection": 350,
    "windSpeed": 7,
    "windGust": null,
    "visibility": 10,
    "temperatureC": -9,
    "dewPointC": -19,
    "cloudCeiling": 99999,
    "altimeter": "A3072",
    "timestamp": "2025-12-14T18:53:00+00:00",
    "station": "KCPS"
  },
  "kstl": {
    "metar": "KSTL 141851Z 34008KT 10SM SCT250 M09/M19 A3071 RMK AO2 SLP421 T10941194 $",
    "windDirection": 340,
    "windSpeed": 8,
    "windGust": null,
    "visibility": 10,
    "temperatureC": -9,
    "dewPointC": -19,
    "cloudCeiling": null,
    "altimeter": "A3071",
    "timestamp": "2025-12-14T18:51:00+00:00",
    "station": "KSTL"
  }
}