{
  "lastUpdated": "2025-12-15T10:03:06.115526+00:00",
  "kcps": {
    "metar": "KCPS 150953Z AUTO 16005KT 10SM CLR M11/M16 A3052 RMK AO2 SLP341 T11111161 $",
    "windDirection": 160,
    "windSpeed": 5,
    "windGust": null,
    "visibility": 10,
    "temperatureC": -11,
    "dewPointC": -16,
    "cloudCeiling": 99999,
    "altimeter": "A3052",
    "timestamp": "2025-12-15T09:53:00+00:00",
    "station": "KCPS"
  },
  "kstl": {
    "metar": "KSTL 150951Z 17008KT 10SM CLR M11/M17 A3049 RMK AO2 SLP344 T11061167 $",
    "windDirection": 170,
    "windSpeed": 8,
    "windGust": null,
    "visibility": 10,
    "temperatureC": -11,
    "dewPointC": -17,
    "cloudCeiling": 99999,
    "altimeter": "A3049",
    "timestamp": "2025-12-15T09:51:00+00:00",
    "station": "KSTL"
  }
}