{
  "lastUpdated": "2026-01-23T12:24:03.868415+00:00",
  "kcps": {
    "metar": "KCPS 231053Z AUTO 35012KT 10SM CLR M08/M19 A3051 RMK AO2 SLP337 T10781194 $",
    "windDirection": 350,
    "windSpeed": 12,
    "windGust": null,
    "visibility": 10,
    "temperatureC": -8,
    "dewPointC": -19,
    "cloudCeiling": 99999,
    "altimeter": "A3051",
    "timestamp": "2026-01-23T10:53:00+00:00",
    "station": "KCPS"
  },
  "kstl": {
    "metar": "KSTL 231151Z 36014G25KT 10SM SCT150 BKN250 M11/M23 A3054 RMK AO2 SLP356 T11111233 11028 21111 53027 $",
    "windDirection": 360,
    "windSpeed": 14,
    "windGust": 25,
    "visibility": 10,
    "temperatureC": -11,
    "dewPointC": -23,
    "cloudCeiling": 25000,
    "altimeter": "A3054",
    "timestamp": "2026-01-23T11:51:00+00:00",
    "station": "KSTL"
  }
}