{
  "lastUpdated": "2026-01-01T12:44:18.949180+00:00",
  "kcps": {
    "metar": "KCPS 011153Z AUTO 00000KT 6SM BR CLR M06/M06 A2999 RMK AO2 SLP162 I1000 I6000 T10561061 11033 21056 53004 $",
    "windDirection": 0,
    "windSpeed": 0,
    "windGust": null,
    "visibility": 6,
    "temperatureC": -6,
    "dewPointC": -6,
    "cloudCeiling": 99999,
    "altimeter": "A2999",
    "timestamp": "2026-01-01T11:53:00+00:00",
    "station": "KCPS"
  },
  "kstl": {
    "metar": "KSTL 011237Z 03007KT 10SM OVC011 01/M01 A3002 RMK AO2 T00111006 $",
    "windDirection": 30,
    "windSpeed": 7,
    "windGust": null,
    "visibility": 10,
    "temperatureC": 1,
    "dewPointC": -1,
    "cloudCeiling": 1100,
    "altimeter": "A3002",
    "timestamp": "2026-01-01T12:37:00+00:00",
    "station": "KSTL"
  }
}