{
  "lastUpdated": "2026-01-07T04:57:49.752101+00:00",
  "kcps": {
    "metar": "KCPS 070353Z 29004KT 10SM CLR 11/03 A2986 RMK AO2 SLP111 T01110033 $",
    "windDirection": 290,
    "windSpeed": 4,
    "windGust": null,
    "visibility": 10,
    "temperatureC": 11,
    "dewPointC": 3,
    "cloudCeiling": 99999,
    "altimeter": "A2986",
    "timestamp": "2026-01-07T03:53:00+00:00",
    "station": "KCPS"
  },
  "kstl": {
    "metar": "KSTL 070451Z 30005KT 10SM CLR 07/03 A2988 RMK AO2 SLP118 T00720028 $",
    "windDirection": 300,
    "windSpeed": 5,
    "windGust": null,
    "visibility": 10,
    "temperatureC": 7,
    "dewPointC": 3,
    "cloudCeiling": 99999,
    "altimeter": "A2988",
    "timestamp": "2026-01-07T04:51:00+00:00",
    "station": "KSTL"
  }
}