{
  "lastUpdated": "2026-04-01T05:16:07.593208+00:00",
  "kcps": {
    "metar": "KCPS 010453Z AUTO 20004KT 10SM BKN085 22/11 A2991 RMK AO2 SLP126 T02220111 $",
    "windDirection": 200,
    "windSpeed": 4,
    "windGust": null,
    "visibility": 10,
    "temperatureC": 22,
    "dewPointC": 11,
    "cloudCeiling": 8500,
    "altimeter": "A2991",
    "timestamp": "2026-04-01T04:53:00+00:00",
    "station": "KCPS"
  },
  "kstl": {
    "metar": "KSTL 010451Z 05003KT 10SM OVC075 21/16 A2993 RMK AO2 SLP125 T02060156 $",
    "windDirection": 50,
    "windSpeed": 3,
    "windGust": null,
    "visibility": 10,
    "temperatureC": 21,
    "dewPointC": 16,
    "cloudCeiling": 7500,
    "altimeter": "A2993",
    "timestamp": "2026-04-01T04:51:00+00:00",
    "station": "KSTL"
  }
}