{
  "lastUpdated": "2026-05-10T17:18:27.665238+00:00",
  "kcps": {
    "metar": "KCPS 101653Z 36009G17KT 10SM FEW100 19/06 A3010 RMK AO2 SLP192 T01940061 $",
    "windDirection": 360,
    "windSpeed": 9,
    "windGust": 17,
    "visibility": 10,
    "temperatureC": 19,
    "dewPointC": 6,
    "cloudCeiling": null,
    "altimeter": "A3010",
    "timestamp": "2026-05-10T16:53:00+00:00",
    "station": "KCPS"
  },
  "kstl": {
    "metar": "KSTL 101651Z 34010KT 10SM BKN110 BKN250 17/03 A3012 RMK AO2 SLP195 VCSH S T01720028 $",
    "windDirection": 340,
    "windSpeed": 10,
    "windGust": null,
    "visibility": 10,
    "temperatureC": 17,
    "dewPointC": 3,
    "cloudCeiling": 11000,
    "altimeter": "A3012",
    "timestamp": "2026-05-10T16:51:00+00:00",
    "station": "KSTL"
  }
}