{
  "lastUpdated": "2026-01-27T20:49:55.981509+00:00",
  "kcps": {
    "metar": "KCPS 271953Z 31012KT 10SM CLR M02/M13 A3030 RMK AO2 SLP264 T10171128 $",
    "windDirection": 310,
    "windSpeed": 12,
    "windGust": null,
    "visibility": 10,
    "temperatureC": -2,
    "dewPointC": -13,
    "cloudCeiling": 99999,
    "altimeter": "A3030",
    "timestamp": "2026-01-27T19:53:00+00:00",
    "station": "KCPS"
  },
  "kstl": {
    "metar": "KSTL 271951Z 31013KT 10SM BKN250 M03/M11 A3029 RMK AO2 SLP273 T10281111 $",
    "windDirection": 310,
    "windSpeed": 13,
    "windGust": null,
    "visibility": 10,
    "temperatureC": -3,
    "dewPointC": -11,
    "cloudCeiling": 25000,
    "altimeter": "A3029",
    "timestamp": "2026-01-27T19:51:00+00:00",
    "station": "KSTL"
  }
}