{
  "lastUpdated": "2026-01-25T09:47:50.606235+00:00",
  "kcps": {
    "metar": "KCPS 250926Z AUTO 02012KT 1SM BR VV010 M13/M15 A3014 RMK AO2 T11281150 PWINO FZRANO $",
    "windDirection": 20,
    "windSpeed": 12,
    "windGust": null,
    "visibility": 1,
    "temperatureC": -13,
    "dewPointC": -15,
    "cloudCeiling": 1000,
    "altimeter": "A3014",
    "timestamp": "2026-01-25T09:26:00+00:00",
    "station": "KCPS"
  },
  "kstl": {
    "metar": "KSTL 250943Z 01009KT 3/4SM R30R/P6000FT -SN OVC022 M13/M16 A3014 RMK AO2 P0006 T11281156 $",
    "windDirection": 10,
    "windSpeed": 9,
    "windGust": null,
    "visibility": 0.75,
    "temperatureC": -13,
    "dewPointC": -16,
    "cloudCeiling": 2200,
    "altimeter": "A3014",
    "timestamp": "2026-01-25T09:43:00+00:00",
    "station": "KSTL"
  }
}