{
  "lastUpdated": "2026-05-15T14:31:28.658248+00:00",
  "kcps": {
    "metar": "KCPS 151353Z 14009KT 10SM BKN085 BKN110 18/08 A2995 RMK AO2 SLP139 T01780078 $",
    "windDirection": 140,
    "windSpeed": 9,
    "windGust": null,
    "visibility": 10,
    "temperatureC": 18,
    "dewPointC": 8,
    "cloudCeiling": 8500,
    "altimeter": "A2995",
    "timestamp": "2026-05-15T13:53:00+00:00",
    "station": "KCPS"
  },
  "kstl": {
    "metar": "KSTL 151351Z 12012KT 10SM SCT075 BKN210 17/07 A2994 RMK AO2 SLP134 T01720072 $",
    "windDirection": 120,
    "windSpeed": 12,
    "windGust": null,
    "visibility": 10,
    "temperatureC": 17,
    "dewPointC": 7,
    "cloudCeiling": 21000,
    "altimeter": "A2994",
    "timestamp": "2026-05-15T13:51:00+00:00",
    "station": "KSTL"
  }
}