{
  "lastUpdated": "2026-05-20T19:33:09.725582+00:00",
  "kcps": {
    "metar": "KCPS 201900Z 33010KT 10SM FEW027 OVC048 18/12 A3018 RMK AO2 T01780117 PNO $",
    "windDirection": 330,
    "windSpeed": 10,
    "windGust": null,
    "visibility": 10,
    "temperatureC": 18,
    "dewPointC": 12,
    "cloudCeiling": 4800,
    "altimeter": "A3018",
    "timestamp": "2026-05-20T19:00:00+00:00",
    "station": "KCPS"
  },
  "kstl": {
    "metar": "KSTL 201851Z 35008KT 10SM FEW024 OVC048 17/11 A3020 RMK AO2 SLP222 T01720111 $",
    "windDirection": 350,
    "windSpeed": 8,
    "windGust": null,
    "visibility": 10,
    "temperatureC": 17,
    "dewPointC": 11,
    "cloudCeiling": 4800,
    "altimeter": "A3020",
    "timestamp": "2026-05-20T18:51:00+00:00",
    "station": "KSTL"
  }
}