{
  "lastUpdated": "2025-11-04T17:33:48.544849+00:00",
  "kcps": {
    "metar": "KCPS 041653Z 17010G19KT 10SM CLR 19/08 A3022 RMK AO2 SLP235 T01940083",
    "windDirection": 170,
    "windSpeed": 10,
    "windGust": 19,
    "visibility": 10,
    "temperatureC": 19,
    "dewPointC": 8,
    "cloudCeiling": 99999,
    "altimeter": "A3022",
    "timestamp": "2025-11-04T16:53:00+00:00",
    "station": "KCPS"
  },
  "kstl": {
    "metar": "KSTL 041651Z 16011KT 10SM FEW150 BKN250 19/09 A3022 RMK AO2 SLP233 T01890089",
    "windDirection": 160,
    "windSpeed": 11,
    "windGust": null,
    "visibility": 10,
    "temperatureC": 19,
    "dewPointC": 9,
    "cloudCeiling": 25000,
    "altimeter": "A3022",
    "timestamp": "2025-11-04T16:51:00+00:00",
    "station": "KSTL"
  }
}