{
  "lastUpdated": "2025-10-26T13:46:44.147901+00:00",
  "kcps": {
    "metar": "KCPS 261253Z 08009KT 10SM OVC070 11/08 A3019 RMK AO2 SLP222 T01110078 $",
    "windDirection": 80,
    "windSpeed": 9,
    "windGust": null,
    "visibility": 10,
    "temperatureC": 11,
    "dewPointC": 8,
    "cloudCeiling": 7000,
    "altimeter": "A3019",
    "timestamp": "2025-10-26T12:53:00+00:00",
    "station": "KCPS"
  },
  "kstl": {
    "metar": "KSTL 261251Z 09009KT 10SM -RA OVC085 11/07 A3019 RMK AO2 RAB48 SLP224 P0000 T01060072 $",
    "windDirection": 90,
    "windSpeed": 9,
    "windGust": null,
    "visibility": 10,
    "temperatureC": 11,
    "dewPointC": 7,
    "cloudCeiling": 8500,
    "altimeter": "A3019",
    "timestamp": "2025-10-26T12:51:00+00:00",
    "station": "KSTL"
  }
}