{
  "lastUpdated": "2026-04-09T07:30:09.096249+00:00",
  "kcps": {
    "metar": "KCPS 090653Z AUTO 18003KT 10SM CLR 16/06 A3014 RMK AO2 SLP204 T01610056 $",
    "windDirection": 180,
    "windSpeed": 3,
    "windGust": null,
    "visibility": 10,
    "temperatureC": 16,
    "dewPointC": 6,
    "cloudCeiling": 99999,
    "altimeter": "A3014",
    "timestamp": "2026-04-09T06:53:00+00:00",
    "station": "KCPS"
  },
  "kstl": {
    "metar": "KSTL 090651Z 19008KT 10SM CLR 17/05 A3014 RMK AO2 SLP198 T01720050 $",
    "windDirection": 190,
    "windSpeed": 8,
    "windGust": null,
    "visibility": 10,
    "temperatureC": 17,
    "dewPointC": 5,
    "cloudCeiling": 99999,
    "altimeter": "A3014",
    "timestamp": "2026-04-09T06:51:00+00:00",
    "station": "KSTL"
  }
}