{
  "lastUpdated": "2026-05-19T06:33:42.773478+00:00",
  "kcps": {
    "metar": "KCPS 190553Z AUTO 19004KT 10SM FEW038 19/17 A2998 RMK AO2 SLP152 60008 T01890167 10200 20183 402670183 51010 $",
    "windDirection": 190,
    "windSpeed": 4,
    "windGust": null,
    "visibility": 10,
    "temperatureC": 19,
    "dewPointC": 17,
    "cloudCeiling": null,
    "altimeter": "A2998",
    "timestamp": "2026-05-19T05:53:00+00:00",
    "station": "KCPS"
  },
  "kstl": {
    "metar": "KSTL 190551Z 15011KT 10SM FEW045 FEW250 19/17 A2998 RMK AO2 SLP145 60000 T01940172 10200 20189 402610183 50011 $",
    "windDirection": 150,
    "windSpeed": 11,
    "windGust": null,
    "visibility": 10,
    "temperatureC": 19,
    "dewPointC": 17,
    "cloudCeiling": null,
    "altimeter": "A2998",
    "timestamp": "2026-05-19T05:51:00+00:00",
    "station": "KSTL"
  }
}