{
  "lastUpdated": "2026-01-17T14:35:18.539632+00:00",
  "kcps": {
    "metar": "KCPS 171353Z 32011KT 7SM FEW025 OVC050 M06/M11 A3010 RMK AO2 SNB00E26 SLP196 P0000 T10611106 $",
    "windDirection": 320,
    "windSpeed": 11,
    "windGust": null,
    "visibility": 7,
    "temperatureC": -6,
    "dewPointC": -11,
    "cloudCeiling": 5000,
    "altimeter": "A3010",
    "timestamp": "2026-01-17T13:53:00+00:00",
    "station": "KCPS"
  },
  "kstl": {
    "metar": "KSTL 171351Z 29008KT 9SM -SN FEW027 OVC050 M07/M12 A3009 RMK AO2 SLP202 P0000 T10671117 $",
    "windDirection": 290,
    "windSpeed": 8,
    "windGust": null,
    "visibility": 9,
    "temperatureC": -7,
    "dewPointC": -12,
    "cloudCeiling": 5000,
    "altimeter": "A3009",
    "timestamp": "2026-01-17T13:51:00+00:00",
    "station": "KSTL"
  }
}