{
  "lastUpdated": "2026-02-02T14:13:58.243144+00:00",
  "kcps": {
    "metar": "KCPS 021353Z 00000KT 10SM OVC046 M02/M07 A3020 RMK AO2 SLP232 T10171067",
    "windDirection": 0,
    "windSpeed": 0,
    "windGust": null,
    "visibility": 10,
    "temperatureC": -2,
    "dewPointC": -7,
    "cloudCeiling": 4600,
    "altimeter": "A3020",
    "timestamp": "2026-02-02T13:53:00+00:00",
    "station": "KCPS"
  },
  "kstl": {
    "metar": "KSTL 021351Z 24005KT 10SM OVC043 M01/M06 A3020 RMK AO2 SLP238 T10061056 $",
    "windDirection": 240,
    "windSpeed": 5,
    "windGust": null,
    "visibility": 10,
    "temperatureC": -1,
    "dewPointC": -6,
    "cloudCeiling": 4300,
    "altimeter": "A3020",
    "timestamp": "2026-02-02T13:51:00+00:00",
    "station": "KSTL"
  }
}