{
  "lastUpdated": "2026-05-30T21:18:59.644202+00:00",
  "kcps": {
    "metar": "KCPS 302053Z 19004KT 10SM -RA SCT050 26/22 A2995 RMK AO2 LTG DSNT SE-W SLP140 P0000 60000 T02560217 55004 $",
    "windDirection": 190,
    "windSpeed": 4,
    "windGust": null,
    "visibility": 10,
    "temperatureC": 26,
    "dewPointC": 22,
    "cloudCeiling": null,
    "altimeter": "A2995",
    "timestamp": "2026-05-30T20:53:00+00:00",
    "station": "KCPS"
  },
  "kstl": {
    "metar": "KSTL 302051Z 09005KT 10SM SCT032 BKN140 BKN250 27/20 A2996 RMK AO2 RAB02E15 SLP136 VCSH S-W P0000 60000 T02670200 55006 $",
    "windDirection": 90,
    "windSpeed": 5,
    "windGust": null,
    "visibility": 10,
    "temperatureC": 27,
    "dewPointC": 20,
    "cloudCeiling": 14000,
    "altimeter": "A2996",
    "timestamp": "2026-05-30T20:51:00+00:00",
    "station": "KSTL"
  }
}