{
  "lastUpdated": "2026-06-13T15:20:46.788796+00:00",
  "kcps": {
    "metar": "KCPS 131453Z 16005KT 10SM CLR 23/20 A2994 RMK AO2 RAB29E41 SLP136 P0000 60000 T02330200 58014 $",
    "windDirection": 160,
    "windSpeed": 5,
    "windGust": null,
    "visibility": 10.0,
    "temperatureC": 23.3,
    "dewPointC": 20,
    "cloudCeiling": null,
    "altimeter": "A2994",
    "timestamp": "2026-06-13T15:00:00.000Z",
    "station": "KCPS"
  },
  "kstl": {
    "metar": "KSTL 131451Z 18012G20KT 10SM SCT050 BKN120 OVC200 23/20 A2995 RMK AO2 RAE18 SLP131 P0000 60001 T02330200 58010 $",
    "windDirection": 180,
    "windSpeed": 12,
    "windGust": 20,
    "visibility": 10.0,
    "temperatureC": 23.3,
    "dewPointC": 20,
    "cloudCeiling": 12000,
    "altimeter": "A2995",
    "timestamp": "2026-06-13T15:00:00.000Z",
    "station": "KSTL"
  }
}