{
  "lastUpdated": "2025-11-11T03:54:41.396428+00:00",
  "kcps": {
    "metar": "KCPS 110253Z 23003KT 10SM CLR M02/M09 A3035 RMK AO2 SLP282 T10171089 58009",
    "windDirection": 230,
    "windSpeed": 3,
    "windGust": null,
    "visibility": 10,
    "temperatureC": -2,
    "dewPointC": -9,
    "cloudCeiling": 99999,
    "altimeter": "A3035",
    "timestamp": "2025-11-11T02:53:00+00:00",
    "station": "KCPS"
  },
  "kstl": {
    "metar": "KSTL 110351Z 25005KT 10SM CLR M02/M09 A3033 RMK AO2 SLP283 T10171089 $",
    "windDirection": 250,
    "windSpeed": 5,
    "windGust": null,
    "visibility": 10,
    "temperatureC": -2,
    "dewPointC": -9,
    "cloudCeiling": 99999,
    "altimeter": "A3033",
    "timestamp": "2025-11-11T03:51:00+00:00",
    "station": "KSTL"
  }
}