{
  "lastUpdated": "2026-02-14T04:21:23.130345+00:00",
  "kcps": {
    "metar": "KCPS 140353Z 16005KT 10SM CLR 07/M03 A3009 RMK AO2 SLP189 T00721028 $",
    "windDirection": 160,
    "windSpeed": 5,
    "windGust": null,
    "visibility": 10,
    "temperatureC": 7,
    "dewPointC": -3,
    "cloudCeiling": 99999,
    "altimeter": "A3009",
    "timestamp": "2026-02-14T03:53:00+00:00",
    "station": "KCPS"
  },
  "kstl": {
    "metar": "KSTL 140351Z 18006KT 10SM FEW250 11/M03 A3008 RMK AO2 SLP187 T01061028 $",
    "windDirection": 180,
    "windSpeed": 6,
    "windGust": null,
    "visibility": 10,
    "temperatureC": 11,
    "dewPointC": -3,
    "cloudCeiling": null,
    "altimeter": "A3008",
    "timestamp": "2026-02-14T03:51:00+00:00",
    "station": "KSTL"
  }
}