{
  "lastUpdated": "2026-05-10T21:01:43.398907+00:00",
  "kcps": {
    "metar": "KCPS 102053Z 34010KT 10SM BKN110 21/04 A3010 RMK AO2 SLP191 T02060039 50002 $",
    "windDirection": 340,
    "windSpeed": 10,
    "windGust": null,
    "visibility": 10,
    "temperatureC": 21,
    "dewPointC": 4,
    "cloudCeiling": 11000,
    "altimeter": "A3010",
    "timestamp": "2026-05-10T20:53:00+00:00",
    "station": "KCPS"
  },
  "kstl": {
    "metar": "KSTL 102051Z 36005KT 10SM BKN110 BKN250 21/03 A3011 RMK AO2 SLP193 T02060028 52001 $",
    "windDirection": 360,
    "windSpeed": 5,
    "windGust": null,
    "visibility": 10,
    "temperatureC": 21,
    "dewPointC": 3,
    "cloudCeiling": 11000,
    "altimeter": "A3011",
    "timestamp": "2026-05-10T20:51:00+00:00",
    "station": "KSTL"
  }
}