{
  "lastUpdated": "2026-04-15T15:24:13.745784+00:00",
  "kcps": {
    "metar": "KCPS 151453Z 26009KT 10SM BKN045 24/15 A2992 RMK AO2 SLP127 T02390150 51034 $",
    "windDirection": 260,
    "windSpeed": 9,
    "windGust": null,
    "visibility": 10,
    "temperatureC": 24,
    "dewPointC": 15,
    "cloudCeiling": 4500,
    "altimeter": "A2992",
    "timestamp": "2026-04-15T14:53:00+00:00",
    "station": "KCPS"
  },
  "kstl": {
    "metar": "KSTL 151451Z 23015G20KT 10SM BKN038 OVC110 22/16 A2991 RMK AO2 SLP120 T02220156 50031",
    "windDirection": 230,
    "windSpeed": 15,
    "windGust": 20,
    "visibility": 10,
    "temperatureC": 22,
    "dewPointC": 16,
    "cloudCeiling": 3800,
    "altimeter": "A2991",
    "timestamp": "2026-04-15T14:51:00+00:00",
    "station": "KSTL"
  }
}