{
  "lastUpdated": "2026-04-21T11:48:29.315411+00:00",
  "kcps": {
    "metar": "KCPS 211053Z AUTO 00000KT 10SM CLR 13/05 A3013 RMK AO2 SLP201 T01330050 $",
    "windDirection": 0,
    "windSpeed": 0,
    "windGust": null,
    "visibility": 10,
    "temperatureC": 13,
    "dewPointC": 5,
    "cloudCeiling": 99999,
    "altimeter": "A3013",
    "timestamp": "2026-04-21T10:53:00+00:00",
    "station": "KCPS"
  },
  "kstl": {
    "metar": "KSTL 211051Z 00000KT 10SM SCT250 12/04 A3012 RMK AO2 SLP196 T01170044 $",
    "windDirection": 0,
    "windSpeed": 0,
    "windGust": null,
    "visibility": 10,
    "temperatureC": 12,
    "dewPointC": 4,
    "cloudCeiling": null,
    "altimeter": "A3012",
    "timestamp": "2026-04-21T10:51:00+00:00",
    "station": "KSTL"
  }
}