{
  "lastUpdated": "2026-05-27T10:47:56.700973+00:00",
  "kcps": {
    "metar": "KCPS 271016Z AUTO 22003KT 7SM SCT028 BKN060 OVC075 21/20 A2995 RMK AO2 T02060200 $",
    "windDirection": 220,
    "windSpeed": 3,
    "windGust": null,
    "visibility": 7,
    "temperatureC": 21,
    "dewPointC": 20,
    "cloudCeiling": 6000,
    "altimeter": "A2995",
    "timestamp": "2026-05-27T10:16:00+00:00",
    "station": "KCPS"
  },
  "kstl": {
    "metar": "KSTL 270951Z 30003KT 10SM OVC070 21/19 A2995 RMK AO2 SLP132 T02110194 $",
    "windDirection": 300,
    "windSpeed": 3,
    "windGust": null,
    "visibility": 10,
    "temperatureC": 21,
    "dewPointC": 19,
    "cloudCeiling": 7000,
    "altimeter": "A2995",
    "timestamp": "2026-05-27T09:51:00+00:00",
    "station": "KSTL"
  }
}