{
  "lastUpdated": "2026-01-02T11:02:23.076705+00:00",
  "kcps": {
    "metar": "KCPS 021053Z AUTO 02008KT 9SM BR OVC007 01/M01 A2990 RMK AO2 SLP127 T00061006 $",
    "windDirection": 20,
    "windSpeed": 8,
    "windGust": null,
    "visibility": 9,
    "temperatureC": 1,
    "dewPointC": -1,
    "cloudCeiling": 700,
    "altimeter": "A2990",
    "timestamp": "2026-01-02T10:53:00+00:00",
    "station": "KCPS"
  },
  "kstl": {
    "metar": "KSTL 021051Z 36005KT 9SM OVC008 00/M02 A2990 RMK AO2 SLP133 T00001017 $",
    "windDirection": 360,
    "windSpeed": 5,
    "windGust": null,
    "visibility": 9,
    "temperatureC": 0,
    "dewPointC": -2,
    "cloudCeiling": 800,
    "altimeter": "A2990",
    "timestamp": "2026-01-02T10:51:00+00:00",
    "station": "KSTL"
  }
}