{
  "lastUpdated": "2026-02-01T14:40:07.124324+00:00",
  "kcps": {
    "metar": "KCPS 011353Z 00000KT 10SM CLR M16/M18 A3042 RMK AO2 SLP310 T11561178 $",
    "windDirection": 0,
    "windSpeed": 0,
    "windGust": null,
    "visibility": 10,
    "temperatureC": -16,
    "dewPointC": -18,
    "cloudCeiling": 99999,
    "altimeter": "A3042",
    "timestamp": "2026-02-01T13:53:00+00:00",
    "station": "KCPS"
  },
  "kstl": {
    "metar": "KSTL 011351Z 22004KT 10SM FEW200 BKN250 M13/M17 A3040 RMK AO2 SLP316 T11281172 $",
    "windDirection": 220,
    "windSpeed": 4,
    "windGust": null,
    "visibility": 10,
    "temperatureC": -13,
    "dewPointC": -17,
    "cloudCeiling": 25000,
    "altimeter": "A3040",
    "timestamp": "2026-02-01T13:51:00+00:00",
    "station": "KSTL"
  }
}