{
  "lastUpdated": "2026-03-24T18:03:28.369358+00:00",
  "kcps": {
    "metar": "KCPS 241753Z VRB05KT 10SM CLR 14/M02 A3029 RMK AO2 SLP256 T01391017 10150 20028 56018 $",
    "windDirection": null,
    "windSpeed": null,
    "windGust": null,
    "visibility": 10,
    "temperatureC": 14,
    "dewPointC": -2,
    "cloudCeiling": 99999,
    "altimeter": "A3029",
    "timestamp": "2026-03-24T17:53:00+00:00",
    "station": "KCPS"
  },
  "kstl": {
    "metar": "KSTL 241751Z 00000KT 10SM FEW200 BKN240 14/M04 A3029 RMK AO2 SLP259 T01391039 10139 20033 56011",
    "windDirection": 0,
    "windSpeed": 0,
    "windGust": null,
    "visibility": 10,
    "temperatureC": 14,
    "dewPointC": -4,
    "cloudCeiling": 24000,
    "altimeter": "A3029",
    "timestamp": "2026-03-24T17:51:00+00:00",
    "station": "KSTL"
  }
}