{
  "lastUpdated": "2026-03-16T12:50:34.679126+00:00",
  "kcps": {
    "metar": "KCPS 161153Z AUTO 30020G34KT 9SM -SN OVC027 M04/M09 A2988 RMK AO2 PK WND 31037/1109 SNB06 SLP121 P0000 60000 70061 T10391094 10017 21039 53042 $",
    "windDirection": 300,
    "windSpeed": 20,
    "windGust": 34,
    "visibility": 9,
    "temperatureC": -4,
    "dewPointC": -9,
    "cloudCeiling": 2700,
    "altimeter": "A2988",
    "timestamp": "2026-03-16T11:53:00+00:00",
    "station": "KCPS"
  },
  "kstl": {
    "metar": "KSTL 161205Z 30017G32KT 7SM -SN BLSN SCT019 BKN025 OVC034 M05/M09 A2988 RMK AO2 PK WND 29032/1156 P0000 T10501089 $",
    "windDirection": 300,
    "windSpeed": 17,
    "windGust": 32,
    "visibility": 7,
    "temperatureC": -5,
    "dewPointC": -9,
    "cloudCeiling": 2500,
    "altimeter": "A2988",
    "timestamp": "2026-03-16T12:05:00+00:00",
    "station": "KSTL"
  }
}