{
  "lastUpdated": "2026-05-03T18:00:51.381084+00:00",
  "kcps": {
    "metar": "KCPS 031753Z 20012G21KT 10SM CLR 20/04 A2999 RMK AO2 SLP153 T02000039 10200 20078 58030 $",
    "windDirection": 200,
    "windSpeed": 12,
    "windGust": 21,
    "visibility": 10,
    "temperatureC": 20,
    "dewPointC": 4,
    "cloudCeiling": 99999,
    "altimeter": "A2999",
    "timestamp": "2026-05-03T17:53:00+00:00",
    "station": "KCPS"
  },
  "kstl": {
    "metar": "KSTL 031751Z 20014G25KT 10SM FEW150 FEW250 20/03 A2997 RMK AO2 PK WND 23029/1705 SLP147 60000 T02000028 10200 20083 58030 $",
    "windDirection": 200,
    "windSpeed": 14,
    "windGust": 25,
    "visibility": 10,
    "temperatureC": 20,
    "dewPointC": 3,
    "cloudCeiling": null,
    "altimeter": "A2997",
    "timestamp": "2026-05-03T17:51:00+00:00",
    "station": "KSTL"
  }
}