{
  "lastUpdated": "2026-03-21T10:40:53.791656+00:00",
  "kcps": {
    "metar": "KCPS 210953Z 00000KT 10SM CLR 11/08 A2986 RMK AO2 SLP108 T01060083 $",
    "windDirection": 0,
    "windSpeed": 0,
    "windGust": null,
    "visibility": 10,
    "temperatureC": 11,
    "dewPointC": 8,
    "cloudCeiling": 99999,
    "altimeter": "A2986",
    "timestamp": "2026-03-21T09:53:00+00:00",
    "station": "KCPS"
  },
  "kstl": {
    "metar": "KSTL 210951Z 00000KT 10SM FEW120 12/08 A2988 RMK AO2 SLP107 T01220078 $",
    "windDirection": 0,
    "windSpeed": 0,
    "windGust": null,
    "visibility": 10,
    "temperatureC": 12,
    "dewPointC": 8,
    "cloudCeiling": null,
    "altimeter": "A2988",
    "timestamp": "2026-03-21T09:51:00+00:00",
    "station": "KSTL"
  }
}