{
  "lastUpdated": "2025-11-15T02:58:27.595354+00:00",
  "kcps": {
    "metar": "KCPS 150153Z 19004KT 10SM CLR 20/13 A2988 RMK AO2 SLP118 T02000133 $",
    "windDirection": 190,
    "windSpeed": 4,
    "windGust": null,
    "visibility": 10,
    "temperatureC": 20,
    "dewPointC": 13,
    "cloudCeiling": 99999,
    "altimeter": "A2988",
    "timestamp": "2025-11-15T01:53:00+00:00",
    "station": "KCPS"
  },
  "kstl": {
    "metar": "KSTL 150251Z 17008KT 10SM SCT250 20/13 A2988 RMK AO2 SLP113 T02000128 55002",
    "windDirection": 170,
    "windSpeed": 8,
    "windGust": null,
    "visibility": 10,
    "temperatureC": 20,
    "dewPointC": 13,
    "cloudCeiling": null,
    "altimeter": "A2988",
    "timestamp": "2025-11-15T02:51:00+00:00",
    "station": "KSTL"
  }
}