{
  "lastUpdated": "2026-04-09T19:51:13.970532+00:00",
  "kcps": {
    "metar": "KCPS 091853Z 19010G20KT 10SM CLR 27/07 A3015 RMK AO2 SLP206 T02670072 $",
    "windDirection": 190,
    "windSpeed": 10,
    "windGust": 20,
    "visibility": 10,
    "temperatureC": 27,
    "dewPointC": 7,
    "cloudCeiling": 99999,
    "altimeter": "A3015",
    "timestamp": "2026-04-09T18:53:00+00:00",
    "station": "KCPS"
  },
  "kstl": {
    "metar": "KSTL 091851Z 20011G19KT 10SM FEW070 SCT250 27/06 A3015 RMK AO2 SLP201 T02670056 $",
    "windDirection": 200,
    "windSpeed": 11,
    "windGust": 19,
    "visibility": 10,
    "temperatureC": 27,
    "dewPointC": 6,
    "cloudCeiling": null,
    "altimeter": "A3015",
    "timestamp": "2026-04-09T18:51:00+00:00",
    "station": "KSTL"
  }
}