{
  "lastUpdated": "2026-04-27T11:11:20.840840+00:00",
  "kcps": {
    "metar": "KCPS 271053Z AUTO 13016G24KT 10SM -TSRA FEW036 BKN046 OVC070 17/16 A2975 RMK AO2 LTG DSNT ALQDS SLP071 P0054 T01720161 $",
    "windDirection": 130,
    "windSpeed": 16,
    "windGust": 24,
    "visibility": 10,
    "temperatureC": 17,
    "dewPointC": 16,
    "cloudCeiling": 4600,
    "altimeter": "A2975",
    "timestamp": "2026-04-27T10:53:00+00:00",
    "station": "KCPS"
  },
  "kstl": {
    "metar": "KSTL 271051Z 13018G25KT 7SM TSRA SCT044 BKN070CB BKN110 OVC140 17/15 A2974 RMK AO2 RAE09B45 TSE03B34 SLP062 OCNL LTGICCCCG SE-SW TS SE-SW MOV NE P0001 T01670150 $",
    "windDirection": 130,
    "windSpeed": 18,
    "windGust": 25,
    "visibility": 7,
    "temperatureC": 17,
    "dewPointC": 15,
    "cloudCeiling": 7000,
    "altimeter": "A2974",
    "timestamp": "2026-04-27T10:51:00+00:00",
    "station": "KSTL"
  }
}