{
  "lastUpdated": "2026-02-13T16:48:19.468729+00:00",
  "kcps": {
    "metar": "KCPS 131553Z 19009KT 10SM CLR 08/M02 A3022 RMK AO2 SLP233 T00831022 $",
    "windDirection": 190,
    "windSpeed": 9,
    "windGust": null,
    "visibility": 10,
    "temperatureC": 8,
    "dewPointC": -2,
    "cloudCeiling": 99999,
    "altimeter": "A3022",
    "timestamp": "2026-02-13T15:53:00+00:00",
    "station": "KCPS"
  },
  "kstl": {
    "metar": "KSTL 131551Z 17009KT 10SM FEW090 FEW250 09/M03 A3021 RMK AO2 SLP232 T00891033 $",
    "windDirection": 170,
    "windSpeed": 9,
    "windGust": null,
    "visibility": 10,
    "temperatureC": 9,
    "dewPointC": -3,
    "cloudCeiling": null,
    "altimeter": "A3021",
    "timestamp": "2026-02-13T15:51:00+00:00",
    "station": "KSTL"
  }
}