{
  "lastUpdated": "2025-11-25T01:08:09.780731+00:00",
  "kcps": {
    "metar": "KCPS 250104Z 15007KT 10SM BKN024 OVC065 11/09 A2991 RMK AO2 T01060089 $",
    "windDirection": 150,
    "windSpeed": 7,
    "windGust": null,
    "visibility": 10,
    "temperatureC": 11,
    "dewPointC": 9,
    "cloudCeiling": 2400,
    "altimeter": "A2991",
    "timestamp": "2025-11-25T01:04:00+00:00",
    "station": "KCPS"
  },
  "kstl": {
    "metar": "KSTL 250051Z 13010KT 10SM OVC060 11/08 A2991 RMK AO2 SLP132 T01060083 $",
    "windDirection": 130,
    "windSpeed": 10,
    "windGust": null,
    "visibility": 10,
    "temperatureC": 11,
    "dewPointC": 8,
    "cloudCeiling": 6000,
    "altimeter": "A2991",
    "timestamp": "2025-11-25T00:51:00+00:00",
    "station": "KSTL"
  }
}