{
  "lastUpdated": "2026-05-07T13:32:08.509433+00:00",
  "kcps": {
    "metar": "KCPS 071253Z 23005KT 10SM CLR 09/05 A3007 RMK AO2 SLP181 T00940050 $",
    "windDirection": 230,
    "windSpeed": 5,
    "windGust": null,
    "visibility": 10,
    "temperatureC": 9,
    "dewPointC": 5,
    "cloudCeiling": 99999,
    "altimeter": "A3007",
    "timestamp": "2026-05-07T12:53:00+00:00",
    "station": "KCPS"
  },
  "kstl": {
    "metar": "KSTL 071251Z 22004KT 10SM SCT140 11/04 A3006 RMK AO2 SLP180 T01060039 $",
    "windDirection": 220,
    "windSpeed": 4,
    "windGust": null,
    "visibility": 10,
    "temperatureC": 11,
    "dewPointC": 4,
    "cloudCeiling": null,
    "altimeter": "A3006",
    "timestamp": "2026-05-07T12:51:00+00:00",
    "station": "KSTL"
  }
}