{
  "lastUpdated": "2026-05-04T19:30:23.052878+00:00",
  "kcps": {
    "metar": "KCPS 041853Z 15011KT 7SM -TSRA BKN090 18/13 A2968 RMK AO2 LTG DSNT ALQDS RAB36 TSB15E30B45 PRESFR SLP048 P0000 T01780133 $",
    "windDirection": 150,
    "windSpeed": 11,
    "windGust": null,
    "visibility": 7,
    "temperatureC": 18,
    "dewPointC": 13,
    "cloudCeiling": 9000,
    "altimeter": "A2968",
    "timestamp": "2026-05-04T18:53:00+00:00",
    "station": "KCPS"
  },
  "kstl": {
    "metar": "KSTL 041851Z 19011KT 10SM -RA FEW018 SCT060 BKN110 BKN250 19/13 A2969 RMK AO2 SLP048 TSE27 P0002 T01940133 $",
    "windDirection": 190,
    "windSpeed": 11,
    "windGust": null,
    "visibility": 10,
    "temperatureC": 19,
    "dewPointC": 13,
    "cloudCeiling": 11000,
    "altimeter": "A2969",
    "timestamp": "2026-05-04T18:51:00+00:00",
    "station": "KSTL"
  }
}