{
  "lastUpdated": "2025-12-07T13:13:05.357667+00:00",
  "kcps": {
    "metar": "KCPS 071253Z 21003KT 8SM OVC027 04/02 A2996 RMK AO2 SLP148 T00440022 $",
    "windDirection": 210,
    "windSpeed": 3,
    "windGust": null,
    "visibility": 8,
    "temperatureC": 4,
    "dewPointC": 2,
    "cloudCeiling": 2700,
    "altimeter": "A2996",
    "timestamp": "2025-12-07T12:53:00+00:00",
    "station": "KCPS"
  },
  "kstl": {
    "metar": "KSTL 071251Z 22008KT 10SM OVC021 04/02 A2995 RMK AO2 SLP148 T00440022 $",
    "windDirection": 220,
    "windSpeed": 8,
    "windGust": null,
    "visibility": 10,
    "temperatureC": 4,
    "dewPointC": 2,
    "cloudCeiling": 2100,
    "altimeter": "A2995",
    "timestamp": "2025-12-07T12:51:00+00:00",
    "station": "KSTL"
  }
}