{
  "lastUpdated": "2025-12-11T15:50:55.476669+00:00",
  "kcps": {
    "metar": "KCPS 111453Z 23003KT 10SM OVC085 M01/M06 A3005 RMK AO2 SLP181 T10061056 58006 $",
    "windDirection": 230,
    "windSpeed": 3,
    "windGust": null,
    "visibility": 10,
    "temperatureC": -1,
    "dewPointC": -6,
    "cloudCeiling": 8500,
    "altimeter": "A3005",
    "timestamp": "2025-12-11T14:53:00+00:00",
    "station": "KCPS"
  },
  "kstl": {
    "metar": "KSTL 111451Z 00000KT 10SM OVC085 M01/M06 A3005 RMK AO2 SLP186 T10111056 58003 $",
    "windDirection": 0,
    "windSpeed": 0,
    "windGust": null,
    "visibility": 10,
    "temperatureC": -1,
    "dewPointC": -6,
    "cloudCeiling": 8500,
    "altimeter": "A3005",
    "timestamp": "2025-12-11T14:51:00+00:00",
    "station": "KSTL"
  }
}