{
  "lastUpdated": "2025-11-25T22:47:22.322729+00:00",
  "kcps": {
    "metar": "KCPS 252210Z 26008KT 10SM BKN026 14/11 A2987 RMK AO2 T01390106",
    "windDirection": 260,
    "windSpeed": 8,
    "windGust": null,
    "visibility": 10,
    "temperatureC": 14,
    "dewPointC": 11,
    "cloudCeiling": 2600,
    "altimeter": "A2987",
    "timestamp": "2025-11-25T22:10:00+00:00",
    "station": "KCPS"
  },
  "kstl": {
    "metar": "KSTL 252212Z 26009KT 10SM SCT023 BKN055 13/10 A2987 RMK AO2 T01330100 $",
    "windDirection": 260,
    "windSpeed": 9,
    "windGust": null,
    "visibility": 10,
    "temperatureC": 13,
    "dewPointC": 10,
    "cloudCeiling": 5500,
    "altimeter": "A2987",
    "timestamp": "2025-11-25T22:12:00+00:00",
    "station": "KSTL"
  }
}