{
  "lastUpdated": "2026-03-23T16:05:06.245865+00:00",
  "kcps": {
    "metar": "KCPS 231553Z 05011G17KT 10SM CLR 06/M02 A3044 RMK AO2 SLP309 T00611017 $",
    "windDirection": 50,
    "windSpeed": 11,
    "windGust": 17,
    "visibility": 10,
    "temperatureC": 6,
    "dewPointC": -2,
    "cloudCeiling": 99999,
    "altimeter": "A3044",
    "timestamp": "2026-03-23T15:53:00+00:00",
    "station": "KCPS"
  },
  "kstl": {
    "metar": "KSTL 231551Z 03009KT 10SM FEW027 BKN250 06/M02 A3044 RMK AO2 SLP312 T00611022 $",
    "windDirection": 30,
    "windSpeed": 9,
    "windGust": null,
    "visibility": 10,
    "temperatureC": 6,
    "dewPointC": -2,
    "cloudCeiling": 25000,
    "altimeter": "A3044",
    "timestamp": "2026-03-23T15:51:00+00:00",
    "station": "KSTL"
  }
}