{
  "lastUpdated": "2025-11-23T16:48:06.916273+00:00",
  "kcps": {
    "metar": "KCPS 231553Z 27005KT 8SM OVC007 09/07 A3024 RMK AO2 SLP242 T00890072",
    "windDirection": 270,
    "windSpeed": 5,
    "windGust": null,
    "visibility": 8,
    "temperatureC": 9,
    "dewPointC": 7,
    "cloudCeiling": 700,
    "altimeter": "A3024",
    "timestamp": "2025-11-23T15:53:00+00:00",
    "station": "KCPS"
  },
  "kstl": {
    "metar": "KSTL 231551Z 30004KT 8SM OVC005 08/07 A3024 RMK AO2 SLP244 T00830072 $",
    "windDirection": 300,
    "windSpeed": 4,
    "windGust": null,
    "visibility": 8,
    "temperatureC": 8,
    "dewPointC": 7,
    "cloudCeiling": 500,
    "altimeter": "A3024",
    "timestamp": "2025-11-23T15:51:00+00:00",
    "station": "KSTL"
  }
}