{
  "lastUpdated": "2026-01-06T11:33:47.687679+00:00",
  "kcps": {
    "metar": "KCPS 061053Z 20007KT 10SM CLR 11/08 A2967 RMK AO2 SLP045 T01110083",
    "windDirection": 200,
    "windSpeed": 7,
    "windGust": null,
    "visibility": 10,
    "temperatureC": 11,
    "dewPointC": 8,
    "cloudCeiling": 99999,
    "altimeter": "A2967",
    "timestamp": "2026-01-06T10:53:00+00:00",
    "station": "KCPS"
  },
  "kstl": {
    "metar": "KSTL 061051Z 23009KT 10SM BKN026 BKN250 10/08 A2967 RMK AO2 SLP045 T01000078 $",
    "windDirection": 230,
    "windSpeed": 9,
    "windGust": null,
    "visibility": 10,
    "temperatureC": 10,
    "dewPointC": 8,
    "cloudCeiling": 2600,
    "altimeter": "A2967",
    "timestamp": "2026-01-06T10:51:00+00:00",
    "station": "KSTL"
  }
}