{
  "lastUpdated": "2026-03-09T21:11:59.088270+00:00",
  "kcps": {
    "metar": "KCPS 092053Z 18014G24KT 10SM CLR 22/16 A2976 RMK AO2 PK WND 19026/1959 SLP075 T02220161 56019 $",
    "windDirection": 180,
    "windSpeed": 14,
    "windGust": 24,
    "visibility": 10,
    "temperatureC": 22,
    "dewPointC": 16,
    "cloudCeiling": 99999,
    "altimeter": "A2976",
    "timestamp": "2026-03-09T20:53:00+00:00",
    "station": "KCPS"
  },
  "kstl": {
    "metar": "KSTL 092051Z 18015G24KT 10SM FEW035 FEW250 24/15 A2974 RMK AO2 PK WND 16026/2041 SLP065 T02440150 56019 $",
    "windDirection": 180,
    "windSpeed": 15,
    "windGust": 24,
    "visibility": 10,
    "temperatureC": 24,
    "dewPointC": 15,
    "cloudCeiling": null,
    "altimeter": "A2974",
    "timestamp": "2026-03-09T20:51:00+00:00",
    "station": "KSTL"
  }
}