{
  "lastUpdated": "2026-04-11T09:28:33.991376+00:00",
  "kcps": {
    "metar": "KCPS 110853Z AUTO 07005KT 10SM FEW070 10/08 A3033 RMK AO2 SLP268 T01000083 55001 $",
    "windDirection": 70,
    "windSpeed": 5,
    "windGust": null,
    "visibility": 10,
    "temperatureC": 10,
    "dewPointC": 8,
    "cloudCeiling": null,
    "altimeter": "A3033",
    "timestamp": "2026-04-11T08:53:00+00:00",
    "station": "KCPS"
  },
  "kstl": {
    "metar": "KSTL 110851Z 07005KT 10SM FEW043 BKN060 11/08 A3033 RMK AO2 SLP268 T01060078 55002 $",
    "windDirection": 70,
    "windSpeed": 5,
    "windGust": null,
    "visibility": 10,
    "temperatureC": 11,
    "dewPointC": 8,
    "cloudCeiling": 6000,
    "altimeter": "A3033",
    "timestamp": "2026-04-11T08:51:00+00:00",
    "station": "KSTL"
  }
}