{
  "lastUpdated": "2026-03-21T01:31:09.021522+00:00",
  "kcps": {
    "metar": "KCPS 210053Z 00000KT 10SM CLR 22/08 A2984 RMK AO2 SLP104 T02220078 $",
    "windDirection": 0,
    "windSpeed": 0,
    "windGust": null,
    "visibility": 10,
    "temperatureC": 22,
    "dewPointC": 8,
    "cloudCeiling": 99999,
    "altimeter": "A2984",
    "timestamp": "2026-03-21T00:53:00+00:00",
    "station": "KCPS"
  },
  "kstl": {
    "metar": "KSTL 210051Z 34003KT 10SM BKN250 24/08 A2986 RMK AO2 SLP107 T02390078 $",
    "windDirection": 340,
    "windSpeed": 3,
    "windGust": null,
    "visibility": 10,
    "temperatureC": 24,
    "dewPointC": 8,
    "cloudCeiling": 25000,
    "altimeter": "A2986",
    "timestamp": "2026-03-21T00:51:00+00:00",
    "station": "KSTL"
  }
}