{
  "lastUpdated": "2026-06-05T22:40:57.261416+00:00",
  "kcps": {
    "metar": "KCPS 052153Z VRB06KT 10SM FEW045 31/21 A2991 RMK AO2 SLP123 T03060206 $",
    "windDirection": null,
    "windSpeed": null,
    "windGust": null,
    "visibility": 10,
    "temperatureC": 31,
    "dewPointC": 21,
    "cloudCeiling": null,
    "altimeter": "A2991",
    "timestamp": "2026-06-05T21:53:00+00:00",
    "station": "KCPS"
  },
  "kstl": {
    "metar": "KSTL 052151Z 21009G20KT 10SM SCT045 SCT150 BKN250 30/20 A2991 RMK AO2 SLP118 T03000200 $",
    "windDirection": 210,
    "windSpeed": 9,
    "windGust": 20,
    "visibility": 10,
    "temperatureC": 30,
    "dewPointC": 20,
    "cloudCeiling": 25000,
    "altimeter": "A2991",
    "timestamp": "2026-06-05T21:51:00+00:00",
    "station": "KSTL"
  }
}