{
  "lastUpdated": "2025-11-19T07:21:26.605323+00:00",
  "kcps": {
    "metar": "KCPS 190653Z AUTO 35003KT 7SM BKN011 08/07 A3008 RMK AO2 SLP184 T00780072 $",
    "windDirection": 350,
    "windSpeed": 3,
    "windGust": null,
    "visibility": 7,
    "temperatureC": 8,
    "dewPointC": 7,
    "cloudCeiling": 1100,
    "altimeter": "A3008",
    "timestamp": "2025-11-19T06:53:00+00:00",
    "station": "KCPS"
  },
  "kstl": {
    "metar": "KSTL 190651Z 01005KT 9SM OVC014 10/09 A3008 RMK AO2 SLP182 T01000089 $",
    "windDirection": 10,
    "windSpeed": 5,
    "windGust": null,
    "visibility": 9,
    "temperatureC": 10,
    "dewPointC": 9,
    "cloudCeiling": 1400,
    "altimeter": "A3008",
    "timestamp": "2025-11-19T06:51:00+00:00",
    "station": "KSTL"
  }
}