{
  "lastUpdated": "2026-04-18T11:26:00.581180+00:00",
  "kcps": {
    "metar": "KCPS 181053Z AUTO 33013G24KT 10SM -RA BKN016 OVC022 09/07 A2987 RMK AO2 SLP113 P0004 T00940072 $",
    "windDirection": 330,
    "windSpeed": 13,
    "windGust": 24,
    "visibility": 10,
    "temperatureC": 9,
    "dewPointC": 7,
    "cloudCeiling": 1600,
    "altimeter": "A2987",
    "timestamp": "2026-04-18T10:53:00+00:00",
    "station": "KCPS"
  },
  "kstl": {
    "metar": "KSTL 181122Z 29009KT 10SM -RA BKN035 OVC080 09/07 A2991 RMK AO2 PRESRR P0000 T00890072 $",
    "windDirection": 290,
    "windSpeed": 9,
    "windGust": null,
    "visibility": 10,
    "temperatureC": 9,
    "dewPointC": 7,
    "cloudCeiling": 3500,
    "altimeter": "A2991",
    "timestamp": "2026-04-18T11:22:00+00:00",
    "station": "KSTL"
  }
}