{
  "lastUpdated": "2025-12-08T03:12:07.261586+00:00",
  "kcps": {
    "metar": "KCPS 080253Z 36016KT 10SM OVC017 M01/M03 A3028 RMK AO2 SLP255 T10061033 51019 $",
    "windDirection": 360,
    "windSpeed": 16,
    "windGust": null,
    "visibility": 10,
    "temperatureC": -1,
    "dewPointC": -3,
    "cloudCeiling": 1700,
    "altimeter": "A3028",
    "timestamp": "2025-12-08T02:53:00+00:00",
    "station": "KCPS"
  },
  "kstl": {
    "metar": "KSTL 080251Z 01016G21KT 10SM BKN014 OVC029 M02/M04 A3028 RMK AO2 SLP261 T10171044 51017 $",
    "windDirection": 10,
    "windSpeed": 16,
    "windGust": 21,
    "visibility": 10,
    "temperatureC": -2,
    "dewPointC": -4,
    "cloudCeiling": 1400,
    "altimeter": "A3028",
    "timestamp": "2025-12-08T02:51:00+00:00",
    "station": "KSTL"
  }
}