{
  "lastUpdated": "2025-11-14T15:47:06.171032+00:00",
  "kcps": {
    "metar": "KCPS 141453Z AUTO VRB04KT 10SM FEW060 17/12 A3007 RMK AO2 SLP180 T01720122 51005",
    "windDirection": null,
    "windSpeed": null,
    "windGust": null,
    "visibility": 10,
    "temperatureC": 17,
    "dewPointC": 12,
    "cloudCeiling": null,
    "altimeter": "A3007",
    "timestamp": "2025-11-14T14:53:00+00:00",
    "station": "KCPS"
  },
  "kstl": {
    "metar": "KSTL 141451Z 22008KT 10SM SCT060 18/13 A3006 RMK AO2 SLP177 T01830128 53006",
    "windDirection": 220,
    "windSpeed": 8,
    "windGust": null,
    "visibility": 10,
    "temperatureC": 18,
    "dewPointC": 13,
    "cloudCeiling": null,
    "altimeter": "A3006",
    "timestamp": "2025-11-14T14:51:00+00:00",
    "station": "KSTL"
  }
}