{
  "lastUpdated": "2025-12-01T21:46:28.512939+00:00",
  "kcps": {
    "metar": "KCPS 012125Z 00000KT 2SM SN BR BKN032 OVC050 M03/M05 A3018 RMK AO2 P0000 T10331050 $",
    "windDirection": 0,
    "windSpeed": 0,
    "windGust": null,
    "visibility": 2,
    "temperatureC": -3,
    "dewPointC": -5,
    "cloudCeiling": 3200,
    "altimeter": "A3018",
    "timestamp": "2025-12-01T21:25:00+00:00",
    "station": "KCPS"
  },
  "kstl": {
    "metar": "KSTL 012126Z 00000KT 2SM -SN BR SCT029 OVC046 M04/M06 A3017 RMK AO2 P0000 T10441056 $",
    "windDirection": 0,
    "windSpeed": 0,
    "windGust": null,
    "visibility": 2,
    "temperatureC": -4,
    "dewPointC": -6,
    "cloudCeiling": 4600,
    "altimeter": "A3017",
    "timestamp": "2025-12-01T21:26:00+00:00",
    "station": "KSTL"
  }
}