{
  "lastUpdated": "2026-03-30T23:43:16.639987+00:00",
  "kcps": {
    "metar": "KCPS 302253Z 18012G23KT 10SM CLR 27/14 A2986 RMK AO2 PK WND 18028/2233 SLP110 T02720144 $",
    "windDirection": 180,
    "windSpeed": 12,
    "windGust": 23,
    "visibility": 10,
    "temperatureC": 27,
    "dewPointC": 14,
    "cloudCeiling": 99999,
    "altimeter": "A2986",
    "timestamp": "2026-03-30T22:53:00+00:00",
    "station": "KCPS"
  },
  "kstl": {
    "metar": "KSTL 302251Z 20012G24KT 10SM BKN250 29/13 A2985 RMK AO2 PK WND 19027/2156 SLP100 T02890133 $",
    "windDirection": 200,
    "windSpeed": 12,
    "windGust": 24,
    "visibility": 10,
    "temperatureC": 29,
    "dewPointC": 13,
    "cloudCeiling": 25000,
    "altimeter": "A2985",
    "timestamp": "2026-03-30T22:51:00+00:00",
    "station": "KSTL"
  }
}