{
  "lastUpdated": "2025-12-10T16:52:59.978375+00:00",
  "kcps": {
    "metar": "KCPS 101553Z 32027G37KT 10SM -RA BKN043 OVC060 06/M02 A2975 RMK AO2 PK WND 30040/1518 SLP076 P0000 T00611022",
    "windDirection": 320,
    "windSpeed": 27,
    "windGust": 37,
    "visibility": 10,
    "temperatureC": 6,
    "dewPointC": -2,
    "cloudCeiling": 4300,
    "altimeter": "A2975",
    "timestamp": "2025-12-10T15:53:00+00:00",
    "station": "KCPS"
  },
  "kstl": {
    "metar": "KSTL 101642Z 31018G35KT 10SM BKN029 OVC050 04/M03 A2980 RMK AO2 PK WND 31039/1552 SNB00E10 P0000 T00391028 $",
    "windDirection": 310,
    "windSpeed": 18,
    "windGust": 35,
    "visibility": 10,
    "temperatureC": 4,
    "dewPointC": -3,
    "cloudCeiling": 2900,
    "altimeter": "A2980",
    "timestamp": "2025-12-10T16:42:00+00:00",
    "station": "KSTL"
  }
}