{
  "lastUpdated": "2025-11-30T16:36:54.716670+00:00",
  "kcps": {
    "metar": "KCPS 301553Z 30015G24KT 10SM CLR M03/M09 A3038 RMK AO2 PK WND 32029/1531 SLP291 T10281094 $",
    "windDirection": 300,
    "windSpeed": 15,
    "windGust": 24,
    "visibility": 10,
    "temperatureC": -3,
    "dewPointC": -9,
    "cloudCeiling": 99999,
    "altimeter": "A3038",
    "timestamp": "2025-11-30T15:53:00+00:00",
    "station": "KCPS"
  },
  "kstl": {
    "metar": "KSTL 301551Z 29015G25KT 10SM FEW030 SCT250 M04/M09 A3037 RMK AO2 PK WND 29028/1452 SLP296 T10391094 $",
    "windDirection": 290,
    "windSpeed": 15,
    "windGust": 25,
    "visibility": 10,
    "temperatureC": -4,
    "dewPointC": -9,
    "cloudCeiling": null,
    "altimeter": "A3037",
    "timestamp": "2025-11-30T15:51:00+00:00",
    "station": "KSTL"
  }
}