{
  "lastUpdated": "2025-12-21T18:02:33.779853+00:00",
  "kcps": {
    "metar": "KCPS 211753Z 13006KT 10SM CLR 06/M08 A3047 RMK AO2 SLP323 T00561083 10056 21061 58002 $",
    "windDirection": 130,
    "windSpeed": 6,
    "windGust": null,
    "visibility": 10,
    "temperatureC": 6,
    "dewPointC": -8,
    "cloudCeiling": 99999,
    "altimeter": "A3047",
    "timestamp": "2025-12-21T17:53:00+00:00",
    "station": "KCPS"
  },
  "kstl": {
    "metar": "KSTL 211751Z 12006KT 10SM BKN200 04/M08 A3047 RMK AO2 SLP327 T00441083 10044 21044 50003 $",
    "windDirection": 120,
    "windSpeed": 6,
    "windGust": null,
    "visibility": 10,
    "temperatureC": 4,
    "dewPointC": -8,
    "cloudCeiling": 20000,
    "altimeter": "A3047",
    "timestamp": "2025-12-21T17:51:00+00:00",
    "station": "KSTL"
  }
}