{
  "lastUpdated": "2026-04-26T21:58:15.736301+00:00",
  "kcps": {
    "metar": "KCPS 262153Z 14010G17KT 10SM CLR 27/11 A2984 RMK AO2 SLP102 T02670111 $",
    "windDirection": 140,
    "windSpeed": 10,
    "windGust": 17,
    "visibility": 10,
    "temperatureC": 27,
    "dewPointC": 11,
    "cloudCeiling": 99999,
    "altimeter": "A2984",
    "timestamp": "2026-04-26T21:53:00+00:00",
    "station": "KCPS"
  },
  "kstl": {
    "metar": "KSTL 262151Z 12013G19KT 10SM FEW120 BKN190 26/10 A2984 RMK AO2 SLP100 T02560100 $",
    "windDirection": 120,
    "windSpeed": 13,
    "windGust": 19,
    "visibility": 10,
    "temperatureC": 26,
    "dewPointC": 10,
    "cloudCeiling": 19000,
    "altimeter": "A2984",
    "timestamp": "2026-04-26T21:51:00+00:00",
    "station": "KSTL"
  }
}