{
  "lastUpdated": "2026-04-13T21:04:53.037854+00:00",
  "kcps": {
    "metar": "KCPS 132053Z 22014G23KT 10SM SCT050 29/17 A2991 RMK AO2 SLP123 T02890167 56019 $",
    "windDirection": 220,
    "windSpeed": 14,
    "windGust": 23,
    "visibility": 10,
    "temperatureC": 29,
    "dewPointC": 17,
    "cloudCeiling": null,
    "altimeter": "A2991",
    "timestamp": "2026-04-13T20:53:00+00:00",
    "station": "KCPS"
  },
  "kstl": {
    "metar": "KSTL 132051Z 20016KT 10SM BKN055 BKN250 29/17 A2990 RMK AO2 PK WND 20026/2001 SLP115 T02890172 56019 $",
    "windDirection": 200,
    "windSpeed": 16,
    "windGust": null,
    "visibility": 10,
    "temperatureC": 29,
    "dewPointC": 17,
    "cloudCeiling": 5500,
    "altimeter": "A2990",
    "timestamp": "2026-04-13T20:51:00+00:00",
    "station": "KSTL"
  }
}