{
  "lastUpdated": "2025-12-25T09:22:08.562506+00:00",
  "kcps": {
    "metar": "KCPS 250916Z AUTO 31003KT 1 3/4SM BR CLR 12/12 A3004 RMK AO2 VIS 3/4V5 T01170117 $",
    "windDirection": 310,
    "windSpeed": 3,
    "windGust": null,
    "visibility": 0.75,
    "temperatureC": 12,
    "dewPointC": 12,
    "cloudCeiling": 99999,
    "altimeter": "A3004",
    "timestamp": "2025-12-25T09:16:00+00:00",
    "station": "KCPS"
  },
  "kstl": {
    "metar": "KSTL 250851Z 30005KT 10SM BKN025 15/14 A3005 RMK AO2 SLP172 T01500139 53005 $",
    "windDirection": 300,
    "windSpeed": 5,
    "windGust": null,
    "visibility": 10,
    "temperatureC": 15,
    "dewPointC": 14,
    "cloudCeiling": 2500,
    "altimeter": "A3005",
    "timestamp": "2025-12-25T08:51:00+00:00",
    "station": "KSTL"
  }
}