{
  "lastUpdated": "2025-11-29T17:02:11.849206+00:00",
  "kcps": {
    "metar": "KCPS 291653Z 14015G22KT 4SM -SN BR FEW008 SCT050 OVC060 01/00 A3008 RMK AO2 RAB1557E09B29E45UPB09E10SNE1557B10E29B45 PRESFR SLP189 P0004 T00060000 $",
    "windDirection": 140,
    "windSpeed": 15,
    "windGust": 22,
    "visibility": 4,
    "temperatureC": 1,
    "dewPointC": 0,
    "cloudCeiling": 6000,
    "altimeter": "A3008",
    "timestamp": "2025-11-29T16:53:00+00:00",
    "station": "KCPS"
  },
  "kstl": {
    "metar": "KSTL 291651Z 14012G21KT 5SM -RASN BR OVC009 01/00 A3006 RMK AO2 PK WND 14026/1632 RAB35 SLP188 P0006 T00110000 $",
    "windDirection": 140,
    "windSpeed": 12,
    "windGust": 21,
    "visibility": 5,
    "temperatureC": 1,
    "dewPointC": 0,
    "cloudCeiling": 900,
    "altimeter": "A3006",
    "timestamp": "2025-11-29T16:51:00+00:00",
    "station": "KSTL"
  }
}