{
  "lastUpdated": "2026-02-12T17:20:15.812906+00:00",
  "kcps": {
    "metar": "KCPS 121653Z 17012G18KT 10SM CLR 10/M04 A3029 RMK AO2 SLP260 T01001039 $",
    "windDirection": 170,
    "windSpeed": 12,
    "windGust": 18,
    "visibility": 10,
    "temperatureC": 10,
    "dewPointC": -4,
    "cloudCeiling": 99999,
    "altimeter": "A3029",
    "timestamp": "2026-02-12T16:53:00+00:00",
    "station": "KCPS"
  },
  "kstl": {
    "metar": "KSTL 121651Z 17011G22KT 10SM FEW120 SCT250 11/M05 A3029 RMK AO2 SLP263 T01061050 $",
    "windDirection": 170,
    "windSpeed": 11,
    "windGust": 22,
    "visibility": 10,
    "temperatureC": 11,
    "dewPointC": -5,
    "cloudCeiling": null,
    "altimeter": "A3029",
    "timestamp": "2026-02-12T16:51:00+00:00",
    "station": "KSTL"
  }
}