{
  "lastUpdated": "2025-11-15T05:21:21.307275+00:00",
  "kcps": {
    "metar": "KCPS 150453Z AUTO 19005KT 10SM CLR 18/14 A2986 RMK AO2 SLP110 T01830144 $",
    "windDirection": 190,
    "windSpeed": 5,
    "windGust": null,
    "visibility": 10,
    "temperatureC": 18,
    "dewPointC": 14,
    "cloudCeiling": 99999,
    "altimeter": "A2986",
    "timestamp": "2025-11-15T04:53:00+00:00",
    "station": "KCPS"
  },
  "kstl": {
    "metar": "KSTL 150451Z 20006KT 10SM BKN250 20/13 A2986 RMK AO2 SLP104 T02000133 $",
    "windDirection": 200,
    "windSpeed": 6,
    "windGust": null,
    "visibility": 10,
    "temperatureC": 20,
    "dewPointC": 13,
    "cloudCeiling": 25000,
    "altimeter": "A2986",
    "timestamp": "2025-11-15T04:51:00+00:00",
    "station": "KSTL"
  }
}