{
  "lastUpdated": "2025-10-26T23:02:43.426324+00:00",
  "kcps": {
    "metar": "KCPS 262253Z 10007KT 5SM -RA BR SCT013 OVC045 12/10 A3014 RMK AO2 SLP207 P0007 T01170100 $",
    "windDirection": 100,
    "windSpeed": 7,
    "windGust": null,
    "visibility": 5,
    "temperatureC": 12,
    "dewPointC": 10,
    "cloudCeiling": 4500,
    "altimeter": "A3014",
    "timestamp": "2025-10-26T22:53:00+00:00",
    "station": "KCPS"
  },
  "kstl": {
    "metar": "KSTL 262251Z 10015G23KT 9SM -RA FEW009 BKN048 OVC090 12/10 A3014 RMK AO2 SLP206 P0006 T01170100 $",
    "windDirection": 100,
    "windSpeed": 15,
    "windGust": 23,
    "visibility": 9,
    "temperatureC": 12,
    "dewPointC": 10,
    "cloudCeiling": 4800,
    "altimeter": "A3014",
    "timestamp": "2025-10-26T22:51:00+00:00",
    "station": "KSTL"
  }
}