{
  "lastUpdated": "2025-11-14T01:08:12.946851+00:00",
  "kcps": {
    "metar": "KCPS 140053Z 16005KT 10SM CLR 13/02 A3012 RMK AO2 SLP200 T01330022",
    "windDirection": 160,
    "windSpeed": 5,
    "windGust": null,
    "visibility": 10,
    "temperatureC": 13,
    "dewPointC": 2,
    "cloudCeiling": 99999,
    "altimeter": "A3012",
    "timestamp": "2025-11-14T00:53:00+00:00",
    "station": "KCPS"
  },
  "kstl": {
    "metar": "KSTL 140051Z 16007KT 10SM FEW200 SCT250 15/02 A3011 RMK AO2 SLP197 T01500022",
    "windDirection": 160,
    "windSpeed": 7,
    "windGust": null,
    "visibility": 10,
    "temperatureC": 15,
    "dewPointC": 2,
    "cloudCeiling": null,
    "altimeter": "A3011",
    "timestamp": "2025-11-14T00:51:00+00:00",
    "station": "KSTL"
  }
}