{
  "lastUpdated": "2025-12-24T16:22:20.326783+00:00",
  "kcps": {
    "metar": "KCPS 241553Z 13007KT 8SM BR OVC008 12/10 A3021 RMK AO2 CIG 007V011 SLP232 T01170100 $",
    "windDirection": 130,
    "windSpeed": 7,
    "windGust": null,
    "visibility": 8,
    "temperatureC": 12,
    "dewPointC": 10,
    "cloudCeiling": 800,
    "altimeter": "A3021",
    "timestamp": "2025-12-24T15:53:00+00:00",
    "station": "KCPS"
  },
  "kstl": {
    "metar": "KSTL 241558Z 12008KT 7SM OVC009 11/09 A3021 RMK AO2 T01110089 $",
    "windDirection": 120,
    "windSpeed": 8,
    "windGust": null,
    "visibility": 7,
    "temperatureC": 11,
    "dewPointC": 9,
    "cloudCeiling": 900,
    "altimeter": "A3021",
    "timestamp": "2025-12-24T15:58:00+00:00",
    "station": "KSTL"
  }
}