{
  "lastUpdated": "2026-01-06T04:56:54.374594+00:00",
  "kcps": {
    "metar": "KCPS 060453Z 18003KT 10SM CLR 07/05 A2971 RMK AO2 SLP062 T00720050",
    "windDirection": 180,
    "windSpeed": 3,
    "windGust": null,
    "visibility": 10,
    "temperatureC": 7,
    "dewPointC": 5,
    "cloudCeiling": 99999,
    "altimeter": "A2971",
    "timestamp": "2026-01-06T04:53:00+00:00",
    "station": "KCPS"
  },
  "kstl": {
    "metar": "KSTL 060451Z 18007KT 10SM FEW200 OVC250 10/06 A2970 RMK AO2 SLP056 T01000061 $",
    "windDirection": 180,
    "windSpeed": 7,
    "windGust": null,
    "visibility": 10,
    "temperatureC": 10,
    "dewPointC": 6,
    "cloudCeiling": 25000,
    "altimeter": "A2970",
    "timestamp": "2026-01-06T04:51:00+00:00",
    "station": "KSTL"
  }
}