{
  "lastUpdated": "2025-12-24T06:02:48.920315+00:00",
  "kcps": {
    "metar": "KCPS 240553Z 00000KT 1/4SM FG VV001 06/06 A3022 RMK AO2 SLP233 T00610056 10133 20056 402110011 58002 $",
    "windDirection": 0,
    "windSpeed": 0,
    "windGust": null,
    "visibility": 0.25,
    "temperatureC": 6,
    "dewPointC": 6,
    "cloudCeiling": 100,
    "altimeter": "A3022",
    "timestamp": "2025-12-24T05:53:00+00:00",
    "station": "KCPS"
  },
  "kstl": {
    "metar": "KSTL 240551Z 00000KT 6SM BCFG BR FEW000 FEW030 BKN250 06/06 A3023 RMK AO2 SLP236 FG FEW000 T00610061 10111 20050 402000039 50001 $",
    "windDirection": 0,
    "windSpeed": 0,
    "windGust": null,
    "visibility": 6,
    "temperatureC": 6,
    "dewPointC": 6,
    "cloudCeiling": 25000,
    "altimeter": "A3023",
    "timestamp": "2025-12-24T05:51:00+00:00",
    "station": "KSTL"
  }
}