{
  "lastUpdated": "2026-04-05T22:04:23.894871+00:00",
  "kcps": {
    "metar": "KCPS 052153Z 32013KT 10SM CLR 15/00 A3028 RMK AO2 SLP252 T01500000 $",
    "windDirection": 320,
    "windSpeed": 13,
    "windGust": null,
    "visibility": 10,
    "temperatureC": 15,
    "dewPointC": 0,
    "cloudCeiling": 99999,
    "altimeter": "A3028",
    "timestamp": "2026-04-05T21:53:00+00:00",
    "station": "KCPS"
  },
  "kstl": {
    "metar": "KSTL 052151Z 31012G22KT 10SM FEW040 15/00 A3028 RMK AO2 SLP257 T01500000 $",
    "windDirection": 310,
    "windSpeed": 12,
    "windGust": 22,
    "visibility": 10,
    "temperatureC": 15,
    "dewPointC": 0,
    "cloudCeiling": null,
    "altimeter": "A3028",
    "timestamp": "2026-04-05T21:51:00+00:00",
    "station": "KSTL"
  }
}