{
  "lastUpdated": "2026-06-14T08:31:34.636778+00:00",
  "kcps": {
    "metar": "KCPS 140753Z AUTO 21005KT 10SM CLR 22/21 A2984 RMK AO2 SLP100 T02170211 $",
    "windDirection": 210,
    "windSpeed": 5,
    "windGust": null,
    "visibility": 10.0,
    "temperatureC": 21.7,
    "dewPointC": 21.1,
    "cloudCeiling": null,
    "altimeter": "A2984",
    "timestamp": "2026-06-14T08:00:00.000Z",
    "station": "KCPS"
  },
  "kstl": {
    "metar": "KSTL 140751Z 21012KT 10SM BKN190 23/20 A2984 RMK AO2 SLP093 T02280200 $",
    "windDirection": 210,
    "windSpeed": 12,
    "windGust": null,
    "visibility": 10.0,
    "temperatureC": 22.8,
    "dewPointC": 20,
    "cloudCeiling": 19000,
    "altimeter": "A2984",
    "timestamp": "2026-06-14T08:00:00.000Z",
    "station": "KSTL"
  }
}