{
  "lastUpdated": "2026-03-19T02:36:18.981847+00:00",
  "kcps": {
    "metar": "KCPS 190153Z 15007KT 10SM CLR 13/03 A3004 RMK AO2 SLP172 T01330033 $",
    "windDirection": 150,
    "windSpeed": 7,
    "windGust": null,
    "visibility": 10,
    "temperatureC": 13,
    "dewPointC": 3,
    "cloudCeiling": 99999,
    "altimeter": "A3004",
    "timestamp": "2026-03-19T01:53:00+00:00",
    "station": "KCPS"
  },
  "kstl": {
    "metar": "KSTL 190151Z 11006KT 10SM BKN140 13/03 A3004 RMK AO2 SLP175 T01330028",
    "windDirection": 110,
    "windSpeed": 6,
    "windGust": null,
    "visibility": 10,
    "temperatureC": 13,
    "dewPointC": 3,
    "cloudCeiling": 14000,
    "altimeter": "A3004",
    "timestamp": "2026-03-19T01:51:00+00:00",
    "station": "KSTL"
  }
}