{
  "lastUpdated": "2026-01-20T15:06:06.742537+00:00",
  "kcps": {
    "metar": "KCPS 201453Z 17005KT 10SM OVC050 M08/M15 A3045 RMK AO2 SLP318 T10781150 53000 $",
    "windDirection": 170,
    "windSpeed": 5,
    "windGust": null,
    "visibility": 10,
    "temperatureC": -8,
    "dewPointC": -15,
    "cloudCeiling": 5000,
    "altimeter": "A3045",
    "timestamp": "2026-01-20T14:53:00+00:00",
    "station": "KCPS"
  },
  "kstl": {
    "metar": "KSTL 201451Z 19004KT 10SM OVC050 M06/M17 A3042 RMK AO2 SLP320 T10611172 55000 $",
    "windDirection": 190,
    "windSpeed": 4,
    "windGust": null,
    "visibility": 10,
    "temperatureC": -6,
    "dewPointC": -17,
    "cloudCeiling": 5000,
    "altimeter": "A3042",
    "timestamp": "2026-01-20T14:51:00+00:00",
    "station": "KSTL"
  }
}