{
  "lastUpdated": "2026-01-30T20:04:16.463410+00:00",
  "kcps": {
    "metar": "KCPS 301953Z 36007KT 10SM CLR M08/M17 A3038 RMK AO2 SLP294 T10781172 $",
    "windDirection": 360,
    "windSpeed": 7,
    "windGust": null,
    "visibility": 10,
    "temperatureC": -8,
    "dewPointC": -17,
    "cloudCeiling": 99999,
    "altimeter": "A3038",
    "timestamp": "2026-01-30T19:53:00+00:00",
    "station": "KCPS"
  },
  "kstl": {
    "metar": "KSTL 301951Z 34008KT 10SM SCT180 M08/M17 A3038 RMK AO2 SLP307 T10831172 $",
    "windDirection": 340,
    "windSpeed": 8,
    "windGust": null,
    "visibility": 10,
    "temperatureC": -8,
    "dewPointC": -17,
    "cloudCeiling": null,
    "altimeter": "A3038",
    "timestamp": "2026-01-30T19:51:00+00:00",
    "station": "KSTL"
  }
}