{
  "lastUpdated": "2026-03-11T23:38:24.984905+00:00",
  "kcps": {
    "metar": "KCPS 112253Z 33018G33KT 10SM BKN026 OVC030 06/02 A3012 RMK AO2 PK WND 32035/2204 RAB06E10B37E47 SLP198 P0000 T00610017 $",
    "windDirection": 330,
    "windSpeed": 18,
    "windGust": 33,
    "visibility": 10,
    "temperatureC": 6,
    "dewPointC": 2,
    "cloudCeiling": 2600,
    "altimeter": "A3012",
    "timestamp": "2026-03-11T22:53:00+00:00",
    "station": "KCPS"
  },
  "kstl": {
    "metar": "KSTL 112251Z 32018G28KT 10SM BKN028 OVC080 06/02 A3012 RMK AO2 PK WND 32030/2200 SLP200 T00610017 $",
    "windDirection": 320,
    "windSpeed": 18,
    "windGust": 28,
    "visibility": 10,
    "temperatureC": 6,
    "dewPointC": 2,
    "cloudCeiling": 2800,
    "altimeter": "A3012",
    "timestamp": "2026-03-11T22:51:00+00:00",
    "station": "KSTL"
  }
}