{
  "lastUpdated": "2026-02-10T02:36:46.401934+00:00",
  "kcps": {
    "metar": "KCPS 100153Z 15005KT 10SM CLR 07/01 A2999 RMK AO2 SLP160 T00670011 $",
    "windDirection": 150,
    "windSpeed": 5,
    "windGust": null,
    "visibility": 10,
    "temperatureC": 7,
    "dewPointC": 1,
    "cloudCeiling": 99999,
    "altimeter": "A2999",
    "timestamp": "2026-02-10T01:53:00+00:00",
    "station": "KCPS"
  },
  "kstl": {
    "metar": "KSTL 100151Z 14011KT 10SM SCT250 09/02 A2998 RMK AO2 SLP161 T00940022 $",
    "windDirection": 140,
    "windSpeed": 11,
    "windGust": null,
    "visibility": 10,
    "temperatureC": 9,
    "dewPointC": 2,
    "cloudCeiling": null,
    "altimeter": "A2998",
    "timestamp": "2026-02-10T01:51:00+00:00",
    "station": "KSTL"
  }
}