{
  "lastUpdated": "2025-12-24T03:14:00.592161+00:00",
  "kcps": {
    "metar": "KCPS 240253Z 21003KT 4SM BR SCT037 10/09 A3023 RMK AO2 SLP235 T01000094 51014 $",
    "windDirection": 210,
    "windSpeed": 3,
    "windGust": null,
    "visibility": 4,
    "temperatureC": 10,
    "dewPointC": 9,
    "cloudCeiling": null,
    "altimeter": "A3023",
    "timestamp": "2025-12-24T02:53:00+00:00",
    "station": "KCPS"
  },
  "kstl": {
    "metar": "KSTL 240251Z 00000KT 8SM FEW032 08/08 A3023 RMK AO2 SLP237 T00780078 51010 $",
    "windDirection": 0,
    "windSpeed": 0,
    "windGust": null,
    "visibility": 8,
    "temperatureC": 8,
    "dewPointC": 8,
    "cloudCeiling": null,
    "altimeter": "A3023",
    "timestamp": "2025-12-24T02:51:00+00:00",
    "station": "KSTL"
  }
}