{
  "lastUpdated": "2026-05-28T01:54:05.127210+00:00",
  "kcps": {
    "metar": "KCPS 280053Z 00000KT 10SM CLR 26/19 A2996 RMK AO2 SLP142 T02610189 $",
    "windDirection": 0,
    "windSpeed": 0,
    "windGust": null,
    "visibility": 10,
    "temperatureC": 26,
    "dewPointC": 19,
    "cloudCeiling": 99999,
    "altimeter": "A2996",
    "timestamp": "2026-05-28T00:53:00+00:00",
    "station": "KCPS"
  },
  "kstl": {
    "metar": "KSTL 280151Z 19003KT 10SM FEW100 OVC250 26/18 A2998 RMK AO2 SLP140 T02560178 $",
    "windDirection": 190,
    "windSpeed": 3,
    "windGust": null,
    "visibility": 10,
    "temperatureC": 26,
    "dewPointC": 18,
    "cloudCeiling": 25000,
    "altimeter": "A2998",
    "timestamp": "2026-05-28T01:51:00+00:00",
    "station": "KSTL"
  }
}