{
  "lastUpdated": "2025-10-20T14:35:44.251979+00:00",
  "kcps": {
    "metar": "KCPS 201353Z 10SM CLR 10/05 A3005 RMK AO2 SLP175 T01000050",
    "windDirection": null,
    "windSpeed": null,
    "windGust": null,
    "visibility": 10,
    "temperatureC": 10,
    "dewPointC": 5,
    "cloudCeiling": 99999,
    "altimeter": "A3005",
    "timestamp": "2025-10-20T13:53:00+00:00",
    "station": "KCPS"
  },
  "kstl": {
    "metar": "KSTL 201351Z 18009KT 10SM CLR 12/03 A3004 RMK AO2 SLP171 T01170033 $",
    "windDirection": 180,
    "windSpeed": 9,
    "windGust": null,
    "visibility": 10,
    "temperatureC": 12,
    "dewPointC": 3,
    "cloudCeiling": 99999,
    "altimeter": "A3004",
    "timestamp": "2025-10-20T13:51:00+00:00",
    "station": "KSTL"
  }
}