{
  "lastUpdated": "2025-11-05T05:21:37.549712+00:00",
  "kcps": {
    "metar": "KCPS 050453Z AUTO VRB05KT 10SM CLR 15/09 A3002 RMK AO2 SLP165 T01500089 TSNO",
    "windDirection": null,
    "windSpeed": null,
    "windGust": null,
    "visibility": 10,
    "temperatureC": 15,
    "dewPointC": 9,
    "cloudCeiling": 99999,
    "altimeter": "A3002",
    "timestamp": "2025-11-05T04:53:00+00:00",
    "station": "KCPS"
  },
  "kstl": {
    "metar": "KSTL 050451Z 20008KT 10SM SCT250 16/09 A3002 RMK AO2 SLP162 T01560089 $",
    "windDirection": 200,
    "windSpeed": 8,
    "windGust": null,
    "visibility": 10,
    "temperatureC": 16,
    "dewPointC": 9,
    "cloudCeiling": null,
    "altimeter": "A3002",
    "timestamp": "2025-11-05T04:51:00+00:00",
    "station": "KSTL"
  }
}