{
  "lastUpdated": "2025-10-27T05:47:51.280960+00:00",
  "kcps": {
    "metar": "KCPS 270513Z AUTO 10009KT 10SM -RA BKN013 OVC019 11/09 A3010 RMK AO2 RAB02 P0000 T01110094 $",
    "windDirection": 100,
    "windSpeed": 9,
    "windGust": null,
    "visibility": 10,
    "temperatureC": 11,
    "dewPointC": 9,
    "cloudCeiling": 1300,
    "altimeter": "A3010",
    "timestamp": "2025-10-27T05:13:00+00:00",
    "station": "KCPS"
  },
  "kstl": {
    "metar": "KSTL 270518Z 09010KT 10SM BKN017 OVC036 11/09 A3011 RMK AO2 T01110094 $",
    "windDirection": 90,
    "windSpeed": 10,
    "windGust": null,
    "visibility": 10,
    "temperatureC": 11,
    "dewPointC": 9,
    "cloudCeiling": 1700,
    "altimeter": "A3011",
    "timestamp": "2025-10-27T05:18:00+00:00",
    "station": "KSTL"
  }
}