{
  "lastUpdated": "2026-03-27T03:42:18.206828+00:00",
  "kcps": {
    "metar": "KCPS 270312Z AUTO 01028G37KT 10SM BKN100 19/11 A2984 RMK AO2 PK WND 35040/0254 WSHFT 0252 T01890106 $",
    "windDirection": 10,
    "windSpeed": 28,
    "windGust": 37,
    "visibility": 10,
    "temperatureC": 19,
    "dewPointC": 11,
    "cloudCeiling": 10000,
    "altimeter": "A2984",
    "timestamp": "2026-03-27T03:12:00+00:00",
    "station": "KCPS"
  },
  "kstl": {
    "metar": "KSTL 270251Z 36020G34KT 10SM BKN100 BKN250 16/09 A2985 RMK AO2 PK WND 01037/0236 SLP098 T01610094 53049 $",
    "windDirection": 360,
    "windSpeed": 20,
    "windGust": 34,
    "visibility": 10,
    "temperatureC": 16,
    "dewPointC": 9,
    "cloudCeiling": 10000,
    "altimeter": "A2985",
    "timestamp": "2026-03-27T02:51:00+00:00",
    "station": "KSTL"
  }
}