{
  "lastUpdated": "2025-12-25T13:40:17.257571+00:00",
  "kcps": {
    "metar": "KCPS 251253Z 00000KT 3SM BR OVC017 13/13 A3006 RMK AO2 SLP179 T01330128 $",
    "windDirection": 0,
    "windSpeed": 0,
    "windGust": null,
    "visibility": 3,
    "temperatureC": 13,
    "dewPointC": 13,
    "cloudCeiling": 1700,
    "altimeter": "A3006",
    "timestamp": "2025-12-25T12:53:00+00:00",
    "station": "KCPS"
  },
  "kstl": {
    "metar": "KSTL 251308Z 00000KT 3SM BR BKN003 OVC019 12/12 A3007 RMK AO2 SFC VIS 4 T01220117 $",
    "windDirection": 0,
    "windSpeed": 0,
    "windGust": null,
    "visibility": 3,
    "temperatureC": 12,
    "dewPointC": 12,
    "cloudCeiling": 300,
    "altimeter": "A3007",
    "timestamp": "2025-12-25T13:08:00+00:00",
    "station": "KSTL"
  }
}