{
  "lastUpdated": "2026-02-07T17:05:47.379537+00:00",
  "kcps": {
    "metar": "KCPS 071653Z 09003KT 10SM CLR 01/M08 A3046 RMK AO2 SLP317 T00111083 $",
    "windDirection": 90,
    "windSpeed": 3,
    "windGust": null,
    "visibility": 10,
    "temperatureC": 1,
    "dewPointC": -8,
    "cloudCeiling": 99999,
    "altimeter": "A3046",
    "timestamp": "2026-02-07T16:53:00+00:00",
    "station": "KCPS"
  },
  "kstl": {
    "metar": "KSTL 071651Z 08004KT 10SM FEW250 00/M07 A3045 RMK AO2 SLP320 T00001072 $",
    "windDirection": 80,
    "windSpeed": 4,
    "windGust": null,
    "visibility": 10,
    "temperatureC": 0,
    "dewPointC": -7,
    "cloudCeiling": null,
    "altimeter": "A3045",
    "timestamp": "2026-02-07T16:51:00+00:00",
    "station": "KSTL"
  }
}