{
  "lastUpdated": "2025-11-21T15:21:07.739299+00:00",
  "kcps": {
    "metar": "KCPS 211453Z 00000KT 5SM -RA BR OVC005 12/12 A2996 RMK AO2 RAB19 SLP145 P0001 60012 T01220117 56006 $",
    "windDirection": 0,
    "windSpeed": 0,
    "windGust": null,
    "visibility": 5,
    "temperatureC": 12,
    "dewPointC": 12,
    "cloudCeiling": 500,
    "altimeter": "A2996",
    "timestamp": "2025-11-21T14:53:00+00:00",
    "station": "KCPS"
  },
  "kstl": {
    "metar": "KSTL 211451Z 10008KT 7SM BKN004 OVC014 12/12 A2996 RMK AO2 RAE43 SLP144 P0000 60007 T01220117 57009 $",
    "windDirection": 100,
    "windSpeed": 8,
    "windGust": null,
    "visibility": 7,
    "temperatureC": 12,
    "dewPointC": 12,
    "cloudCeiling": 400,
    "altimeter": "A2996",
    "timestamp": "2025-11-21T14:51:00+00:00",
    "station": "KSTL"
  }
}