{
  "lastUpdated": "2026-05-31T18:39:11.158832+00:00",
  "kcps": {
    "metar": "KCPS 311753Z 19003KT 10SM SCT095 27/16 A3001 RMK AO2 LTG DSNT W SLP159 60000 T02670156 10267 20194 58001 $",
    "windDirection": 190,
    "windSpeed": 3,
    "windGust": null,
    "visibility": 10,
    "temperatureC": 27,
    "dewPointC": 16,
    "cloudCeiling": null,
    "altimeter": "A3001",
    "timestamp": "2026-05-31T17:53:00+00:00",
    "station": "KCPS"
  },
  "kstl": {
    "metar": "KSTL 311751Z 00000KT 10SM BKN085 OVC250 26/15 A3003 RMK AO2 SLP159 T02560150 10256 20200 52002 $",
    "windDirection": 0,
    "windSpeed": 0,
    "windGust": null,
    "visibility": 10,
    "temperatureC": 26,
    "dewPointC": 15,
    "cloudCeiling": 8500,
    "altimeter": "A3003",
    "timestamp": "2026-05-31T17:51:00+00:00",
    "station": "KSTL"
  }
}