{
  "lastUpdated": "2026-05-25T16:00:52.632140+00:00",
  "kcps": {
    "metar": "KCPS 251553Z 07007KT 10SM CLR 24/12 A3015 RMK AO2 SLP207 T02440117 $",
    "windDirection": 70,
    "windSpeed": 7,
    "windGust": null,
    "visibility": 10,
    "temperatureC": 24,
    "dewPointC": 12,
    "cloudCeiling": 99999,
    "altimeter": "A3015",
    "timestamp": "2026-05-25T15:53:00+00:00",
    "station": "KCPS"
  },
  "kstl": {
    "metar": "KSTL 251551Z 09007KT 10SM BKN250 24/12 A3016 RMK AO2 SLP204 T02440122 $",
    "windDirection": 90,
    "windSpeed": 7,
    "windGust": null,
    "visibility": 10,
    "temperatureC": 24,
    "dewPointC": 12,
    "cloudCeiling": 25000,
    "altimeter": "A3016",
    "timestamp": "2026-05-25T15:51:00+00:00",
    "station": "KSTL"
  }
}