{
  "lastUpdated": "2026-04-30T00:03:22.793961+00:00",
  "kcps": {
    "metar": "KCPS 292353Z 34012KT 10SM CLR 15/04 A3000 RMK AO2 SLP159 T01500039 10178 20150 53000 $",
    "windDirection": 340,
    "windSpeed": 12,
    "windGust": null,
    "visibility": 10,
    "temperatureC": 15,
    "dewPointC": 4,
    "cloudCeiling": 99999,
    "altimeter": "A3000",
    "timestamp": "2026-04-29T23:53:00+00:00",
    "station": "KCPS"
  },
  "kstl": {
    "metar": "KSTL 292351Z 34010KT 10SM FEW050 BKN170 OVC250 14/03 A3001 RMK AO2 SLP163 T01440033 10178 20144 55000 $",
    "windDirection": 340,
    "windSpeed": 10,
    "windGust": null,
    "visibility": 10,
    "temperatureC": 14,
    "dewPointC": 3,
    "cloudCeiling": 17000,
    "altimeter": "A3001",
    "timestamp": "2026-04-29T23:51:00+00:00",
    "station": "KSTL"
  }
}