{
  "lastUpdated": "2026-04-21T23:59:29.752118+00:00",
  "kcps": {
    "metar": "KCPS 212353Z 22008G17KT 10SM CLR 27/06 A2997 RMK AO2 SLP146 T02670056 10283 20250 55004 $",
    "windDirection": 220,
    "windSpeed": 8,
    "windGust": 17,
    "visibility": 10,
    "temperatureC": 27,
    "dewPointC": 6,
    "cloudCeiling": 99999,
    "altimeter": "A2997",
    "timestamp": "2026-04-21T23:53:00+00:00",
    "station": "KCPS"
  },
  "kstl": {
    "metar": "KSTL 212351Z 22016G26KT 10SM SCT250 26/09 A2997 RMK AO2 PK WND 22027/2325 SLP144 T02610089 10278 20244 56005 $",
    "windDirection": 220,
    "windSpeed": 16,
    "windGust": 26,
    "visibility": 10,
    "temperatureC": 26,
    "dewPointC": 9,
    "cloudCeiling": null,
    "altimeter": "A2997",
    "timestamp": "2026-04-21T23:51:00+00:00",
    "station": "KSTL"
  }
}