{
  "lastUpdated": "2026-01-18T22:21:33.218122+00:00",
  "kcps": {
    "metar": "KCPS 182153Z 19006KT 10SM OVC090 M02/M14 A2999 RMK AO2 SLP163 T10221144 $",
    "windDirection": 190,
    "windSpeed": 6,
    "windGust": null,
    "visibility": 10,
    "temperatureC": -2,
    "dewPointC": -14,
    "cloudCeiling": 9000,
    "altimeter": "A2999",
    "timestamp": "2026-01-18T21:53:00+00:00",
    "station": "KCPS"
  },
  "kstl": {
    "metar": "KSTL 182151Z 23010KT 10SM BKN080 BKN250 M03/M15 A2999 RMK AO2 SLP171 T10281150 $",
    "windDirection": 230,
    "windSpeed": 10,
    "windGust": null,
    "visibility": 10,
    "temperatureC": -3,
    "dewPointC": -15,
    "cloudCeiling": 8000,
    "altimeter": "A2999",
    "timestamp": "2026-01-18T21:51:00+00:00",
    "station": "KSTL"
  }
}