{
  "lastUpdated": "2026-01-11T16:49:51.639056+00:00",
  "kcps": {
    "metar": "KCPS 111553Z 34010KT 10SM CLR M01/M09 A3051 RMK AO2 SLP335 T10111089 $",
    "windDirection": 340,
    "windSpeed": 10,
    "windGust": null,
    "visibility": 10,
    "temperatureC": -1,
    "dewPointC": -9,
    "cloudCeiling": 99999,
    "altimeter": "A3051",
    "timestamp": "2026-01-11T15:53:00+00:00",
    "station": "KCPS"
  },
  "kstl": {
    "metar": "KSTL 111551Z 30011G16KT 10SM CLR M01/M08 A3050 RMK AO2 SLP339 T10111083 $",
    "windDirection": 300,
    "windSpeed": 11,
    "windGust": 16,
    "visibility": 10,
    "temperatureC": -1,
    "dewPointC": -8,
    "cloudCeiling": 99999,
    "altimeter": "A3050",
    "timestamp": "2026-01-11T15:51:00+00:00",
    "station": "KSTL"
  }
}