{
  "lastUpdated": "2025-11-21T19:46:33.980890+00:00",
  "kcps": {
    "metar": "KCPS 211853Z 00000KT 10SM OVC005 14/13 A2986 RMK AO2 SLP111 T01440133",
    "windDirection": 0,
    "windSpeed": 0,
    "windGust": null,
    "visibility": 10,
    "temperatureC": 14,
    "dewPointC": 13,
    "cloudCeiling": 500,
    "altimeter": "A2986",
    "timestamp": "2025-11-21T18:53:00+00:00",
    "station": "KCPS"
  },
  "kstl": {
    "metar": "KSTL 211939Z 09005KT 4SM BR OVC003 13/12 A2985 RMK AO2 T01280122 $",
    "windDirection": 90,
    "windSpeed": 5,
    "windGust": null,
    "visibility": 4,
    "temperatureC": 13,
    "dewPointC": 12,
    "cloudCeiling": 300,
    "altimeter": "A2985",
    "timestamp": "2025-11-21T19:39:00+00:00",
    "station": "KSTL"
  }
}