{
  "lastUpdated": "2025-11-21T13:47:46.620391+00:00",
  "kcps": {
    "metar": "KCPS 211341Z 00000KT 10SM -RA SCT006 OVC024 12/12 A2997 RMK AO2 P0001 T01220117 $",
    "windDirection": 0,
    "windSpeed": 0,
    "windGust": null,
    "visibility": 10,
    "temperatureC": 12,
    "dewPointC": 12,
    "cloudCeiling": 2400,
    "altimeter": "A2997",
    "timestamp": "2025-11-21T13:41:00+00:00",
    "station": "KCPS"
  },
  "kstl": {
    "metar": "KSTL 211333Z 11008KT 6SM -RA BR OVC003 12/11 A2997 RMK AO2 P0001 T01170111 $",
    "windDirection": 110,
    "windSpeed": 8,
    "windGust": null,
    "visibility": 6,
    "temperatureC": 12,
    "dewPointC": 11,
    "cloudCeiling": 300,
    "altimeter": "A2997",
    "timestamp": "2025-11-21T13:33:00+00:00",
    "station": "KSTL"
  }
}