{
  "lastUpdated": "2026-04-30T04:24:52.383973+00:00",
  "kcps": {
    "metar": "KCPS 300353Z AUTO 35007KT 10SM CLR 12/03 A3008 RMK AO2 SLP185 T01220033 $",
    "windDirection": 350,
    "windSpeed": 7,
    "windGust": null,
    "visibility": 10,
    "temperatureC": 12,
    "dewPointC": 3,
    "cloudCeiling": 99999,
    "altimeter": "A3008",
    "timestamp": "2026-04-30T03:53:00+00:00",
    "station": "KCPS"
  },
  "kstl": {
    "metar": "KSTL 300351Z 32003KT 10SM BKN250 12/04 A3009 RMK AO2 SLP187 T01170044 $",
    "windDirection": 320,
    "windSpeed": 3,
    "windGust": null,
    "visibility": 10,
    "temperatureC": 12,
    "dewPointC": 4,
    "cloudCeiling": 25000,
    "altimeter": "A3009",
    "timestamp": "2026-04-30T03:51:00+00:00",
    "station": "KSTL"
  }
}