{
  "lastUpdated": "2025-12-08T00:40:46.539174+00:00",
  "kcps": {
    "metar": "KCPS 072322Z 01009KT 9SM OVC015 01/M02 A3021 RMK AO2 T00111017 $",
    "windDirection": 10,
    "windSpeed": 9,
    "windGust": null,
    "visibility": 9,
    "temperatureC": 1,
    "dewPointC": -2,
    "cloudCeiling": 1500,
    "altimeter": "A3021",
    "timestamp": "2025-12-07T23:22:00+00:00",
    "station": "KCPS"
  },
  "kstl": {
    "metar": "KSTL 072351Z 01010KT 10SM OVC015 00/M03 A3023 RMK AO2 SLP244 T00001028 10033 20000 51026 $",
    "windDirection": 10,
    "windSpeed": 10,
    "windGust": null,
    "visibility": 10,
    "temperatureC": 0,
    "dewPointC": -3,
    "cloudCeiling": 1500,
    "altimeter": "A3023",
    "timestamp": "2025-12-07T23:51:00+00:00",
    "station": "KSTL"
  }
}