{
  "lastUpdated": "2026-05-10T00:22:43.582411+00:00",
  "kcps": {
    "metar": "KCPS 092353Z 26004KT 10SM CLR 26/10 A2976 RMK AO2 SLP075 T02610100 10272 20239 55003 $",
    "windDirection": 260,
    "windSpeed": 4,
    "windGust": null,
    "visibility": 10,
    "temperatureC": 26,
    "dewPointC": 10,
    "cloudCeiling": 99999,
    "altimeter": "A2976",
    "timestamp": "2026-05-09T23:53:00+00:00",
    "station": "KCPS"
  },
  "kstl": {
    "metar": "KSTL 092351Z 31004KT 10SM FEW050 SCT250 26/09 A2977 RMK AO2 SLP075 T02560094 10267 20239 55002 $",
    "windDirection": 310,
    "windSpeed": 4,
    "windGust": null,
    "visibility": 10,
    "temperatureC": 26,
    "dewPointC": 9,
    "cloudCeiling": null,
    "altimeter": "A2977",
    "timestamp": "2026-05-09T23:51:00+00:00",
    "station": "KSTL"
  }
}