{
  "lastUpdated": "2025-10-21T16:22:43.080575+00:00",
  "kcps": {
    "metar": "KCPS 211553Z 28016G22KT 10SM CLR 17/04 A2995 RMK AO2 PK WND 29026/1540 SLP140 T01670044",
    "windDirection": 280,
    "windSpeed": 16,
    "windGust": 22,
    "visibility": 10,
    "temperatureC": 17,
    "dewPointC": 4,
    "cloudCeiling": 99999,
    "altimeter": "A2995",
    "timestamp": "2025-10-21T15:53:00+00:00",
    "station": "KCPS"
  },
  "kstl": {
    "metar": "KSTL 211551Z 27019G25KT 10SM FEW050 17/03 A2995 RMK AO2 PK WND 28026/1512 SLP135 T01670028 $",
    "windDirection": 270,
    "windSpeed": 19,
    "windGust": 25,
    "visibility": 10,
    "temperatureC": 17,
    "dewPointC": 3,
    "cloudCeiling": null,
    "altimeter": "A2995",
    "timestamp": "2025-10-21T15:51:00+00:00",
    "station": "KSTL"
  }
}