{
  "lastUpdated": "2025-10-14T05:33:56.674506+00:00",
  "kcps": {
    "metar": "KCPS 140453Z AUTO 00000KT 10SM CLR 17/15 A3014 RMK AO2 SLP203 T01670150 $",
    "windDirection": 0,
    "windSpeed": 0,
    "windGust": null,
    "visibility": 10,
    "temperatureC": 17,
    "dewPointC": 15,
    "cloudCeiling": 99999,
    "altimeter": "A3014",
    "timestamp": "2025-10-14T04:53:00+00:00",
    "station": "KCPS"
  },
  "kstl": {
    "metar": "KSTL 140451Z 10003KT 10SM FEW070 BKN200 21/14 A3014 RMK AO2 SLP198 T02110144 $",
    "windDirection": 100,
    "windSpeed": 3,
    "windGust": null,
    "visibility": 10,
    "temperatureC": 21,
    "dewPointC": 14,
    "cloudCeiling": 20000,
    "altimeter": "A3014",
    "timestamp": "2025-10-14T04:51:00+00:00",
    "station": "KSTL"
  }
}