{
  "lastUpdated": "2026-06-10T02:38:50.296851+00:00",
  "kcps": {
    "metar": "KCPS 100153Z 17004KT 10SM CLR 29/24 A2988 RMK AO2 SLP112 T02940244 $",
    "windDirection": 170,
    "windSpeed": 4,
    "windGust": null,
    "visibility": 10,
    "temperatureC": 29,
    "dewPointC": 24,
    "cloudCeiling": 99999,
    "altimeter": "A2988",
    "timestamp": "2026-06-10T01:53:00+00:00",
    "station": "KCPS"
  },
  "kstl": {
    "metar": "KSTL 100151Z 22006KT 10SM FEW045 FEW180 SCT250 31/24 A2989 RMK AO2 SLP106 T03060244 $",
    "windDirection": 220,
    "windSpeed": 6,
    "windGust": null,
    "visibility": 10,
    "temperatureC": 31,
    "dewPointC": 24,
    "cloudCeiling": null,
    "altimeter": "A2989",
    "timestamp": "2026-06-10T01:51:00+00:00",
    "station": "KSTL"
  }
}