{
  "lastUpdated": "2025-10-21T05:34:38.327554+00:00",
  "kcps": {
    "metar": "KCPS 210453Z AUTO 31017G28KT 10SM OVC070 19/07 A2987 RMK AO2 PK WND 31028/0446 SLP113 T01940072",
    "windDirection": 310,
    "windSpeed": 17,
    "windGust": 28,
    "visibility": 10,
    "temperatureC": 19,
    "dewPointC": 7,
    "cloudCeiling": 7000,
    "altimeter": "A2987",
    "timestamp": "2025-10-21T04:53:00+00:00",
    "station": "KCPS"
  },
  "kstl": {
    "metar": "KSTL 210451Z 31010G19KT 10SM OVC080 18/07 A2988 RMK AO2 PK WND 32026/0359 SLP113 T01830072 $",
    "windDirection": 310,
    "windSpeed": 10,
    "windGust": 19,
    "visibility": 10,
    "temperatureC": 18,
    "dewPointC": 7,
    "cloudCeiling": 8000,
    "altimeter": "A2988",
    "timestamp": "2025-10-21T04:51:00+00:00",
    "station": "KSTL"
  }
}