{
  "lastUpdated": "2026-04-26T15:13:31.979562+00:00",
  "kcps": {
    "metar": "KCPS 261453Z 12007KT 10SM CLR 21/12 A2994 RMK AO2 SLP137 T02060122 50001 $",
    "windDirection": 120,
    "windSpeed": 7,
    "windGust": null,
    "visibility": 10,
    "temperatureC": 21,
    "dewPointC": 12,
    "cloudCeiling": 99999,
    "altimeter": "A2994",
    "timestamp": "2026-04-26T14:53:00+00:00",
    "station": "KCPS"
  },
  "kstl": {
    "metar": "KSTL 261451Z 11008KT 10SM FEW250 20/12 A2996 RMK AO2 SLP138 T02000122 50005 $",
    "windDirection": 110,
    "windSpeed": 8,
    "windGust": null,
    "visibility": 10,
    "temperatureC": 20,
    "dewPointC": 12,
    "cloudCeiling": null,
    "altimeter": "A2996",
    "timestamp": "2026-04-26T14:51:00+00:00",
    "station": "KSTL"
  }
}