{
  "lastUpdated": "2026-02-07T14:23:01.814385+00:00",
  "kcps": {
    "metar": "KCPS 071353Z 05004KT 10SM CLR M02/M06 A3039 RMK AO2 SLP293 T10221056 $",
    "windDirection": 50,
    "windSpeed": 4,
    "windGust": null,
    "visibility": 10,
    "temperatureC": -2,
    "dewPointC": -6,
    "cloudCeiling": 99999,
    "altimeter": "A3039",
    "timestamp": "2026-02-07T13:53:00+00:00",
    "station": "KCPS"
  },
  "kstl": {
    "metar": "KSTL 071351Z 06006KT 10SM FEW025 SCT250 M03/M08 A3038 RMK AO2 SLP298 T10281078 $",
    "windDirection": 60,
    "windSpeed": 6,
    "windGust": null,
    "visibility": 10,
    "temperatureC": -3,
    "dewPointC": -8,
    "cloudCeiling": null,
    "altimeter": "A3038",
    "timestamp": "2026-02-07T13:51:00+00:00",
    "station": "KSTL"
  }
}