{
  "lastUpdated": "2026-05-13T17:30:48.240423+00:00",
  "kcps": {
    "metar": "KCPS 131653Z 34015G23KT 10SM CLR 23/04 A3005 RMK AO2 SLP173 T02280044 $",
    "windDirection": 340,
    "windSpeed": 15,
    "windGust": 23,
    "visibility": 10,
    "temperatureC": 23,
    "dewPointC": 4,
    "cloudCeiling": 99999,
    "altimeter": "A3005",
    "timestamp": "2026-05-13T16:53:00+00:00",
    "station": "KCPS"
  },
  "kstl": {
    "metar": "KSTL 131651Z 33014G25KT 10SM CLR 21/04 A3007 RMK AO2 SLP174 T02110044 $",
    "windDirection": 330,
    "windSpeed": 14,
    "windGust": 25,
    "visibility": 10,
    "temperatureC": 21,
    "dewPointC": 4,
    "cloudCeiling": 99999,
    "altimeter": "A3007",
    "timestamp": "2026-05-13T16:51:00+00:00",
    "station": "KSTL"
  }
}