{
  "lastUpdated": "2025-11-23T09:33:17.296156+00:00",
  "kcps": {
    "metar": "KCPS 230753Z 25004KT 10SM OVC007 09/08 A3016 RMK AO2 SLP213 T00890078",
    "windDirection": 250,
    "windSpeed": 4,
    "windGust": null,
    "visibility": 10,
    "temperatureC": 9,
    "dewPointC": 8,
    "cloudCeiling": 700,
    "altimeter": "A3016",
    "timestamp": "2025-11-23T07:53:00+00:00",
    "station": "KCPS"
  },
  "kstl": {
    "metar": "KSTL 230851Z 26011KT 9SM BKN005 08/08 A3017 RMK AO2 SLP218 T00830078 53005 $",
    "windDirection": 260,
    "windSpeed": 11,
    "windGust": null,
    "visibility": 9,
    "temperatureC": 8,
    "dewPointC": 8,
    "cloudCeiling": 500,
    "altimeter": "A3017",
    "timestamp": "2025-11-23T08:51:00+00:00",
    "station": "KSTL"
  }
}