{
  "lastUpdated": "2026-06-12T17:36:45.835508+00:00",
  "kcps": {
    "metar": "KCPS 121653Z 36007KT 10SM CLR 27/11 A3002 RMK AO2 SLP160 T02670106 $",
    "windDirection": 360,
    "windSpeed": 7,
    "windGust": null,
    "visibility": 10.0,
    "temperatureC": 26.7,
    "dewPointC": 10.6,
    "cloudCeiling": null,
    "altimeter": "A3002",
    "timestamp": "2026-06-12T17:00:00.000Z",
    "station": "KCPS"
  },
  "kstl": {
    "metar": "KSTL 121651Z 32005KT 10SM FEW250 26/11 A3003 RMK AO2 SLP159 T02610106 $",
    "windDirection": 320,
    "windSpeed": 5,
    "windGust": null,
    "visibility": 10.0,
    "temperatureC": 26.1,
    "dewPointC": 10.6,
    "cloudCeiling": null,
    "altimeter": "A3003",
    "timestamp": "2026-06-12T17:00:00.000Z",
    "station": "KSTL"
  }
}