{
  "lastUpdated": "2026-06-13T14:44:27.845417+00:00",
  "kcps": {
    "metar": "KCPS 131353Z 16003KT 10SM FEW055 SCT095 SCT120 22/19 A2999 RMK AO2 RAB40E50 SLP151 P0000 T02170189 $",
    "windDirection": 160,
    "windSpeed": 3,
    "windGust": null,
    "visibility": 10.0,
    "temperatureC": 21.7,
    "dewPointC": 18.9,
    "cloudCeiling": null,
    "altimeter": "A2999",
    "timestamp": "2026-06-13T14:00:00.000Z",
    "station": "KCPS"
  },
  "kstl": {
    "metar": "KSTL 131351Z 18009KT 10SM -RA FEW050 BKN120 OVC200 22/18 A2997 RMK AO2 RAB33 SLP138 P0001 T02220183 $",
    "windDirection": 180,
    "windSpeed": 9,
    "windGust": null,
    "visibility": 10.0,
    "temperatureC": 22.2,
    "dewPointC": 18.3,
    "cloudCeiling": 12000,
    "altimeter": "A2997",
    "timestamp": "2026-06-13T14:00:00.000Z",
    "station": "KSTL"
  }
}