{
  "lastUpdated": "2026-01-18T23:21:27.365942+00:00",
  "kcps": {
    "metar": "KCPS 182253Z 24004KT 10SM BKN075 M02/M14 A3000 RMK AO2 SLP166 T10171144 $",
    "windDirection": 240,
    "windSpeed": 4,
    "windGust": null,
    "visibility": 10,
    "temperatureC": -2,
    "dewPointC": -14,
    "cloudCeiling": 7500,
    "altimeter": "A3000",
    "timestamp": "2026-01-18T22:53:00+00:00",
    "station": "KCPS"
  },
  "kstl": {
    "metar": "KSTL 182251Z 24007KT 10SM BKN070 BKN250 M02/M14 A2999 RMK AO2 SLP172 T10221144 $",
    "windDirection": 240,
    "windSpeed": 7,
    "windGust": null,
    "visibility": 10,
    "temperatureC": -2,
    "dewPointC": -14,
    "cloudCeiling": 7000,
    "altimeter": "A2999",
    "timestamp": "2026-01-18T22:51:00+00:00",
    "station": "KSTL"
  }
}