{
  "lastUpdated": "2026-06-01T01:26:15.253845+00:00",
  "kcps": {
    "metar": "KCPS 010053Z 00000KT 10SM CLR 24/18 A2992 RMK AO2 SLP129 T02440178 $",
    "windDirection": 0,
    "windSpeed": 0,
    "windGust": null,
    "visibility": 10,
    "temperatureC": 24,
    "dewPointC": 18,
    "cloudCeiling": 99999,
    "altimeter": "A2992",
    "timestamp": "2026-06-01T00:53:00+00:00",
    "station": "KCPS"
  },
  "kstl": {
    "metar": "KSTL 010051Z 11004KT 10SM FEW120 BKN250 24/18 A2993 RMK AO2 SLP127 T02440178 $",
    "windDirection": 110,
    "windSpeed": 4,
    "windGust": null,
    "visibility": 10,
    "temperatureC": 24,
    "dewPointC": 18,
    "cloudCeiling": 25000,
    "altimeter": "A2993",
    "timestamp": "2026-06-01T00:51:00+00:00",
    "station": "KSTL"
  }
}