{
  "lastUpdated": "2026-01-09T22:36:58.034486+00:00",
  "kcps": {
    "metar": "KCPS 092153Z VRB06KT 10SM CLR 11/04 A3012 RMK AO2 SLP200 T01110039 $",
    "windDirection": null,
    "windSpeed": null,
    "windGust": null,
    "visibility": 10,
    "temperatureC": 11,
    "dewPointC": 4,
    "cloudCeiling": 99999,
    "altimeter": "A3012",
    "timestamp": "2026-01-09T21:53:00+00:00",
    "station": "KCPS"
  },
  "kstl": {
    "metar": "KSTL 092151Z 04004KT 10SM FEW025 FEW250 10/03 A3012 RMK AO2 SLP199 T01000033 $",
    "windDirection": 40,
    "windSpeed": 4,
    "windGust": null,
    "visibility": 10,
    "temperatureC": 10,
    "dewPointC": 3,
    "cloudCeiling": null,
    "altimeter": "A3012",
    "timestamp": "2026-01-09T21:51:00+00:00",
    "station": "KSTL"
  }
}