{
  "lastUpdated": "2026-04-23T19:07:17.139718+00:00",
  "kcps": {
    "metar": "KCPS 231853Z 17013G25KT 10SM SCT060 28/14 A2981 RMK AO2 PK WND 19028/1843 SLP092 T02780139 $",
    "windDirection": 170,
    "windSpeed": 13,
    "windGust": 25,
    "visibility": 10,
    "temperatureC": 28,
    "dewPointC": 14,
    "cloudCeiling": null,
    "altimeter": "A2981",
    "timestamp": "2026-04-23T18:53:00+00:00",
    "station": "KCPS"
  },
  "kstl": {
    "metar": "KSTL 231851Z 16016G25KT 10SM BKN060 BKN250 27/14 A2980 RMK AO2 PK WND 14028/1821 SLP083 T02720139 $",
    "windDirection": 160,
    "windSpeed": 16,
    "windGust": 25,
    "visibility": 10,
    "temperatureC": 27,
    "dewPointC": 14,
    "cloudCeiling": 6000,
    "altimeter": "A2980",
    "timestamp": "2026-04-23T18:51:00+00:00",
    "station": "KSTL"
  }
}