{
  "lastUpdated": "2026-01-24T18:02:33.884641+00:00",
  "kcps": {
    "metar": "KCPS 241753Z 03009KT 1SM -SN VV016 M15/M19 A3056 RMK AO2 SLP359 P0001 60001 T11501189 11150 21167 56020 $",
    "windDirection": 30,
    "windSpeed": 9,
    "windGust": null,
    "visibility": 1,
    "temperatureC": -15,
    "dewPointC": -19,
    "cloudCeiling": 1600,
    "altimeter": "A3056",
    "timestamp": "2026-01-24T17:53:00+00:00",
    "station": "KCPS"
  },
  "kstl": {
    "metar": "KSTL 241751Z 04009KT 1SM R30R/P6000FT -SN BKN023 OVC028 M16/M19 A3055 RMK AO2 SLP373 4/001 P0000 60001 T11611194 11156 21167 58020 $",
    "windDirection": 40,
    "windSpeed": 9,
    "windGust": null,
    "visibility": 1,
    "temperatureC": -16,
    "dewPointC": -19,
    "cloudCeiling": 2300,
    "altimeter": "A3055",
    "timestamp": "2026-01-24T17:51:00+00:00",
    "station": "KSTL"
  }
}