{
  "lastUpdated": "2026-01-28T00:08:14.471282+00:00",
  "kcps": {
    "metar": "KCPS 272353Z 33010KT 10SM CLR M05/M13 A3037 RMK AO2 SLP290 T10501133 11017 21050 51017 $",
    "windDirection": 330,
    "windSpeed": 10,
    "windGust": null,
    "visibility": 10,
    "temperatureC": -5,
    "dewPointC": -13,
    "cloudCeiling": 99999,
    "altimeter": "A3037",
    "timestamp": "2026-01-27T23:53:00+00:00",
    "station": "KCPS"
  },
  "kstl": {
    "metar": "KSTL 272351Z 32009KT 10SM FEW100 BKN250 M05/M13 A3037 RMK AO2 SLP299 4/005 T10501133 11028 21056 51016 $",
    "windDirection": 320,
    "windSpeed": 9,
    "windGust": null,
    "visibility": 10,
    "temperatureC": -5,
    "dewPointC": -13,
    "cloudCeiling": 25000,
    "altimeter": "A3037",
    "timestamp": "2026-01-27T23:51:00+00:00",
    "station": "KSTL"
  }
}