{
  "lastUpdated": "2026-05-25T17:31:07.980459+00:00",
  "kcps": {
    "metar": "KCPS 251653Z 10009G17KT 10SM CLR 26/11 A3014 RMK AO2 SLP202 T02560111 $",
    "windDirection": 100,
    "windSpeed": 9,
    "windGust": 17,
    "visibility": 10,
    "temperatureC": 26,
    "dewPointC": 11,
    "cloudCeiling": 99999,
    "altimeter": "A3014",
    "timestamp": "2026-05-25T16:53:00+00:00",
    "station": "KCPS"
  },
  "kstl": {
    "metar": "KSTL 251651Z 12009KT 10SM BKN250 26/10 A3015 RMK AO2 SLP201 T02560100 $",
    "windDirection": 120,
    "windSpeed": 9,
    "windGust": null,
    "visibility": 10,
    "temperatureC": 26,
    "dewPointC": 10,
    "cloudCeiling": 25000,
    "altimeter": "A3015",
    "timestamp": "2026-05-25T16:51:00+00:00",
    "station": "KSTL"
  }
}