{
  "lastUpdated": "2026-01-05T08:43:14.464951+00:00",
  "kcps": {
    "metar": "KCPS 050753Z AUTO 18004KT 10SM CLR 00/M04 A2993 RMK AO2 SLP139 T00001044 $",
    "windDirection": 180,
    "windSpeed": 4,
    "windGust": null,
    "visibility": 10,
    "temperatureC": 0,
    "dewPointC": -4,
    "cloudCeiling": 99999,
    "altimeter": "A2993",
    "timestamp": "2026-01-05T07:53:00+00:00",
    "station": "KCPS"
  },
  "kstl": {
    "metar": "KSTL 050751Z 18003KT 10SM FEW250 02/M04 A2992 RMK AO2 SLP139 T00221039 $",
    "windDirection": 180,
    "windSpeed": 3,
    "windGust": null,
    "visibility": 10,
    "temperatureC": 2,
    "dewPointC": -4,
    "cloudCeiling": null,
    "altimeter": "A2992",
    "timestamp": "2026-01-05T07:51:00+00:00",
    "station": "KSTL"
  }
}