{
  "lastUpdated": "2026-03-20T19:29:16.215646+00:00",
  "kcps": {
    "metar": "KCPS 201853Z 28008G18KT 10SM CLR 31/06 A2988 RMK AO2 SLP114 T03060056 $",
    "windDirection": 280,
    "windSpeed": 8,
    "windGust": 18,
    "visibility": 10,
    "temperatureC": 31,
    "dewPointC": 6,
    "cloudCeiling": 99999,
    "altimeter": "A2988",
    "timestamp": "2026-03-20T18:53:00+00:00",
    "station": "KCPS"
  },
  "kstl": {
    "metar": "KSTL 201851Z 26011KT 10SM BKN250 30/06 A2989 RMK AO2 SLP113 T03000061 $",
    "windDirection": 260,
    "windSpeed": 11,
    "windGust": null,
    "visibility": 10,
    "temperatureC": 30,
    "dewPointC": 6,
    "cloudCeiling": 25000,
    "altimeter": "A2989",
    "timestamp": "2026-03-20T18:51:00+00:00",
    "station": "KSTL"
  }
}