{
  "lastUpdated": "2026-04-28T23:04:14.836857+00:00",
  "kcps": {
    "metar": "KCPS 282253Z 01007KT 8SM -RA BKN018 BKN055 OVC090 14/13 A2991 RMK AO2 SLP129 P0003 T01440128 $",
    "windDirection": 10,
    "windSpeed": 7,
    "windGust": null,
    "visibility": 8,
    "temperatureC": 14,
    "dewPointC": 13,
    "cloudCeiling": 1800,
    "altimeter": "A2991",
    "timestamp": "2026-04-28T22:53:00+00:00",
    "station": "KCPS"
  },
  "kstl": {
    "metar": "KSTL 282251Z 02008KT 10SM -RA SCT024 BKN050 OVC100 15/12 A2993 RMK AO2 RAE2156B13 SLP133 P0003 T01500122 $",
    "windDirection": 20,
    "windSpeed": 8,
    "windGust": null,
    "visibility": 10,
    "temperatureC": 15,
    "dewPointC": 12,
    "cloudCeiling": 5000,
    "altimeter": "A2993",
    "timestamp": "2026-04-28T22:51:00+00:00",
    "station": "KSTL"
  }
}