{
  "lastUpdated": "2026-01-11T21:02:10.117585+00:00",
  "kcps": {
    "metar": "KCPS 112053Z 27007KT 10SM CLR 03/M08 A3052 RMK AO2 SLP337 T00331083 55005 $",
    "windDirection": 270,
    "windSpeed": 7,
    "windGust": null,
    "visibility": 10,
    "temperatureC": 3,
    "dewPointC": -8,
    "cloudCeiling": 99999,
    "altimeter": "A3052",
    "timestamp": "2026-01-11T20:53:00+00:00",
    "station": "KCPS"
  },
  "kstl": {
    "metar": "KSTL 112051Z 30008KT 10SM FEW250 03/M08 A3051 RMK AO2 SLP343 T00331078 55005 $",
    "windDirection": 300,
    "windSpeed": 8,
    "windGust": null,
    "visibility": 10,
    "temperatureC": 3,
    "dewPointC": -8,
    "cloudCeiling": null,
    "altimeter": "A3051",
    "timestamp": "2026-01-11T20:51:00+00:00",
    "station": "KSTL"
  }
}