{
  "lastUpdated": "2025-11-15T17:20:39.340233+00:00",
  "kcps": {
    "metar": "KCPS 151653Z 25011G18KT 10SM CLR 24/15 A2970 RMK AO2 SLP055 T02440150 $",
    "windDirection": 250,
    "windSpeed": 11,
    "windGust": 18,
    "visibility": 10,
    "temperatureC": 24,
    "dewPointC": 15,
    "cloudCeiling": 99999,
    "altimeter": "A2970",
    "timestamp": "2025-11-15T16:53:00+00:00",
    "station": "KCPS"
  },
  "kstl": {
    "metar": "KSTL 151651Z 26014KT 10SM FEW030 SCT200 BKN250 23/16 A2971 RMK AO2 SLP052 T02280156 $",
    "windDirection": 260,
    "windSpeed": 14,
    "windGust": null,
    "visibility": 10,
    "temperatureC": 23,
    "dewPointC": 16,
    "cloudCeiling": 25000,
    "altimeter": "A2971",
    "timestamp": "2025-11-15T16:51:00+00:00",
    "station": "KSTL"
  }
}