{
  "lastUpdated": "2026-04-28T15:07:53.791108+00:00",
  "kcps": {
    "metar": "KCPS 281453Z VRB05KT 10SM OVC025 15/10 A3004 RMK AO2 SLP171 T01500100 53025 $",
    "windDirection": null,
    "windSpeed": null,
    "windGust": null,
    "visibility": 10,
    "temperatureC": 15,
    "dewPointC": 10,
    "cloudCeiling": 2500,
    "altimeter": "A3004",
    "timestamp": "2026-04-28T14:53:00+00:00",
    "station": "KCPS"
  },
  "kstl": {
    "metar": "KSTL 281451Z 29008KT 10SM OVC024 14/08 A3006 RMK AO2 SLP175 T01390083 53029 $",
    "windDirection": 290,
    "windSpeed": 8,
    "windGust": null,
    "visibility": 10,
    "temperatureC": 14,
    "dewPointC": 8,
    "cloudCeiling": 2400,
    "altimeter": "A3006",
    "timestamp": "2026-04-28T14:51:00+00:00",
    "station": "KSTL"
  }
}