{
  "lastUpdated": "2026-06-12T20:49:46.343177+00:00",
  "kcps": {
    "metar": "KCPS 121953Z VRB04KT 10SM CLR 28/11 A2999 RMK AO2 SLP153 T02830106 $",
    "windDirection": "VRB",
    "windSpeed": 4,
    "windGust": null,
    "visibility": 10.0,
    "temperatureC": 28.3,
    "dewPointC": 10.6,
    "cloudCeiling": null,
    "altimeter": "A2999",
    "timestamp": "2026-06-12T20:00:00.000Z",
    "station": "KCPS"
  },
  "kstl": {
    "metar": "KSTL 121951Z VRB05KT 10SM FEW060 FEW250 28/13 A3001 RMK AO2 SLP152 T02780133 $",
    "windDirection": "VRB",
    "windSpeed": 5,
    "windGust": null,
    "visibility": 10.0,
    "temperatureC": 27.8,
    "dewPointC": 13.3,
    "cloudCeiling": null,
    "altimeter": "A3001",
    "timestamp": "2026-06-12T20:00:00.000Z",
    "station": "KSTL"
  }
}