{
  "lastUpdated": "2026-02-27T05:29:45.924860+00:00",
  "kcps": {
    "metar": "KCPS 270453Z AUTO 00000KT 10SM CLR 02/01 A2994 RMK AO2 SLP139 T00220011 $",
    "windDirection": 0,
    "windSpeed": 0,
    "windGust": null,
    "visibility": 10,
    "temperatureC": 2,
    "dewPointC": 1,
    "cloudCeiling": 99999,
    "altimeter": "A2994",
    "timestamp": "2026-02-27T04:53:00+00:00",
    "station": "KCPS"
  },
  "kstl": {
    "metar": "KSTL 270451Z 00000KT 10SM CLR 08/02 A2995 RMK AO2 SLP143 T00780022 $",
    "windDirection": 0,
    "windSpeed": 0,
    "windGust": null,
    "visibility": 10,
    "temperatureC": 8,
    "dewPointC": 2,
    "cloudCeiling": 99999,
    "altimeter": "A2995",
    "timestamp": "2026-02-27T04:51:00+00:00",
    "station": "KSTL"
  }
}