{
  "lastUpdated": "2025-11-18T05:47:19.873520+00:00",
  "kcps": {
    "metar": "KCPS 180453Z 14007KT 10SM -RA OVC042 13/M02 A2995 RMK AO2 RAB51 SLP141 P0000 T01331017",
    "windDirection": 140,
    "windSpeed": 7,
    "windGust": null,
    "visibility": 10,
    "temperatureC": 13,
    "dewPointC": -2,
    "cloudCeiling": 4200,
    "altimeter": "A2995",
    "timestamp": "2025-11-18T04:53:00+00:00",
    "station": "KCPS"
  },
  "kstl": {
    "metar": "KSTL 180451Z 10006KT 10SM OVC041 10/04 A2995 RMK AO2 SLP143 T01000044 $",
    "windDirection": 100,
    "windSpeed": 6,
    "windGust": null,
    "visibility": 10,
    "temperatureC": 10,
    "dewPointC": 4,
    "cloudCeiling": 4100,
    "altimeter": "A2995",
    "timestamp": "2025-11-18T04:51:00+00:00",
    "station": "KSTL"
  }
}