{
  "lastUpdated": "2026-03-31T09:48:52.431016+00:00",
  "kcps": {
    "metar": "KCPS 310853Z AUTO 20007G16KT 10SM CLR 22/13 A2991 RMK AO2 SLP126 T02170133 50004 $",
    "windDirection": 200,
    "windSpeed": 7,
    "windGust": 16,
    "visibility": 10,
    "temperatureC": 22,
    "dewPointC": 13,
    "cloudCeiling": 99999,
    "altimeter": "A2991",
    "timestamp": "2026-03-31T08:53:00+00:00",
    "station": "KCPS"
  },
  "kstl": {
    "metar": "KSTL 310851Z 20010KT 10SM BKN250 21/13 A2991 RMK AO2 SLP115 T02110128 50003 $",
    "windDirection": 200,
    "windSpeed": 10,
    "windGust": null,
    "visibility": 10,
    "temperatureC": 21,
    "dewPointC": 13,
    "cloudCeiling": 25000,
    "altimeter": "A2991",
    "timestamp": "2026-03-31T08:51:00+00:00",
    "station": "KSTL"
  }
}