{
  "lastUpdated": "2026-04-15T20:15:39.466363+00:00",
  "kcps": {
    "metar": "KCPS 151953Z 18005KT 10SM CLR 21/18 A2987 RMK AO2 RAE27 SLP113 P0001 T02060183 $",
    "windDirection": 180,
    "windSpeed": 5,
    "windGust": null,
    "visibility": 10,
    "temperatureC": 21,
    "dewPointC": 18,
    "cloudCeiling": 99999,
    "altimeter": "A2987",
    "timestamp": "2026-04-15T19:53:00+00:00",
    "station": "KCPS"
  },
  "kstl": {
    "metar": "KSTL 151951Z 18012KT 10SM -RA FEW055 SCT070 OVC130 22/18 A2987 RMK AO2 PK WND 18026/1856 RAE06B51 SLP106 P0000 T02170178",
    "windDirection": 180,
    "windSpeed": 12,
    "windGust": null,
    "visibility": 10,
    "temperatureC": 22,
    "dewPointC": 18,
    "cloudCeiling": 13000,
    "altimeter": "A2987",
    "timestamp": "2026-04-15T19:51:00+00:00",
    "station": "KSTL"
  }
}