{
  "lastUpdated": "2026-04-02T20:58:29.761804+00:00",
  "kcps": {
    "metar": "KCPS 022053Z AUTO 18014G23KT 10SM FEW044 FEW085 22/18 A2975 RMK AO2 PK WND 18030/2004 RAB06E33 SLP071 P0001 60002 T02220183 58000 $",
    "windDirection": 180,
    "windSpeed": 14,
    "windGust": 23,
    "visibility": 10,
    "temperatureC": 22,
    "dewPointC": 18,
    "cloudCeiling": null,
    "altimeter": "A2975",
    "timestamp": "2026-04-02T20:53:00+00:00",
    "station": "KCPS"
  },
  "kstl": {
    "metar": "KSTL 022051Z 18019G30KT 10SM SCT035 SCT055 SCT110 BKN250 23/17 A2973 RMK AO2 PK WND 16034/2041 RAE42 SLP060 P0000 60000 T02280172 58009 $",
    "windDirection": 180,
    "windSpeed": 19,
    "windGust": 30,
    "visibility": 10,
    "temperatureC": 23,
    "dewPointC": 17,
    "cloudCeiling": 25000,
    "altimeter": "A2973",
    "timestamp": "2026-04-02T20:51:00+00:00",
    "station": "KSTL"
  }
}