{
  "lastUpdated": "2025-11-25T14:21:55.508707+00:00",
  "kcps": {
    "metar": "KCPS 251353Z 22003KT 10SM OVC010 12/12 A2982 RMK AO2 SLP099 T01220117",
    "windDirection": 220,
    "windSpeed": 3,
    "windGust": null,
    "visibility": 10,
    "temperatureC": 12,
    "dewPointC": 12,
    "cloudCeiling": 1000,
    "altimeter": "A2982",
    "timestamp": "2025-11-25T13:53:00+00:00",
    "station": "KCPS"
  },
  "kstl": {
    "metar": "KSTL 251351Z 28004KT 8SM BKN007 BKN035 12/12 A2982 RMK AO2 SLP098 T01220117 $",
    "windDirection": 280,
    "windSpeed": 4,
    "windGust": null,
    "visibility": 8,
    "temperatureC": 12,
    "dewPointC": 12,
    "cloudCeiling": 700,
    "altimeter": "A2982",
    "timestamp": "2025-11-25T13:51:00+00:00",
    "station": "KSTL"
  }
}