{
  "lastUpdated": "2026-01-22T08:56:57.812633+00:00",
  "kcps": {
    "metar": "KCPS 220853Z AUTO 33007KT 10SM CLR M03/M13 A3033 RMK AO2 SLP273 T10281128 51021 $",
    "windDirection": 330,
    "windSpeed": 7,
    "windGust": null,
    "visibility": 10,
    "temperatureC": -3,
    "dewPointC": -13,
    "cloudCeiling": 99999,
    "altimeter": "A3033",
    "timestamp": "2026-01-22T08:53:00+00:00",
    "station": "KCPS"
  },
  "kstl": {
    "metar": "KSTL 220851Z 32004KT 10SM SCT250 M03/M14 A3032 RMK AO2 SLP276 T10331139 51020 $",
    "windDirection": 320,
    "windSpeed": 4,
    "windGust": null,
    "visibility": 10,
    "temperatureC": -3,
    "dewPointC": -14,
    "cloudCeiling": null,
    "altimeter": "A3032",
    "timestamp": "2026-01-22T08:51:00+00:00",
    "station": "KSTL"
  }
}