{
  "lastUpdated": "2026-03-10T03:32:17.604647+00:00",
  "kcps": {
    "metar": "KCPS 100253Z 18004KT 10SM SCT038 19/16 A2982 RMK AO2 SLP096 T01940156 53023 $",
    "windDirection": 180,
    "windSpeed": 4,
    "windGust": null,
    "visibility": 10,
    "temperatureC": 19,
    "dewPointC": 16,
    "cloudCeiling": null,
    "altimeter": "A2982",
    "timestamp": "2026-03-10T02:53:00+00:00",
    "station": "KCPS"
  },
  "kstl": {
    "metar": "KSTL 100251Z 20011KT 10SM SCT038 21/16 A2981 RMK AO2 SLP089 T02110156 53026 $",
    "windDirection": 200,
    "windSpeed": 11,
    "windGust": null,
    "visibility": 10,
    "temperatureC": 21,
    "dewPointC": 16,
    "cloudCeiling": null,
    "altimeter": "A2981",
    "timestamp": "2026-03-10T02:51:00+00:00",
    "station": "KSTL"
  }
}