{
  "lastUpdated": "2025-10-22T17:21:12.071612+00:00",
  "kcps": {
    "metar": "KCPS 221653Z 29010G20KT 10SM CLR 15/M02 A3011 RMK AO2 SLP196 T01501022",
    "windDirection": 290,
    "windSpeed": 10,
    "windGust": 20,
    "visibility": 10,
    "temperatureC": 15,
    "dewPointC": -2,
    "cloudCeiling": 99999,
    "altimeter": "A3011",
    "timestamp": "2025-10-22T16:53:00+00:00",
    "station": "KCPS"
  },
  "kstl": {
    "metar": "KSTL 221651Z 29017G22KT 10SM CLR 14/M02 A3011 RMK AO2 SLP195 T01441022 $",
    "windDirection": 290,
    "windSpeed": 17,
    "windGust": 22,
    "visibility": 10,
    "temperatureC": 14,
    "dewPointC": -2,
    "cloudCeiling": 99999,
    "altimeter": "A3011",
    "timestamp": "2025-10-22T16:51:00+00:00",
    "station": "KSTL"
  }
}