{
  "lastUpdated": "2025-11-12T16:22:57.158077+00:00",
  "kcps": {
    "metar": "KCPS 121553Z 32006KT 10SM CLR 14/01 A3014 RMK AO2 SLP209 T01390011 $",
    "windDirection": 320,
    "windSpeed": 6,
    "windGust": null,
    "visibility": 10,
    "temperatureC": 14,
    "dewPointC": 1,
    "cloudCeiling": 99999,
    "altimeter": "A3014",
    "timestamp": "2025-11-12T15:53:00+00:00",
    "station": "KCPS"
  },
  "kstl": {
    "metar": "KSTL 121551Z 31004KT 10SM SCT250 13/01 A3015 RMK AO2 SLP212 T01330011",
    "windDirection": 310,
    "windSpeed": 4,
    "windGust": null,
    "visibility": 10,
    "temperatureC": 13,
    "dewPointC": 1,
    "cloudCeiling": null,
    "altimeter": "A3015",
    "timestamp": "2025-11-12T15:51:00+00:00",
    "station": "KSTL"
  }
}