{
  "lastUpdated": "2025-12-30T09:49:20.442619+00:00",
  "kcps": {
    "metar": "KCPS 300353Z 29012G20KT 10SM CLR M06/M11 A3042 RMK AO2 SLP307 T10561111 $",
    "windDirection": 290,
    "windSpeed": 12,
    "windGust": 20,
    "visibility": 10,
    "temperatureC": -6,
    "dewPointC": -11,
    "cloudCeiling": 99999,
    "altimeter": "A3042",
    "timestamp": "2025-12-30T03:53:00+00:00",
    "station": "KCPS"
  },
  "kstl": {
    "metar": "KSTL 300851Z 29010KT 10SM CLR M08/M12 A3040 RMK AO2 SLP313 T10831117 53002 $",
    "windDirection": 290,
    "windSpeed": 10,
    "windGust": null,
    "visibility": 10,
    "temperatureC": -8,
    "dewPointC": -12,
    "cloudCeiling": 99999,
    "altimeter": "A3040",
    "timestamp": "2025-12-30T08:51:00+00:00",
    "station": "KSTL"
  }
}