{
  "lastUpdated": "2026-02-27T18:44:18.710745+00:00",
  "kcps": {
    "metar": "KCPS 271653Z 21006KT 10SM CLR 17/06 A2997 RMK AO2 SLP150 T01670061 $",
    "windDirection": 210,
    "windSpeed": 6,
    "windGust": null,
    "visibility": 10,
    "temperatureC": 17,
    "dewPointC": 6,
    "cloudCeiling": 99999,
    "altimeter": "A2997",
    "timestamp": "2026-02-27T16:53:00+00:00",
    "station": "KCPS"
  },
  "kstl": {
    "metar": "KSTL 271751Z 22014G20KT 10SM FEW250 20/02 A2995 RMK AO2 SLP142 T02000022 10200 20017 58008 $",
    "windDirection": 220,
    "windSpeed": 14,
    "windGust": 20,
    "visibility": 10,
    "temperatureC": 20,
    "dewPointC": 2,
    "cloudCeiling": null,
    "altimeter": "A2995",
    "timestamp": "2026-02-27T17:51:00+00:00",
    "station": "KSTL"
  }
}