{
  "lastUpdated": "2026-01-09T09:05:04.691127+00:00",
  "kcps": {
    "metar": "KCPS 090853Z 26013G28KT 10SM CLR 17/09 A2968 RMK AO2 PK WND 25028/0844 SLP049 T01670089 53036",
    "windDirection": 260,
    "windSpeed": 13,
    "windGust": 28,
    "visibility": 10,
    "temperatureC": 17,
    "dewPointC": 9,
    "cloudCeiling": 99999,
    "altimeter": "A2968",
    "timestamp": "2026-01-09T08:53:00+00:00",
    "station": "KCPS"
  },
  "kstl": {
    "metar": "KSTL 090851Z 28020G34KT 10SM BKN034 BKN049 14/09 A2970 RMK AO2 PK WND 28034/0845 PRESRR SLP054 T01440094 53042 $",
    "windDirection": 280,
    "windSpeed": 20,
    "windGust": 34,
    "visibility": 10,
    "temperatureC": 14,
    "dewPointC": 9,
    "cloudCeiling": 3400,
    "altimeter": "A2970",
    "timestamp": "2026-01-09T08:51:00+00:00",
    "station": "KSTL"
  }
}