{
  "lastUpdated": "2026-03-12T03:08:31.823403+00:00",
  "kcps": {
    "metar": "KCPS 120253Z 33020G28KT 10SM SCT030 OVC041 06/M01 A3026 RMK AO2 PK WND 33028/0253 PRESRR SLP247 T00561006 53029 $",
    "windDirection": 330,
    "windSpeed": 20,
    "windGust": 28,
    "visibility": 10,
    "temperatureC": 6,
    "dewPointC": -1,
    "cloudCeiling": 4100,
    "altimeter": "A3026",
    "timestamp": "2026-03-12T02:53:00+00:00",
    "station": "KCPS"
  },
  "kstl": {
    "metar": "KSTL 120251Z 33015G21KT 10SM SCT036 04/M02 A3025 RMK AO2 PK WND 33028/0153 SLP243 T00441017 51026 $",
    "windDirection": 330,
    "windSpeed": 15,
    "windGust": 21,
    "visibility": 10,
    "temperatureC": 4,
    "dewPointC": -2,
    "cloudCeiling": null,
    "altimeter": "A3025",
    "timestamp": "2026-03-12T02:51:00+00:00",
    "station": "KSTL"
  }
}