{
  "lastUpdated": "2026-01-24T23:21:30.403443+00:00",
  "kcps": {
    "metar": "KCPS 242314Z 04009KT 2 1/2SM -SN OVC038 M13/M17 A3040 RMK AO2 P0001 T11331167 $",
    "windDirection": 40,
    "windSpeed": 9,
    "windGust": null,
    "visibility": 0.5,
    "temperatureC": -13,
    "dewPointC": -17,
    "cloudCeiling": 3800,
    "altimeter": "A3040",
    "timestamp": "2026-01-24T23:14:00+00:00",
    "station": "KCPS"
  },
  "kstl": {
    "metar": "KSTL 242316Z 04008KT 1 1/4SM -SN OVC029 M13/M16 A3039 RMK AO2 P0001 T11331161 $",
    "windDirection": 40,
    "windSpeed": 8,
    "windGust": null,
    "visibility": 0.25,
    "temperatureC": -13,
    "dewPointC": -16,
    "cloudCeiling": 2900,
    "altimeter": "A3039",
    "timestamp": "2026-01-24T23:16:00+00:00",
    "station": "KSTL"
  }
}