{
  "lastUpdated": "2026-05-11T18:19:12.319125+00:00",
  "kcps": {
    "metar": "KCPS 111753Z 28006G22KT 10SM CLR 23/04 A3019 RMK AO2 SLP224 T02280044 10228 20083 58016 $",
    "windDirection": 280,
    "windSpeed": 6,
    "windGust": 22,
    "visibility": 10,
    "temperatureC": 23,
    "dewPointC": 4,
    "cloudCeiling": 99999,
    "altimeter": "A3019",
    "timestamp": "2026-05-11T17:53:00+00:00",
    "station": "KCPS"
  },
  "kstl": {
    "metar": "KSTL 111751Z 31009G17KT 10SM FEW150 FEW250 23/05 A3020 RMK AO2 SLP225 T02280050 10228 20100 58014 $",
    "windDirection": 310,
    "windSpeed": 9,
    "windGust": 17,
    "visibility": 10,
    "temperatureC": 23,
    "dewPointC": 5,
    "cloudCeiling": null,
    "altimeter": "A3020",
    "timestamp": "2026-05-11T17:51:00+00:00",
    "station": "KSTL"
  }
}