{
  "lastUpdated": "2026-04-10T15:31:05.512434+00:00",
  "kcps": {
    "metar": "KCPS 101453Z 26007KT 10SM CLR 21/10 A3021 RMK AO2 SLP226 T02110100 51014 $",
    "windDirection": 260,
    "windSpeed": 7,
    "windGust": null,
    "visibility": 10,
    "temperatureC": 21,
    "dewPointC": 10,
    "cloudCeiling": 99999,
    "altimeter": "A3021",
    "timestamp": "2026-04-10T14:53:00+00:00",
    "station": "KCPS"
  },
  "kstl": {
    "metar": "KSTL 101451Z 28007KT 10SM BKN044 BKN060 BKN170 OVC250 19/13 A3022 RMK AO2 SLP227 T01940128 52017 $",
    "windDirection": 280,
    "windSpeed": 7,
    "windGust": null,
    "visibility": 10,
    "temperatureC": 19,
    "dewPointC": 13,
    "cloudCeiling": 4400,
    "altimeter": "A3022",
    "timestamp": "2026-04-10T14:51:00+00:00",
    "station": "KSTL"
  }
}