{
  "lastUpdated": "2025-10-16T04:35:49.905137+00:00",
  "kcps": {
    "metar": "KCPS 160353Z AUTO 00000KT 10SM CLR 18/16 A3011 RMK AO2 SLP192 T01780156",
    "windDirection": 0,
    "windSpeed": 0,
    "windGust": null,
    "visibility": 10,
    "temperatureC": 18,
    "dewPointC": 16,
    "cloudCeiling": 99999,
    "altimeter": "A3011",
    "timestamp": "2025-10-16T03:53:00+00:00",
    "station": "KCPS"
  },
  "kstl": {
    "metar": "KSTL 160351Z 00000KT 10SM FEW100 21/14 A3011 RMK AO2 SLP188 T02110144",
    "windDirection": 0,
    "windSpeed": 0,
    "windGust": null,
    "visibility": 10,
    "temperatureC": 21,
    "dewPointC": 14,
    "cloudCeiling": null,
    "altimeter": "A3011",
    "timestamp": "2025-10-16T03:51:00+00:00",
    "station": "KSTL"
  }
}