{
  "lastUpdated": "2026-04-07T14:30:48.186389+00:00",
  "kcps": {
    "metar": "KCPS 071353Z 05010KT 10SM FEW090 07/01 A3043 RMK AO2 SLP306 T00670006 $",
    "windDirection": 50,
    "windSpeed": 10,
    "windGust": null,
    "visibility": 10,
    "temperatureC": 7,
    "dewPointC": 1,
    "cloudCeiling": null,
    "altimeter": "A3043",
    "timestamp": "2026-04-07T13:53:00+00:00",
    "station": "KCPS"
  },
  "kstl": {
    "metar": "KSTL 071351Z 06012G18KT 10SM FEW040 FEW085 BKN120 BKN250 06/01 A3043 RMK AO2 SLP307 T00560006 $",
    "windDirection": 60,
    "windSpeed": 12,
    "windGust": 18,
    "visibility": 10,
    "temperatureC": 6,
    "dewPointC": 1,
    "cloudCeiling": 12000,
    "altimeter": "A3043",
    "timestamp": "2026-04-07T13:51:00+00:00",
    "station": "KSTL"
  }
}