{
  "lastUpdated": "2025-11-25T05:35:59.590156+00:00",
  "kcps": {
    "metar": "KCPS 250525Z AUTO 19003KT 3SM BR BKN006 OVC012 11/11 A2985 RMK AO2 RAB01E19 CIG 005V009 P0001 T01060106 $",
    "windDirection": 190,
    "windSpeed": 3,
    "windGust": null,
    "visibility": 3,
    "temperatureC": 11,
    "dewPointC": 11,
    "cloudCeiling": 600,
    "altimeter": "A2985",
    "timestamp": "2025-11-25T05:25:00+00:00",
    "station": "KCPS"
  },
  "kstl": {
    "metar": "KSTL 250451Z 17009KT 8SM BKN005 BKN013 OVC027 11/10 A2984 RMK AO2 RAE32 SLP105 P0004 T01060100 $",
    "windDirection": 170,
    "windSpeed": 9,
    "windGust": null,
    "visibility": 8,
    "temperatureC": 11,
    "dewPointC": 10,
    "cloudCeiling": 500,
    "altimeter": "A2984",
    "timestamp": "2025-11-25T04:51:00+00:00",
    "station": "KSTL"
  }
}