{
  "lastUpdated": "2026-04-10T08:27:58.564066+00:00",
  "kcps": {
    "metar": "KCPS 100753Z 19004KT 10SM SCT100 18/08 A3013 RMK AO2 SLP202 T01830083 $",
    "windDirection": 190,
    "windSpeed": 4,
    "windGust": null,
    "visibility": 10,
    "temperatureC": 18,
    "dewPointC": 8,
    "cloudCeiling": null,
    "altimeter": "A3013",
    "timestamp": "2026-04-10T07:53:00+00:00",
    "station": "KCPS"
  },
  "kstl": {
    "metar": "KSTL 100751Z 21009KT 10SM FEW080 SCT170 BKN250 20/08 A3013 RMK AO2 SLP194 T02000078 $",
    "windDirection": 210,
    "windSpeed": 9,
    "windGust": null,
    "visibility": 10,
    "temperatureC": 20,
    "dewPointC": 8,
    "cloudCeiling": 25000,
    "altimeter": "A3013",
    "timestamp": "2026-04-10T07:51:00+00:00",
    "station": "KSTL"
  }
}