{
  "lastUpdated": "2026-03-30T12:35:34.916124+00:00",
  "kcps": {
    "metar": "KCPS 301153Z 17005KT 10SM CLR 16/07 A3002 RMK AO2 SLP164 T01610072 10172 20122 55001 $",
    "windDirection": 170,
    "windSpeed": 5,
    "windGust": null,
    "visibility": 10,
    "temperatureC": 16,
    "dewPointC": 7,
    "cloudCeiling": 99999,
    "altimeter": "A3002",
    "timestamp": "2026-03-30T11:53:00+00:00",
    "station": "KCPS"
  },
  "kstl": {
    "metar": "KSTL 301151Z 18008KT 10SM BKN080 BKN250 18/08 A3001 RMK AO2 SLP155 T01830083 10183 20172 55001 $",
    "windDirection": 180,
    "windSpeed": 8,
    "windGust": null,
    "visibility": 10,
    "temperatureC": 18,
    "dewPointC": 8,
    "cloudCeiling": 8000,
    "altimeter": "A3001",
    "timestamp": "2026-03-30T11:51:00+00:00",
    "station": "KSTL"
  }
}