{
  "lastUpdated": "2026-05-05T07:59:32.208146+00:00",
  "kcps": {
    "metar": "KCPS 050753Z AUTO 11003KT 10SM OVC050 19/11 A2971 RMK AO2 WSHFT 0700 SLP058 T01890106 $",
    "windDirection": 110,
    "windSpeed": 3,
    "windGust": null,
    "visibility": 10,
    "temperatureC": 19,
    "dewPointC": 11,
    "cloudCeiling": 5000,
    "altimeter": "A2971",
    "timestamp": "2026-05-05T07:53:00+00:00",
    "station": "KCPS"
  },
  "kstl": {
    "metar": "KSTL 050751Z 04003KT 10SM OVC049 17/11 A2971 RMK AO2 SLP051 T01720111 $",
    "windDirection": 40,
    "windSpeed": 3,
    "windGust": null,
    "visibility": 10,
    "temperatureC": 17,
    "dewPointC": 11,
    "cloudCeiling": 4900,
    "altimeter": "A2971",
    "timestamp": "2026-05-05T07:51:00+00:00",
    "station": "KSTL"
  }
}