{
  "lastUpdated": "2026-01-04T21:02:12.177095+00:00",
  "kcps": {
    "metar": "KCPS 042053Z 15006KT 10SM CLR 06/M02 A3011 RMK AO2 SLP199 T00561022 56028 $",
    "windDirection": 150,
    "windSpeed": 6,
    "windGust": null,
    "visibility": 10,
    "temperatureC": 6,
    "dewPointC": -2,
    "cloudCeiling": 99999,
    "altimeter": "A3011",
    "timestamp": "2026-01-04T20:53:00+00:00",
    "station": "KCPS"
  },
  "kstl": {
    "metar": "KSTL 042051Z 15008KT 10SM OVC200 06/M03 A3010 RMK AO2 SLP201 T00561033 56029 $",
    "windDirection": 150,
    "windSpeed": 8,
    "windGust": null,
    "visibility": 10,
    "temperatureC": 6,
    "dewPointC": -3,
    "cloudCeiling": 20000,
    "altimeter": "A3010",
    "timestamp": "2026-01-04T20:51:00+00:00",
    "station": "KSTL"
  }
}