{
  "lastUpdated": "2026-01-13T05:11:15.515159+00:00",
  "kcps": {
    "metar": "KCPS 130453Z AUTO 00000KT 10SM CLR 03/M04 A3010 RMK AO2 SLP195 T00281039 $",
    "windDirection": 0,
    "windSpeed": 0,
    "windGust": null,
    "visibility": 10,
    "temperatureC": 3,
    "dewPointC": -4,
    "cloudCeiling": 99999,
    "altimeter": "A3010",
    "timestamp": "2026-01-13T04:53:00+00:00",
    "station": "KCPS"
  },
  "kstl": {
    "metar": "KSTL 130451Z 22009KT 10SM CLR 07/M03 A3010 RMK AO2 SLP195 T00721028 $",
    "windDirection": 220,
    "windSpeed": 9,
    "windGust": null,
    "visibility": 10,
    "temperatureC": 7,
    "dewPointC": -3,
    "cloudCeiling": 99999,
    "altimeter": "A3010",
    "timestamp": "2026-01-13T04:51:00+00:00",
    "station": "KSTL"
  }
}