{
  "lastUpdated": "2026-05-04T03:01:33.361334+00:00",
  "kcps": {
    "metar": "KCPS 040253Z VRB05KT 10SM CLR 20/07 A2980 RMK AO2 SLP090 T02000067 53004 $",
    "windDirection": null,
    "windSpeed": null,
    "windGust": null,
    "visibility": 10,
    "temperatureC": 20,
    "dewPointC": 7,
    "cloudCeiling": 99999,
    "altimeter": "A2980",
    "timestamp": "2026-05-04T02:53:00+00:00",
    "station": "KCPS"
  },
  "kstl": {
    "metar": "KSTL 040251Z 22006KT 10SM FEW085 BKN150 22/08 A2981 RMK AO2 SLP089 T02170083 53006 $",
    "windDirection": 220,
    "windSpeed": 6,
    "windGust": null,
    "visibility": 10,
    "temperatureC": 22,
    "dewPointC": 8,
    "cloudCeiling": 15000,
    "altimeter": "A2981",
    "timestamp": "2026-05-04T02:51:00+00:00",
    "station": "KSTL"
  }
}