{
  "lastUpdated": "2026-03-16T03:46:19.867701+00:00",
  "kcps": {
    "metar": "KCPS 160253Z 28015G25KT 10SM -RA BKN018 BKN026 OVC033 02/00 A2960 RMK AO2 PK WND 29030/0234 RAB40 SLP023 P0001 60003 T00220000 51028 $",
    "windDirection": 280,
    "windSpeed": 15,
    "windGust": 25,
    "visibility": 10,
    "temperatureC": 2,
    "dewPointC": 0,
    "cloudCeiling": 1800,
    "altimeter": "A2960",
    "timestamp": "2026-03-16T02:53:00+00:00",
    "station": "KCPS"
  },
  "kstl": {
    "metar": "KSTL 160251Z 29017G32KT 10SM BKN019 OVC025 02/M01 A2960 RMK AO2 PK WND 27039/0237 RAE10 SLP021 P0000 60006 T00221006 51034 $",
    "windDirection": 290,
    "windSpeed": 17,
    "windGust": 32,
    "visibility": 10,
    "temperatureC": 2,
    "dewPointC": -1,
    "cloudCeiling": 1900,
    "altimeter": "A2960",
    "timestamp": "2026-03-16T02:51:00+00:00",
    "station": "KSTL"
  }
}