{
  "lastUpdated": "2026-03-11T15:51:24.844499+00:00",
  "kcps": {
    "metar": "KCPS 111453Z 21003KT 10SM OVC030 17/15 A2975 RMK AO2 SLP071 60000 T01670150 53007 $",
    "windDirection": 210,
    "windSpeed": 3,
    "windGust": null,
    "visibility": 10,
    "temperatureC": 17,
    "dewPointC": 15,
    "cloudCeiling": 3000,
    "altimeter": "A2975",
    "timestamp": "2026-03-11T14:53:00+00:00",
    "station": "KCPS"
  },
  "kstl": {
    "metar": "KSTL 111546Z 34017G29KT 4SM R30R/5000VP6000FT -RA BR SCT006 BKN010 OVC016 10/09 A2984 RMK AO2 PK WND 31034/1514 WSHFT 1513 PRESRR FROPA P0004 $",
    "windDirection": 340,
    "windSpeed": 17,
    "windGust": 29,
    "visibility": 4,
    "temperatureC": 10,
    "dewPointC": 9,
    "cloudCeiling": 1000,
    "altimeter": "A2984",
    "timestamp": "2026-03-11T15:46:00+00:00",
    "station": "KSTL"
  }
}