{
  "lastUpdated": "2025-12-25T02:35:39.177475+00:00",
  "kcps": {
    "metar": "KCPS 250153Z 18003KT 9SM BR CLR 16/14 A3003 RMK AO2 SLP168 T01560144 $",
    "windDirection": 180,
    "windSpeed": 3,
    "windGust": null,
    "visibility": 9,
    "temperatureC": 16,
    "dewPointC": 14,
    "cloudCeiling": 99999,
    "altimeter": "A3003",
    "timestamp": "2025-12-25T01:53:00+00:00",
    "station": "KCPS"
  },
  "kstl": {
    "metar": "KSTL 250151Z 19010KT 10SM SCT250 17/15 A3002 RMK AO2 SLP166 T01720150 $",
    "windDirection": 190,
    "windSpeed": 10,
    "windGust": null,
    "visibility": 10,
    "temperatureC": 17,
    "dewPointC": 15,
    "cloudCeiling": null,
    "altimeter": "A3002",
    "timestamp": "2025-12-25T01:51:00+00:00",
    "station": "KSTL"
  }
}