{
  "lastUpdated": "2025-12-26T03:14:35.384195+00:00",
  "kcps": {
    "metar": "KCPS 260253Z 16005KT 10SM OVC015 17/15 A2988 RMK AO2 SLP118 T01670150 58014 $",
    "windDirection": 160,
    "windSpeed": 5,
    "windGust": null,
    "visibility": 10,
    "temperatureC": 17,
    "dewPointC": 15,
    "cloudCeiling": 1500,
    "altimeter": "A2988",
    "timestamp": "2025-12-26T02:53:00+00:00",
    "station": "KCPS"
  },
  "kstl": {
    "metar": "KSTL 260251Z 17008KT 10SM BKN013 OVC240 17/15 A2989 RMK AO2 SLP118 T01670150 55009 $",
    "windDirection": 170,
    "windSpeed": 8,
    "windGust": null,
    "visibility": 10,
    "temperatureC": 17,
    "dewPointC": 15,
    "cloudCeiling": 1300,
    "altimeter": "A2989",
    "timestamp": "2025-12-26T02:51:00+00:00",
    "station": "KSTL"
  }
}