{
  "lastUpdated": "2025-12-19T14:49:25.754626+00:00",
  "kcps": {
    "metar": "KCPS 191353Z 30011KT 10SM CLR M04/M10 A3004 RMK AO2 SLP175 T10391100 $",
    "windDirection": 300,
    "windSpeed": 11,
    "windGust": null,
    "visibility": 10,
    "temperatureC": -4,
    "dewPointC": -10,
    "cloudCeiling": 99999,
    "altimeter": "A3004",
    "timestamp": "2025-12-19T13:53:00+00:00",
    "station": "KCPS"
  },
  "kstl": {
    "metar": "KSTL 191351Z 29016G24KT 10SM SCT250 M04/M11 A3002 RMK AO2 SLP178 T10441111 $",
    "windDirection": 290,
    "windSpeed": 16,
    "windGust": 24,
    "visibility": 10,
    "temperatureC": -4,
    "dewPointC": -11,
    "cloudCeiling": null,
    "altimeter": "A3002",
    "timestamp": "2025-12-19T13:51:00+00:00",
    "station": "KSTL"
  }
}