{
  "lastUpdated": "2026-05-28T22:56:30.854922+00:00",
  "kcps": {
    "metar": "KCPS 282253Z 09010KT 10SM CLR 29/17 A2999 RMK AO2 SLP152 T02940167 $",
    "windDirection": 90,
    "windSpeed": 10,
    "windGust": null,
    "visibility": 10,
    "temperatureC": 29,
    "dewPointC": 17,
    "cloudCeiling": 99999,
    "altimeter": "A2999",
    "timestamp": "2026-05-28T22:53:00+00:00",
    "station": "KCPS"
  },
  "kstl": {
    "metar": "KSTL 282251Z 09011G21KT 10SM FEW055 BKN200 BKN250 29/16 A3001 RMK AO2 SLP151 T02890156 $",
    "windDirection": 90,
    "windSpeed": 11,
    "windGust": 21,
    "visibility": 10,
    "temperatureC": 29,
    "dewPointC": 16,
    "cloudCeiling": 20000,
    "altimeter": "A3001",
    "timestamp": "2026-05-28T22:51:00+00:00",
    "station": "KSTL"
  }
}