{
  "lastUpdated": "2025-11-14T18:22:45.213636+00:00",
  "kcps": {
    "metar": "KCPS 141753Z 20007KT 10SM CLR 24/14 A3000 RMK AO2 SLP157 T02390144 10239 20061 58022",
    "windDirection": 200,
    "windSpeed": 7,
    "windGust": null,
    "visibility": 10,
    "temperatureC": 24,
    "dewPointC": 14,
    "cloudCeiling": 99999,
    "altimeter": "A3000",
    "timestamp": "2025-11-14T17:53:00+00:00",
    "station": "KCPS"
  },
  "kstl": {
    "metar": "KSTL 141751Z 23007KT 10SM FEW040 24/14 A3000 RMK AO2 SLP155 T02440144 10244 20106 58020",
    "windDirection": 230,
    "windSpeed": 7,
    "windGust": null,
    "visibility": 10,
    "temperatureC": 24,
    "dewPointC": 14,
    "cloudCeiling": null,
    "altimeter": "A3000",
    "timestamp": "2025-11-14T17:51:00+00:00",
    "station": "KSTL"
  }
}