{
  "lastUpdated": "2026-03-12T15:34:29.400574+00:00",
  "kcps": {
    "metar": "KCPS 121453Z 26005KT 10SM CLR 06/M02 A3033 RMK AO2 SLP274 T00561022 51005 $",
    "windDirection": 260,
    "windSpeed": 5,
    "windGust": null,
    "visibility": 10,
    "temperatureC": 6,
    "dewPointC": -2,
    "cloudCeiling": 99999,
    "altimeter": "A3033",
    "timestamp": "2026-03-12T14:53:00+00:00",
    "station": "KCPS"
  },
  "kstl": {
    "metar": "KSTL 121451Z 29009KT 10SM FEW250 06/M03 A3033 RMK AO2 SLP278 T00561028 53006 $",
    "windDirection": 290,
    "windSpeed": 9,
    "windGust": null,
    "visibility": 10,
    "temperatureC": 6,
    "dewPointC": -3,
    "cloudCeiling": null,
    "altimeter": "A3033",
    "timestamp": "2026-03-12T14:51:00+00:00",
    "station": "KSTL"
  }
}