{
  "lastUpdated": "2026-05-03T16:32:16.745852+00:00",
  "kcps": {
    "metar": "KCPS 031553Z 21012G19KT 10SM CLR 17/04 A3005 RMK AO2 SLP176 T01720039 $",
    "windDirection": 210,
    "windSpeed": 12,
    "windGust": 19,
    "visibility": 10,
    "temperatureC": 17,
    "dewPointC": 4,
    "cloudCeiling": 99999,
    "altimeter": "A3005",
    "timestamp": "2026-05-03T15:53:00+00:00",
    "station": "KCPS"
  },
  "kstl": {
    "metar": "KSTL 031551Z 22013G20KT 10SM FEW250 17/04 A3004 RMK AO2 SLP173 T01670044 $",
    "windDirection": 220,
    "windSpeed": 13,
    "windGust": 20,
    "visibility": 10,
    "temperatureC": 17,
    "dewPointC": 4,
    "cloudCeiling": null,
    "altimeter": "A3004",
    "timestamp": "2026-05-03T15:51:00+00:00",
    "station": "KSTL"
  }
}