{
  "lastUpdated": "2026-02-23T09:15:48.041756+00:00",
  "kcps": {
    "metar": "KCPS 230753Z AUTO 34015G23KT 10SM BKN031 M06/M13 A3051 RMK AO2 SLP339 T10611128 PNO $",
    "windDirection": 340,
    "windSpeed": 15,
    "windGust": 23,
    "visibility": 10,
    "temperatureC": -6,
    "dewPointC": -13,
    "cloudCeiling": 3100,
    "altimeter": "A3051",
    "timestamp": "2026-02-23T07:53:00+00:00",
    "station": "KCPS"
  },
  "kstl": {
    "metar": "KSTL 230851Z 32016G24KT 10SM SCT028 M08/M15 A3051 RMK AO2 PK WND 31027/0819 SLP347 T10831150 55000 $",
    "windDirection": 320,
    "windSpeed": 16,
    "windGust": 24,
    "visibility": 10,
    "temperatureC": -8,
    "dewPointC": -15,
    "cloudCeiling": null,
    "altimeter": "A3051",
    "timestamp": "2026-02-23T08:51:00+00:00",
    "station": "KSTL"
  }
}