{
  "lastUpdated": "2026-01-31T22:50:33.863860+00:00",
  "kcps": {
    "metar": "KCPS 312153Z 32010KT 10SM CLR M07/M14 A3049 RMK AO2 SLP332 T10721144 $",
    "windDirection": 320,
    "windSpeed": 10,
    "windGust": null,
    "visibility": 10,
    "temperatureC": -7,
    "dewPointC": -14,
    "cloudCeiling": 99999,
    "altimeter": "A3049",
    "timestamp": "2026-01-31T21:53:00+00:00",
    "station": "KCPS"
  },
  "kstl": {
    "metar": "KSTL 312151Z 28010KT 10SM CLR M07/M15 A3049 RMK AO2 SLP345 T10721150 $",
    "windDirection": 280,
    "windSpeed": 10,
    "windGust": null,
    "visibility": 10,
    "temperatureC": -7,
    "dewPointC": -15,
    "cloudCeiling": 99999,
    "altimeter": "A3049",
    "timestamp": "2026-01-31T21:51:00+00:00",
    "station": "KSTL"
  }
}