{
  "lastUpdated": "2026-05-28T21:36:38.119139+00:00",
  "kcps": {
    "metar": "KCPS 282053Z 09013KT 10SM CLR 30/18 A3001 RMK AO2 SLP158 T03000178 58014 $",
    "windDirection": 90,
    "windSpeed": 13,
    "windGust": null,
    "visibility": 10,
    "temperatureC": 30,
    "dewPointC": 18,
    "cloudCeiling": 99999,
    "altimeter": "A3001",
    "timestamp": "2026-05-28T20:53:00+00:00",
    "station": "KCPS"
  },
  "kstl": {
    "metar": "KSTL 282051Z 06014KT 10SM FEW050 FEW150 BKN250 29/17 A3003 RMK AO2 SLP157 T02940172 56013 $",
    "windDirection": 60,
    "windSpeed": 14,
    "windGust": null,
    "visibility": 10,
    "temperatureC": 29,
    "dewPointC": 17,
    "cloudCeiling": 25000,
    "altimeter": "A3003",
    "timestamp": "2026-05-28T20:51:00+00:00",
    "station": "KSTL"
  }
}