{
  "lastUpdated": "2026-02-05T14:44:37.852441+00:00",
  "kcps": {
    "metar": "KCPS 051353Z 15003KT 6SM BR CLR M08/M10 A3023 RMK AO2 SLP242 T10831100 $",
    "windDirection": 150,
    "windSpeed": 3,
    "windGust": null,
    "visibility": 6,
    "temperatureC": -8,
    "dewPointC": -10,
    "cloudCeiling": 99999,
    "altimeter": "A3023",
    "timestamp": "2026-02-05T13:53:00+00:00",
    "station": "KCPS"
  },
  "kstl": {
    "metar": "KSTL 051351Z 21003KT 10SM FEW120 BKN150 BKN250 M05/M09 A3020 RMK AO2 SLP243 T10501089 $",
    "windDirection": 210,
    "windSpeed": 3,
    "windGust": null,
    "visibility": 10,
    "temperatureC": -5,
    "dewPointC": -9,
    "cloudCeiling": 15000,
    "altimeter": "A3020",
    "timestamp": "2026-02-05T13:51:00+00:00",
    "station": "KSTL"
  }
}