{
  "lastUpdated": "2026-05-03T00:21:15.411655+00:00",
  "kcps": {
    "metar": "KCPS 022353Z 01005KT 10SM BKN080 16/01 A3007 RMK AO2 SLP184 T01560006 10161 20144 56005 $",
    "windDirection": 10,
    "windSpeed": 5,
    "windGust": null,
    "visibility": 10,
    "temperatureC": 16,
    "dewPointC": 1,
    "cloudCeiling": 8000,
    "altimeter": "A3007",
    "timestamp": "2026-05-02T23:53:00+00:00",
    "station": "KCPS"
  },
  "kstl": {
    "metar": "KSTL 022351Z 27005KT 10SM FEW065 SCT085 SCT250 15/00 A3008 RMK AO2 SLP186 60000 T01500000 10167 20117 56005 $",
    "windDirection": 270,
    "windSpeed": 5,
    "windGust": null,
    "visibility": 10,
    "temperatureC": 15,
    "dewPointC": 0,
    "cloudCeiling": null,
    "altimeter": "A3008",
    "timestamp": "2026-05-02T23:51:00+00:00",
    "station": "KSTL"
  }
}