{
  "lastUpdated": "2026-05-14T06:11:31.545702+00:00",
  "kcps": {
    "metar": "KCPS 140553Z AUTO 00000KT 10SM CLR 11/07 A3007 RMK AO2 SLP180 T01110072 10217 20111 402390111 53006 $",
    "windDirection": 0,
    "windSpeed": 0,
    "windGust": null,
    "visibility": 10,
    "temperatureC": 11,
    "dewPointC": 7,
    "cloudCeiling": 99999,
    "altimeter": "A3007",
    "timestamp": "2026-05-14T05:53:00+00:00",
    "station": "KCPS"
  },
  "kstl": {
    "metar": "KSTL 140551Z 13006KT 10SM CLR 14/04 A3008 RMK AO2 SLP179 T01440044 10211 20144 402330144 53006 $",
    "windDirection": 130,
    "windSpeed": 6,
    "windGust": null,
    "visibility": 10,
    "temperatureC": 14,
    "dewPointC": 4,
    "cloudCeiling": 99999,
    "altimeter": "A3008",
    "timestamp": "2026-05-14T05:51:00+00:00",
    "station": "KSTL"
  }
}