{
  "lastUpdated": "2026-04-20T16:12:02.876140+00:00",
  "kcps": {
    "metar": "KCPS 201553Z 10004KT 10SM CLR 13/M02 A3035 RMK AO2 SLP277 T01331017 $",
    "windDirection": 100,
    "windSpeed": 4,
    "windGust": null,
    "visibility": 10,
    "temperatureC": 13,
    "dewPointC": -2,
    "cloudCeiling": 99999,
    "altimeter": "A3035",
    "timestamp": "2026-04-20T15:53:00+00:00",
    "station": "KCPS"
  },
  "kstl": {
    "metar": "KSTL 201551Z 11006KT 10SM FEW250 13/M02 A3035 RMK AO2 SLP276 T01281017 $",
    "windDirection": 110,
    "windSpeed": 6,
    "windGust": null,
    "visibility": 10,
    "temperatureC": 13,
    "dewPointC": -2,
    "cloudCeiling": null,
    "altimeter": "A3035",
    "timestamp": "2026-04-20T15:51:00+00:00",
    "station": "KSTL"
  }
}