{
  "lastUpdated": "2025-10-26T10:02:33.483461+00:00",
  "kcps": {
    "metar": "KCPS 260953Z AUTO 08007KT 10SM -RA BKN075 OVC090 11/08 A3018 RMK AO2 SLP220 P0001 T01110083 $",
    "windDirection": 80,
    "windSpeed": 7,
    "windGust": null,
    "visibility": 10,
    "temperatureC": 11,
    "dewPointC": 8,
    "cloudCeiling": 7500,
    "altimeter": "A3018",
    "timestamp": "2025-10-26T09:53:00+00:00",
    "station": "KCPS"
  },
  "kstl": {
    "metar": "KSTL 260951Z 07007KT 10SM SCT090 OVC120 11/07 A3019 RMK AO2 SLP224 T01110072 $",
    "windDirection": 70,
    "windSpeed": 7,
    "windGust": null,
    "visibility": 10,
    "temperatureC": 11,
    "dewPointC": 7,
    "cloudCeiling": 12000,
    "altimeter": "A3019",
    "timestamp": "2025-10-26T09:51:00+00:00",
    "station": "KSTL"
  }
}