{
  "lastUpdated": "2026-04-20T17:06:23.874213+00:00",
  "kcps": {
    "metar": "KCPS 201653Z 12004KT 10SM CLR 15/00 A3034 RMK AO2 SLP273 T01500000 $",
    "windDirection": 120,
    "windSpeed": 4,
    "windGust": null,
    "visibility": 10,
    "temperatureC": 15,
    "dewPointC": 0,
    "cloudCeiling": 99999,
    "altimeter": "A3034",
    "timestamp": "2026-04-20T16:53:00+00:00",
    "station": "KCPS"
  },
  "kstl": {
    "metar": "KSTL 201651Z 10008KT 10SM FEW250 14/M01 A3034 RMK AO2 SLP272 T01391006 $",
    "windDirection": 100,
    "windSpeed": 8,
    "windGust": null,
    "visibility": 10,
    "temperatureC": 14,
    "dewPointC": -1,
    "cloudCeiling": null,
    "altimeter": "A3034",
    "timestamp": "2026-04-20T16:51:00+00:00",
    "station": "KSTL"
  }
}