{
  "lastUpdated": "2025-12-03T17:36:56.965397+00:00",
  "kcps": {
    "metar": "KCPS 031653Z 17008KT 10SM SCT010 OVC100 M01/M03 A3013 RMK AO2 SLP207 T10061033",
    "windDirection": 170,
    "windSpeed": 8,
    "windGust": null,
    "visibility": 10,
    "temperatureC": -1,
    "dewPointC": -3,
    "cloudCeiling": 10000,
    "altimeter": "A3013",
    "timestamp": "2025-12-03T16:53:00+00:00",
    "station": "KCPS"
  },
  "kstl": {
    "metar": "KSTL 031651Z 17008KT 10SM BKN110 M01/M03 A3010 RMK AO2 SLP205 T10061033 $",
    "windDirection": 170,
    "windSpeed": 8,
    "windGust": null,
    "visibility": 10,
    "temperatureC": -1,
    "dewPointC": -3,
    "cloudCeiling": 11000,
    "altimeter": "A3010",
    "timestamp": "2025-12-03T16:51:00+00:00",
    "station": "KSTL"
  }
}