{
  "lastUpdated": "2026-02-27T07:57:39.165386+00:00",
  "kcps": {
    "metar": "KCPS 270753Z AUTO 00000KT 8SM CLR 00/M01 A2995 RMK AO2 SLP144 T00001006 $",
    "windDirection": 0,
    "windSpeed": 0,
    "windGust": null,
    "visibility": 8,
    "temperatureC": 0,
    "dewPointC": -1,
    "cloudCeiling": 99999,
    "altimeter": "A2995",
    "timestamp": "2026-02-27T07:53:00+00:00",
    "station": "KCPS"
  },
  "kstl": {
    "metar": "KSTL 270751Z 00000KT 10SM CLR 04/01 A2995 RMK AO2 SLP144 T00390011 $",
    "windDirection": 0,
    "windSpeed": 0,
    "windGust": null,
    "visibility": 10,
    "temperatureC": 4,
    "dewPointC": 1,
    "cloudCeiling": 99999,
    "altimeter": "A2995",
    "timestamp": "2026-02-27T07:51:00+00:00",
    "station": "KSTL"
  }
}