{
  "lastUpdated": "2026-04-01T06:04:51.545339+00:00",
  "kcps": {
    "metar": "KCPS 010553Z AUTO 23004KT 10SM OVC080 23/11 A2991 RMK AO2 SLP123 T02280111 10283 20183 402890183 50001 $",
    "windDirection": 230,
    "windSpeed": 4,
    "windGust": null,
    "visibility": 10,
    "temperatureC": 23,
    "dewPointC": 11,
    "cloudCeiling": 8000,
    "altimeter": "A2991",
    "timestamp": "2026-04-01T05:53:00+00:00",
    "station": "KCPS"
  },
  "kstl": {
    "metar": "KSTL 010551Z 00000KT 10SM FEW075 BKN100 BKN250 19/16 A2991 RMK AO2 SLP119 60000 T01890156 10233 20183 402670183 58001 $",
    "windDirection": 0,
    "windSpeed": 0,
    "windGust": null,
    "visibility": 10,
    "temperatureC": 19,
    "dewPointC": 16,
    "cloudCeiling": 10000,
    "altimeter": "A2991",
    "timestamp": "2026-04-01T05:51:00+00:00",
    "station": "KSTL"
  }
}