{
  "lastUpdated": "2026-01-02T08:52:35.710722+00:00",
  "kcps": {
    "metar": "KCPS 020825Z AUTO 04003KT 4SM BR OVC006 01/00 A2989 RMK AO2 CIG 004V010 T00110000 $",
    "windDirection": 40,
    "windSpeed": 3,
    "windGust": null,
    "visibility": 4,
    "temperatureC": 1,
    "dewPointC": 0,
    "cloudCeiling": 600,
    "altimeter": "A2989",
    "timestamp": "2026-01-02T08:25:00+00:00",
    "station": "KCPS"
  },
  "kstl": {
    "metar": "KSTL 020847Z 35007KT 6SM BR OVC006 01/M01 A2988 RMK AO2 $",
    "windDirection": 350,
    "windSpeed": 7,
    "windGust": null,
    "visibility": 6,
    "temperatureC": 1,
    "dewPointC": -1,
    "cloudCeiling": 600,
    "altimeter": "A2988",
    "timestamp": "2026-01-02T08:47:00+00:00",
    "station": "KSTL"
  }
}