{
  "lastUpdated": "2026-04-15T11:20:09.328908+00:00",
  "kcps": {
    "metar": "KCPS 151053Z AUTO 13005KT 10SM CLR 22/16 A2977 RMK AO2 SLP077 T02220161 $",
    "windDirection": 130,
    "windSpeed": 5,
    "windGust": null,
    "visibility": 10,
    "temperatureC": 22,
    "dewPointC": 16,
    "cloudCeiling": 99999,
    "altimeter": "A2977",
    "timestamp": "2026-04-15T10:53:00+00:00",
    "station": "KCPS"
  },
  "kstl": {
    "metar": "KSTL 151051Z 20005KT 10SM CLR 23/16 A2980 RMK AO2 SLP079 T02280161 $",
    "windDirection": 200,
    "windSpeed": 5,
    "windGust": null,
    "visibility": 10,
    "temperatureC": 23,
    "dewPointC": 16,
    "cloudCeiling": 99999,
    "altimeter": "A2980",
    "timestamp": "2026-04-15T10:51:00+00:00",
    "station": "KSTL"
  }
}