{
  "lastUpdated": "2025-11-17T09:48:27.417906+00:00",
  "kcps": {
    "metar": "KCPS 170853Z AUTO 00000KT 10SM CLR 00/M02 A3006 RMK AO2 SLP180 T00001022 53004 $",
    "windDirection": 0,
    "windSpeed": 0,
    "windGust": null,
    "visibility": 10,
    "temperatureC": 0,
    "dewPointC": -2,
    "cloudCeiling": 99999,
    "altimeter": "A3006",
    "timestamp": "2025-11-17T08:53:00+00:00",
    "station": "KCPS"
  },
  "kstl": {
    "metar": "KSTL 170851Z 00000KT 10SM CLR 03/M04 A3006 RMK AO2 SLP181 T00281039 53004 $",
    "windDirection": 0,
    "windSpeed": 0,
    "windGust": null,
    "visibility": 10,
    "temperatureC": 3,
    "dewPointC": -4,
    "cloudCeiling": 99999,
    "altimeter": "A3006",
    "timestamp": "2025-11-17T08:51:00+00:00",
    "station": "KSTL"
  }
}