{
  "lastUpdated": "2026-01-19T21:47:54.418640+00:00",
  "kcps": {
    "metar": "KCPS 192053Z 28012KT 10SM CLR M06/M22 A3042 RMK AO2 SLP308 T10561217 55002 $",
    "windDirection": 280,
    "windSpeed": 12,
    "windGust": null,
    "visibility": 10,
    "temperatureC": -6,
    "dewPointC": -22,
    "cloudCeiling": 99999,
    "altimeter": "A3042",
    "timestamp": "2026-01-19T20:53:00+00:00",
    "station": "KCPS"
  },
  "kstl": {
    "metar": "KSTL 192051Z 29012KT 10SM FEW250 M07/M21 A3042 RMK AO2 SLP316 T10671206 55005 $",
    "windDirection": 290,
    "windSpeed": 12,
    "windGust": null,
    "visibility": 10,
    "temperatureC": -7,
    "dewPointC": -21,
    "cloudCeiling": null,
    "altimeter": "A3042",
    "timestamp": "2026-01-19T20:51:00+00:00",
    "station": "KSTL"
  }
}