{
  "lastUpdated": "2026-04-17T21:13:42.041315+00:00",
  "kcps": {
    "metar": "KCPS 172053Z 18013G24KT 10SM CLR 28/18 A2975 RMK AO2 LTG DSNT W AND NW SLP071 T02780183 58032 $",
    "windDirection": 180,
    "windSpeed": 13,
    "windGust": 24,
    "visibility": 10,
    "temperatureC": 28,
    "dewPointC": 18,
    "cloudCeiling": 99999,
    "altimeter": "A2975",
    "timestamp": "2026-04-17T20:53:00+00:00",
    "station": "KCPS"
  },
  "kstl": {
    "metar": "KSTL 172051Z 18012G23KT 10SM -TSRA FEW060CB SCT080 OVC200 26/19 A2976 RMK AO2 PK WND 19030/2040 RAB40 TSB26 SLP070 OCNL LTGICCG SW-W TS SW-W MOV NE P0000 60000 T02610189 56026 $",
    "windDirection": 180,
    "windSpeed": 12,
    "windGust": 23,
    "visibility": 10,
    "temperatureC": 26,
    "dewPointC": 19,
    "cloudCeiling": 20000,
    "altimeter": "A2976",
    "timestamp": "2026-04-17T20:51:00+00:00",
    "station": "KSTL"
  }
}