{
  "lastUpdated": "2026-03-30T21:29:27.577204+00:00",
  "kcps": {
    "metar": "KCPS 302053Z 20010G22KT 10SM FEW065 29/14 A2987 RMK AO2 PK WND 20026/1954 SLP112 T02940144 56027 $",
    "windDirection": 200,
    "windSpeed": 10,
    "windGust": 22,
    "visibility": 10,
    "temperatureC": 29,
    "dewPointC": 14,
    "cloudCeiling": null,
    "altimeter": "A2987",
    "timestamp": "2026-03-30T20:53:00+00:00",
    "station": "KCPS"
  },
  "kstl": {
    "metar": "KSTL 302051Z 20017G25KT 10SM FEW065 FEW250 29/14 A2987 RMK AO2 PK WND 19027/2037 SLP105 T02940139 56026 $",
    "windDirection": 200,
    "windSpeed": 17,
    "windGust": 25,
    "visibility": 10,
    "temperatureC": 29,
    "dewPointC": 14,
    "cloudCeiling": null,
    "altimeter": "A2987",
    "timestamp": "2026-03-30T20:51:00+00:00",
    "station": "KSTL"
  }
}