{
  "lastUpdated": "2026-01-25T06:55:42.641921+00:00",
  "kcps": {
    "metar": "KCPS 250650Z AUTO 02009KT 1SM -SN BR VV014 M13/M15 A3019 RMK AO2 P0000 $",
    "windDirection": 20,
    "windSpeed": 9,
    "windGust": null,
    "visibility": 1,
    "temperatureC": -13,
    "dewPointC": -15,
    "cloudCeiling": 1400,
    "altimeter": "A3019",
    "timestamp": "2026-01-25T06:50:00+00:00",
    "station": "KCPS"
  },
  "kstl": {
    "metar": "KSTL 250651Z 01009KT 3/4SM R30R/P6000FT -SN BR VV010 M13/M15 A3019 RMK AO2 SLP248 P0005 T11281150 $",
    "windDirection": 10,
    "windSpeed": 9,
    "windGust": null,
    "visibility": 0.75,
    "temperatureC": -13,
    "dewPointC": -15,
    "cloudCeiling": 1000,
    "altimeter": "A3019",
    "timestamp": "2026-01-25T06:51:00+00:00",
    "station": "KSTL"
  }
}