{
  "lastUpdated": "2026-04-22T14:17:24.815058+00:00",
  "kcps": {
    "metar": "KCPS 221353Z VRB05KT 10SM CLR 18/09 A3007 RMK AO2 SLP180 T01830094 $",
    "windDirection": null,
    "windSpeed": null,
    "windGust": null,
    "visibility": 10,
    "temperatureC": 18,
    "dewPointC": 9,
    "cloudCeiling": 99999,
    "altimeter": "A3007",
    "timestamp": "2026-04-22T13:53:00+00:00",
    "station": "KCPS"
  },
  "kstl": {
    "metar": "KSTL 221351Z 25013KT 10SM FEW250 18/11 A3007 RMK AO2 SLP174 T01780106 $",
    "windDirection": 250,
    "windSpeed": 13,
    "windGust": null,
    "visibility": 10,
    "temperatureC": 18,
    "dewPointC": 11,
    "cloudCeiling": null,
    "altimeter": "A3007",
    "timestamp": "2026-04-22T13:51:00+00:00",
    "station": "KSTL"
  }
}