{
  "lastUpdated": "2025-12-22T17:02:45.110664+00:00",
  "kcps": {
    "metar": "KCPS 221553Z 17007KT 10SM BKN055 06/M06 A3025 RMK AO2 SLP246 T00611056 $",
    "windDirection": 170,
    "windSpeed": 7,
    "windGust": null,
    "visibility": 10,
    "temperatureC": 6,
    "dewPointC": -6,
    "cloudCeiling": 5500,
    "altimeter": "A3025",
    "timestamp": "2025-12-22T15:53:00+00:00",
    "station": "KCPS"
  },
  "kstl": {
    "metar": "KSTL 221651Z 14008KT 10SM BKN065 07/M07 A3022 RMK AO2 SLP242 T00721067 $",
    "windDirection": 140,
    "windSpeed": 8,
    "windGust": null,
    "visibility": 10,
    "temperatureC": 7,
    "dewPointC": -7,
    "cloudCeiling": 6500,
    "altimeter": "A3022",
    "timestamp": "2025-12-22T16:51:00+00:00",
    "station": "KSTL"
  }
}