{
  "lastUpdated": "2025-12-25T03:51:07.798790+00:00",
  "kcps": {
    "metar": "KCPS 250331Z 21003KT 5SM BR FEW002 14/14 A3003 RMK AO2 T01390139 $",
    "windDirection": 210,
    "windSpeed": 3,
    "windGust": null,
    "visibility": 5,
    "temperatureC": 14,
    "dewPointC": 14,
    "cloudCeiling": null,
    "altimeter": "A3003",
    "timestamp": "2025-12-25T03:31:00+00:00",
    "station": "KCPS"
  },
  "kstl": {
    "metar": "KSTL 250251Z 20006KT 10SM FEW250 17/15 A3003 RMK AO2 SLP168 T01670150 55009 $",
    "windDirection": 200,
    "windSpeed": 6,
    "windGust": null,
    "visibility": 10,
    "temperatureC": 17,
    "dewPointC": 15,
    "cloudCeiling": null,
    "altimeter": "A3003",
    "timestamp": "2025-12-25T02:51:00+00:00",
    "station": "KSTL"
  }
}