{
  "lastUpdated": "2026-02-10T00:54:58.476139+00:00",
  "kcps": {
    "metar": "KCPS 092353Z 16005KT 10SM CLR 09/02 A3002 RMK AO2 SLP167 T00940017 10144 20072 56011 $",
    "windDirection": 160,
    "windSpeed": 5,
    "windGust": null,
    "visibility": 10,
    "temperatureC": 9,
    "dewPointC": 2,
    "cloudCeiling": 99999,
    "altimeter": "A3002",
    "timestamp": "2026-02-09T23:53:00+00:00",
    "station": "KCPS"
  },
  "kstl": {
    "metar": "KSTL 100051Z 12008KT 10SM SCT250 08/02 A3001 RMK AO2 SLP170 T00830017 $",
    "windDirection": 120,
    "windSpeed": 8,
    "windGust": null,
    "visibility": 10,
    "temperatureC": 8,
    "dewPointC": 2,
    "cloudCeiling": null,
    "altimeter": "A3001",
    "timestamp": "2026-02-10T00:51:00+00:00",
    "station": "KSTL"
  }
}