{
  "lastUpdated": "2026-01-16T01:11:47.616704+00:00",
  "kcps": {
    "metar": "KCPS 160053Z 16006KT 10SM CLR M02/M14 A2988 RMK AO2 SLP121 T10221139 $",
    "windDirection": 160,
    "windSpeed": 6,
    "windGust": null,
    "visibility": 10,
    "temperatureC": -2,
    "dewPointC": -14,
    "cloudCeiling": 99999,
    "altimeter": "A2988",
    "timestamp": "2026-01-16T00:53:00+00:00",
    "station": "KCPS"
  },
  "kstl": {
    "metar": "KSTL 160051Z 14009KT 10SM SCT150 BKN250 M01/M14 A2985 RMK AO2 SLP123 T10061139 $",
    "windDirection": 140,
    "windSpeed": 9,
    "windGust": null,
    "visibility": 10,
    "temperatureC": -1,
    "dewPointC": -14,
    "cloudCeiling": 25000,
    "altimeter": "A2985",
    "timestamp": "2026-01-16T00:51:00+00:00",
    "station": "KSTL"
  }
}