{
  "lastUpdated": "2026-03-29T14:57:09.913896+00:00",
  "kcps": {
    "metar": "KCPS 291453Z 18008KT 10SM CLR 13/M01 A3024 RMK AO2 SLP241 T01281011 58012 $",
    "windDirection": 180,
    "windSpeed": 8,
    "windGust": null,
    "visibility": 10,
    "temperatureC": 13,
    "dewPointC": -1,
    "cloudCeiling": 99999,
    "altimeter": "A3024",
    "timestamp": "2026-03-29T14:53:00+00:00",
    "station": "KCPS"
  },
  "kstl": {
    "metar": "KSTL 291451Z 19010KT 10SM BKN055 BKN250 13/M02 A3024 RMK AO2 SLP239 T01331022 58011 $",
    "windDirection": 190,
    "windSpeed": 10,
    "windGust": null,
    "visibility": 10,
    "temperatureC": 13,
    "dewPointC": -2,
    "cloudCeiling": 5500,
    "altimeter": "A3024",
    "timestamp": "2026-03-29T14:51:00+00:00",
    "station": "KSTL"
  }
}