{
  "lastUpdated": "2026-01-27T21:02:22.576089+00:00",
  "kcps": {
    "metar": "KCPS 272053Z 30014KT 10SM CLR M02/M12 A3032 RMK AO2 SLP272 T10171122 53006 $",
    "windDirection": 300,
    "windSpeed": 14,
    "windGust": null,
    "visibility": 10,
    "temperatureC": -2,
    "dewPointC": -12,
    "cloudCeiling": 99999,
    "altimeter": "A3032",
    "timestamp": "2026-01-27T20:53:00+00:00",
    "station": "KCPS"
  },
  "kstl": {
    "metar": "KSTL 272051Z 29015KT 10SM BKN250 M03/M12 A3032 RMK AO2 SLP282 T10281122 53006 $",
    "windDirection": 290,
    "windSpeed": 15,
    "windGust": null,
    "visibility": 10,
    "temperatureC": -3,
    "dewPointC": -12,
    "cloudCeiling": 25000,
    "altimeter": "A3032",
    "timestamp": "2026-01-27T20:51:00+00:00",
    "station": "KSTL"
  }
}