{
  "lastUpdated": "2026-03-25T00:55:17.868882+00:00",
  "kcps": {
    "station": "KCPS",
    "metar": null,
    "error": "Failed to fetch METAR"
  },
  "kstl": {
    "metar": "KSTL 250051Z 12007KT 10SM SCT100 BKN250 14/M04 A3015 RMK AO2 SLP213 T01441044",
    "windDirection": 120,
    "windSpeed": 7,
    "windGust": null,
    "visibility": 10,
    "temperatureC": 14,
    "dewPointC": -4,
    "cloudCeiling": 25000,
    "altimeter": "A3015",
    "timestamp": "2026-03-25T00:51:00+00:00",
    "station": "KSTL"
  }
}