{
  "lastUpdated": "2025-10-15T04:47:24.537975+00:00",
  "kcps": {
    "metar": "KCPS 150353Z 00000KT 10SM CLR 16/14 A3021 RMK AO2 SLP228 T01560144",
    "windDirection": 0,
    "windSpeed": 0,
    "windGust": null,
    "visibility": 10,
    "temperatureC": 16,
    "dewPointC": 14,
    "cloudCeiling": 99999,
    "altimeter": "A3021",
    "timestamp": "2025-10-15T03:53:00+00:00",
    "station": "KCPS"
  },
  "kstl": {
    "metar": "KSTL 150351Z 12004KT 10SM CLR 19/14 A3022 RMK AO2 SLP226 T01940139 $",
    "windDirection": 120,
    "windSpeed": 4,
    "windGust": null,
    "visibility": 10,
    "temperatureC": 19,
    "dewPointC": 14,
    "cloudCeiling": 99999,
    "altimeter": "A3022",
    "timestamp": "2025-10-15T03:51:00+00:00",
    "station": "KSTL"
  }
}