{
  "lastUpdated": "2026-01-02T12:44:12.564418+00:00",
  "kcps": {
    "metar": "KCPS 021235Z 03007KT 10SM BR OVC010 01/M02 A2991 RMK AO2 T00061017 $",
    "windDirection": 30,
    "windSpeed": 7,
    "windGust": null,
    "visibility": 10,
    "temperatureC": 1,
    "dewPointC": -2,
    "cloudCeiling": 1000,
    "altimeter": "A2991",
    "timestamp": "2026-01-02T12:35:00+00:00",
    "station": "KCPS"
  },
  "kstl": {
    "metar": "KSTL 021151Z 02006KT 10SM OVC009 M01/M02 A2990 RMK AO2 SLP134 T10061022 10011 21006 52005 $",
    "windDirection": 20,
    "windSpeed": 6,
    "windGust": null,
    "visibility": 10,
    "temperatureC": -1,
    "dewPointC": -2,
    "cloudCeiling": 900,
    "altimeter": "A2990",
    "timestamp": "2026-01-02T11:51:00+00:00",
    "station": "KSTL"
  }
}