{
  "lastUpdated": "2026-03-20T15:48:27.923751+00:00",
  "kcps": {
    "metar": "KCPS 201453Z 23005KT 10SM CLR 18/08 A2994 RMK AO2 SLP135 T01830083 50003 $",
    "windDirection": 230,
    "windSpeed": 5,
    "windGust": null,
    "visibility": 10,
    "temperatureC": 18,
    "dewPointC": 8,
    "cloudCeiling": 99999,
    "altimeter": "A2994",
    "timestamp": "2026-03-20T14:53:00+00:00",
    "station": "KCPS"
  },
  "kstl": {
    "metar": "KSTL 201451Z 26012KT 10SM BKN250 20/07 A2994 RMK AO2 SLP132 T02000072 50002 $",
    "windDirection": 260,
    "windSpeed": 12,
    "windGust": null,
    "visibility": 10,
    "temperatureC": 20,
    "dewPointC": 7,
    "cloudCeiling": 25000,
    "altimeter": "A2994",
    "timestamp": "2026-03-20T14:51:00+00:00",
    "station": "KSTL"
  }
}