{
  "lastUpdated": "2026-02-24T14:26:17.642682+00:00",
  "kcps": {
    "metar": "KCPS 241353Z 17008KT 10SM CLR M03/M10 A3004 RMK AO2 SLP178 T10331100 PNO $",
    "windDirection": 170,
    "windSpeed": 8,
    "windGust": null,
    "visibility": 10,
    "temperatureC": -3,
    "dewPointC": -10,
    "cloudCeiling": 99999,
    "altimeter": "A3004",
    "timestamp": "2026-02-24T13:53:00+00:00",
    "station": "KCPS"
  },
  "kstl": {
    "metar": "KSTL 241351Z 17013KT 10SM BKN170 OVC200 M03/M11 A3001 RMK AO2 SLP175 T10281106 $",
    "windDirection": 170,
    "windSpeed": 13,
    "windGust": null,
    "visibility": 10,
    "temperatureC": -3,
    "dewPointC": -11,
    "cloudCeiling": 17000,
    "altimeter": "A3001",
    "timestamp": "2026-02-24T13:51:00+00:00",
    "station": "KSTL"
  }
}