{
  "lastUpdated": "2026-06-12T19:13:02.642606+00:00",
  "kcps": {
    "metar": "KCPS 121853Z 01006KT 10SM CLR 28/12 A3000 RMK AO2 SLP154 T02780122 $",
    "windDirection": 10,
    "windSpeed": 6,
    "windGust": null,
    "visibility": 10.0,
    "temperatureC": 27.8,
    "dewPointC": 12.2,
    "cloudCeiling": null,
    "altimeter": "A3000",
    "timestamp": "2026-06-12T19:00:00.000Z",
    "station": "KCPS"
  },
  "kstl": {
    "metar": "KSTL 121751Z 33005KT 10SM FEW250 27/12 A3002 RMK AO2 SLP157 T02670117 10267 20206 58003 $",
    "windDirection": 330,
    "windSpeed": 5,
    "windGust": null,
    "visibility": 10.0,
    "temperatureC": 26.7,
    "dewPointC": 11.7,
    "cloudCeiling": null,
    "altimeter": "A3002",
    "timestamp": "2026-06-12T18:00:00.000Z",
    "station": "KSTL"
  }
}