{
  "lastUpdated": "2025-10-21T01:08:18.305129+00:00",
  "kcps": {
    "metar": "KCPS 210053Z 18006KT 10SM FEW075 19/07 A2978 RMK AO2 SLP085 T01890072",
    "windDirection": 180,
    "windSpeed": 6,
    "windGust": null,
    "visibility": 10,
    "temperatureC": 19,
    "dewPointC": 7,
    "cloudCeiling": null,
    "altimeter": "A2978",
    "timestamp": "2025-10-21T00:53:00+00:00",
    "station": "KCPS"
  },
  "kstl": {
    "metar": "KSTL 210051Z 18011G19KT 10SM BKN070 OVC100 21/07 A2977 RMK AO2 SLP077 T02060067 $",
    "windDirection": 180,
    "windSpeed": 11,
    "windGust": 19,
    "visibility": 10,
    "temperatureC": 21,
    "dewPointC": 7,
    "cloudCeiling": 7000,
    "altimeter": "A2977",
    "timestamp": "2025-10-21T00:51:00+00:00",
    "station": "KSTL"
  }
}