{
  "lastUpdated": "2026-01-19T12:24:15.856497+00:00",
  "kcps": {
    "metar": "KCPS 191153Z AUTO 30017G29KT 10SM FEW029 M06/M12 A3026 RMK AO2 PK WND 32031/1132 SLP253 T10611122 10000 21061 53038 $",
    "windDirection": 300,
    "windSpeed": 17,
    "windGust": 29,
    "visibility": 10,
    "temperatureC": -6,
    "dewPointC": -12,
    "cloudCeiling": null,
    "altimeter": "A3026",
    "timestamp": "2026-01-19T11:53:00+00:00",
    "station": "KCPS"
  },
  "kstl": {
    "metar": "KSTL 191151Z 32018G31KT 10SM FEW025 M08/M17 A3026 RMK AO2 PK WND 31032/1135 SNB08E28B38E49 SLP262 P0000 60000 T10831167 11011 21083 53034 $",
    "windDirection": 320,
    "windSpeed": 18,
    "windGust": 31,
    "visibility": 10,
    "temperatureC": -8,
    "dewPointC": -17,
    "cloudCeiling": null,
    "altimeter": "A3026",
    "timestamp": "2026-01-19T11:51:00+00:00",
    "station": "KSTL"
  }
}