{
  "lastUpdated": "2025-10-17T13:01:03.067367+00:00",
  "kcps": {
    "metar": "KCPS 171253Z 00000KT 10SM CLR 14/13 A2999 RMK AO2 SLP155 T01390128",
    "windDirection": 0,
    "windSpeed": 0,
    "windGust": null,
    "visibility": 10,
    "temperatureC": 14,
    "dewPointC": 13,
    "cloudCeiling": 99999,
    "altimeter": "A2999",
    "timestamp": "2025-10-17T12:53:00+00:00",
    "station": "KCPS"
  },
  "kstl": {
    "station": "KSTL",
    "metar": "Data unavailable",
    "error": "Failed to fetch METAR"
  }
}