{
  "lastUpdated": "2026-06-09T03:43:48.913979+00:00",
  "kcps": {
    "metar": "KCPS 090253Z AUTO 15004KT 10SM BKN090 26/22 A2996 RMK AO2 SLP140 T02560222 53014 $",
    "windDirection": 150,
    "windSpeed": 4,
    "windGust": null,
    "visibility": 10,
    "temperatureC": 26,
    "dewPointC": 22,
    "cloudCeiling": 9000,
    "altimeter": "A2996",
    "timestamp": "2026-06-09T02:53:00+00:00",
    "station": "KCPS"
  },
  "kstl": {
    "metar": "KSTL 090251Z 21006KT 10SM FEW080 SCT110 BKN250 27/21 A2996 RMK AO2 SLP134 T02670211 51013 $",
    "windDirection": 210,
    "windSpeed": 6,
    "windGust": null,
    "visibility": 10,
    "temperatureC": 27,
    "dewPointC": 21,
    "cloudCeiling": 25000,
    "altimeter": "A2996",
    "timestamp": "2026-06-09T02:51:00+00:00",
    "station": "KSTL"
  }
}