{
  "lastUpdated": "2026-05-21T08:02:01.255933+00:00",
  "kcps": {
    "metar": "KCPS 210753Z AUTO 05005KT 10SM CLR 14/09 A3014 RMK AO2 SLP207 T01390094 PNO $",
    "windDirection": 50,
    "windSpeed": 5,
    "windGust": null,
    "visibility": 10,
    "temperatureC": 14,
    "dewPointC": 9,
    "cloudCeiling": 99999,
    "altimeter": "A3014",
    "timestamp": "2026-05-21T07:53:00+00:00",
    "station": "KCPS"
  },
  "kstl": {
    "metar": "KSTL 210751Z AUTO 06009KT 10SM CLR 14/08 A3016 RMK AO2 SLP209 T01440083 $",
    "windDirection": 60,
    "windSpeed": 9,
    "windGust": null,
    "visibility": 10,
    "temperatureC": 14,
    "dewPointC": 8,
    "cloudCeiling": 99999,
    "altimeter": "A3016",
    "timestamp": "2026-05-21T07:51:00+00:00",
    "station": "KSTL"
  }
}