{
  "lastUpdated": "2026-06-04T14:38:55.183552+00:00",
  "kcps": {
    "metar": "KCPS 041353Z 17005KT 10SM FEW065 22/16 A3017 RMK AO2 SLP214 T02220156 $",
    "windDirection": 170,
    "windSpeed": 5,
    "windGust": null,
    "visibility": 10,
    "temperatureC": 22,
    "dewPointC": 16,
    "cloudCeiling": null,
    "altimeter": "A3017",
    "timestamp": "2026-06-04T13:53:00+00:00",
    "station": "KCPS"
  },
  "kstl": {
    "metar": "KSTL 041351Z 19010KT 10SM SCT060 BKN250 24/15 A3017 RMK AO2 SLP207 T02390150 $",
    "windDirection": 190,
    "windSpeed": 10,
    "windGust": null,
    "visibility": 10,
    "temperatureC": 24,
    "dewPointC": 15,
    "cloudCeiling": 25000,
    "altimeter": "A3017",
    "timestamp": "2026-06-04T13:51:00+00:00",
    "station": "KSTL"
  }
}