{
  "lastUpdated": "2026-03-16T04:50:41.295516+00:00",
  "kcps": {
    "metar": "KCPS 160353Z AUTO 28019G31KT 10SM OVC025 02/M02 A2962 RMK AO2 PK WND 29034/0336 RAE01B21E22UPB12E21SNB38E47 PRESRR SLP031 P0000 T00221017 $",
    "windDirection": 280,
    "windSpeed": 19,
    "windGust": 31,
    "visibility": 10,
    "temperatureC": 2,
    "dewPointC": -2,
    "cloudCeiling": 2500,
    "altimeter": "A2962",
    "timestamp": "2026-03-16T03:53:00+00:00",
    "station": "KCPS"
  },
  "kstl": {
    "metar": "KSTL 160351Z 29025G38KT 10SM OVC020 02/M02 A2961 RMK AO2 PK WND 29038/0350 SLP024 T00171017 $",
    "windDirection": 290,
    "windSpeed": 25,
    "windGust": 38,
    "visibility": 10,
    "temperatureC": 2,
    "dewPointC": -2,
    "cloudCeiling": 2000,
    "altimeter": "A2961",
    "timestamp": "2026-03-16T03:51:00+00:00",
    "station": "KSTL"
  }
}