{
  "lastUpdated": "2026-05-02T18:14:33.708233+00:00",
  "kcps": {
    "metar": "KCPS 021753Z 05009KT 10SM FEW095 15/03 A3010 RMK AO2 SLP193 T01500028 10156 20083 50002 $",
    "windDirection": 50,
    "windSpeed": 9,
    "windGust": null,
    "visibility": 10,
    "temperatureC": 15,
    "dewPointC": 3,
    "cloudCeiling": null,
    "altimeter": "A3010",
    "timestamp": "2026-05-02T17:53:00+00:00",
    "station": "KCPS"
  },
  "kstl": {
    "metar": "KSTL 021751Z 33007G15KT 10SM -RA BKN055 BKN090 BKN250 12/01 A3012 RMK AO2 RAB09E19B48 SLP201 P0000 60000 T01220011 10150 20083 51005 $",
    "windDirection": 330,
    "windSpeed": 7,
    "windGust": 15,
    "visibility": 10,
    "temperatureC": 12,
    "dewPointC": 1,
    "cloudCeiling": 5500,
    "altimeter": "A3012",
    "timestamp": "2026-05-02T17:51:00+00:00",
    "station": "KSTL"
  }
}