{
  "lastUpdated": "2025-11-14T06:02:46.277838+00:00",
  "kcps": {
    "metar": "KCPS 140553Z AUTO 15003KT 10SM CLR 09/04 A3009 RMK AO2 SLP189 T00890044 10139 20083 402000006 58004 TSNO",
    "windDirection": 150,
    "windSpeed": 3,
    "windGust": null,
    "visibility": 10,
    "temperatureC": 9,
    "dewPointC": 4,
    "cloudCeiling": 99999,
    "altimeter": "A3009",
    "timestamp": "2025-11-14T05:53:00+00:00",
    "station": "KCPS"
  },
  "kstl": {
    "metar": "KSTL 140551Z 17005KT 10SM FEW055 12/04 A3008 RMK AO2 SLP184 T01220044 10161 20122 401940044 58004",
    "windDirection": 170,
    "windSpeed": 5,
    "windGust": null,
    "visibility": 10,
    "temperatureC": 12,
    "dewPointC": 4,
    "cloudCeiling": null,
    "altimeter": "A3008",
    "timestamp": "2025-11-14T05:51:00+00:00",
    "station": "KSTL"
  }
}