{
  "lastUpdated": "2026-02-18T18:00:27.310186+00:00",
  "kcps": {
    "metar": "KCPS 181753Z 29011G15KT 10SM CLR 21/03 A2969 RMK AO2 SLP053 T02110028 10211 20150 50002 $",
    "windDirection": 290,
    "windSpeed": 11,
    "windGust": 15,
    "visibility": 10,
    "temperatureC": 21,
    "dewPointC": 3,
    "cloudCeiling": 99999,
    "altimeter": "A2969",
    "timestamp": "2026-02-18T17:53:00+00:00",
    "station": "KCPS"
  },
  "kstl": {
    "metar": "KSTL 181751Z 30009G18KT 10SM SCT250 21/M01 A2970 RMK AO2 SLP052 T02061011 10206 20144 50005 $",
    "windDirection": 300,
    "windSpeed": 9,
    "windGust": 18,
    "visibility": 10,
    "temperatureC": 21,
    "dewPointC": -1,
    "cloudCeiling": null,
    "altimeter": "A2970",
    "timestamp": "2026-02-18T17:51:00+00:00",
    "station": "KSTL"
  }
}