{
  "lastUpdated": "2026-04-04T05:37:58.887120+00:00",
  "kcps": {
    "metar": "KCPS 040453Z AUTO 18008KT 10SM CLR 24/17 A2992 RMK AO2 SLP127 T02390167 $",
    "windDirection": 180,
    "windSpeed": 8,
    "windGust": null,
    "visibility": 10,
    "temperatureC": 24,
    "dewPointC": 17,
    "cloudCeiling": 99999,
    "altimeter": "A2992",
    "timestamp": "2026-04-04T04:53:00+00:00",
    "station": "KCPS"
  },
  "kstl": {
    "metar": "KSTL 040451Z 18013G22KT 10SM BKN100 BKN250 24/16 A2992 RMK AO2 SLP120 T02440161 $",
    "windDirection": 180,
    "windSpeed": 13,
    "windGust": 22,
    "visibility": 10,
    "temperatureC": 24,
    "dewPointC": 16,
    "cloudCeiling": 10000,
    "altimeter": "A2992",
    "timestamp": "2026-04-04T04:51:00+00:00",
    "station": "KSTL"
  }
}