{
  "lastUpdated": "2026-02-05T17:15:56.861323+00:00",
  "kcps": {
    "metar": "KCPS 051653Z 19004KT 10SM BKN120 M02/M08 A3015 RMK AO2 SLP215 T10171078 $",
    "windDirection": 190,
    "windSpeed": 4,
    "windGust": null,
    "visibility": 10,
    "temperatureC": -2,
    "dewPointC": -8,
    "cloudCeiling": 12000,
    "altimeter": "A3015",
    "timestamp": "2026-02-05T16:53:00+00:00",
    "station": "KCPS"
  },
  "kstl": {
    "metar": "KSTL 051651Z 19007KT 10SM BKN120 OVC250 M01/M07 A3013 RMK AO2 SLP216 T10061067 $",
    "windDirection": 190,
    "windSpeed": 7,
    "windGust": null,
    "visibility": 10,
    "temperatureC": -1,
    "dewPointC": -7,
    "cloudCeiling": 12000,
    "altimeter": "A3013",
    "timestamp": "2026-02-05T16:51:00+00:00",
    "station": "KSTL"
  }
}