{
  "lastUpdated": "2026-05-19T13:44:53.070771+00:00",
  "kcps": {
    "metar": "KCPS 191253Z 22004KT 10SM CLR 19/18 A3002 RMK AO2 SLP162 T01940178 $",
    "windDirection": 220,
    "windSpeed": 4,
    "windGust": null,
    "visibility": 10,
    "temperatureC": 19,
    "dewPointC": 18,
    "cloudCeiling": 99999,
    "altimeter": "A3002",
    "timestamp": "2026-05-19T12:53:00+00:00",
    "station": "KCPS"
  },
  "kstl": {
    "metar": "KSTL 191251Z 22006KT 10SM FEW050 SCT085 BKN200 OVC250 19/18 A3002 RMK AO2 SLP160 T01940178 $",
    "windDirection": 220,
    "windSpeed": 6,
    "windGust": null,
    "visibility": 10,
    "temperatureC": 19,
    "dewPointC": 18,
    "cloudCeiling": 20000,
    "altimeter": "A3002",
    "timestamp": "2026-05-19T12:51:00+00:00",
    "station": "KSTL"
  }
}