{
  "lastUpdated": "2025-11-18T22:02:29.220353+00:00",
  "kcps": {
    "metar": "KCPS 182153Z AUTO 36009KT 10SM FEW041 SCT065 19/14 A2984 RMK AO2 SLP102 T01940139",
    "windDirection": 360,
    "windSpeed": 9,
    "windGust": null,
    "visibility": 10,
    "temperatureC": 19,
    "dewPointC": 14,
    "cloudCeiling": null,
    "altimeter": "A2984",
    "timestamp": "2025-11-18T21:53:00+00:00",
    "station": "KCPS"
  },
  "kstl": {
    "metar": "KSTL 182151Z 36009KT 10SM FEW042 SCT050 18/13 A2986 RMK AO2 SLP107 T01780133 $",
    "windDirection": 360,
    "windSpeed": 9,
    "windGust": null,
    "visibility": 10,
    "temperatureC": 18,
    "dewPointC": 13,
    "cloudCeiling": null,
    "altimeter": "A2986",
    "timestamp": "2025-11-18T21:51:00+00:00",
    "station": "KSTL"
  }
}