{
  "lastUpdated": "2026-02-20T07:33:00.029235+00:00",
  "kcps": {
    "metar": "KCPS 200653Z 26013G26KT 10SM CLR 07/M02 A2960 RMK AO2 PK WND 26030/0607 SLP023 T00721022 $",
    "windDirection": 260,
    "windSpeed": 13,
    "windGust": 26,
    "visibility": 10,
    "temperatureC": 7,
    "dewPointC": -2,
    "cloudCeiling": 99999,
    "altimeter": "A2960",
    "timestamp": "2026-02-20T06:53:00+00:00",
    "station": "KCPS"
  },
  "kstl": {
    "metar": "KSTL 200651Z 25020G31KT 10SM FEW040 06/M03 A2961 RMK AO2 PK WND 26032/0609 SLP027 T00561028 $",
    "windDirection": 250,
    "windSpeed": 20,
    "windGust": 31,
    "visibility": 10,
    "temperatureC": 6,
    "dewPointC": -3,
    "cloudCeiling": null,
    "altimeter": "A2961",
    "timestamp": "2026-02-20T06:51:00+00:00",
    "station": "KSTL"
  }
}