{
  "lastUpdated": "2026-03-14T08:05:01.278917+00:00",
  "kcps": {
    "metar": "KCPS 140753Z AUTO 05005KT 10SM CLR 03/M01 A3010 RMK AO2 SLP192 T00331011 $",
    "windDirection": 50,
    "windSpeed": 5,
    "windGust": null,
    "visibility": 10,
    "temperatureC": 3,
    "dewPointC": -1,
    "cloudCeiling": 99999,
    "altimeter": "A3010",
    "timestamp": "2026-03-14T07:53:00+00:00",
    "station": "KCPS"
  },
  "kstl": {
    "metar": "KSTL 140751Z 06008KT 10SM SCT250 06/M03 A3011 RMK AO2 SLP196 T00561033 $",
    "windDirection": 60,
    "windSpeed": 8,
    "windGust": null,
    "visibility": 10,
    "temperatureC": 6,
    "dewPointC": -3,
    "cloudCeiling": null,
    "altimeter": "A3011",
    "timestamp": "2026-03-14T07:51:00+00:00",
    "station": "KSTL"
  }
}