{
  "lastUpdated": "2026-02-10T01:32:24.282421+00:00",
  "kcps": {
    "metar": "KCPS 100053Z 16006KT 10SM CLR 08/02 A3001 RMK AO2 SLP165 T00830017 $",
    "windDirection": 160,
    "windSpeed": 6,
    "windGust": null,
    "visibility": 10,
    "temperatureC": 8,
    "dewPointC": 2,
    "cloudCeiling": 99999,
    "altimeter": "A3001",
    "timestamp": "2026-02-10T00:53:00+00:00",
    "station": "KCPS"
  },
  "kstl": {
    "metar": "KSTL 100051Z 12008KT 10SM SCT250 08/02 A3001 RMK AO2 SLP170 T00830017 $",
    "windDirection": 120,
    "windSpeed": 8,
    "windGust": null,
    "visibility": 10,
    "temperatureC": 8,
    "dewPointC": 2,
    "cloudCeiling": null,
    "altimeter": "A3001",
    "timestamp": "2026-02-10T00:51:00+00:00",
    "station": "KSTL"
  }
}