{
  "lastUpdated": "2026-01-24T05:06:05.160576+00:00",
  "kcps": {
    "metar": "KCPS 240453Z AUTO 03012KT 10SM CLR M16/M27 A3071 RMK AO2 SLP409 T11561272 $",
    "windDirection": 30,
    "windSpeed": 12,
    "windGust": null,
    "visibility": 10,
    "temperatureC": -16,
    "dewPointC": -27,
    "cloudCeiling": 99999,
    "altimeter": "A3071",
    "timestamp": "2026-01-24T04:53:00+00:00",
    "station": "KCPS"
  },
  "kstl": {
    "metar": "KSTL 240451Z 03012KT 10SM BKN130 OVC250 M16/M27 A3070 RMK AO2 SLP420 T11611272 $",
    "windDirection": 30,
    "windSpeed": 12,
    "windGust": null,
    "visibility": 10,
    "temperatureC": -16,
    "dewPointC": -27,
    "cloudCeiling": 13000,
    "altimeter": "A3070",
    "timestamp": "2026-01-24T04:51:00+00:00",
    "station": "KSTL"
  }
}