{
  "lastUpdated": "2026-01-09T12:03:09.500280+00:00",
  "kcps": {
    "metar": "KCPS 091107Z 28013G27KT 10SM SCT027 OVC038 12/07 A2983 RMK AO2 PK WND 29027/1059 PRESRR T01170067",
    "windDirection": 280,
    "windSpeed": 13,
    "windGust": 27,
    "visibility": 10,
    "temperatureC": 12,
    "dewPointC": 7,
    "cloudCeiling": 3800,
    "altimeter": "A2983",
    "timestamp": "2026-01-09T11:07:00+00:00",
    "station": "KCPS"
  },
  "kstl": {
    "metar": "KSTL 091151Z 28015G21KT 10SM BKN020 BKN035 08/04 A2989 RMK AO2 PK WND 27029/1115 SLP118 70014 T00830044 10189 20083 51062 $",
    "windDirection": 280,
    "windSpeed": 15,
    "windGust": 21,
    "visibility": 10,
    "temperatureC": 8,
    "dewPointC": 4,
    "cloudCeiling": 2000,
    "altimeter": "A2989",
    "timestamp": "2026-01-09T11:51:00+00:00",
    "station": "KSTL"
  }
}