{
  "lastUpdated": "2026-06-01T07:14:01.622504+00:00",
  "kcps": {
    "metar": "KCPS 010653Z AUTO 00000KT 10SM FEW040 FEW049 20/19 A2993 RMK AO2 SLP131 T02000189 $",
    "windDirection": 0,
    "windSpeed": 0,
    "windGust": null,
    "visibility": 10,
    "temperatureC": 20,
    "dewPointC": 19,
    "cloudCeiling": null,
    "altimeter": "A2993",
    "timestamp": "2026-06-01T06:53:00+00:00",
    "station": "KCPS"
  },
  "kstl": {
    "metar": "KSTL 010651Z 00000KT 10SM SCT039 BKN060 BKN250 23/19 A2994 RMK AO2 SLP127 T02280189 $",
    "windDirection": 0,
    "windSpeed": 0,
    "windGust": null,
    "visibility": 10,
    "temperatureC": 23,
    "dewPointC": 19,
    "cloudCeiling": 6000,
    "altimeter": "A2994",
    "timestamp": "2026-06-01T06:51:00+00:00",
    "station": "KSTL"
  }
}