{
  "lastUpdated": "2026-03-22T21:50:41.841188+00:00",
  "kcps": {
    "metar": "KCPS 222053Z 35022G27KT 10SM CLR 32/14 A2960 RMK AO2 PK WND 36027/2050 SLP018 T03220139 55009 $",
    "windDirection": 350,
    "windSpeed": 22,
    "windGust": 27,
    "visibility": 10,
    "temperatureC": 32,
    "dewPointC": 14,
    "cloudCeiling": 99999,
    "altimeter": "A2960",
    "timestamp": "2026-03-22T20:53:00+00:00",
    "station": "KCPS"
  },
  "kstl": {
    "metar": "KSTL 222121Z 36024G32KT 10SM FEW050 OVC250 26/11 A2967 RMK AO2 PK WND 33034/2103 WSHFT 2101 PRESRR FROPA T02610111 $",
    "windDirection": 360,
    "windSpeed": 24,
    "windGust": 32,
    "visibility": 10,
    "temperatureC": 26,
    "dewPointC": 11,
    "cloudCeiling": 25000,
    "altimeter": "A2967",
    "timestamp": "2026-03-22T21:21:00+00:00",
    "station": "KSTL"
  }
}