{
  "lastUpdated": "2026-03-15T21:51:55.892935+00:00",
  "kcps": {
    "metar": "KCPS 152100Z 18014G23KT 10SM BKN027 OVC035 19/13 A2933 RMK AO2 T01890133 $",
    "windDirection": 180,
    "windSpeed": 14,
    "windGust": 23,
    "visibility": 10,
    "temperatureC": 19,
    "dewPointC": 13,
    "cloudCeiling": 2700,
    "altimeter": "A2933",
    "timestamp": "2026-03-15T21:00:00+00:00",
    "station": "KCPS"
  },
  "kstl": {
    "metar": "KSTL 152051Z 18016G27KT 10SM SCT039 BKN047 OVC070 19/13 A2931 RMK AO2 PK WND 17032/2004 SLP918 T01940128 58037 $",
    "windDirection": 180,
    "windSpeed": 16,
    "windGust": 27,
    "visibility": 10,
    "temperatureC": 19,
    "dewPointC": 13,
    "cloudCeiling": 4700,
    "altimeter": "A2931",
    "timestamp": "2026-03-15T20:51:00+00:00",
    "station": "KSTL"
  }
}