{
  "lastUpdated": "2026-03-12T01:59:30.533175+00:00",
  "kcps": {
    "metar": "KCPS 120153Z 34013G20KT 10SM OVC036 06/00 A3023 RMK AO2 PK WND 35029/0103 SLP236 T00610000 $",
    "windDirection": 340,
    "windSpeed": 13,
    "windGust": 20,
    "visibility": 10,
    "temperatureC": 6,
    "dewPointC": 0,
    "cloudCeiling": 3600,
    "altimeter": "A3023",
    "timestamp": "2026-03-12T01:53:00+00:00",
    "station": "KCPS"
  },
  "kstl": {
    "metar": "KSTL 120151Z 32016G29KT 10SM FEW027 OVC036 06/01 A3022 RMK AO2 PK WND 33029/0148 SLP234 T00560006 $",
    "windDirection": 320,
    "windSpeed": 16,
    "windGust": 29,
    "visibility": 10,
    "temperatureC": 6,
    "dewPointC": 1,
    "cloudCeiling": 3600,
    "altimeter": "A3022",
    "timestamp": "2026-03-12T01:51:00+00:00",
    "station": "KSTL"
  }
}