{
  "lastUpdated": "2025-11-14T11:32:19.007289+00:00",
  "kcps": {
    "metar": "KCPS 141053Z AUTO 16003KT 10SM CLR 09/07 A3006 RMK AO2 SLP180 T00940072",
    "windDirection": 160,
    "windSpeed": 3,
    "windGust": null,
    "visibility": 10,
    "temperatureC": 9,
    "dewPointC": 7,
    "cloudCeiling": 99999,
    "altimeter": "A3006",
    "timestamp": "2025-11-14T10:53:00+00:00",
    "station": "KCPS"
  },
  "kstl": {
    "metar": "KSTL 141051Z 00000KT 10SM FEW055 11/08 A3005 RMK AO2 SLP175 T01110078",
    "windDirection": 0,
    "windSpeed": 0,
    "windGust": null,
    "visibility": 10,
    "temperatureC": 11,
    "dewPointC": 8,
    "cloudCeiling": null,
    "altimeter": "A3005",
    "timestamp": "2025-11-14T10:51:00+00:00",
    "station": "KSTL"
  }
}