{
  "lastUpdated": "2026-03-23T14:32:56.004217+00:00",
  "kcps": {
    "metar": "KCPS 231400Z 03013G20KT 10SM BKN025 04/M02 A3038 RMK AO2 T00441022 $",
    "windDirection": 30,
    "windSpeed": 13,
    "windGust": 20,
    "visibility": 10,
    "temperatureC": 4,
    "dewPointC": -2,
    "cloudCeiling": 2500,
    "altimeter": "A3038",
    "timestamp": "2026-03-23T14:00:00+00:00",
    "station": "KCPS"
  },
  "kstl": {
    "metar": "KSTL 231351Z 02011KT 10SM FEW020 BKN250 04/M02 A3038 RMK AO2 SLP291 T00391022 $",
    "windDirection": 20,
    "windSpeed": 11,
    "windGust": null,
    "visibility": 10,
    "temperatureC": 4,
    "dewPointC": -2,
    "cloudCeiling": 25000,
    "altimeter": "A3038",
    "timestamp": "2026-03-23T13:51:00+00:00",
    "station": "KSTL"
  }
}