{
  "lastUpdated": "2026-02-22T05:35:42.096122+00:00",
  "kcps": {
    "metar": "KCPS 220453Z 33016G20KT 10SM CLR 00/M08 A3033 RMK AO2 SLP272 T00001083 PNO $",
    "windDirection": 330,
    "windSpeed": 16,
    "windGust": 20,
    "visibility": 10,
    "temperatureC": 0,
    "dewPointC": -8,
    "cloudCeiling": 99999,
    "altimeter": "A3033",
    "timestamp": "2026-02-22T04:53:00+00:00",
    "station": "KCPS"
  },
  "kstl": {
    "metar": "KSTL 220451Z 32013G21KT 10SM CLR M01/M09 A3033 RMK AO2 SLP280 T10111089 $",
    "windDirection": 320,
    "windSpeed": 13,
    "windGust": 21,
    "visibility": 10,
    "temperatureC": -1,
    "dewPointC": -9,
    "cloudCeiling": 99999,
    "altimeter": "A3033",
    "timestamp": "2026-02-22T04:51:00+00:00",
    "station": "KSTL"
  }
}