{
  "lastUpdated": "2026-05-22T09:02:24.806244+00:00",
  "kcps": {
    "metar": "KCPS 220853Z AUTO 07004KT 10SM CLR 17/13 A2997 RMK AO2 SLP147 6//// T01670133 58006 PNO $",
    "windDirection": 70,
    "windSpeed": 4,
    "windGust": null,
    "visibility": 10,
    "temperatureC": 17,
    "dewPointC": 13,
    "cloudCeiling": 99999,
    "altimeter": "A2997",
    "timestamp": "2026-05-22T08:53:00+00:00",
    "station": "KCPS"
  },
  "kstl": {
    "metar": "KSTL 220851Z AUTO 07005KT 10SM FEW025 OVC050 17/13 A2998 RMK AO2 SLP147 T01720133 56015 $",
    "windDirection": 70,
    "windSpeed": 5,
    "windGust": null,
    "visibility": 10,
    "temperatureC": 17,
    "dewPointC": 13,
    "cloudCeiling": 5000,
    "altimeter": "A2998",
    "timestamp": "2026-05-22T08:51:00+00:00",
    "station": "KSTL"
  }
}