{
  "lastUpdated": "2026-02-20T19:55:41.114186+00:00",
  "kcps": {
    "metar": "KCPS 201953Z 28006G18KT 10SM CLR 06/M06 A2993 RMK AO2 SLP138 T00611056 PNO $",
    "windDirection": 280,
    "windSpeed": 6,
    "windGust": 18,
    "visibility": 10,
    "temperatureC": 6,
    "dewPointC": -6,
    "cloudCeiling": 99999,
    "altimeter": "A2993",
    "timestamp": "2026-02-20T19:53:00+00:00",
    "station": "KCPS"
  },
  "kstl": {
    "metar": "KSTL 201951Z 31015G20KT 10SM FEW250 06/M06 A2993 RMK AO2 SLP142 T00561061 $",
    "windDirection": 310,
    "windSpeed": 15,
    "windGust": 20,
    "visibility": 10,
    "temperatureC": 6,
    "dewPointC": -6,
    "cloudCeiling": null,
    "altimeter": "A2993",
    "timestamp": "2026-02-20T19:51:00+00:00",
    "station": "KSTL"
  }
}