{
  "lastUpdated": "2025-10-26T05:46:49.128859+00:00",
  "kcps": {
    "metar": "KCPS 260453Z AUTO 07007KT 10SM -RA OVC080 11/08 A3021 RMK AO2 SLP229 P0001 T01060083 $",
    "windDirection": 70,
    "windSpeed": 7,
    "windGust": null,
    "visibility": 10,
    "temperatureC": 11,
    "dewPointC": 8,
    "cloudCeiling": 8000,
    "altimeter": "A3021",
    "timestamp": "2025-10-26T04:53:00+00:00",
    "station": "KCPS"
  },
  "kstl": {
    "metar": "KSTL 260451Z 10009KT 10SM -RA OVC095 12/07 A3021 RMK AO2 SLP229 P0000 T01170072 $",
    "windDirection": 100,
    "windSpeed": 9,
    "windGust": null,
    "visibility": 10,
    "temperatureC": 12,
    "dewPointC": 7,
    "cloudCeiling": 9500,
    "altimeter": "A3021",
    "timestamp": "2025-10-26T04:51:00+00:00",
    "station": "KSTL"
  }
}