{
  "lastUpdated": "2025-12-06T17:02:26.601995+00:00",
  "kcps": {
    "metar": "KCPS 061653Z 00000KT 10SM CLR 06/00 A2999 RMK AO2 SLP157 T00610000 $",
    "windDirection": 0,
    "windSpeed": 0,
    "windGust": null,
    "visibility": 10,
    "temperatureC": 6,
    "dewPointC": 0,
    "cloudCeiling": 99999,
    "altimeter": "A2999",
    "timestamp": "2025-12-06T16:53:00+00:00",
    "station": "KCPS"
  },
  "kstl": {
    "metar": "KSTL 061651Z 00000KT 10SM FEW250 04/00 A2998 RMK AO2 SLP160 T00440000 $",
    "windDirection": 0,
    "windSpeed": 0,
    "windGust": null,
    "visibility": 10,
    "temperatureC": 4,
    "dewPointC": 0,
    "cloudCeiling": null,
    "altimeter": "A2998",
    "timestamp": "2025-12-06T16:51:00+00:00",
    "station": "KSTL"
  }
}