{
  "lastUpdated": "2025-12-04T17:22:04.295109+00:00",
  "kcps": {
    "metar": "KCPS 041653Z 36006KT 10SM CLR M07/M12 A3043 RMK AO2 SLP308 T10671122",
    "windDirection": 360,
    "windSpeed": 6,
    "windGust": null,
    "visibility": 10,
    "temperatureC": -7,
    "dewPointC": -12,
    "cloudCeiling": 99999,
    "altimeter": "A3043",
    "timestamp": "2025-12-04T16:53:00+00:00",
    "station": "KCPS"
  },
  "kstl": {
    "metar": "KSTL 041651Z 02005KT 10SM SCT130 BKN250 M07/M13 A3042 RMK AO2 SLP315 T10721133 $",
    "windDirection": 20,
    "windSpeed": 5,
    "windGust": null,
    "visibility": 10,
    "temperatureC": -7,
    "dewPointC": -13,
    "cloudCeiling": 25000,
    "altimeter": "A3042",
    "timestamp": "2025-12-04T16:51:00+00:00",
    "station": "KSTL"
  }
}