{
  "lastUpdated": "2026-02-05T03:35:43.835310+00:00",
  "kcps": {
    "metar": "KCPS 050253Z 00000KT 10SM CLR M08/M10 A3039 RMK AO2 SLP298 T10781100 58003 $",
    "windDirection": 0,
    "windSpeed": 0,
    "windGust": null,
    "visibility": 10,
    "temperatureC": -8,
    "dewPointC": -10,
    "cloudCeiling": 99999,
    "altimeter": "A3039",
    "timestamp": "2026-02-05T02:53:00+00:00",
    "station": "KCPS"
  },
  "kstl": {
    "metar": "KSTL 050251Z 00000KT 10SM CLR M04/M08 A3039 RMK AO2 SLP306 T10441083 58003",
    "windDirection": 0,
    "windSpeed": 0,
    "windGust": null,
    "visibility": 10,
    "temperatureC": -4,
    "dewPointC": -8,
    "cloudCeiling": 99999,
    "altimeter": "A3039",
    "timestamp": "2026-02-05T02:51:00+00:00",
    "station": "KSTL"
  }
}