{
  "lastUpdated": "2026-05-18T23:36:13.166915+00:00",
  "kcps": {
    "metar": "KCPS 182306Z 13004KT 3SM TSRA BR BKN025 BKN060 19/18 A3003 RMK AO2 LTG DSNT ALQDS TSB05 OCNL LTGCG TS S MOV NE P0007 T01890178 $",
    "windDirection": 130,
    "windSpeed": 4,
    "windGust": null,
    "visibility": 3,
    "temperatureC": 19,
    "dewPointC": 18,
    "cloudCeiling": 2500,
    "altimeter": "A3003",
    "timestamp": "2026-05-18T23:06:00+00:00",
    "station": "KCPS"
  },
  "kstl": {
    "metar": "KSTL 182323Z 16011G23KT 7SM R30R/5000VP6000FT -TSRA FEW008 BKN045 BKN095CB BKN250 19/17 A2992 RMK AO2 OCNL LTGCCCG NE-SE TS NE-SE MOV NE P0041 T01940167 $",
    "windDirection": 160,
    "windSpeed": 11,
    "windGust": 23,
    "visibility": 7,
    "temperatureC": 19,
    "dewPointC": 17,
    "cloudCeiling": 4500,
    "altimeter": "A2992",
    "timestamp": "2026-05-18T23:23:00+00:00",
    "station": "KSTL"
  }
}