{
  "lastUpdated": "2026-05-06T00:00:46.980422+00:00",
  "kcps": {
    "metar": "KCPS 052353Z 33010KT 6SM -RA BR BKN014 OVC024 09/07 A2984 RMK AO2 LTG DSNT SE AND S RAB00 SLP104 6//// T00890072 10122 20089 53001 PNO $",
    "windDirection": 330,
    "windSpeed": 10,
    "windGust": null,
    "visibility": 6,
    "temperatureC": 9,
    "dewPointC": 7,
    "cloudCeiling": 1400,
    "altimeter": "A2984",
    "timestamp": "2026-05-05T23:53:00+00:00",
    "station": "KCPS"
  },
  "kstl": {
    "metar": "KSTL 052353Z 35010KT 4SM -RA BR FEW009 BKN035 OVC060 08/07 A2984 RMK AO2 P0001 T00780067 $",
    "windDirection": 350,
    "windSpeed": 10,
    "windGust": null,
    "visibility": 4,
    "temperatureC": 8,
    "dewPointC": 7,
    "cloudCeiling": 3500,
    "altimeter": "A2984",
    "timestamp": "2026-05-05T23:53:00+00:00",
    "station": "KSTL"
  }
}