{
  "lastUpdated": "2026-02-07T11:03:51.160401+00:00",
  "kcps": {
    "metar": "KCPS 071053Z AUTO 02009KT 10SM CLR M01/M06 A3033 RMK AO2 SLP274 T10111056 $",
    "windDirection": 20,
    "windSpeed": 9,
    "windGust": null,
    "visibility": 10,
    "temperatureC": -1,
    "dewPointC": -6,
    "cloudCeiling": 99999,
    "altimeter": "A3033",
    "timestamp": "2026-02-07T10:53:00+00:00",
    "station": "KCPS"
  },
  "kstl": {
    "metar": "KSTL 071051Z 02007KT 10SM FEW019 M02/M07 A3033 RMK AO2 SLP280 T10171067 $",
    "windDirection": 20,
    "windSpeed": 7,
    "windGust": null,
    "visibility": 10,
    "temperatureC": -2,
    "dewPointC": -7,
    "cloudCeiling": null,
    "altimeter": "A3033",
    "timestamp": "2026-02-07T10:51:00+00:00",
    "station": "KSTL"
  }
}