{
  "lastUpdated": "2026-01-03T10:21:45.014854+00:00",
  "kcps": {
    "metar": "KCPS 030953Z 03005KT 10SM CLR M02/M06 A3001 RMK AO2 SLP167 T10221056 $",
    "windDirection": 30,
    "windSpeed": 5,
    "windGust": null,
    "visibility": 10,
    "temperatureC": -2,
    "dewPointC": -6,
    "cloudCeiling": 99999,
    "altimeter": "A3001",
    "timestamp": "2026-01-03T09:53:00+00:00",
    "station": "KCPS"
  },
  "kstl": {
    "metar": "KSTL 030951Z 04006KT 10SM SCT160 BKN200 M02/M06 A3001 RMK AO2 SLP172 T10171056 $",
    "windDirection": 40,
    "windSpeed": 6,
    "windGust": null,
    "visibility": 10,
    "temperatureC": -2,
    "dewPointC": -6,
    "cloudCeiling": 20000,
    "altimeter": "A3001",
    "timestamp": "2026-01-03T09:51:00+00:00",
    "station": "KSTL"
  }
}