{
  "lastUpdated": "2026-01-14T09:05:35.983890+00:00",
  "kcps": {
    "metar": "KCPS 140853Z AUTO 26008KT 10SM FEW110 08/06 A2975 RMK AO2 SLP073 T00780061 55007 $",
    "windDirection": 260,
    "windSpeed": 8,
    "windGust": null,
    "visibility": 10,
    "temperatureC": 8,
    "dewPointC": 6,
    "cloudCeiling": null,
    "altimeter": "A2975",
    "timestamp": "2026-01-14T08:53:00+00:00",
    "station": "KCPS"
  },
  "kstl": {
    "metar": "KSTL 140851Z 27010KT 10SM SCT060 BKN150 BKN210 08/06 A2975 RMK AO2 SLP073 T00780061 55004 $",
    "windDirection": 270,
    "windSpeed": 10,
    "windGust": null,
    "visibility": 10,
    "temperatureC": 8,
    "dewPointC": 6,
    "cloudCeiling": 15000,
    "altimeter": "A2975",
    "timestamp": "2026-01-14T08:51:00+00:00",
    "station": "KSTL"
  }
}