{
  "lastUpdated": "2026-02-21T08:03:43.155228+00:00",
  "kcps": {
    "metar": "KCPS 210753Z AUTO 07004KT 10SM OVC110 00/M05 A3009 RMK AO2 SLP192 T00001050 PNO $",
    "windDirection": 70,
    "windSpeed": 4,
    "windGust": null,
    "visibility": 10,
    "temperatureC": 0,
    "dewPointC": -5,
    "cloudCeiling": 11000,
    "altimeter": "A3009",
    "timestamp": "2026-02-21T07:53:00+00:00",
    "station": "KCPS"
  },
  "kstl": {
    "metar": "KSTL 210751Z 33003KT 10SM SCT120 M01/M06 A3009 RMK AO2 PRESRR SLP199 T10111061 $",
    "windDirection": 330,
    "windSpeed": 3,
    "windGust": null,
    "visibility": 10,
    "temperatureC": -1,
    "dewPointC": -6,
    "cloudCeiling": null,
    "altimeter": "A3009",
    "timestamp": "2026-02-21T07:51:00+00:00",
    "station": "KSTL"
  }
}