{
  "lastUpdated": "2026-05-19T19:31:49.162553+00:00",
  "kcps": {
    "metar": "KCPS 191853Z 25008KT 10SM CLR 26/19 A3004 RMK AO2 SLP170 T02610194 $",
    "windDirection": 250,
    "windSpeed": 8,
    "windGust": null,
    "visibility": 10,
    "temperatureC": 26,
    "dewPointC": 19,
    "cloudCeiling": 99999,
    "altimeter": "A3004",
    "timestamp": "2026-05-19T18:53:00+00:00",
    "station": "KCPS"
  },
  "kstl": {
    "metar": "KSTL 191851Z 25011KT 10SM -RA FEW080 OVC110 23/20 A3006 RMK AO2 RAE06B37 SLP169 P0000 T02330200 $",
    "windDirection": 250,
    "windSpeed": 11,
    "windGust": null,
    "visibility": 10,
    "temperatureC": 23,
    "dewPointC": 20,
    "cloudCeiling": 11000,
    "altimeter": "A3006",
    "timestamp": "2026-05-19T18:51:00+00:00",
    "station": "KSTL"
  }
}