{
  "lastUpdated": "2026-06-13T11:00:39.341591+00:00",
  "kcps": {
    "metar": "KCPS 131053Z AUTO 17003KT 10SM CLR 20/16 A2998 RMK AO2 SLP149 T02000161 $",
    "windDirection": 170,
    "windSpeed": 3,
    "windGust": null,
    "visibility": 10.0,
    "temperatureC": 20,
    "dewPointC": 16.1,
    "cloudCeiling": null,
    "altimeter": "A2998",
    "timestamp": "2026-06-13T11:00:00.000Z",
    "station": "KCPS"
  },
  "kstl": {
    "metar": "KSTL 131051Z 17006KT 10SM SCT050 SCT150 BKN200 22/14 A2999 RMK AO2 SLP142 T02220139 $",
    "windDirection": 170,
    "windSpeed": 6,
    "windGust": null,
    "visibility": 10.0,
    "temperatureC": 22.2,
    "dewPointC": 13.9,
    "cloudCeiling": 20000,
    "altimeter": "A2999",
    "timestamp": "2026-06-13T11:00:00.000Z",
    "station": "KSTL"
  }
}