{
  "lastUpdated": "2025-11-16T22:21:15.165504+00:00",
  "kcps": {
    "metar": "KCPS 162153Z 36004KT 10SM CLR 14/M07 A3000 RMK AO2 SLP160 T01391072 $",
    "windDirection": 360,
    "windSpeed": 4,
    "windGust": null,
    "visibility": 10,
    "temperatureC": 14,
    "dewPointC": -7,
    "cloudCeiling": 99999,
    "altimeter": "A3000",
    "timestamp": "2025-11-16T21:53:00+00:00",
    "station": "KCPS"
  },
  "kstl": {
    "metar": "KSTL 162151Z 34003KT 10SM SCT200 13/M08 A3001 RMK AO2 SLP161 T01331083 $",
    "windDirection": 340,
    "windSpeed": 3,
    "windGust": null,
    "visibility": 10,
    "temperatureC": 13,
    "dewPointC": -8,
    "cloudCeiling": null,
    "altimeter": "A3001",
    "timestamp": "2025-11-16T21:51:00+00:00",
    "station": "KSTL"
  }
}