{
  "lastUpdated": "2026-03-29T13:36:53.176045+00:00",
  "kcps": {
    "metar": "KCPS 291253Z 16003KT 10SM CLR 06/M01 A3028 RMK AO2 SLP255 T00611011 $",
    "windDirection": 160,
    "windSpeed": 3,
    "windGust": null,
    "visibility": 10,
    "temperatureC": 6,
    "dewPointC": -1,
    "cloudCeiling": 99999,
    "altimeter": "A3028",
    "timestamp": "2026-03-29T12:53:00+00:00",
    "station": "KCPS"
  },
  "kstl": {
    "metar": "KSTL 291251Z 16007KT 10SM FEW150 BKN250 08/M03 A3027 RMK AO2 SLP252 T00831033 $",
    "windDirection": 160,
    "windSpeed": 7,
    "windGust": null,
    "visibility": 10,
    "temperatureC": 8,
    "dewPointC": -3,
    "cloudCeiling": 25000,
    "altimeter": "A3027",
    "timestamp": "2026-03-29T12:51:00+00:00",
    "station": "KSTL"
  }
}