{
  "lastUpdated": "2026-02-25T14:23:14.749933+00:00",
  "kcps": {
    "metar": "KCPS 251353Z 00000KT 10SM CLR 03/M02 A2976 RMK AO2 SLP079 T00331022 $",
    "windDirection": 0,
    "windSpeed": 0,
    "windGust": null,
    "visibility": 10,
    "temperatureC": 3,
    "dewPointC": -2,
    "cloudCeiling": 99999,
    "altimeter": "A2976",
    "timestamp": "2026-02-25T13:53:00+00:00",
    "station": "KCPS"
  },
  "kstl": {
    "metar": "KSTL 251351Z 32005KT 10SM BKN150 BKN250 06/M02 A2977 RMK AO2 SLP082 T00611017 $",
    "windDirection": 320,
    "windSpeed": 5,
    "windGust": null,
    "visibility": 10,
    "temperatureC": 6,
    "dewPointC": -2,
    "cloudCeiling": 15000,
    "altimeter": "A2977",
    "timestamp": "2026-02-25T13:51:00+00:00",
    "station": "KSTL"
  }
}