{
  "lastUpdated": "2026-05-16T13:29:20.446482+00:00",
  "kcps": {
    "metar": "KCPS 161316Z 13004KT 10SM OVC120 23/19 A2990 RMK AO2 LTG DSNT ALQDS T02280189 $",
    "windDirection": 130,
    "windSpeed": 4,
    "windGust": null,
    "visibility": 10,
    "temperatureC": 23,
    "dewPointC": 19,
    "cloudCeiling": 12000,
    "altimeter": "A2990",
    "timestamp": "2026-05-16T13:16:00+00:00",
    "station": "KCPS"
  },
  "kstl": {
    "metar": "KSTL 161321Z 24012G36KT 1 1/4SM R30R/3000VP6000FT TSRA BR FEW022 BKN065CB OVC110 20/18 A2995 RMK AO2 PK WND 26036/1318 FRQ LTGICCCCG ALQDS TS ALQDS MOV NE P0008 T02000178 $",
    "windDirection": 240,
    "windSpeed": 12,
    "windGust": 36,
    "visibility": 0.25,
    "temperatureC": 20,
    "dewPointC": 18,
    "cloudCeiling": 6500,
    "altimeter": "A2995",
    "timestamp": "2026-05-16T13:21:00+00:00",
    "station": "KSTL"
  }
}