{
  "lastUpdated": "2025-12-21T01:57:00.711535+00:00",
  "kcps": {
    "metar": "KCPS 210153Z 35006KT 10SM CLR 04/M03 A3016 RMK AO2 SLP216 T00441033 $",
    "windDirection": 350,
    "windSpeed": 6,
    "windGust": null,
    "visibility": 10,
    "temperatureC": 4,
    "dewPointC": -3,
    "cloudCeiling": 99999,
    "altimeter": "A3016",
    "timestamp": "2025-12-21T01:53:00+00:00",
    "station": "KCPS"
  },
  "kstl": {
    "metar": "KSTL 210051Z 32006KT 10SM FEW180 BKN230 05/M04 A3013 RMK AO2 SLP209 T00501039 $",
    "windDirection": 320,
    "windSpeed": 6,
    "windGust": null,
    "visibility": 10,
    "temperatureC": 5,
    "dewPointC": -4,
    "cloudCeiling": 23000,
    "altimeter": "A3013",
    "timestamp": "2025-12-21T00:51:00+00:00",
    "station": "KSTL"
  }
}