{
  "lastUpdated": "2026-01-31T19:06:19.725056+00:00",
  "kcps": {
    "metar": "KCPS 311853Z 32014KT 10SM CLR M09/M16 A3052 RMK AO2 SLP343 T10891156 $",
    "windDirection": 320,
    "windSpeed": 14,
    "windGust": null,
    "visibility": 10,
    "temperatureC": -9,
    "dewPointC": -16,
    "cloudCeiling": 99999,
    "altimeter": "A3052",
    "timestamp": "2026-01-31T18:53:00+00:00",
    "station": "KCPS"
  },
  "kstl": {
    "metar": "KSTL 311851Z 28012KT 10SM CLR M09/M16 A3052 RMK AO2 SLP356 T10891161 $",
    "windDirection": 280,
    "windSpeed": 12,
    "windGust": null,
    "visibility": 10,
    "temperatureC": -9,
    "dewPointC": -16,
    "cloudCeiling": 99999,
    "altimeter": "A3052",
    "timestamp": "2026-01-31T18:51:00+00:00",
    "station": "KSTL"
  }
}