{
  "lastUpdated": "2026-01-24T02:35:23.563146+00:00",
  "kcps": {
    "metar": "KCPS 240153Z 02012KT 10SM CLR M16/M27 A3071 RMK AO2 SLP410 T11561272 $",
    "windDirection": 20,
    "windSpeed": 12,
    "windGust": null,
    "visibility": 10,
    "temperatureC": -16,
    "dewPointC": -27,
    "cloudCeiling": 99999,
    "altimeter": "A3071",
    "timestamp": "2026-01-24T01:53:00+00:00",
    "station": "KCPS"
  },
  "kstl": {
    "metar": "KSTL 240151Z 03009KT 10SM CLR M16/M27 A3070 RMK AO2 SLP421 T11561272 $",
    "windDirection": 30,
    "windSpeed": 9,
    "windGust": null,
    "visibility": 10,
    "temperatureC": -16,
    "dewPointC": -27,
    "cloudCeiling": 99999,
    "altimeter": "A3070",
    "timestamp": "2026-01-24T01:51:00+00:00",
    "station": "KSTL"
  }
}