{
  "lastUpdated": "2026-01-15T15:03:20.863449+00:00",
  "kcps": {
    "metar": "KCPS 151353Z 33009KT 10SM CLR M08/M14 A3015 RMK AO2 SLP213 T10781139 $",
    "windDirection": 330,
    "windSpeed": 9,
    "windGust": null,
    "visibility": 10,
    "temperatureC": -8,
    "dewPointC": -14,
    "cloudCeiling": 99999,
    "altimeter": "A3015",
    "timestamp": "2026-01-15T13:53:00+00:00",
    "station": "KCPS"
  },
  "kstl": {
    "metar": "KSTL 151451Z 33006KT 10SM FEW250 M07/M14 A3014 RMK AO2 SLP220 T10671139 50006 $",
    "windDirection": 330,
    "windSpeed": 6,
    "windGust": null,
    "visibility": 10,
    "temperatureC": -7,
    "dewPointC": -14,
    "cloudCeiling": null,
    "altimeter": "A3014",
    "timestamp": "2026-01-15T14:51:00+00:00",
    "station": "KSTL"
  }
}