{
  "lastUpdated": "2025-11-30T03:49:30.196805+00:00",
  "kcps": {
    "metar": "KCPS 300327Z 28017G27KT 10SM -RA FEW006 BKN015 OVC038 03/01 A3001 RMK AO2 PK WND 29027/0321 PRESRR P0002 T00330006 $",
    "windDirection": 280,
    "windSpeed": 17,
    "windGust": 27,
    "visibility": 10,
    "temperatureC": 3,
    "dewPointC": 1,
    "cloudCeiling": 1500,
    "altimeter": "A3001",
    "timestamp": "2025-11-30T03:27:00+00:00",
    "station": "KCPS"
  },
  "kstl": {
    "metar": "KSTL 300333Z 29019G25KT 10SM -RA BKN016 OVC044 02/M01 A3001 RMK AO2 PK WND 27033/0302 P0001 T00171006 $",
    "windDirection": 290,
    "windSpeed": 19,
    "windGust": 25,
    "visibility": 10,
    "temperatureC": 2,
    "dewPointC": -1,
    "cloudCeiling": 1600,
    "altimeter": "A3001",
    "timestamp": "2025-11-30T03:33:00+00:00",
    "station": "KSTL"
  }
}