{
  "lastUpdated": "2026-02-08T14:41:01.209157+00:00",
  "kcps": {
    "metar": "KCPS 081353Z 13008KT 10SM CLR M03/M09 A3022 RMK AO2 SLP237 T10281094 $",
    "windDirection": 130,
    "windSpeed": 8,
    "windGust": null,
    "visibility": 10,
    "temperatureC": -3,
    "dewPointC": -9,
    "cloudCeiling": 99999,
    "altimeter": "A3022",
    "timestamp": "2026-02-08T13:53:00+00:00",
    "station": "KCPS"
  },
  "kstl": {
    "metar": "KSTL 081351Z 13011KT 10SM SCT250 M02/M09 A3020 RMK AO2 SLP238 T10221094 $",
    "windDirection": 130,
    "windSpeed": 11,
    "windGust": null,
    "visibility": 10,
    "temperatureC": -2,
    "dewPointC": -9,
    "cloudCeiling": null,
    "altimeter": "A3020",
    "timestamp": "2026-02-08T13:51:00+00:00",
    "station": "KSTL"
  }
}