{
  "lastUpdated": "2026-05-03T02:16:04.983918+00:00",
  "kcps": {
    "metar": "KCPS 030153Z 00000KT 10SM CLR 11/02 A3009 RMK AO2 SLP191 T01110022 $",
    "windDirection": 0,
    "windSpeed": 0,
    "windGust": null,
    "visibility": 10,
    "temperatureC": 11,
    "dewPointC": 2,
    "cloudCeiling": 99999,
    "altimeter": "A3009",
    "timestamp": "2026-05-03T01:53:00+00:00",
    "station": "KCPS"
  },
  "kstl": {
    "metar": "KSTL 030151Z 00000KT 10SM SCT250 12/02 A3010 RMK AO2 SLP192 T01220022 $",
    "windDirection": 0,
    "windSpeed": 0,
    "windGust": null,
    "visibility": 10,
    "temperatureC": 12,
    "dewPointC": 2,
    "cloudCeiling": null,
    "altimeter": "A3010",
    "timestamp": "2026-05-03T01:51:00+00:00",
    "station": "KSTL"
  }
}