{
  "lastUpdated": "2026-01-07T08:42:23.616185+00:00",
  "kcps": {
    "metar": "KCPS 070753Z AUTO 00000KT 10SM CLR 00/M01 A2990 RMK AO2 SLP126 T00001006 $",
    "windDirection": 0,
    "windSpeed": 0,
    "windGust": null,
    "visibility": 10,
    "temperatureC": 0,
    "dewPointC": -1,
    "cloudCeiling": 99999,
    "altimeter": "A2990",
    "timestamp": "2026-01-07T07:53:00+00:00",
    "station": "KCPS"
  },
  "kstl": {
    "metar": "KSTL 070751Z 24003KT 10SM CLR 03/02 A2990 RMK AO2 SLP126 T00330017 $",
    "windDirection": 240,
    "windSpeed": 3,
    "windGust": null,
    "visibility": 10,
    "temperatureC": 3,
    "dewPointC": 2,
    "cloudCeiling": 99999,
    "altimeter": "A2990",
    "timestamp": "2026-01-07T07:51:00+00:00",
    "station": "KSTL"
  }
}