{
  "lastUpdated": "2025-10-22T14:03:10.270840+00:00",
  "kcps": {
    "metar": "KCPS 221353Z 27007KT 10SM CLR 09/02 A3009 RMK AO2 SLP191 T00890017",
    "windDirection": 270,
    "windSpeed": 7,
    "windGust": null,
    "visibility": 10,
    "temperatureC": 9,
    "dewPointC": 2,
    "cloudCeiling": 99999,
    "altimeter": "A3009",
    "timestamp": "2025-10-22T13:53:00+00:00",
    "station": "KCPS"
  },
  "kstl": {
    "metar": "KSTL 221351Z 28012KT 10SM CLR 09/00 A3009 RMK AO2 SLP190 T00940000 $",
    "windDirection": 280,
    "windSpeed": 12,
    "windGust": null,
    "visibility": 10,
    "temperatureC": 9,
    "dewPointC": 0,
    "cloudCeiling": 99999,
    "altimeter": "A3009",
    "timestamp": "2025-10-22T13:51:00+00:00",
    "station": "KSTL"
  }
}