{
  "lastUpdated": "2026-06-09T23:26:41.947430+00:00",
  "kcps": {
    "metar": "KCPS 092253Z 22004KT 10SM CLR 33/23 A2989 RMK AO2 SLP117 T03280233 $",
    "windDirection": 220,
    "windSpeed": 4,
    "windGust": null,
    "visibility": 10,
    "temperatureC": 33,
    "dewPointC": 23,
    "cloudCeiling": 99999,
    "altimeter": "A2989",
    "timestamp": "2026-06-09T22:53:00+00:00",
    "station": "KCPS"
  },
  "kstl": {
    "metar": "KSTL 092251Z 23013KT 10SM FEW044 SCT180 SCT250 32/23 A2990 RMK AO2 SLP113 T03170228 $",
    "windDirection": 230,
    "windSpeed": 13,
    "windGust": null,
    "visibility": 10,
    "temperatureC": 32,
    "dewPointC": 23,
    "cloudCeiling": null,
    "altimeter": "A2990",
    "timestamp": "2026-06-09T22:51:00+00:00",
    "station": "KSTL"
  }
}