{
  "lastUpdated": "2025-11-25T17:47:47.596483+00:00",
  "kcps": {
    "metar": "KCPS 251713Z 28005KT 10SM OVC010 13/12 A2985 RMK AO2 T01330122",
    "windDirection": 280,
    "windSpeed": 5,
    "windGust": null,
    "visibility": 10,
    "temperatureC": 13,
    "dewPointC": 12,
    "cloudCeiling": 1000,
    "altimeter": "A2985",
    "timestamp": "2025-11-25T17:13:00+00:00",
    "station": "KCPS"
  },
  "kstl": {
    "metar": "KSTL 251651Z 29006KT 6SM BR OVC008 13/12 A2986 RMK AO2 SLP111 T01280117 $",
    "windDirection": 290,
    "windSpeed": 6,
    "windGust": null,
    "visibility": 6,
    "temperatureC": 13,
    "dewPointC": 12,
    "cloudCeiling": 800,
    "altimeter": "A2986",
    "timestamp": "2025-11-25T16:51:00+00:00",
    "station": "KSTL"
  }
}