{
  "lastUpdated": "2026-02-02T01:32:09.985382+00:00",
  "kcps": {
    "metar": "KCPS 020053Z 19007KT 10SM BKN060 BKN080 M02/M11 A3020 RMK AO2 SLP235 T10221111 $",
    "windDirection": 190,
    "windSpeed": 7,
    "windGust": null,
    "visibility": 10,
    "temperatureC": -2,
    "dewPointC": -11,
    "cloudCeiling": 6000,
    "altimeter": "A3020",
    "timestamp": "2026-02-02T00:53:00+00:00",
    "station": "KCPS"
  },
  "kstl": {
    "metar": "KSTL 020051Z 17006KT 10SM BKN055 M02/M11 A3019 RMK AO2 SLP242 T10221106 $",
    "windDirection": 170,
    "windSpeed": 6,
    "windGust": null,
    "visibility": 10,
    "temperatureC": -2,
    "dewPointC": -11,
    "cloudCeiling": 5500,
    "altimeter": "A3019",
    "timestamp": "2026-02-02T00:51:00+00:00",
    "station": "KSTL"
  }
}