{
  "lastUpdated": "2025-12-17T15:22:14.385831+00:00",
  "kcps": {
    "metar": "KCPS 171453Z 00000KT 10SM CLR 06/M02 A3005 RMK AO2 SLP176 T00611017 53007",
    "windDirection": 0,
    "windSpeed": 0,
    "windGust": null,
    "visibility": 10,
    "temperatureC": 6,
    "dewPointC": -2,
    "cloudCeiling": 99999,
    "altimeter": "A3005",
    "timestamp": "2025-12-17T14:53:00+00:00",
    "station": "KCPS"
  },
  "kstl": {
    "metar": "KSTL 171451Z 28004KT 10SM FEW150 SCT250 07/03 A3004 RMK AO2 SLP176 T00720028 53008 $",
    "windDirection": 280,
    "windSpeed": 4,
    "windGust": null,
    "visibility": 10,
    "temperatureC": 7,
    "dewPointC": 3,
    "cloudCeiling": null,
    "altimeter": "A3004",
    "timestamp": "2025-12-17T14:51:00+00:00",
    "station": "KSTL"
  }
}