{
  "lastUpdated": "2025-11-12T18:22:59.407967+00:00",
  "kcps": {
    "metar": "KCPS 121753Z 30005KT 10SM CLR 17/00 A3012 RMK AO2 SLP200 T01720000 10178 21006 58003 $",
    "windDirection": 300,
    "windSpeed": 5,
    "windGust": null,
    "visibility": 10,
    "temperatureC": 17,
    "dewPointC": 0,
    "cloudCeiling": 99999,
    "altimeter": "A3012",
    "timestamp": "2025-11-12T17:53:00+00:00",
    "station": "KCPS"
  },
  "kstl": {
    "metar": "KSTL 121751Z 28006KT 10SM FEW250 17/01 A3013 RMK AO2 SLP204 T01670006 10167 20017 58001",
    "windDirection": 280,
    "windSpeed": 6,
    "windGust": null,
    "visibility": 10,
    "temperatureC": 17,
    "dewPointC": 1,
    "cloudCeiling": null,
    "altimeter": "A3013",
    "timestamp": "2025-11-12T17:51:00+00:00",
    "station": "KSTL"
  }
}