{
  "lastUpdated": "2026-06-12T18:22:30.029802+00:00",
  "kcps": {
    "metar": "KCPS 121753Z 00000KT 10SM CLR 28/13 A3001 RMK AO2 SLP157 T02780128 10278 20211 56006 $",
    "windDirection": 0,
    "windSpeed": 0,
    "windGust": null,
    "visibility": 10.0,
    "temperatureC": 27.8,
    "dewPointC": 12.8,
    "cloudCeiling": null,
    "altimeter": "A3001",
    "timestamp": "2026-06-12T18:00:00.000Z",
    "station": "KCPS"
  },
  "kstl": {
    "metar": "KSTL 121751Z 33005KT 10SM FEW250 27/12 A3002 RMK AO2 SLP157 T02670117 10267 20206 58003 $",
    "windDirection": 330,
    "windSpeed": 5,
    "windGust": null,
    "visibility": 10.0,
    "temperatureC": 26.7,
    "dewPointC": 11.7,
    "cloudCeiling": null,
    "altimeter": "A3002",
    "timestamp": "2026-06-12T18:00:00.000Z",
    "station": "KSTL"
  }
}