{
  "lastUpdated": "2026-03-23T03:38:46.397036+00:00",
  "kcps": {
    "metar": "KCPS 230253Z 35013KT 10SM CLR 11/04 A3004 RMK AO2 PK WND 36030/0205 SLP170 T01110039 51056 $",
    "windDirection": 350,
    "windSpeed": 13,
    "windGust": null,
    "visibility": 10,
    "temperatureC": 11,
    "dewPointC": 4,
    "cloudCeiling": 99999,
    "altimeter": "A3004",
    "timestamp": "2026-03-23T02:53:00+00:00",
    "station": "KCPS"
  },
  "kstl": {
    "metar": "KSTL 230251Z 35014G26KT 10SM FEW070 BKN220 10/02 A3006 RMK AO2 PK WND 36030/0219 SLP171 T01000022 53057 $",
    "windDirection": 350,
    "windSpeed": 14,
    "windGust": 26,
    "visibility": 10,
    "temperatureC": 10,
    "dewPointC": 2,
    "cloudCeiling": 22000,
    "altimeter": "A3006",
    "timestamp": "2026-03-23T02:51:00+00:00",
    "station": "KSTL"
  }
}