{
  "lastUpdated": "2026-01-15T04:43:45.127826+00:00",
  "kcps": {
    "metar": "KCPS 150353Z 33015G26KT 10SM CLR M03/M13 A3013 RMK AO2 PK WND 33028/0332 SLP205 T10281128",
    "windDirection": 330,
    "windSpeed": 15,
    "windGust": 26,
    "visibility": 10,
    "temperatureC": -3,
    "dewPointC": -13,
    "cloudCeiling": 99999,
    "altimeter": "A3013",
    "timestamp": "2026-01-15T03:53:00+00:00",
    "station": "KCPS"
  },
  "kstl": {
    "metar": "KSTL 150351Z 32010KT 10SM CLR M03/M12 A3013 RMK AO2 SLP211 T10331122 $",
    "windDirection": 320,
    "windSpeed": 10,
    "windGust": null,
    "visibility": 10,
    "temperatureC": -3,
    "dewPointC": -12,
    "cloudCeiling": 99999,
    "altimeter": "A3013",
    "timestamp": "2026-01-15T03:51:00+00:00",
    "station": "KSTL"
  }
}