{
  "lastUpdated": "2026-05-23T00:26:40.235299+00:00",
  "kcps": {
    "metar": "KCPS 222353Z 04005KT 10SM OVC019 19/15 A2988 RMK AO2 SLP116 T01890150 10200 20189 56003 $",
    "windDirection": 40,
    "windSpeed": 5,
    "windGust": null,
    "visibility": 10,
    "temperatureC": 19,
    "dewPointC": 15,
    "cloudCeiling": 1900,
    "altimeter": "A2988",
    "timestamp": "2026-05-22T23:53:00+00:00",
    "station": "KCPS"
  },
  "kstl": {
    "metar": "KSTL 222351Z 06007KT 10SM OVC019 19/14 A2989 RMK AO2 SLP117 T01890144 10194 20189 58002 $",
    "windDirection": 60,
    "windSpeed": 7,
    "windGust": null,
    "visibility": 10,
    "temperatureC": 19,
    "dewPointC": 14,
    "cloudCeiling": 1900,
    "altimeter": "A2989",
    "timestamp": "2026-05-22T23:51:00+00:00",
    "station": "KSTL"
  }
}