{
  "lastUpdated": "2025-12-10T04:24:08.338018+00:00",
  "kcps": {
    "metar": "KCPS 100353Z 19007KT 10SM CLR 07/01 A2963 RMK AO2 SLP033 T00670006",
    "windDirection": 190,
    "windSpeed": 7,
    "windGust": null,
    "visibility": 10,
    "temperatureC": 7,
    "dewPointC": 1,
    "cloudCeiling": 99999,
    "altimeter": "A2963",
    "timestamp": "2025-12-10T03:53:00+00:00",
    "station": "KCPS"
  },
  "kstl": {
    "metar": "KSTL 100351Z 20011KT 10SM OVC230 08/01 A2961 RMK AO2 SLP029 T00830006 $",
    "windDirection": 200,
    "windSpeed": 11,
    "windGust": null,
    "visibility": 10,
    "temperatureC": 8,
    "dewPointC": 1,
    "cloudCeiling": 23000,
    "altimeter": "A2961",
    "timestamp": "2025-12-10T03:51:00+00:00",
    "station": "KSTL"
  }
}