{
  "lastUpdated": "2026-01-16T11:34:22.976529+00:00",
  "kcps": {
    "metar": "KCPS 161053Z AUTO 21007KT 10SM CLR 02/M10 A2969 RMK AO2 SLP056 T00171100 $",
    "windDirection": 210,
    "windSpeed": 7,
    "windGust": null,
    "visibility": 10,
    "temperatureC": 2,
    "dewPointC": -10,
    "cloudCeiling": 99999,
    "altimeter": "A2969",
    "timestamp": "2026-01-16T10:53:00+00:00",
    "station": "KCPS"
  },
  "kstl": {
    "metar": "KSTL 161051Z 23009KT 10SM FEW055 01/M11 A2968 RMK AO2 SLP060 T00111106 $",
    "windDirection": 230,
    "windSpeed": 9,
    "windGust": null,
    "visibility": 10,
    "temperatureC": 1,
    "dewPointC": -11,
    "cloudCeiling": null,
    "altimeter": "A2968",
    "timestamp": "2026-01-16T10:51:00+00:00",
    "station": "KSTL"
  }
}