{
  "lastUpdated": "2026-03-16T21:10:29.740860+00:00",
  "kcps": {
    "metar": "KCPS 162053Z 30016G27KT 10SM BKN036 OVC049 M02/M09 A3004 RMK AO2 PK WND 30032/2029 SLP178 6//// T10171094 53017 $",
    "windDirection": 300,
    "windSpeed": 16,
    "windGust": 27,
    "visibility": 10,
    "temperatureC": -2,
    "dewPointC": -9,
    "cloudCeiling": 3600,
    "altimeter": "A3004",
    "timestamp": "2026-03-16T20:53:00+00:00",
    "station": "KCPS"
  },
  "kstl": {
    "metar": "KSTL 162051Z 30014G24KT 10SM BKN031 M03/M11 A3005 RMK AO2 PK WND 29031/1954 SLP188 T10331106 53017 $",
    "windDirection": 300,
    "windSpeed": 14,
    "windGust": 24,
    "visibility": 10,
    "temperatureC": -3,
    "dewPointC": -11,
    "cloudCeiling": 3100,
    "altimeter": "A3005",
    "timestamp": "2026-03-16T20:51:00+00:00",
    "station": "KSTL"
  }
}