{
  "lastUpdated": "2025-12-28T02:33:53.523483+00:00",
  "kcps": {
    "metar": "KCPS 280216Z 17008KT 10SM OVC010 17/16 A2976 RMK AO2 RAE09 P0000 T01670156 $",
    "windDirection": 170,
    "windSpeed": 8,
    "windGust": null,
    "visibility": 10,
    "temperatureC": 17,
    "dewPointC": 16,
    "cloudCeiling": 1000,
    "altimeter": "A2976",
    "timestamp": "2025-12-28T02:16:00+00:00",
    "station": "KCPS"
  },
  "kstl": {
    "metar": "KSTL 280151Z 17011KT 6SM BR OVC008 16/14 A2975 RMK AO2 SLP076 T01560144 $",
    "windDirection": 170,
    "windSpeed": 11,
    "windGust": null,
    "visibility": 6,
    "temperatureC": 16,
    "dewPointC": 14,
    "cloudCeiling": 800,
    "altimeter": "A2975",
    "timestamp": "2025-12-28T01:51:00+00:00",
    "station": "KSTL"
  }
}