{
  "lastUpdated": "2026-01-07T22:49:02.017892+00:00",
  "kcps": {
    "metar": "KCPS 072153Z 15006KT 10SM CLR 17/03 A2991 RMK AO2 SLP130 T01720033 $",
    "windDirection": 150,
    "windSpeed": 6,
    "windGust": null,
    "visibility": 10,
    "temperatureC": 17,
    "dewPointC": 3,
    "cloudCeiling": 99999,
    "altimeter": "A2991",
    "timestamp": "2026-01-07T21:53:00+00:00",
    "station": "KCPS"
  },
  "kstl": {
    "metar": "KSTL 072151Z 17009KT 10SM SCT200 BKN250 17/02 A2990 RMK AO2 SLP128 T01720022 $",
    "windDirection": 170,
    "windSpeed": 9,
    "windGust": null,
    "visibility": 10,
    "temperatureC": 17,
    "dewPointC": 2,
    "cloudCeiling": 25000,
    "altimeter": "A2990",
    "timestamp": "2026-01-07T21:51:00+00:00",
    "station": "KSTL"
  }
}