{
  "lastUpdated": "2026-04-14T01:41:44.511947+00:00",
  "kcps": {
    "metar": "KCPS 140053Z 17008G16KT 10SM CLR 25/17 A2989 RMK AO2 SLP118 T02500172 $",
    "windDirection": 170,
    "windSpeed": 8,
    "windGust": 16,
    "visibility": 10,
    "temperatureC": 25,
    "dewPointC": 17,
    "cloudCeiling": 99999,
    "altimeter": "A2989",
    "timestamp": "2026-04-14T00:53:00+00:00",
    "station": "KCPS"
  },
  "kstl": {
    "metar": "KSTL 140051Z 18013G19KT 10SM FEW060 BKN250 26/17 A2988 RMK AO2 SLP108 T02610167 $",
    "windDirection": 180,
    "windSpeed": 13,
    "windGust": 19,
    "visibility": 10,
    "temperatureC": 26,
    "dewPointC": 17,
    "cloudCeiling": 25000,
    "altimeter": "A2988",
    "timestamp": "2026-04-14T00:51:00+00:00",
    "station": "KSTL"
  }
}