{
  "lastUpdated": "2025-11-23T10:21:19.553646+00:00",
  "kcps": {
    "metar": "KCPS 230953Z 27003KT 10SM FEW009 08/08 A3017 RMK AO2 SLP216 T00830078",
    "windDirection": 270,
    "windSpeed": 3,
    "windGust": null,
    "visibility": 10,
    "temperatureC": 8,
    "dewPointC": 8,
    "cloudCeiling": null,
    "altimeter": "A3017",
    "timestamp": "2025-11-23T09:53:00+00:00",
    "station": "KCPS"
  },
  "kstl": {
    "metar": "KSTL 230951Z 27007KT 8SM FEW005 08/07 A3017 RMK AO2 SLP217 T00780072 $",
    "windDirection": 270,
    "windSpeed": 7,
    "windGust": null,
    "visibility": 8,
    "temperatureC": 8,
    "dewPointC": 7,
    "cloudCeiling": null,
    "altimeter": "A3017",
    "timestamp": "2025-11-23T09:51:00+00:00",
    "station": "KSTL"
  }
}