{
  "lastUpdated": "2025-11-09T13:34:29.860577+00:00",
  "kcps": {
    "metar": "KCPS 091253Z 32021G29KT 10SM OVC027 04/M01 A3013 RMK AO2 PK WND 34031/1204 SLP204 T00441006 $",
    "windDirection": 320,
    "windSpeed": 21,
    "windGust": 29,
    "visibility": 10,
    "temperatureC": 4,
    "dewPointC": -1,
    "cloudCeiling": 2700,
    "altimeter": "A3013",
    "timestamp": "2025-11-09T12:53:00+00:00",
    "station": "KCPS"
  },
  "kstl": {
    "metar": "KSTL 091251Z 32016G23KT 10SM OVC025 04/M02 A3014 RMK AO2 PK WND 31030/1225 SLP208 T00391017 $",
    "windDirection": 320,
    "windSpeed": 16,
    "windGust": 23,
    "visibility": 10,
    "temperatureC": 4,
    "dewPointC": -2,
    "cloudCeiling": 2500,
    "altimeter": "A3014",
    "timestamp": "2025-11-09T12:51:00+00:00",
    "station": "KSTL"
  }
}