{
  "lastUpdated": "2026-01-17T15:02:11.707727+00:00",
  "kcps": {
    "metar": "KCPS 171453Z 31012KT 5SM -SN FEW021 OVC036 M06/M10 A3013 RMK AO2 SNB00E26B30 SLP207 P0000 60000 T10611100 51034 $",
    "windDirection": 310,
    "windSpeed": 12,
    "windGust": null,
    "visibility": 5,
    "temperatureC": -6,
    "dewPointC": -10,
    "cloudCeiling": 3600,
    "altimeter": "A3013",
    "timestamp": "2026-01-17T14:53:00+00:00",
    "station": "KCPS"
  },
  "kstl": {
    "metar": "KSTL 171451Z 30008KT 8SM -SN BKN036 OVC060 M07/M12 A3012 RMK AO2 SLP211 P0000 60000 T10671117 51030 $",
    "windDirection": 300,
    "windSpeed": 8,
    "windGust": null,
    "visibility": 8,
    "temperatureC": -7,
    "dewPointC": -12,
    "cloudCeiling": 3600,
    "altimeter": "A3012",
    "timestamp": "2026-01-17T14:51:00+00:00",
    "station": "KSTL"
  }
}