{
  "lastUpdated": "2026-04-04T15:24:03.608135+00:00",
  "kcps": {
    "metar": "KCPS 041500Z 30011G15KT 10SM FEW010 BKN023 OVC038 13/11 A2998 RMK AO2 T01330106 $",
    "windDirection": 300,
    "windSpeed": 11,
    "windGust": 15,
    "visibility": 10,
    "temperatureC": 13,
    "dewPointC": 11,
    "cloudCeiling": 2300,
    "altimeter": "A2998",
    "timestamp": "2026-04-04T15:00:00+00:00",
    "station": "KCPS"
  },
  "kstl": {
    "metar": "KSTL 041451Z 31014G20KT 10SM SCT015 BKN029 OVC045 12/11 A2999 RMK AO2 RAE27 SLP150 P0001 60005 T01220106 53019 $",
    "windDirection": 310,
    "windSpeed": 14,
    "windGust": 20,
    "visibility": 10,
    "temperatureC": 12,
    "dewPointC": 11,
    "cloudCeiling": 2900,
    "altimeter": "A2999",
    "timestamp": "2026-04-04T14:51:00+00:00",
    "station": "KSTL"
  }
}