{
  "lastUpdated": "2025-11-09T03:33:28.938920+00:00",
  "kcps": {
    "metar": "KCPS 090153Z 24004KT 10SM FEW075 BKN090 BKN110 12/07 A2979 RMK AO2 RAB07E35 SLP087 P0000 T01220072 $",
    "windDirection": 240,
    "windSpeed": 4,
    "windGust": null,
    "visibility": 10,
    "temperatureC": 12,
    "dewPointC": 7,
    "cloudCeiling": 9000,
    "altimeter": "A2979",
    "timestamp": "2025-11-09T01:53:00+00:00",
    "station": "KCPS"
  },
  "kstl": {
    "metar": "KSTL 090320Z 30015G24KT 10SM BKN029 BKN090 11/04 A2987 RMK AO2 PK WND 29032/0253 T01060044 $",
    "windDirection": 300,
    "windSpeed": 15,
    "windGust": 24,
    "visibility": 10,
    "temperatureC": 11,
    "dewPointC": 4,
    "cloudCeiling": 2900,
    "altimeter": "A2987",
    "timestamp": "2025-11-09T03:20:00+00:00",
    "station": "KSTL"
  }
}