{
  "lastUpdated": "2026-04-15T17:50:03.766723+00:00",
  "kcps": {
    "metar": "KCPS 151553Z 22009G18KT 10SM -RA OVC110 22/16 A2994 RMK AO2 LTG DSNT S RAB29 SLP136 P0000 T02220161 $",
    "windDirection": 220,
    "windSpeed": 9,
    "windGust": 18,
    "visibility": 10,
    "temperatureC": 22,
    "dewPointC": 16,
    "cloudCeiling": 11000,
    "altimeter": "A2994",
    "timestamp": "2026-04-15T15:53:00+00:00",
    "station": "KCPS"
  },
  "kstl": {
    "metar": "KSTL 151651Z 19011G17KT 10SM FEW024 BKN120 BKN190 OVC250 21/17 A2991 RMK AO2 RAE27 SLP118 P0000 T02110172",
    "windDirection": 190,
    "windSpeed": 11,
    "windGust": 17,
    "visibility": 10,
    "temperatureC": 21,
    "dewPointC": 17,
    "cloudCeiling": 12000,
    "altimeter": "A2991",
    "timestamp": "2026-04-15T16:51:00+00:00",
    "station": "KSTL"
  }
}