{
  "lastUpdated": "2025-11-06T07:46:49.294164+00:00",
  "kcps": {
    "metar": "KCPS 060653Z AUTO 00000KT 6SM BR CLR 04/03 A3027 RMK AO2 SLP249 T00390033 TSNO $",
    "windDirection": 0,
    "windSpeed": 0,
    "windGust": null,
    "visibility": 6,
    "temperatureC": 4,
    "dewPointC": 3,
    "cloudCeiling": 99999,
    "altimeter": "A3027",
    "timestamp": "2025-11-06T06:53:00+00:00",
    "station": "KCPS"
  },
  "kstl": {
    "metar": "KSTL 060651Z 24003KT 10SM CLR 06/02 A3027 RMK AO2 SLP249 T00560022 $",
    "windDirection": 240,
    "windSpeed": 3,
    "windGust": null,
    "visibility": 10,
    "temperatureC": 6,
    "dewPointC": 2,
    "cloudCeiling": 99999,
    "altimeter": "A3027",
    "timestamp": "2025-11-06T06:51:00+00:00",
    "station": "KSTL"
  }
}