{
  "lastUpdated": "2025-10-21T07:46:48.696025+00:00",
  "kcps": {
    "metar": "KCPS 210653Z AUTO 30007KT 10SM CLR 16/07 A2993 RMK AO2 SLP131 T01560067",
    "windDirection": 300,
    "windSpeed": 7,
    "windGust": null,
    "visibility": 10,
    "temperatureC": 16,
    "dewPointC": 7,
    "cloudCeiling": 99999,
    "altimeter": "A2993",
    "timestamp": "2025-10-21T06:53:00+00:00",
    "station": "KCPS"
  },
  "kstl": {
    "metar": "KSTL 210651Z 28008KT 10SM CLR 14/07 A2993 RMK AO2 SLP130 T01440067 $",
    "windDirection": 280,
    "windSpeed": 8,
    "windGust": null,
    "visibility": 10,
    "temperatureC": 14,
    "dewPointC": 7,
    "cloudCeiling": 99999,
    "altimeter": "A2993",
    "timestamp": "2025-10-21T06:51:00+00:00",
    "station": "KSTL"
  }
}