{
  "lastUpdated": "2026-01-11T01:30:59.122777+00:00",
  "kcps": {
    "metar": "KCPS 110053Z 22005KT 10SM CLR 05/M06 A3013 RMK AO2 SLP205 T00501056 $",
    "windDirection": 220,
    "windSpeed": 5,
    "windGust": null,
    "visibility": 10,
    "temperatureC": 5,
    "dewPointC": -6,
    "cloudCeiling": 99999,
    "altimeter": "A3013",
    "timestamp": "2026-01-11T00:53:00+00:00",
    "station": "KCPS"
  },
  "kstl": {
    "metar": "KSTL 110051Z 24012KT 10SM BKN075 07/M07 A3012 RMK AO2 SLP204 T00671072 $",
    "windDirection": 240,
    "windSpeed": 12,
    "windGust": null,
    "visibility": 10,
    "temperatureC": 7,
    "dewPointC": -7,
    "cloudCeiling": 7500,
    "altimeter": "A3012",
    "timestamp": "2026-01-11T00:51:00+00:00",
    "station": "KSTL"
  }
}