{
  "lastUpdated": "2025-12-10T19:33:24.818115+00:00",
  "kcps": {
    "metar": "KCPS 101853Z 31019G31KT 9SM OVC032 03/M04 A2987 RMK AO2 PK WND 31034/1801 SNB1755E49 SLP117 P0000 T00281044",
    "windDirection": 310,
    "windSpeed": 19,
    "windGust": 31,
    "visibility": 9,
    "temperatureC": 3,
    "dewPointC": -4,
    "cloudCeiling": 3200,
    "altimeter": "A2987",
    "timestamp": "2025-12-10T18:53:00+00:00",
    "station": "KCPS"
  },
  "kstl": {
    "metar": "KSTL 101920Z 31017G28KT 10SM OVC028 02/M04 A2989 RMK AO2 PK WND 31029/1858 T00221039 $",
    "windDirection": 310,
    "windSpeed": 17,
    "windGust": 28,
    "visibility": 10,
    "temperatureC": 2,
    "dewPointC": -4,
    "cloudCeiling": 2800,
    "altimeter": "A2989",
    "timestamp": "2025-12-10T19:20:00+00:00",
    "station": "KSTL"
  }
}