{
  "lastUpdated": "2026-01-01T21:21:25.355576+00:00",
  "kcps": {
    "metar": "KCPS 012053Z 05003KT 10SM BR OVC008 02/M01 A2993 RMK AO2 SLP139 T00171006 58024 $",
    "windDirection": 50,
    "windSpeed": 3,
    "windGust": null,
    "visibility": 10,
    "temperatureC": 2,
    "dewPointC": -1,
    "cloudCeiling": 800,
    "altimeter": "A2993",
    "timestamp": "2026-01-01T20:53:00+00:00",
    "station": "KCPS"
  },
  "kstl": {
    "metar": "KSTL 012115Z 02005KT 10SM OVC010 02/M01 A2992 RMK AO2 T00171011 $",
    "windDirection": 20,
    "windSpeed": 5,
    "windGust": null,
    "visibility": 10,
    "temperatureC": 2,
    "dewPointC": -1,
    "cloudCeiling": 1000,
    "altimeter": "A2992",
    "timestamp": "2026-01-01T21:15:00+00:00",
    "station": "KSTL"
  }
}