{
  "lastUpdated": "2026-04-02T17:45:14.332105+00:00",
  "kcps": {
    "metar": "KCPS 021653Z 18018G32KT 10SM BKN120 23/16 A2977 RMK AO2 PK WND 19032/1650 SLP078 T02280156 $",
    "windDirection": 180,
    "windSpeed": 18,
    "windGust": 32,
    "visibility": 10,
    "temperatureC": 23,
    "dewPointC": 16,
    "cloudCeiling": 12000,
    "altimeter": "A2977",
    "timestamp": "2026-04-02T16:53:00+00:00",
    "station": "KCPS"
  },
  "kstl": {
    "metar": "KSTL 021651Z 18015G24KT 10SM BKN039 BKN100 OVC200 23/16 A2977 RMK AO2 PK WND 17036/1608 SLP075 T02280161 $",
    "windDirection": 180,
    "windSpeed": 15,
    "windGust": 24,
    "visibility": 10,
    "temperatureC": 23,
    "dewPointC": 16,
    "cloudCeiling": 3900,
    "altimeter": "A2977",
    "timestamp": "2026-04-02T16:51:00+00:00",
    "station": "KSTL"
  }
}