{
  "lastUpdated": "2026-06-03T05:54:06.181163+00:00",
  "kcps": {
    "metar": "KCPS 030453Z AUTO 14003KT 10SM CLR 18/11 A3025 RMK AO2 SLP241 T01830106 $",
    "windDirection": 140,
    "windSpeed": 3,
    "windGust": null,
    "visibility": 10,
    "temperatureC": 18,
    "dewPointC": 11,
    "cloudCeiling": 99999,
    "altimeter": "A3025",
    "timestamp": "2026-06-03T04:53:00+00:00",
    "station": "KCPS"
  },
  "kstl": {
    "metar": "KSTL 030551Z 10008KT 10SM FEW250 19/10 A3026 RMK AO2 SLP236 T01890100 10256 20178 402670178 50009 $",
    "windDirection": 100,
    "windSpeed": 8,
    "windGust": null,
    "visibility": 10,
    "temperatureC": 19,
    "dewPointC": 10,
    "cloudCeiling": null,
    "altimeter": "A3026",
    "timestamp": "2026-06-03T05:51:00+00:00",
    "station": "KSTL"
  }
}