{
  "lastUpdated": "2025-10-13T05:46:49.986440+00:00",
  "kcps": {
    "metar": "KCPS 130453Z AUTO 00000KT 10SM CLR 14/12 A2994 RMK AO2 SLP137 T01390117 $",
    "windDirection": 0,
    "windSpeed": 0,
    "windGust": null,
    "visibility": 10,
    "temperatureC": 14,
    "dewPointC": 12,
    "cloudCeiling": 99999,
    "altimeter": "A2994",
    "timestamp": "2025-10-13T04:53:00+00:00",
    "station": "KCPS"
  },
  "kstl": {
    "metar": "KSTL 130451Z 15008KT 10SM BKN190 21/12 A2994 RMK AO2 SLP129 T02060117 $",
    "windDirection": 150,
    "windSpeed": 8,
    "windGust": null,
    "visibility": 10,
    "temperatureC": 21,
    "dewPointC": 12,
    "cloudCeiling": 19000,
    "altimeter": "A2994",
    "timestamp": "2025-10-13T04:51:00+00:00",
    "station": "KSTL"
  }
}