{
  "lastUpdated": "2026-02-16T15:47:15.037241+00:00",
  "kcps": {
    "metar": "KCPS 161453Z 00000KT 10SM CLR 07/04 A3009 RMK AO2 SLP191 I3001 T00720044 53015 $",
    "windDirection": 0,
    "windSpeed": 0,
    "windGust": null,
    "visibility": 10,
    "temperatureC": 7,
    "dewPointC": 4,
    "cloudCeiling": 99999,
    "altimeter": "A3009",
    "timestamp": "2026-02-16T14:53:00+00:00",
    "station": "KCPS"
  },
  "kstl": {
    "metar": "KSTL 161451Z 21004KT 10SM FEW250 11/05 A3008 RMK AO2 SLP190 T01110050 53013 $",
    "windDirection": 210,
    "windSpeed": 4,
    "windGust": null,
    "visibility": 10,
    "temperatureC": 11,
    "dewPointC": 5,
    "cloudCeiling": null,
    "altimeter": "A3008",
    "timestamp": "2026-02-16T14:51:00+00:00",
    "station": "KSTL"
  }
}