{
  "lastUpdated": "2026-06-07T19:29:44.815982+00:00",
  "kcps": {
    "metar": "KCPS 071853Z 13007G19KT 10SM CLR 31/20 A2989 RMK AO2 SLP117 T03110200 $",
    "windDirection": 130,
    "windSpeed": 7,
    "windGust": 19,
    "visibility": 10,
    "temperatureC": 31,
    "dewPointC": 20,
    "cloudCeiling": 99999,
    "altimeter": "A2989",
    "timestamp": "2026-06-07T18:53:00+00:00",
    "station": "KCPS"
  },
  "kstl": {
    "metar": "KSTL 071851Z 16011G20KT 10SM SCT049 BKN120 BKN250 30/19 A2990 RMK AO2 SLP112 T03000194 $",
    "windDirection": 160,
    "windSpeed": 11,
    "windGust": 20,
    "visibility": 10,
    "temperatureC": 30,
    "dewPointC": 19,
    "cloudCeiling": 12000,
    "altimeter": "A2990",
    "timestamp": "2026-06-07T18:51:00+00:00",
    "station": "KSTL"
  }
}