{
  "lastUpdated": "2026-05-10T22:01:11.697743+00:00",
  "kcps": {
    "metar": "KCPS 102153Z 36006KT 10SM BKN110 20/03 A3010 RMK AO2 SLP190 T02000028 $",
    "windDirection": 360,
    "windSpeed": 6,
    "windGust": null,
    "visibility": 10,
    "temperatureC": 20,
    "dewPointC": 3,
    "cloudCeiling": 11000,
    "altimeter": "A3010",
    "timestamp": "2026-05-10T21:53:00+00:00",
    "station": "KCPS"
  },
  "kstl": {
    "metar": "KSTL 102151Z 36008KT 10SM BKN110 BKN250 21/03 A3011 RMK AO2 SLP192 T02060033 $",
    "windDirection": 360,
    "windSpeed": 8,
    "windGust": null,
    "visibility": 10,
    "temperatureC": 21,
    "dewPointC": 3,
    "cloudCeiling": 11000,
    "altimeter": "A3011",
    "timestamp": "2026-05-10T21:51:00+00:00",
    "station": "KSTL"
  }
}