{
  "lastUpdated": "2025-12-02T23:02:27.745926+00:00",
  "kcps": {
    "metar": "KCPS 022253Z 00000KT 10SM OVC017 M03/M07 A3010 RMK AO2 SLP198 T10331067",
    "windDirection": 0,
    "windSpeed": 0,
    "windGust": null,
    "visibility": 10,
    "temperatureC": -3,
    "dewPointC": -7,
    "cloudCeiling": 1700,
    "altimeter": "A3010",
    "timestamp": "2025-12-02T22:53:00+00:00",
    "station": "KCPS"
  },
  "kstl": {
    "metar": "KSTL 022251Z 24005KT 10SM OVC016 M03/M07 A3009 RMK AO2 SLP203 T10331067 $ RTX)",
    "windDirection": 240,
    "windSpeed": 5,
    "windGust": null,
    "visibility": 10,
    "temperatureC": -3,
    "dewPointC": -7,
    "cloudCeiling": 1600,
    "altimeter": "A3009",
    "timestamp": "2025-12-02T22:51:00+00:00",
    "station": "KSTL"
  }
}