{
  "lastUpdated": "2026-05-20T09:13:16.279250+00:00",
  "kcps": {
    "metar": "KCPS 200853Z AUTO 36009KT 10SM BKN021 OVC042 16/12 A3016 RMK AO2 SLP212 T01560117 53009 $",
    "windDirection": 360,
    "windSpeed": 9,
    "windGust": null,
    "visibility": 10,
    "temperatureC": 16,
    "dewPointC": 12,
    "cloudCeiling": 2100,
    "altimeter": "A3016",
    "timestamp": "2026-05-20T08:53:00+00:00",
    "station": "KCPS"
  },
  "kstl": {
    "metar": "KSTL 200859Z 35008KT 10SM SCT018 BKN031 OVC055 14/11 A3019 RMK AO2 T01440106 $",
    "windDirection": 350,
    "windSpeed": 8,
    "windGust": null,
    "visibility": 10,
    "temperatureC": 14,
    "dewPointC": 11,
    "cloudCeiling": 3100,
    "altimeter": "A3019",
    "timestamp": "2026-05-20T08:59:00+00:00",
    "station": "KSTL"
  }
}