{
  "lastUpdated": "2026-05-12T12:22:44.352399+00:00",
  "kcps": {
    "metar": "KCPS 121153Z 00000KT 10SM CLR 13/09 A3013 RMK AO2 SLP200 T01280094 10139 20106 53003 $",
    "windDirection": 0,
    "windSpeed": 0,
    "windGust": null,
    "visibility": 10,
    "temperatureC": 13,
    "dewPointC": 9,
    "cloudCeiling": 99999,
    "altimeter": "A3013",
    "timestamp": "2026-05-12T11:53:00+00:00",
    "station": "KCPS"
  },
  "kstl": {
    "metar": "KSTL 121151Z 23006KT 10SM CLR 16/08 A3013 RMK AO2 SLP196 T01560078 10172 20139 53003 $",
    "windDirection": 230,
    "windSpeed": 6,
    "windGust": null,
    "visibility": 10,
    "temperatureC": 16,
    "dewPointC": 8,
    "cloudCeiling": 99999,
    "altimeter": "A3013",
    "timestamp": "2026-05-12T11:51:00+00:00",
    "station": "KSTL"
  }
}