{
  "lastUpdated": "2025-12-26T07:04:37.309115+00:00",
  "kcps": {
    "metar": "KCPS 260701Z AUTO 16004KT 1 1/2SM BR CLR 13/13 A2978 RMK AO2 T01330133 $",
    "windDirection": 160,
    "windSpeed": 4,
    "windGust": null,
    "visibility": 0.5,
    "temperatureC": 13,
    "dewPointC": 13,
    "cloudCeiling": 99999,
    "altimeter": "A2978",
    "timestamp": "2025-12-26T07:01:00+00:00",
    "station": "KCPS"
  },
  "kstl": {
    "metar": "KSTL 260651Z 18003KT 7SM BKN230 14/14 A2978 RMK AO2 SLP079 T01440144 $",
    "windDirection": 180,
    "windSpeed": 3,
    "windGust": null,
    "visibility": 7,
    "temperatureC": 14,
    "dewPointC": 14,
    "cloudCeiling": 23000,
    "altimeter": "A2978",
    "timestamp": "2025-12-26T06:51:00+00:00",
    "station": "KSTL"
  }
}