{
  "lastUpdated": "2025-11-01T10:02:32.639199+00:00",
  "kcps": {
    "metar": "KCPS 010953Z AUTO 00000KT 10SM SCT090 08/02 A3007 RMK AO2 SLP183 T00780017 TSNO",
    "windDirection": 0,
    "windSpeed": 0,
    "windGust": null,
    "visibility": 10,
    "temperatureC": 8,
    "dewPointC": 2,
    "cloudCeiling": null,
    "altimeter": "A3007",
    "timestamp": "2025-11-01T09:53:00+00:00",
    "station": "KCPS"
  },
  "kstl": {
    "metar": "KSTL 010951Z 26003KT 10SM FEW065 OVC110 08/02 A3007 RMK AO2 SLP182 T00780017 $",
    "windDirection": 260,
    "windSpeed": 3,
    "windGust": null,
    "visibility": 10,
    "temperatureC": 8,
    "dewPointC": 2,
    "cloudCeiling": 11000,
    "altimeter": "A3007",
    "timestamp": "2025-11-01T09:51:00+00:00",
    "station": "KSTL"
  }
}