{
  "lastUpdated": "2025-12-27T13:01:39.318764+00:00",
  "kcps": {
    "metar": "KCPS 271253Z 12004KT 1/2SM FG VV002 08/08 A2996 RMK AO2 SLP144 T00830078 $",
    "windDirection": 120,
    "windSpeed": 4,
    "windGust": null,
    "visibility": 0.5,
    "temperatureC": 8,
    "dewPointC": 8,
    "cloudCeiling": 200,
    "altimeter": "A2996",
    "timestamp": "2025-12-27T12:53:00+00:00",
    "station": "KCPS"
  },
  "kstl": {
    "metar": "KSTL 271251Z 11008KT 1/4SM R30R/1600V2000FT FG VV002 08/08 A2995 RMK AO2 SLP144 T00780078 $",
    "windDirection": 110,
    "windSpeed": 8,
    "windGust": null,
    "visibility": 0.25,
    "temperatureC": 8,
    "dewPointC": 8,
    "cloudCeiling": 200,
    "altimeter": "A2995",
    "timestamp": "2025-12-27T12:51:00+00:00",
    "station": "KSTL"
  }
}