{
  "lastUpdated": "2026-01-04T16:22:14.006603+00:00",
  "kcps": {
    "metar": "KCPS 041553Z 15003KT 10SM CLR 01/M04 A3024 RMK AO2 SLP246 T00111044 $",
    "windDirection": 150,
    "windSpeed": 3,
    "windGust": null,
    "visibility": 10,
    "temperatureC": 1,
    "dewPointC": -4,
    "cloudCeiling": 99999,
    "altimeter": "A3024",
    "timestamp": "2026-01-04T15:53:00+00:00",
    "station": "KCPS"
  },
  "kstl": {
    "metar": "KSTL 041551Z 12005KT 10SM BKN250 01/M04 A3023 RMK AO2 SLP249 T00061044 $",
    "windDirection": 120,
    "windSpeed": 5,
    "windGust": null,
    "visibility": 10,
    "temperatureC": 1,
    "dewPointC": -4,
    "cloudCeiling": 25000,
    "altimeter": "A3023",
    "timestamp": "2026-01-04T15:51:00+00:00",
    "station": "KSTL"
  }
}