{
  "lastUpdated": "2026-03-16T15:37:54.908093+00:00",
  "kcps": {
    "metar": "KCPS 161453Z 28017G28KT 6SM -SN OVC030 M06/M11 A2997 RMK AO2 PK WND 29032/1358 SNE22B23 SLP152 P0000 60000 T10561111 51029 $",
    "windDirection": 280,
    "windSpeed": 17,
    "windGust": 28,
    "visibility": 6,
    "temperatureC": -6,
    "dewPointC": -11,
    "cloudCeiling": 3000,
    "altimeter": "A2997",
    "timestamp": "2026-03-16T14:53:00+00:00",
    "station": "KCPS"
  },
  "kstl": {
    "metar": "KSTL 161501Z 29019G33KT 10SM BKN025 BKN030 M06/M12 A2997 RMK AO2 PK WND 29033/1457 SNE01 P0000 T10611117 $",
    "windDirection": 290,
    "windSpeed": 19,
    "windGust": 33,
    "visibility": 10,
    "temperatureC": -6,
    "dewPointC": -12,
    "cloudCeiling": 2500,
    "altimeter": "A2997",
    "timestamp": "2026-03-16T15:01:00+00:00",
    "station": "KSTL"
  }
}