{
  "lastUpdated": "2025-12-27T08:50:19.418877+00:00",
  "kcps": {
    "metar": "KCPS 270753Z AUTO 11004KT 4SM BR OVC003 08/08 A2995 RMK AO2 SLP142 T00830083 $",
    "windDirection": 110,
    "windSpeed": 4,
    "windGust": null,
    "visibility": 4,
    "temperatureC": 8,
    "dewPointC": 8,
    "cloudCeiling": 300,
    "altimeter": "A2995",
    "timestamp": "2025-12-27T07:53:00+00:00",
    "station": "KCPS"
  },
  "kstl": {
    "metar": "KSTL 270834Z 11007KT 3/4SM R30R/5000VP6000FT BR OVC002 08/08 A2995 RMK AO2 T00830078 $",
    "windDirection": 110,
    "windSpeed": 7,
    "windGust": null,
    "visibility": 0.75,
    "temperatureC": 8,
    "dewPointC": 8,
    "cloudCeiling": 200,
    "altimeter": "A2995",
    "timestamp": "2025-12-27T08:34:00+00:00",
    "station": "KSTL"
  }
}