{
  "lastUpdated": "2025-12-25T11:46:34.510753+00:00",
  "kcps": {
    "metar": "KCPS 251053Z AUTO 00000KT 6SM BR OVC022 13/13 A3004 RMK AO2 SLP173 T01330133 $",
    "windDirection": 0,
    "windSpeed": 0,
    "windGust": null,
    "visibility": 6,
    "temperatureC": 13,
    "dewPointC": 13,
    "cloudCeiling": 2200,
    "altimeter": "A3004",
    "timestamp": "2025-12-25T10:53:00+00:00",
    "station": "KCPS"
  },
  "kstl": {
    "metar": "KSTL 251142Z 00000KT 2 1/2SM BR SCT003 OVC015 12/12 A3006 RMK AO2 T01170117 $",
    "windDirection": 0,
    "windSpeed": 0,
    "windGust": null,
    "visibility": 0.5,
    "temperatureC": 12,
    "dewPointC": 12,
    "cloudCeiling": 1500,
    "altimeter": "A3006",
    "timestamp": "2025-12-25T11:42:00+00:00",
    "station": "KSTL"
  }
}