{
  "lastUpdated": "2025-12-19T07:35:10.547289+00:00",
  "kcps": {
    "metar": "KCPS 190653Z AUTO 27010KT 10SM OVC040 M02/M09 A2986 RMK AO2 PK WND 30029/0624 SLP115 T10221094",
    "windDirection": 270,
    "windSpeed": 10,
    "windGust": null,
    "visibility": 10,
    "temperatureC": -2,
    "dewPointC": -9,
    "cloudCeiling": 4000,
    "altimeter": "A2986",
    "timestamp": "2025-12-19T06:53:00+00:00",
    "station": "KCPS"
  },
  "kstl": {
    "metar": "KSTL 190651Z 28017KT 10SM OVC037 M03/M10 A2985 RMK AO2 PK WND 28030/0612 SLP117 T10281100 $",
    "windDirection": 280,
    "windSpeed": 17,
    "windGust": null,
    "visibility": 10,
    "temperatureC": -3,
    "dewPointC": -10,
    "cloudCeiling": 3700,
    "altimeter": "A2985",
    "timestamp": "2025-12-19T06:51:00+00:00",
    "station": "KSTL"
  }
}