{
  "lastUpdated": "2026-04-17T08:14:56.733674+00:00",
  "kcps": {
    "metar": "KCPS 170753Z AUTO 16006KT 10SM FEW044 17/16 A2991 RMK AO2 SLP126 T01670156 $",
    "windDirection": 160,
    "windSpeed": 6,
    "windGust": null,
    "visibility": 10,
    "temperatureC": 17,
    "dewPointC": 16,
    "cloudCeiling": null,
    "altimeter": "A2991",
    "timestamp": "2026-04-17T07:53:00+00:00",
    "station": "KCPS"
  },
  "kstl": {
    "metar": "KSTL 170751Z 18005KT 10SM SCT039 SCT250 19/17 A2991 RMK AO2 SLP118 T01890172 $",
    "windDirection": 180,
    "windSpeed": 5,
    "windGust": null,
    "visibility": 10,
    "temperatureC": 19,
    "dewPointC": 17,
    "cloudCeiling": null,
    "altimeter": "A2991",
    "timestamp": "2026-04-17T07:51:00+00:00",
    "station": "KSTL"
  }
}