{
  "lastUpdated": "2026-04-06T18:36:03.175553+00:00",
  "kcps": {
    "metar": "KCPS 061753Z 32010KT 10SM CLR 17/01 A3031 RMK AO2 SLP264 T01720011 10172 20067 58005 $",
    "windDirection": 320,
    "windSpeed": 10,
    "windGust": null,
    "visibility": 10,
    "temperatureC": 17,
    "dewPointC": 1,
    "cloudCeiling": 99999,
    "altimeter": "A3031",
    "timestamp": "2026-04-06T17:53:00+00:00",
    "station": "KCPS"
  },
  "kstl": {
    "metar": "KSTL 061751Z 31014G22KT 10SM FEW130 16/M02 A3033 RMK AO2 SLP270 T01611017 10161 20061 58002 $",
    "windDirection": 310,
    "windSpeed": 14,
    "windGust": 22,
    "visibility": 10,
    "temperatureC": 16,
    "dewPointC": -2,
    "cloudCeiling": null,
    "altimeter": "A3033",
    "timestamp": "2026-04-06T17:51:00+00:00",
    "station": "KSTL"
  }
}