{
  "lastUpdated": "2026-03-09T16:46:18.797150+00:00",
  "kcps": {
    "metar": "KCPS 091635Z 19012G21KT 10SM SCT021 20/14 A2984 RMK AO2 T02000139 $",
    "windDirection": 190,
    "windSpeed": 12,
    "windGust": 21,
    "visibility": 10,
    "temperatureC": 20,
    "dewPointC": 14,
    "cloudCeiling": null,
    "altimeter": "A2984",
    "timestamp": "2026-03-09T16:35:00+00:00",
    "station": "KCPS"
  },
  "kstl": {
    "metar": "KSTL 091551Z 20012G22KT 10SM FEW030 19/13 A2985 RMK AO2 SLP103 T01940128 $",
    "windDirection": 200,
    "windSpeed": 12,
    "windGust": 22,
    "visibility": 10,
    "temperatureC": 19,
    "dewPointC": 13,
    "cloudCeiling": null,
    "altimeter": "A2985",
    "timestamp": "2026-03-09T15:51:00+00:00",
    "station": "KSTL"
  }
}