{
  "lastUpdated": "2025-10-13T18:38:28.477251+00:00",
  "kcps": {
    "metar": "KCPS 131753Z 00000KT 10SM SCT085 24/14 A3006 RMK AO2 SLP176 60000 T02390139 10239 20133 50003 $",
    "windDirection": 0,
    "windSpeed": 0,
    "windGust": null,
    "visibility": 10,
    "temperatureC": 24,
    "dewPointC": 14,
    "cloudCeiling": null,
    "altimeter": "A3006",
    "timestamp": "2025-10-13T17:53:00+00:00",
    "station": "KCPS"
  },
  "kstl": {
    "metar": "KSTL 131751Z 16006KT 10SM FEW080 BKN150 25/14 A3006 RMK AO2 SLP168 T02500144 10250 20189 50003 $",
    "windDirection": 160,
    "windSpeed": 6,
    "windGust": null,
    "visibility": 10,
    "temperatureC": 25,
    "dewPointC": 14,
    "cloudCeiling": 15000,
    "altimeter": "A3006",
    "timestamp": "2025-10-13T17:51:00+00:00",
    "station": "KSTL"
  }
}