{
  "lastUpdated": "2026-02-24T20:23:44.963681+00:00",
  "kcps": {
    "metar": "KCPS 241953Z 19011G26KT 10SM CLR 11/M07 A2966 RMK AO2 PK WND 18026/1948 SLP046 T01061067 $",
    "windDirection": 190,
    "windSpeed": 11,
    "windGust": 26,
    "visibility": 10,
    "temperatureC": 11,
    "dewPointC": -7,
    "cloudCeiling": 99999,
    "altimeter": "A2966",
    "timestamp": "2026-02-24T19:53:00+00:00",
    "station": "KCPS"
  },
  "kstl": {
    "metar": "KSTL 241951Z 20017G27KT 10SM BKN150 OVC250 12/M07 A2963 RMK AO2 PK WND 22027/1946 PRESFR SLP040 T01171072 $",
    "windDirection": 200,
    "windSpeed": 17,
    "windGust": 27,
    "visibility": 10,
    "temperatureC": 12,
    "dewPointC": -7,
    "cloudCeiling": 15000,
    "altimeter": "A2963",
    "timestamp": "2026-02-24T19:51:00+00:00",
    "station": "KSTL"
  }
}