{
  "lastUpdated": "2025-11-18T20:22:17.818884+00:00",
  "kcps": {
    "metar": "KCPS 181953Z 36006KT 10SM BKN035 BKN046 22/16 A2978 RMK AO2 SLP083 T02170156",
    "windDirection": 360,
    "windSpeed": 6,
    "windGust": null,
    "visibility": 10,
    "temperatureC": 22,
    "dewPointC": 16,
    "cloudCeiling": 3500,
    "altimeter": "A2978",
    "timestamp": "2025-11-18T19:53:00+00:00",
    "station": "KCPS"
  },
  "kstl": {
    "metar": "KSTL 181951Z 36006KT 10SM FEW028 BKN032 BKN041 21/15 A2979 RMK AO2 SLP084 T02110150 $",
    "windDirection": 360,
    "windSpeed": 6,
    "windGust": null,
    "visibility": 10,
    "temperatureC": 21,
    "dewPointC": 15,
    "cloudCeiling": 3200,
    "altimeter": "A2979",
    "timestamp": "2025-11-18T19:51:00+00:00",
    "station": "KSTL"
  }
}