{
  "lastUpdated": "2026-04-04T16:58:54.335405+00:00",
  "kcps": {
    "metar": "KCPS 041553Z 29013G22KT 10SM SCT021 BKN025 OVC033 13/10 A3001 RMK AO2 SLP159 T01330100 $",
    "windDirection": 290,
    "windSpeed": 13,
    "windGust": 22,
    "visibility": 10,
    "temperatureC": 13,
    "dewPointC": 10,
    "cloudCeiling": 2500,
    "altimeter": "A3001",
    "timestamp": "2026-04-04T15:53:00+00:00",
    "station": "KCPS"
  },
  "kstl": {
    "metar": "KSTL 041651Z 29012G22KT 10SM BKN014 OVC045 11/08 A3005 RMK AO2 SLP169 T01060078 $",
    "windDirection": 290,
    "windSpeed": 12,
    "windGust": 22,
    "visibility": 10,
    "temperatureC": 11,
    "dewPointC": 8,
    "cloudCeiling": 1400,
    "altimeter": "A3005",
    "timestamp": "2026-04-04T16:51:00+00:00",
    "station": "KSTL"
  }
}