{
  "lastUpdated": "2026-04-21T17:35:17.128035+00:00",
  "kcps": {
    "metar": "KCPS 211653Z 20009G19KT 10SM CLR 24/07 A3008 RMK AO2 SLP184 T02390072 $",
    "windDirection": 200,
    "windSpeed": 9,
    "windGust": 19,
    "visibility": 10,
    "temperatureC": 24,
    "dewPointC": 7,
    "cloudCeiling": 99999,
    "altimeter": "A3008",
    "timestamp": "2026-04-21T16:53:00+00:00",
    "station": "KCPS"
  },
  "kstl": {
    "metar": "KSTL 211651Z 23013KT 10SM BKN250 23/08 A3008 RMK AO2 SLP181 T02330083 $",
    "windDirection": 230,
    "windSpeed": 13,
    "windGust": null,
    "visibility": 10,
    "temperatureC": 23,
    "dewPointC": 8,
    "cloudCeiling": 25000,
    "altimeter": "A3008",
    "timestamp": "2026-04-21T16:51:00+00:00",
    "station": "KSTL"
  }
}