{
  "lastUpdated": "2026-02-08T06:14:33.689426+00:00",
  "kcps": {
    "metar": "KCPS 080553Z 12006KT 10SM CLR M03/M08 A3030 RMK AO2 SLP264 T10281083 10000 21028 400331044 53006 $",
    "windDirection": 120,
    "windSpeed": 6,
    "windGust": null,
    "visibility": 10,
    "temperatureC": -3,
    "dewPointC": -8,
    "cloudCeiling": 99999,
    "altimeter": "A3030",
    "timestamp": "2026-02-08T05:53:00+00:00",
    "station": "KCPS"
  },
  "kstl": {
    "metar": "KSTL 080551Z 13013KT 10SM SCT250 M02/M08 A3027 RMK AO2 SLP261 T10221083 10011 21022 400331033 53003 $",
    "windDirection": 130,
    "windSpeed": 13,
    "windGust": null,
    "visibility": 10,
    "temperatureC": -2,
    "dewPointC": -8,
    "cloudCeiling": null,
    "altimeter": "A3027",
    "timestamp": "2026-02-08T05:51:00+00:00",
    "station": "KSTL"
  }
}