{
  "lastUpdated": "2026-05-29T19:57:41.536043+00:00",
  "kcps": {
    "metar": "KCPS 291953Z 13008KT 10SM FEW075 27/18 A2994 RMK AO2 SLP135 T02670178 $",
    "windDirection": 130,
    "windSpeed": 8,
    "windGust": null,
    "visibility": 10,
    "temperatureC": 27,
    "dewPointC": 18,
    "cloudCeiling": null,
    "altimeter": "A2994",
    "timestamp": "2026-05-29T19:53:00+00:00",
    "station": "KCPS"
  },
  "kstl": {
    "metar": "KSTL 291951Z 12012KT 10SM SCT075 BKN180 OVC250 27/17 A2995 RMK AO2 SLP132 T02720167 $",
    "windDirection": 120,
    "windSpeed": 12,
    "windGust": null,
    "visibility": 10,
    "temperatureC": 27,
    "dewPointC": 17,
    "cloudCeiling": 18000,
    "altimeter": "A2995",
    "timestamp": "2026-05-29T19:51:00+00:00",
    "station": "KSTL"
  }
}