{
  "lastUpdated": "2026-04-11T02:59:11.940755+00:00",
  "kcps": {
    "metar": "KCPS 110253Z 02008KT 10SM OVC047 14/09 A3033 RMK AO2 SLP270 T01390094 51013 $",
    "windDirection": 20,
    "windSpeed": 8,
    "windGust": null,
    "visibility": 10,
    "temperatureC": 14,
    "dewPointC": 9,
    "cloudCeiling": 4700,
    "altimeter": "A3033",
    "timestamp": "2026-04-11T02:53:00+00:00",
    "station": "KCPS"
  },
  "kstl": {
    "metar": "KSTL 110251Z 04009KT 10SM BKN045 13/09 A3034 RMK AO2 SLP270 T01330089 50010 $",
    "windDirection": 40,
    "windSpeed": 9,
    "windGust": null,
    "visibility": 10,
    "temperatureC": 13,
    "dewPointC": 9,
    "cloudCeiling": 4500,
    "altimeter": "A3034",
    "timestamp": "2026-04-11T02:51:00+00:00",
    "station": "KSTL"
  }
}