{
  "lastUpdated": "2025-12-12T08:53:27.119172+00:00",
  "kcps": {
    "metar": "KCPS 120653Z AUTO 10007KT 10SM BKN075 01/M02 A2990 RMK AO2 SLP129 T00061017",
    "windDirection": 100,
    "windSpeed": 7,
    "windGust": null,
    "visibility": 10,
    "temperatureC": 1,
    "dewPointC": -2,
    "cloudCeiling": 7500,
    "altimeter": "A2990",
    "timestamp": "2025-12-12T06:53:00+00:00",
    "station": "KCPS"
  },
  "kstl": {
    "metar": "KSTL 120851Z 04009KT 10SM FEW014 BKN060 BKN075 01/M01 A2996 RMK AO2 SLP153 T0011",
    "windDirection": 40,
    "windSpeed": 9,
    "windGust": null,
    "visibility": 10,
    "temperatureC": 1,
    "dewPointC": -1,
    "cloudCeiling": 6000,
    "altimeter": "A2996",
    "timestamp": "2025-12-12T08:51:00+00:00",
    "station": "KSTL"
  }
}