{
  "lastUpdated": "2026-03-20T14:32:29.762434+00:00",
  "kcps": {
    "metar": "KCPS 201353Z 24005KT 10SM CLR 16/09 A2994 RMK AO2 SLP136 T01610089 $",
    "windDirection": 240,
    "windSpeed": 5,
    "windGust": null,
    "visibility": 10,
    "temperatureC": 16,
    "dewPointC": 9,
    "cloudCeiling": 99999,
    "altimeter": "A2994",
    "timestamp": "2026-03-20T13:53:00+00:00",
    "station": "KCPS"
  },
  "kstl": {
    "metar": "KSTL 201351Z 26007KT 10SM BKN250 17/08 A2994 RMK AO2 SLP134 T01670078 $",
    "windDirection": 260,
    "windSpeed": 7,
    "windGust": null,
    "visibility": 10,
    "temperatureC": 17,
    "dewPointC": 8,
    "cloudCeiling": 25000,
    "altimeter": "A2994",
    "timestamp": "2026-03-20T13:51:00+00:00",
    "station": "KSTL"
  }
}