{
  "lastUpdated": "2026-04-15T21:32:38.981872+00:00",
  "kcps": {
    "metar": "KCPS 152053Z AUTO 15004KT 10SM -RA OVC055 21/19 A2987 RMK AO2 LTG DSNT NE RAB14E28B53 SLP112 P0001 60005 T02110189 56013 $",
    "windDirection": 150,
    "windSpeed": 4,
    "windGust": null,
    "visibility": 10,
    "temperatureC": 21,
    "dewPointC": 19,
    "cloudCeiling": 5500,
    "altimeter": "A2987",
    "timestamp": "2026-04-15T20:53:00+00:00",
    "station": "KCPS"
  },
  "kstl": {
    "metar": "KSTL 152051Z 18008G16KT 10SM BKN047 BKN130 OVC190 22/18 A2986 RMK AO2 RAE33 SLP104 P0002 60003 T02170183 56008",
    "windDirection": 180,
    "windSpeed": 8,
    "windGust": 16,
    "visibility": 10,
    "temperatureC": 22,
    "dewPointC": 18,
    "cloudCeiling": 4700,
    "altimeter": "A2986",
    "timestamp": "2026-04-15T20:51:00+00:00",
    "station": "KSTL"
  }
}