{
  "lastUpdated": "2026-01-31T09:04:58.255166+00:00",
  "kcps": {
    "metar": "KCPS 310853Z AUTO 34011KT 10SM OVC045 M11/M14 A3052 RMK AO2 SLP344 60000 T11061144 51008 $",
    "windDirection": 340,
    "windSpeed": 11,
    "windGust": null,
    "visibility": 10,
    "temperatureC": -11,
    "dewPointC": -14,
    "cloudCeiling": 4500,
    "altimeter": "A3052",
    "timestamp": "2026-01-31T08:53:00+00:00",
    "station": "KCPS"
  },
  "kstl": {
    "metar": "KSTL 310851Z 31008KT 10SM FEW035 M13/M15 A3052 RMK AO2 SLP356 60000 T11281150 51007 $",
    "windDirection": 310,
    "windSpeed": 8,
    "windGust": null,
    "visibility": 10,
    "temperatureC": -13,
    "dewPointC": -15,
    "cloudCeiling": null,
    "altimeter": "A3052",
    "timestamp": "2026-01-31T08:51:00+00:00",
    "station": "KSTL"
  }
}