{
  "lastUpdated": "2026-04-23T17:09:05.642133+00:00",
  "kcps": {
    "metar": "KCPS 231653Z 17011G24KT 10SM CLR 27/13 A2986 RMK AO2 SLP107 T02670133 $",
    "windDirection": 170,
    "windSpeed": 11,
    "windGust": 24,
    "visibility": 10,
    "temperatureC": 27,
    "dewPointC": 13,
    "cloudCeiling": 99999,
    "altimeter": "A2986",
    "timestamp": "2026-04-23T16:53:00+00:00",
    "station": "KCPS"
  },
  "kstl": {
    "metar": "KSTL 231651Z 17014G21KT 10SM FEW050 FEW250 26/14 A2986 RMK AO2 SLP101 T02560139 $",
    "windDirection": 170,
    "windSpeed": 14,
    "windGust": 21,
    "visibility": 10,
    "temperatureC": 26,
    "dewPointC": 14,
    "cloudCeiling": null,
    "altimeter": "A2986",
    "timestamp": "2026-04-23T16:51:00+00:00",
    "station": "KSTL"
  }
}