{
  "lastUpdated": "2026-05-28T19:57:04.477725+00:00",
  "kcps": {
    "metar": "KCPS 281953Z 10009KT 10SM CLR 29/18 A3002 RMK AO2 SLP163 T02940183 $",
    "windDirection": 100,
    "windSpeed": 9,
    "windGust": null,
    "visibility": 10,
    "temperatureC": 29,
    "dewPointC": 18,
    "cloudCeiling": 99999,
    "altimeter": "A3002",
    "timestamp": "2026-05-28T19:53:00+00:00",
    "station": "KCPS"
  },
  "kstl": {
    "metar": "KSTL 281951Z 10011G19KT 10SM FEW050 FEW150 BKN250 30/18 A3003 RMK AO2 SLP159 T03000178 $",
    "windDirection": 100,
    "windSpeed": 11,
    "windGust": 19,
    "visibility": 10,
    "temperatureC": 30,
    "dewPointC": 18,
    "cloudCeiling": 25000,
    "altimeter": "A3003",
    "timestamp": "2026-05-28T19:51:00+00:00",
    "station": "KSTL"
  }
}