{
  "lastUpdated": "2026-03-19T22:54:25.419240+00:00",
  "kcps": {
    "station": "KCPS",
    "metar": null,
    "error": "Failed to fetch METAR"
  },
  "kstl": {
    "metar": "KSTL 192251Z 22007KT 10SM SCT250 26/04 A2996 RMK AO2 SLP141 T02610039 $",
    "windDirection": 220,
    "windSpeed": 7,
    "windGust": null,
    "visibility": 10,
    "temperatureC": 26,
    "dewPointC": 4,
    "cloudCeiling": null,
    "altimeter": "A2996",
    "timestamp": "2026-03-19T22:51:00+00:00",
    "station": "KSTL"
  }
}