{
  "lastUpdated": "2026-01-07T12:44:39.051113+00:00",
  "kcps": {
    "metar": "KCPS 071153Z AUTO 00000KT 10SM CLR M02/M02 A2992 RMK AO2 SLP134 T10171017 10039 21022 53006 $",
    "windDirection": 0,
    "windSpeed": 0,
    "windGust": null,
    "visibility": 10,
    "temperatureC": -2,
    "dewPointC": -2,
    "cloudCeiling": 99999,
    "altimeter": "A2992",
    "timestamp": "2026-01-07T11:53:00+00:00",
    "station": "KCPS"
  },
  "kstl": {
    "metar": "KSTL 071151Z 22003KT 10SM CLR 02/01 A2992 RMK AO2 SLP134 T00170006 10072 20017 53005 $",
    "windDirection": 220,
    "windSpeed": 3,
    "windGust": null,
    "visibility": 10,
    "temperatureC": 2,
    "dewPointC": 1,
    "cloudCeiling": 99999,
    "altimeter": "A2992",
    "timestamp": "2026-01-07T11:51:00+00:00",
    "station": "KSTL"
  }
}