{
  "lastUpdated": "2026-02-25T12:28:42.633316+00:00",
  "kcps": {
    "metar": "KCPS 251153Z AUTO 00000KT 10SM CLR 00/M04 A2972 RMK AO2 SLP065 7//// T00001039 10067 21011 51015 $",
    "windDirection": 0,
    "windSpeed": 0,
    "windGust": null,
    "visibility": 10,
    "temperatureC": 0,
    "dewPointC": -4,
    "cloudCeiling": 99999,
    "altimeter": "A2972",
    "timestamp": "2026-02-25T11:53:00+00:00",
    "station": "KCPS"
  },
  "kstl": {
    "metar": "KSTL 251151Z 00000KT 10SM BKN160 BKN250 03/M03 A2972 RMK AO2 SLP068 T00331028 10078 20017 53011 $",
    "windDirection": 0,
    "windSpeed": 0,
    "windGust": null,
    "visibility": 10,
    "temperatureC": 3,
    "dewPointC": -3,
    "cloudCeiling": 16000,
    "altimeter": "A2972",
    "timestamp": "2026-02-25T11:51:00+00:00",
    "station": "KSTL"
  }
}