{
  "lastUpdated": "2025-11-01T12:23:27.187262+00:00",
  "kcps": {
    "metar": "KCPS 011153Z 00000KT 10SM OVC090 07/03 A3008 RMK AO2 SLP186 T00670028 10106 20050 53004",
    "windDirection": 0,
    "windSpeed": 0,
    "windGust": null,
    "visibility": 10,
    "temperatureC": 7,
    "dewPointC": 3,
    "cloudCeiling": 9000,
    "altimeter": "A3008",
    "timestamp": "2025-11-01T11:53:00+00:00",
    "station": "KCPS"
  },
  "kstl": {
    "metar": "KSTL 011151Z 00000KT 10SM OVC100 07/03 A3008 RMK AO2 SLP188 T00670028 10089 20067 53005 $",
    "windDirection": 0,
    "windSpeed": 0,
    "windGust": null,
    "visibility": 10,
    "temperatureC": 7,
    "dewPointC": 3,
    "cloudCeiling": 10000,
    "altimeter": "A3008",
    "timestamp": "2025-11-01T11:51:00+00:00",
    "station": "KSTL"
  }
}