{
  "lastUpdated": "2026-04-29T16:08:58.888797+00:00",
  "kcps": {
    "metar": "KCPS 291553Z 34010KT 10SM CLR 16/07 A3004 RMK AO2 SLP170 T01560067 $",
    "windDirection": 340,
    "windSpeed": 10,
    "windGust": null,
    "visibility": 10,
    "temperatureC": 16,
    "dewPointC": 7,
    "cloudCeiling": 99999,
    "altimeter": "A3004",
    "timestamp": "2026-04-29T15:53:00+00:00",
    "station": "KCPS"
  },
  "kstl": {
    "metar": "KSTL 291551Z 30011KT 10SM FEW040 FEW250 15/07 A3005 RMK AO2 SLP173 T01500072 $",
    "windDirection": 300,
    "windSpeed": 11,
    "windGust": null,
    "visibility": 10,
    "temperatureC": 15,
    "dewPointC": 7,
    "cloudCeiling": null,
    "altimeter": "A3005",
    "timestamp": "2026-04-29T15:51:00+00:00",
    "station": "KSTL"
  }
}