{
  "lastUpdated": "2026-03-29T18:29:51.041146+00:00",
  "kcps": {
    "metar": "KCPS 291753Z 16012G19KT 10SM FEW055 19/00 A3017 RMK AO2 SLP216 T01890000 10189 20044 58024 $",
    "windDirection": 160,
    "windSpeed": 12,
    "windGust": 19,
    "visibility": 10,
    "temperatureC": 19,
    "dewPointC": 0,
    "cloudCeiling": null,
    "altimeter": "A3017",
    "timestamp": "2026-03-29T17:53:00+00:00",
    "station": "KCPS"
  },
  "kstl": {
    "metar": "KSTL 291751Z 20012KT 10SM BKN050 18/M02 A3017 RMK AO2 SLP215 T01781017 10178 20072 58020 $",
    "windDirection": 200,
    "windSpeed": 12,
    "windGust": null,
    "visibility": 10,
    "temperatureC": 18,
    "dewPointC": -2,
    "cloudCeiling": 5000,
    "altimeter": "A3017",
    "timestamp": "2026-03-29T17:51:00+00:00",
    "station": "KSTL"
  }
}