{
  "lastUpdated": "2026-03-29T05:32:08.350256+00:00",
  "kcps": {
    "metar": "KCPS 290453Z AUTO 16006KT 10SM OVC110 10/M04 A3033 RMK AO2 SLP272 T01001039 $",
    "windDirection": 160,
    "windSpeed": 6,
    "windGust": null,
    "visibility": 10,
    "temperatureC": 10,
    "dewPointC": -4,
    "cloudCeiling": 11000,
    "altimeter": "A3033",
    "timestamp": "2026-03-29T04:53:00+00:00",
    "station": "KCPS"
  },
  "kstl": {
    "metar": "KSTL 290451Z 15008KT 10SM OVC110 11/M06 A3033 RMK AO2 SLP273 T01061056 $",
    "windDirection": 150,
    "windSpeed": 8,
    "windGust": null,
    "visibility": 10,
    "temperatureC": 11,
    "dewPointC": -6,
    "cloudCeiling": 11000,
    "altimeter": "A3033",
    "timestamp": "2026-03-29T04:51:00+00:00",
    "station": "KSTL"
  }
}