{
  "lastUpdated": "2026-04-21T03:51:19.870357+00:00",
  "kcps": {
    "metar": "KCPS 210253Z AUTO 16006KT 10SM CLR 14/06 A3017 RMK AO2 SLP215 T01440061 55000 $",
    "windDirection": 160,
    "windSpeed": 6,
    "windGust": null,
    "visibility": 10,
    "temperatureC": 14,
    "dewPointC": 6,
    "cloudCeiling": 99999,
    "altimeter": "A3017",
    "timestamp": "2026-04-21T02:53:00+00:00",
    "station": "KCPS"
  },
  "kstl": {
    "metar": "KSTL 210251Z 14009KT 10SM CLR 16/05 A3016 RMK AO2 SLP213 T01610050 56002 $",
    "windDirection": 140,
    "windSpeed": 9,
    "windGust": null,
    "visibility": 10,
    "temperatureC": 16,
    "dewPointC": 5,
    "cloudCeiling": 99999,
    "altimeter": "A3016",
    "timestamp": "2026-04-21T02:51:00+00:00",
    "station": "KSTL"
  }
}