{
  "lastUpdated": "2026-01-13T21:21:49.286869+00:00",
  "kcps": {
    "metar": "KCPS 132053Z 26009KT 10SM CLR 18/M01 A2976 RMK AO2 SLP076 T01831011 56020",
    "windDirection": 260,
    "windSpeed": 9,
    "windGust": null,
    "visibility": 10,
    "temperatureC": 18,
    "dewPointC": -1,
    "cloudCeiling": 99999,
    "altimeter": "A2976",
    "timestamp": "2026-01-13T20:53:00+00:00",
    "station": "KCPS"
  },
  "kstl": {
    "metar": "KSTL 132051Z 27014KT 10SM BKN130 BKN250 17/M01 A2976 RMK AO2 SLP078 T01671006 56023 $",
    "windDirection": 270,
    "windSpeed": 14,
    "windGust": null,
    "visibility": 10,
    "temperatureC": 17,
    "dewPointC": -1,
    "cloudCeiling": 13000,
    "altimeter": "A2976",
    "timestamp": "2026-01-13T20:51:00+00:00",
    "station": "KSTL"
  }
}