{
  "lastUpdated": "2026-05-13T01:12:11.136149+00:00",
  "kcps": {
    "metar": "KCPS 130053Z 26006KT 10SM CLR 26/08 A2996 RMK AO2 SLP143 T02560083 $",
    "windDirection": 260,
    "windSpeed": 6,
    "windGust": null,
    "visibility": 10,
    "temperatureC": 26,
    "dewPointC": 8,
    "cloudCeiling": 99999,
    "altimeter": "A2996",
    "timestamp": "2026-05-13T00:53:00+00:00",
    "station": "KCPS"
  },
  "kstl": {
    "metar": "KSTL 130051Z 25008KT 10SM SCT100 BKN250 24/09 A2997 RMK AO2 SLP142 T02440089 $",
    "windDirection": 250,
    "windSpeed": 8,
    "windGust": null,
    "visibility": 10,
    "temperatureC": 24,
    "dewPointC": 9,
    "cloudCeiling": 25000,
    "altimeter": "A2997",
    "timestamp": "2026-05-13T00:51:00+00:00",
    "station": "KSTL"
  }
}