{
  "lastUpdated": "2026-05-04T04:30:38.010494+00:00",
  "kcps": {
    "metar": "KCPS 040353Z AUTO 23007KT 200V270 10SM CLR 20/07 A2981 RMK AO2 SLP091 T02000072 $",
    "windDirection": 230,
    "windSpeed": 7,
    "windGust": null,
    "visibility": 10,
    "temperatureC": 20,
    "dewPointC": 7,
    "cloudCeiling": 99999,
    "altimeter": "A2981",
    "timestamp": "2026-05-04T03:53:00+00:00",
    "station": "KCPS"
  },
  "kstl": {
    "metar": "KSTL 040422Z 23010KT 10SM FEW055 SCT100 BKN250 21/08 A2978 RMK AO2 RAE09 TSE20 CONS LTGICCC DSNT NW-NE CB DSNT NW-NE MOV E P0000 T02060083 $",
    "windDirection": 230,
    "windSpeed": 10,
    "windGust": null,
    "visibility": 10,
    "temperatureC": 21,
    "dewPointC": 8,
    "cloudCeiling": 25000,
    "altimeter": "A2978",
    "timestamp": "2026-05-04T04:22:00+00:00",
    "station": "KSTL"
  }
}