{
  "lastUpdated": "2026-04-13T23:59:05.783206+00:00",
  "kcps": {
    "metar": "KCPS 132353Z 19013G20KT 10SM FEW050 27/17 A2989 RMK AO2 SLP117 T02720172 10294 20272 56006 $",
    "windDirection": 190,
    "windSpeed": 13,
    "windGust": 20,
    "visibility": 10,
    "temperatureC": 27,
    "dewPointC": 17,
    "cloudCeiling": null,
    "altimeter": "A2989",
    "timestamp": "2026-04-13T23:53:00+00:00",
    "station": "KCPS"
  },
  "kstl": {
    "metar": "KSTL 132351Z 18013G21KT 10SM SCT055 BKN250 27/17 A2988 RMK AO2 SLP108 T02720167 10294 20272 56008 $",
    "windDirection": 180,
    "windSpeed": 13,
    "windGust": 21,
    "visibility": 10,
    "temperatureC": 27,
    "dewPointC": 17,
    "cloudCeiling": 25000,
    "altimeter": "A2988",
    "timestamp": "2026-04-13T23:51:00+00:00",
    "station": "KSTL"
  }
}