{
  "lastUpdated": "2026-05-28T08:55:15.853145+00:00",
  "kcps": {
    "metar": "KCPS 280819Z AUTO 00000KT 5SM BR CLR 18/17 A3001 RMK AO2 T01780172 $",
    "windDirection": 0,
    "windSpeed": 0,
    "windGust": null,
    "visibility": 5,
    "temperatureC": 18,
    "dewPointC": 17,
    "cloudCeiling": 99999,
    "altimeter": "A3001",
    "timestamp": "2026-05-28T08:19:00+00:00",
    "station": "KCPS"
  },
  "kstl": {
    "metar": "KSTL 280851Z 00000KT 10SM FEW150 BKN250 19/18 A3003 RMK AO2 SLP156 T01940178 53001 $",
    "windDirection": 0,
    "windSpeed": 0,
    "windGust": null,
    "visibility": 10,
    "temperatureC": 19,
    "dewPointC": 18,
    "cloudCeiling": 25000,
    "altimeter": "A3003",
    "timestamp": "2026-05-28T08:51:00+00:00",
    "station": "KSTL"
  }
}