{
  "lastUpdated": "2025-12-11T19:34:07.433218+00:00",
  "kcps": {
    "metar": "KCPS 111853Z 19003KT 10SM OVC090 02/M04 A2998 RMK AO2 SLP157 T00171044 $",
    "windDirection": 190,
    "windSpeed": 3,
    "windGust": null,
    "visibility": 10,
    "temperatureC": 2,
    "dewPointC": -4,
    "cloudCeiling": 9000,
    "altimeter": "A2998",
    "timestamp": "2025-12-11T18:53:00+00:00",
    "station": "KCPS"
  },
  "kstl": {
    "metar": "KSTL 111851Z 19003KT 10SM OVC085 02/M05 A2998 RMK AO2 SLP161 T00171050 $",
    "windDirection": 190,
    "windSpeed": 3,
    "windGust": null,
    "visibility": 10,
    "temperatureC": 2,
    "dewPointC": -5,
    "cloudCeiling": 8500,
    "altimeter": "A2998",
    "timestamp": "2025-12-11T18:51:00+00:00",
    "station": "KSTL"
  }
}