{
  "lastUpdated": "2026-01-25T20:02:26.673402+00:00",
  "kcps": {
    "metar": "KCPS 251953Z 32017KT 3SM -SN FEW019 BKN025 OVC033 M11/M14 A3014 RMK AO2 SLP215 P0000 T11061144 $",
    "windDirection": 320,
    "windSpeed": 17,
    "windGust": null,
    "visibility": 3,
    "temperatureC": -11,
    "dewPointC": -14,
    "cloudCeiling": 2500,
    "altimeter": "A3014",
    "timestamp": "2026-01-25T19:53:00+00:00",
    "station": "KCPS"
  },
  "kstl": {
    "metar": "KSTL 251951Z 31013KT 2SM R30R/2400VP6000FT -SN BKN018 OVC026 M11/M14 A3014 RMK AO2 SLP229 P0001 T11111144 $",
    "windDirection": 310,
    "windSpeed": 13,
    "windGust": null,
    "visibility": 2,
    "temperatureC": -11,
    "dewPointC": -14,
    "cloudCeiling": 1800,
    "altimeter": "A3014",
    "timestamp": "2026-01-25T19:51:00+00:00",
    "station": "KSTL"
  }
}