{
  "lastUpdated": "2026-01-06T04:15:26.122261+00:00",
  "kcps": {
    "metar": "KCPS 060353Z 16005KT 10SM CLR 08/05 A2971 RMK AO2 SLP061 T00830050",
    "windDirection": 160,
    "windSpeed": 5,
    "windGust": null,
    "visibility": 10,
    "temperatureC": 8,
    "dewPointC": 5,
    "cloudCeiling": 99999,
    "altimeter": "A2971",
    "timestamp": "2026-01-06T03:53:00+00:00",
    "station": "KCPS"
  },
  "kstl": {
    "metar": "KSTL 060351Z 19005KT 10SM BKN240 10/06 A2972 RMK AO2 SLP065 T01000056 $",
    "windDirection": 190,
    "windSpeed": 5,
    "windGust": null,
    "visibility": 10,
    "temperatureC": 10,
    "dewPointC": 6,
    "cloudCeiling": 24000,
    "altimeter": "A2972",
    "timestamp": "2026-01-06T03:51:00+00:00",
    "station": "KSTL"
  }
}