{
  "lastUpdated": "2025-12-22T05:08:35.828541+00:00",
  "kcps": {
    "metar": "KCPS 220453Z AUTO 14005KT 10SM CLR 01/M07 A3041 RMK AO2 SLP299 T00111072 $",
    "windDirection": 140,
    "windSpeed": 5,
    "windGust": null,
    "visibility": 10,
    "temperatureC": 1,
    "dewPointC": -7,
    "cloudCeiling": 99999,
    "altimeter": "A3041",
    "timestamp": "2025-12-22T04:53:00+00:00",
    "station": "KCPS"
  },
  "kstl": {
    "metar": "KSTL 220451Z 13007KT 10SM BKN250 00/M07 A3039 RMK AO2 SLP301 T00001067 $",
    "windDirection": 130,
    "windSpeed": 7,
    "windGust": null,
    "visibility": 10,
    "temperatureC": 0,
    "dewPointC": -7,
    "cloudCeiling": 25000,
    "altimeter": "A3039",
    "timestamp": "2025-12-22T04:51:00+00:00",
    "station": "KSTL"
  }
}