{
  "lastUpdated": "2026-05-12T18:12:38.931882+00:00",
  "kcps": {
    "metar": "KCPS 121753Z 26007G15KT 10SM CLR 26/08 A3007 RMK AO2 SLP179 T02610083 10261 20128 58018 $",
    "windDirection": 260,
    "windSpeed": 7,
    "windGust": 15,
    "visibility": 10,
    "temperatureC": 26,
    "dewPointC": 8,
    "cloudCeiling": 99999,
    "altimeter": "A3007",
    "timestamp": "2026-05-12T17:53:00+00:00",
    "station": "KCPS"
  },
  "kstl": {
    "metar": "KSTL 121751Z 24011KT 210V270 10SM FEW250 26/09 A3007 RMK AO2 SLP175 T02560094 10256 20156 58018 $",
    "windDirection": 240,
    "windSpeed": 11,
    "windGust": null,
    "visibility": 10,
    "temperatureC": 26,
    "dewPointC": 9,
    "cloudCeiling": null,
    "altimeter": "A3007",
    "timestamp": "2026-05-12T17:51:00+00:00",
    "station": "KSTL"
  }
}