{
  "lastUpdated": "2026-01-17T11:21:07.477997+00:00",
  "kcps": {
    "metar": "KCPS 171053Z AUTO 30007KT 10SM OVC060 M04/M14 A3001 RMK AO2 SLP164 T10391139 $",
    "windDirection": 300,
    "windSpeed": 7,
    "windGust": null,
    "visibility": 10,
    "temperatureC": -4,
    "dewPointC": -14,
    "cloudCeiling": 6000,
    "altimeter": "A3001",
    "timestamp": "2026-01-17T10:53:00+00:00",
    "station": "KCPS"
  },
  "kstl": {
    "metar": "KSTL 171051Z 29009KT 10SM BKN050 M05/M15 A3000 RMK AO2 SLP169 T10501150 $",
    "windDirection": 290,
    "windSpeed": 9,
    "windGust": null,
    "visibility": 10,
    "temperatureC": -5,
    "dewPointC": -15,
    "cloudCeiling": 5000,
    "altimeter": "A3000",
    "timestamp": "2026-01-17T10:51:00+00:00",
    "station": "KSTL"
  }
}