{
  "lastUpdated": "2025-12-04T09:49:02.103613+00:00",
  "kcps": {
    "metar": "KCPS 040905Z AUTO 35012KT 9SM SCT018 M04/M07 A3032 RMK AO2 T10391072 $",
    "windDirection": 350,
    "windSpeed": 12,
    "windGust": null,
    "visibility": 9,
    "temperatureC": -4,
    "dewPointC": -7,
    "cloudCeiling": null,
    "altimeter": "A3032",
    "timestamp": "2025-12-04T09:05:00+00:00",
    "station": "KCPS"
  },
  "kstl": {
    "metar": "KSTL 040851Z 35013KT 10SM FEW017 BKN130 M05/M09 A3032 RMK AO2 SLP280 T10501089 51017 $",
    "windDirection": 350,
    "windSpeed": 13,
    "windGust": null,
    "visibility": 10,
    "temperatureC": -5,
    "dewPointC": -9,
    "cloudCeiling": 13000,
    "altimeter": "A3032",
    "timestamp": "2025-12-04T08:51:00+00:00",
    "station": "KSTL"
  }
}