{
  "lastUpdated": "2025-10-14T18:03:01.025047+00:00",
  "kcps": {
    "metar": "KCPS 141753Z 10SM CLR 27/09 A3025 RMK AO2 SLP241 T02670094 10278 20128 58008",
    "windDirection": null,
    "windSpeed": null,
    "windGust": null,
    "visibility": 10,
    "temperatureC": 27,
    "dewPointC": 9,
    "cloudCeiling": 99999,
    "altimeter": "A3025",
    "timestamp": "2025-10-14T17:53:00+00:00",
    "station": "KCPS"
  },
  "kstl": {
    "metar": "KSTL 141751Z 11006KT 10SM BKN120 BKN250 26/10 A3026 RMK AO2 SLP238 T02610100 10261 20161 58006 $",
    "windDirection": 110,
    "windSpeed": 6,
    "windGust": null,
    "visibility": 10,
    "temperatureC": 26,
    "dewPointC": 10,
    "cloudCeiling": 12000,
    "altimeter": "A3026",
    "timestamp": "2025-10-14T17:51:00+00:00",
    "station": "KSTL"
  }
}