{
  "lastUpdated": "2026-01-11T14:21:21.881617+00:00",
  "kcps": {
    "metar": "KCPS 111353Z 32012KT 10SM CLR M03/M09 A3045 RMK AO2 SLP314 T10281089 $",
    "windDirection": 320,
    "windSpeed": 12,
    "windGust": null,
    "visibility": 10,
    "temperatureC": -3,
    "dewPointC": -9,
    "cloudCeiling": 99999,
    "altimeter": "A3045",
    "timestamp": "2026-01-11T13:53:00+00:00",
    "station": "KCPS"
  },
  "kstl": {
    "metar": "KSTL 111351Z 30008KT 10SM FEW032 SCT250 M03/M09 A3044 RMK AO2 SLP318 T10331089 $",
    "windDirection": 300,
    "windSpeed": 8,
    "windGust": null,
    "visibility": 10,
    "temperatureC": -3,
    "dewPointC": -9,
    "cloudCeiling": null,
    "altimeter": "A3044",
    "timestamp": "2026-01-11T13:51:00+00:00",
    "station": "KSTL"
  }
}