{
  "lastUpdated": "2025-12-25T12:44:17.391199+00:00",
  "kcps": {
    "metar": "KCPS 251153Z AUTO 00000KT 5SM BR OVC017 13/13 A3005 RMK AO2 SLP176 T01330133 10178 20111 53003 $",
    "windDirection": 0,
    "windSpeed": 0,
    "windGust": null,
    "visibility": 5,
    "temperatureC": 13,
    "dewPointC": 13,
    "cloudCeiling": 1700,
    "altimeter": "A3005",
    "timestamp": "2025-12-25T11:53:00+00:00",
    "station": "KCPS"
  },
  "kstl": {
    "metar": "KSTL 251235Z 23004KT 4SM BR FEW003 SCT014 OVC019 12/11 A3007 RMK AO2 T01170111 $",
    "windDirection": 230,
    "windSpeed": 4,
    "windGust": null,
    "visibility": 4,
    "temperatureC": 12,
    "dewPointC": 11,
    "cloudCeiling": 1900,
    "altimeter": "A3007",
    "timestamp": "2025-12-25T12:35:00+00:00",
    "station": "KSTL"
  }
}