{
  "lastUpdated": "2025-11-21T13:01:29.371606+00:00",
  "kcps": {
    "metar": "KCPS 211253Z 08006KT 7SM RA SCT005 OVC012 12/11 A2998 RMK AO2 SLP151 P0010 T01170111 $",
    "windDirection": 80,
    "windSpeed": 6,
    "windGust": null,
    "visibility": 7,
    "temperatureC": 12,
    "dewPointC": 11,
    "cloudCeiling": 1200,
    "altimeter": "A2998",
    "timestamp": "2025-11-21T12:53:00+00:00",
    "station": "KCPS"
  },
  "kstl": {
    "metar": "KSTL 211251Z 10008KT 4SM -RA BR OVC003 12/11 A2998 RMK AO2 SLP150 P0006 T01170111 $",
    "windDirection": 100,
    "windSpeed": 8,
    "windGust": null,
    "visibility": 4,
    "temperatureC": 12,
    "dewPointC": 11,
    "cloudCeiling": 300,
    "altimeter": "A2998",
    "timestamp": "2025-11-21T12:51:00+00:00",
    "station": "KSTL"
  }
}