{
  "lastUpdated": "2026-01-26T07:15:47.474091+00:00",
  "kcps": {
    "metar": "KCPS 260653Z AUTO 32010KT 10SM CLR M14/M20 A3038 RMK AO2 SLP296 T11441200 $",
    "windDirection": 320,
    "windSpeed": 10,
    "windGust": null,
    "visibility": 10,
    "temperatureC": -14,
    "dewPointC": -20,
    "cloudCeiling": 99999,
    "altimeter": "A3038",
    "timestamp": "2026-01-26T06:53:00+00:00",
    "station": "KCPS"
  },
  "kstl": {
    "metar": "KSTL 260651Z 30006KT 10SM CLR M17/M21 A3037 RMK AO2 SLP310 T11721211 $",
    "windDirection": 300,
    "windSpeed": 6,
    "windGust": null,
    "visibility": 10,
    "temperatureC": -17,
    "dewPointC": -21,
    "cloudCeiling": 99999,
    "altimeter": "A3037",
    "timestamp": "2026-01-26T06:51:00+00:00",
    "station": "KSTL"
  }
}