{
  "lastUpdated": "2026-03-28T15:23:11.813414+00:00",
  "kcps": {
    "metar": "KCPS 281453Z VRB04KT 10SM CLR 04/M06 A3069 RMK AO2 SLP394 T00391056 51010 $",
    "windDirection": null,
    "windSpeed": null,
    "windGust": null,
    "visibility": 10,
    "temperatureC": 4,
    "dewPointC": -6,
    "cloudCeiling": 99999,
    "altimeter": "A3069",
    "timestamp": "2026-03-28T14:53:00+00:00",
    "station": "KCPS"
  },
  "kstl": {
    "metar": "KSTL 281451Z 05006KT 10SM CLR 03/M06 A3068 RMK AO2 SLP394 T00331056 50009 $",
    "windDirection": 50,
    "windSpeed": 6,
    "windGust": null,
    "visibility": 10,
    "temperatureC": 3,
    "dewPointC": -6,
    "cloudCeiling": 99999,
    "altimeter": "A3068",
    "timestamp": "2026-03-28T14:51:00+00:00",
    "station": "KSTL"
  }
}