{
  "lastUpdated": "2026-03-29T00:12:39.270004+00:00",
  "kcps": {
    "metar": "KCPS 282353Z 15010KT 10SM CLR 12/M06 A3038 RMK AO2 SLP291 T01171056 10133 20089 56030 $",
    "windDirection": 150,
    "windSpeed": 10,
    "windGust": null,
    "visibility": 10,
    "temperatureC": 12,
    "dewPointC": -6,
    "cloudCeiling": 99999,
    "altimeter": "A3038",
    "timestamp": "2026-03-28T23:53:00+00:00",
    "station": "KCPS"
  },
  "kstl": {
    "metar": "KSTL 282351Z 14011KT 10SM FEW250 12/M06 A3038 RMK AO2 SLP293 T01171061 10133 20078 56031 $",
    "windDirection": 140,
    "windSpeed": 11,
    "windGust": null,
    "visibility": 10,
    "temperatureC": 12,
    "dewPointC": -6,
    "cloudCeiling": null,
    "altimeter": "A3038",
    "timestamp": "2026-03-28T23:51:00+00:00",
    "station": "KSTL"
  }
}