{
  "lastUpdated": "2025-11-27T14:21:58.176508+00:00",
  "kcps": {
    "metar": "KCPS 271345Z 33014G21KT 10SM SCT025 M01/M07 A3039 RMK AO2 T10111067 $",
    "windDirection": 330,
    "windSpeed": 14,
    "windGust": 21,
    "visibility": 10,
    "temperatureC": -1,
    "dewPointC": -7,
    "cloudCeiling": null,
    "altimeter": "A3039",
    "timestamp": "2025-11-27T13:45:00+00:00",
    "station": "KCPS"
  },
  "kstl": {
    "metar": "KSTL 271351Z 30010KT 10SM BKN024 BKN200 M02/M07 A3039 RMK AO2 SLP300 T10171067 $",
    "windDirection": 300,
    "windSpeed": 10,
    "windGust": null,
    "visibility": 10,
    "temperatureC": -2,
    "dewPointC": -7,
    "cloudCeiling": 2400,
    "altimeter": "A3039",
    "timestamp": "2025-11-27T13:51:00+00:00",
    "station": "KSTL"
  }
}