{
  "lastUpdated": "2026-05-22T03:44:14.626154+00:00",
  "kcps": {
    "metar": "KCPS 220305Z AUTO 07005KT 10SM BKN026 BKN037 OVC048 18/13 A3007 RMK AO2 T01780128 PNO $",
    "windDirection": 70,
    "windSpeed": 5,
    "windGust": null,
    "visibility": 10,
    "temperatureC": 18,
    "dewPointC": 13,
    "cloudCeiling": 2600,
    "altimeter": "A3007",
    "timestamp": "2026-05-22T03:05:00+00:00",
    "station": "KCPS"
  },
  "kstl": {
    "metar": "KSTL 220251Z AUTO 09008KT 10SM OVC023 18/12 A3008 RMK AO2 SLP183 T01780122 53005 $",
    "windDirection": 90,
    "windSpeed": 8,
    "windGust": null,
    "visibility": 10,
    "temperatureC": 18,
    "dewPointC": 12,
    "cloudCeiling": 2300,
    "altimeter": "A3008",
    "timestamp": "2026-05-22T02:51:00+00:00",
    "station": "KSTL"
  }
}