{
  "lastUpdated": "2025-10-27T11:46:53.039801+00:00",
  "kcps": {
    "metar": "KCPS 271053Z AUTO 07008KT 9SM OVC008 10/09 A3008 RMK AO2 RAE22 SLP185 P0001 T01000094 $",
    "windDirection": 70,
    "windSpeed": 8,
    "windGust": null,
    "visibility": 9,
    "temperatureC": 10,
    "dewPointC": 9,
    "cloudCeiling": 800,
    "altimeter": "A3008",
    "timestamp": "2025-10-27T10:53:00+00:00",
    "station": "KCPS"
  },
  "kstl": {
    "metar": "KSTL 271134Z 09011KT 5SM -DZ BR OVC006 10/09 A3009 RMK AO2 P0001 T01000089 $",
    "windDirection": 90,
    "windSpeed": 11,
    "windGust": null,
    "visibility": 5,
    "temperatureC": 10,
    "dewPointC": 9,
    "cloudCeiling": 600,
    "altimeter": "A3009",
    "timestamp": "2025-10-27T11:34:00+00:00",
    "station": "KSTL"
  }
}