{
  "lastUpdated": "2025-11-07T08:02:49.715282+00:00",
  "kcps": {
    "metar": "KCPS 070753Z AUTO 15005KT 10SM SCT100 12/10 A2970 RMK AO2 SLP057 T01220100 TSNO $",
    "windDirection": 150,
    "windSpeed": 5,
    "windGust": null,
    "visibility": 10,
    "temperatureC": 12,
    "dewPointC": 10,
    "cloudCeiling": null,
    "altimeter": "A2970",
    "timestamp": "2025-11-07T07:53:00+00:00",
    "station": "KCPS"
  },
  "kstl": {
    "metar": "KSTL 070751Z 21009KT 10SM FEW050 BKN100 16/12 A2969 RMK AO2 SLP050 T01560117 $",
    "windDirection": 210,
    "windSpeed": 9,
    "windGust": null,
    "visibility": 10,
    "temperatureC": 16,
    "dewPointC": 12,
    "cloudCeiling": 10000,
    "altimeter": "A2969",
    "timestamp": "2025-11-07T07:51:00+00:00",
    "station": "KSTL"
  }
}