{
  "lastUpdated": "2025-12-11T01:51:41.835119+00:00",
  "kcps": {
    "metar": "KCPS 110053Z 33013KT 10SM OVC030 01/M05 A3004 RMK AO2 SLP174 T00111050 $",
    "windDirection": 330,
    "windSpeed": 13,
    "windGust": null,
    "visibility": 10,
    "temperatureC": 1,
    "dewPointC": -5,
    "cloudCeiling": 3000,
    "altimeter": "A3004",
    "timestamp": "2025-12-11T00:53:00+00:00",
    "station": "KCPS"
  },
  "kstl": {
    "metar": "KSTL 110054Z 32011G21KT 10SM SCT027 01/M05 A3002 RMK AO2 T00061050 $",
    "windDirection": 320,
    "windSpeed": 11,
    "windGust": 21,
    "visibility": 10,
    "temperatureC": 1,
    "dewPointC": -5,
    "cloudCeiling": null,
    "altimeter": "A3002",
    "timestamp": "2025-12-11T00:54:00+00:00",
    "station": "KSTL"
  }
}