{
  "lastUpdated": "2026-02-12T20:06:53.021934+00:00",
  "kcps": {
    "metar": "KCPS 121953Z 14010G16KT 10SM FEW100 13/M04 A3021 RMK AO2 SLP233 T01281044 $",
    "windDirection": 140,
    "windSpeed": 10,
    "windGust": 16,
    "visibility": 10,
    "temperatureC": 13,
    "dewPointC": -4,
    "cloudCeiling": null,
    "altimeter": "A3021",
    "timestamp": "2026-02-12T19:53:00+00:00",
    "station": "KCPS"
  },
  "kstl": {
    "metar": "KSTL 121951Z 18010KT 10SM FEW100 FEW250 13/M05 A3021 RMK AO2 SLP235 T01281050 $",
    "windDirection": 180,
    "windSpeed": 10,
    "windGust": null,
    "visibility": 10,
    "temperatureC": 13,
    "dewPointC": -5,
    "cloudCeiling": null,
    "altimeter": "A3021",
    "timestamp": "2026-02-12T19:51:00+00:00",
    "station": "KSTL"
  }
}