{
  "lastUpdated": "2026-02-27T19:41:02.401105+00:00",
  "kcps": {
    "metar": "KCPS 271853Z 20008G19KT 180V260 10SM CLR 22/02 A2991 RMK AO2 SLP129 T02170017 $",
    "windDirection": 200,
    "windSpeed": 8,
    "windGust": 19,
    "visibility": 10,
    "temperatureC": 22,
    "dewPointC": 2,
    "cloudCeiling": 99999,
    "altimeter": "A2991",
    "timestamp": "2026-02-27T18:53:00+00:00",
    "station": "KCPS"
  },
  "kstl": {
    "metar": "KSTL 271851Z 21016G20KT 10SM FEW250 22/01 A2991 RMK AO2 SLP129 T02170011 $",
    "windDirection": 210,
    "windSpeed": 16,
    "windGust": 20,
    "visibility": 10,
    "temperatureC": 22,
    "dewPointC": 1,
    "cloudCeiling": null,
    "altimeter": "A2991",
    "timestamp": "2026-02-27T18:51:00+00:00",
    "station": "KSTL"
  }
}