{
  "lastUpdated": "2026-04-03T03:39:16.480025+00:00",
  "kcps": {
    "metar": "KCPS 030253Z 18011G20KT 10SM CLR 22/16 A2980 RMK AO2 SLP087 T02220161 51021 $",
    "windDirection": 180,
    "windSpeed": 11,
    "windGust": 20,
    "visibility": 10,
    "temperatureC": 22,
    "dewPointC": 16,
    "cloudCeiling": 99999,
    "altimeter": "A2980",
    "timestamp": "2026-04-03T02:53:00+00:00",
    "station": "KCPS"
  },
  "kstl": {
    "metar": "KSTL 030251Z 19012KT 10SM FEW050 FEW250 23/16 A2980 RMK AO2 SLP082 T02330156 53027 $",
    "windDirection": 190,
    "windSpeed": 12,
    "windGust": null,
    "visibility": 10,
    "temperatureC": 23,
    "dewPointC": 16,
    "cloudCeiling": null,
    "altimeter": "A2980",
    "timestamp": "2026-04-03T02:51:00+00:00",
    "station": "KSTL"
  }
}