{
  "lastUpdated": "2025-12-12T05:03:05.516484+00:00",
  "kcps": {
    "metar": "KCPS 120453Z AUTO 10006KT 10SM OVC070 01/M02 A2992 RMK AO2 SLP135 T00111017",
    "windDirection": 100,
    "windSpeed": 6,
    "windGust": null,
    "visibility": 10,
    "temperatureC": 1,
    "dewPointC": -2,
    "cloudCeiling": 7000,
    "altimeter": "A2992",
    "timestamp": "2025-12-12T04:53:00+00:00",
    "station": "KCPS"
  },
  "kstl": {
    "metar": "KSTL 120451Z 11013KT 10SM BKN075 OVC095 01/M02 A2991 RMK AO2 SLP137 T00111017 $",
    "windDirection": 110,
    "windSpeed": 13,
    "windGust": null,
    "visibility": 10,
    "temperatureC": 1,
    "dewPointC": -2,
    "cloudCeiling": 7500,
    "altimeter": "A2991",
    "timestamp": "2025-12-12T04:51:00+00:00",
    "station": "KSTL"
  }
}