{
  "lastUpdated": "2026-03-10T10:26:01.799314+00:00",
  "kcps": {
    "metar": "KCPS 100953Z AUTO 15004KT 10SM CLR 16/15 A2986 RMK AO2 SLP109 T01560150 $",
    "windDirection": 150,
    "windSpeed": 4,
    "windGust": null,
    "visibility": 10,
    "temperatureC": 16,
    "dewPointC": 15,
    "cloudCeiling": 99999,
    "altimeter": "A2986",
    "timestamp": "2026-03-10T09:53:00+00:00",
    "station": "KCPS"
  },
  "kstl": {
    "metar": "KSTL 100951Z 20008KT 10SM CLR 18/16 A2985 RMK AO2 SLP101 T01780156 $",
    "windDirection": 200,
    "windSpeed": 8,
    "windGust": null,
    "visibility": 10,
    "temperatureC": 18,
    "dewPointC": 16,
    "cloudCeiling": 99999,
    "altimeter": "A2985",
    "timestamp": "2026-03-10T09:51:00+00:00",
    "station": "KSTL"
  }
}