{
  "lastUpdated": "2026-03-29T02:40:09.933966+00:00",
  "kcps": {
    "metar": "KCPS 290153Z 16005KT 10SM CLR 08/M04 A3035 RMK AO2 SLP280 T00831044 $",
    "windDirection": 160,
    "windSpeed": 5,
    "windGust": null,
    "visibility": 10,
    "temperatureC": 8,
    "dewPointC": -4,
    "cloudCeiling": 99999,
    "altimeter": "A3035",
    "timestamp": "2026-03-29T01:53:00+00:00",
    "station": "KCPS"
  },
  "kstl": {
    "metar": "KSTL 290151Z 14009KT 10SM FEW250 11/M06 A3034 RMK AO2 SLP281 T01061056 $",
    "windDirection": 140,
    "windSpeed": 9,
    "windGust": null,
    "visibility": 10,
    "temperatureC": 11,
    "dewPointC": -6,
    "cloudCeiling": null,
    "altimeter": "A3034",
    "timestamp": "2026-03-29T01:51:00+00:00",
    "station": "KSTL"
  }
}