{
  "lastUpdated": "2026-01-08T03:52:49.249267+00:00",
  "kcps": {
    "metar": "KCPS 080253Z 16005KT 10SM CLR 09/04 A2991 RMK AO2 SLP130 T00940039 53004 $",
    "windDirection": 160,
    "windSpeed": 5,
    "windGust": null,
    "visibility": 10,
    "temperatureC": 9,
    "dewPointC": 4,
    "cloudCeiling": 99999,
    "altimeter": "A2991",
    "timestamp": "2026-01-08T02:53:00+00:00",
    "station": "KCPS"
  },
  "kstl": {
    "metar": "KSTL 080251Z 16011KT 10SM BKN250 12/03 A2990 RMK AO2 SLP126 T01220028 50001 $",
    "windDirection": 160,
    "windSpeed": 11,
    "windGust": null,
    "visibility": 10,
    "temperatureC": 12,
    "dewPointC": 3,
    "cloudCeiling": 25000,
    "altimeter": "A2990",
    "timestamp": "2026-01-08T02:51:00+00:00",
    "station": "KSTL"
  }
}