{
  "lastUpdated": "2025-12-13T08:22:19.290717+00:00",
  "kcps": {
    "metar": "KCPS 130753Z AUTO 30006KT 10SM OVC012 01/M02 A3019 RMK AO2 SLP227 T00111017",
    "windDirection": 300,
    "windSpeed": 6,
    "windGust": null,
    "visibility": 10,
    "temperatureC": 1,
    "dewPointC": -2,
    "cloudCeiling": 1200,
    "altimeter": "A3019",
    "timestamp": "2025-12-13T07:53:00+00:00",
    "station": "KCPS"
  },
  "kstl": {
    "metar": "KSTL 130751Z 30006KT 10SM OVC013 01/M02 A3019 RMK AO2 SLP232 T00111017 $",
    "windDirection": 300,
    "windSpeed": 6,
    "windGust": null,
    "visibility": 10,
    "temperatureC": 1,
    "dewPointC": -2,
    "cloudCeiling": 1300,
    "altimeter": "A3019",
    "timestamp": "2025-12-13T07:51:00+00:00",
    "station": "KSTL"
  }
}