{
  "lastUpdated": "2026-01-25T12:23:40.188910+00:00",
  "kcps": {
    "metar": "KCPS 251207Z AUTO 01011KT 3/4SM -SN BR VV011 M13/M15 A3012 RMK AO2 P0000 T11281150 $",
    "windDirection": 10,
    "windSpeed": 11,
    "windGust": null,
    "visibility": 0.75,
    "temperatureC": -13,
    "dewPointC": -15,
    "cloudCeiling": 1100,
    "altimeter": "A3012",
    "timestamp": "2026-01-25T12:07:00+00:00",
    "station": "KCPS"
  },
  "kstl": {
    "metar": "KSTL 251205Z 36012KT 3/4SM R30R/P6000FT -SN OVC022 M13/M16 A3011 RMK AO2 PRESRR P0000 T11331161 $",
    "windDirection": 360,
    "windSpeed": 12,
    "windGust": null,
    "visibility": 0.75,
    "temperatureC": -13,
    "dewPointC": -16,
    "cloudCeiling": 2200,
    "altimeter": "A3011",
    "timestamp": "2026-01-25T12:05:00+00:00",
    "station": "KSTL"
  }
}