{
  "lastUpdated": "2026-01-13T08:23:00.818736+00:00",
  "kcps": {
    "metar": "KCPS 130753Z AUTO 20005KT 10SM CLR 07/M03 A3004 RMK AO2 SLP173 T00671033 $",
    "windDirection": 200,
    "windSpeed": 5,
    "windGust": null,
    "visibility": 10,
    "temperatureC": 7,
    "dewPointC": -3,
    "cloudCeiling": 99999,
    "altimeter": "A3004",
    "timestamp": "2026-01-13T07:53:00+00:00",
    "station": "KCPS"
  },
  "kstl": {
    "metar": "KSTL 130751Z 23008KT 10SM FEW250 07/M03 A3003 RMK AO2 SLP171 T00721033 $",
    "windDirection": 230,
    "windSpeed": 8,
    "windGust": null,
    "visibility": 10,
    "temperatureC": 7,
    "dewPointC": -3,
    "cloudCeiling": null,
    "altimeter": "A3003",
    "timestamp": "2026-01-13T07:51:00+00:00",
    "station": "KSTL"
  }
}