{
  "lastUpdated": "2026-02-05T15:05:05.974895+00:00",
  "kcps": {
    "metar": "KCPS 051453Z 00000KT 8SM CLR M06/M08 A3020 RMK AO2 SLP233 I1001 I3001 T10561083 56025 $",
    "windDirection": 0,
    "windSpeed": 0,
    "windGust": null,
    "visibility": 8,
    "temperatureC": -6,
    "dewPointC": -8,
    "cloudCeiling": 99999,
    "altimeter": "A3020",
    "timestamp": "2026-02-05T14:53:00+00:00",
    "station": "KCPS"
  },
  "kstl": {
    "metar": "KSTL 051451Z 21007KT 10SM BKN032 BKN150 OVC250 M04/M08 A3018 RMK AO2 SLP234 T10391083 56026 $",
    "windDirection": 210,
    "windSpeed": 7,
    "windGust": null,
    "visibility": 10,
    "temperatureC": -4,
    "dewPointC": -8,
    "cloudCeiling": 3200,
    "altimeter": "A3018",
    "timestamp": "2026-02-05T14:51:00+00:00",
    "station": "KSTL"
  }
}