{
  "lastUpdated": "2026-02-14T07:55:52.644933+00:00",
  "kcps": {
    "metar": "KCPS 140753Z 00000KT 10SM CLR 05/M01 A3006 RMK AO2 SLP181 T00501011 $",
    "windDirection": 0,
    "windSpeed": 0,
    "windGust": null,
    "visibility": 10,
    "temperatureC": 5,
    "dewPointC": -1,
    "cloudCeiling": 99999,
    "altimeter": "A3006",
    "timestamp": "2026-02-14T07:53:00+00:00",
    "station": "KCPS"
  },
  "kstl": {
    "metar": "KSTL 140751Z 23006KT 10SM BKN130 09/M02 A3006 RMK AO2 SLP179 T00891017 $",
    "windDirection": 230,
    "windSpeed": 6,
    "windGust": null,
    "visibility": 10,
    "temperatureC": 9,
    "dewPointC": -2,
    "cloudCeiling": 13000,
    "altimeter": "A3006",
    "timestamp": "2026-02-14T07:51:00+00:00",
    "station": "KSTL"
  }
}