{
  "lastUpdated": "2025-11-01T17:20:07.336063+00:00",
  "kcps": {
    "metar": "KCPS 011653Z VRB04KT 10SM CLR 12/01 A3013 RMK AO2 SLP202 T01170006",
    "windDirection": null,
    "windSpeed": null,
    "windGust": null,
    "visibility": 10,
    "temperatureC": 12,
    "dewPointC": 1,
    "cloudCeiling": 99999,
    "altimeter": "A3013",
    "timestamp": "2025-11-01T16:53:00+00:00",
    "station": "KCPS"
  },
  "kstl": {
    "metar": "KSTL 011651Z 31006KT 10SM FEW044 BKN085 BKN250 11/00 A3013 RMK AO2 SLP205 T01110000 $",
    "windDirection": 310,
    "windSpeed": 6,
    "windGust": null,
    "visibility": 10,
    "temperatureC": 11,
    "dewPointC": 0,
    "cloudCeiling": 8500,
    "altimeter": "A3013",
    "timestamp": "2025-11-01T16:51:00+00:00",
    "station": "KSTL"
  }
}