{
  "lastUpdated": "2026-05-06T01:03:38.016260+00:00",
  "kcps": {
    "metar": "KCPS 060053Z 34012G17KT 7SM -RA OVC016 08/07 A2987 RMK AO2 PRESRR SLP115 T00830067 PNO $",
    "windDirection": 340,
    "windSpeed": 12,
    "windGust": 17,
    "visibility": 7,
    "temperatureC": 8,
    "dewPointC": 7,
    "cloudCeiling": 1600,
    "altimeter": "A2987",
    "timestamp": "2026-05-06T00:53:00+00:00",
    "station": "KCPS"
  },
  "kstl": {
    "station": "KSTL",
    "metar": null,
    "error": "Failed to fetch METAR"
  }
}