{
  "lastUpdated": "2026-05-13T05:57:51.344991+00:00",
  "kcps": {
    "metar": "KCPS 130553Z AUTO 23005KT 10SM FEW080 20/10 A2995 RMK AO2 SLP137 T02000100 10267 20200 402830106 56004 $",
    "windDirection": 230,
    "windSpeed": 5,
    "windGust": null,
    "visibility": 10,
    "temperatureC": 20,
    "dewPointC": 10,
    "cloudCeiling": null,
    "altimeter": "A2995",
    "timestamp": "2026-05-13T05:53:00+00:00",
    "station": "KCPS"
  },
  "kstl": {
    "metar": "KSTL 130551Z 26011KT 10SM BKN075 BKN090 22/09 A2996 RMK AO2 SLP135 T02170089 10261 20211 402780139 55003 $",
    "windDirection": 260,
    "windSpeed": 11,
    "windGust": null,
    "visibility": 10,
    "temperatureC": 22,
    "dewPointC": 9,
    "cloudCeiling": 7500,
    "altimeter": "A2996",
    "timestamp": "2026-05-13T05:51:00+00:00",
    "station": "KSTL"
  }
}