{
  "lastUpdated": "2026-02-23T13:55:28.571900+00:00",
  "kcps": {
    "metar": "KCPS 231353Z 34013G21KT 10SM FEW028 OVC035 M08/M14 A3059 RMK AO2 SLP364 T10831144 PNO $",
    "windDirection": 340,
    "windSpeed": 13,
    "windGust": 21,
    "visibility": 10,
    "temperatureC": -8,
    "dewPointC": -14,
    "cloudCeiling": 3500,
    "altimeter": "A3059",
    "timestamp": "2026-02-23T13:53:00+00:00",
    "station": "KCPS"
  },
  "kstl": {
    "metar": "KSTL 231351Z 33009KT 9SM -SN FEW025 OVC034 M09/M14 A3058 RMK AO2 SLP371 P0000 T10891144 $",
    "windDirection": 330,
    "windSpeed": 9,
    "windGust": null,
    "visibility": 9,
    "temperatureC": -9,
    "dewPointC": -14,
    "cloudCeiling": 3400,
    "altimeter": "A3058",
    "timestamp": "2026-02-23T13:51:00+00:00",
    "station": "KSTL"
  }
}