{
  "lastUpdated": "2025-12-24T19:02:14.389610+00:00",
  "kcps": {
    "metar": "KCPS 241853Z 14007KT 6SM BR OVC007 16/13 A3010 RMK AO2 SLP193 T01560133 $",
    "windDirection": 140,
    "windSpeed": 7,
    "windGust": null,
    "visibility": 6,
    "temperatureC": 16,
    "dewPointC": 13,
    "cloudCeiling": 700,
    "altimeter": "A3010",
    "timestamp": "2025-12-24T18:53:00+00:00",
    "station": "KCPS"
  },
  "kstl": {
    "metar": "KSTL 241858Z 12009KT 7SM BKN008 OVC025 15/12 A3009 RMK AO2 T01500122 $",
    "windDirection": 120,
    "windSpeed": 9,
    "windGust": null,
    "visibility": 7,
    "temperatureC": 15,
    "dewPointC": 12,
    "cloudCeiling": 800,
    "altimeter": "A3009",
    "timestamp": "2025-12-24T18:58:00+00:00",
    "station": "KSTL"
  }
}