{
  "lastUpdated": "2026-03-23T00:55:20.480180+00:00",
  "kcps": {
    "metar": "KCPS 230053Z 36013G23KT 10SM FEW100 13/04 A2993 RMK AO2 PK WND 01035/0005 PRESRR SLP132 T01330044 $",
    "windDirection": 360,
    "windSpeed": 13,
    "windGust": 23,
    "visibility": 10,
    "temperatureC": 13,
    "dewPointC": 4,
    "cloudCeiling": null,
    "altimeter": "A2993",
    "timestamp": "2026-03-23T00:53:00+00:00",
    "station": "KCPS"
  },
  "kstl": {
    "metar": "KSTL 230051Z 36019G24KT 10SM FEW090 BKN240 13/04 A2994 RMK AO2 PK WND 03029/2353 SLP133 T01280044 $",
    "windDirection": 360,
    "windSpeed": 19,
    "windGust": 24,
    "visibility": 10,
    "temperatureC": 13,
    "dewPointC": 4,
    "cloudCeiling": 24000,
    "altimeter": "A2994",
    "timestamp": "2026-03-23T00:51:00+00:00",
    "station": "KSTL"
  }
}