{
  "lastUpdated": "2026-01-28T03:57:09.758946+00:00",
  "kcps": {
    "metar": "KCPS 280353Z AUTO 33005KT 10SM CLR M08/M14 A3041 RMK AO2 SLP303 T10781139 $",
    "windDirection": 330,
    "windSpeed": 5,
    "windGust": null,
    "visibility": 10,
    "temperatureC": -8,
    "dewPointC": -14,
    "cloudCeiling": 99999,
    "altimeter": "A3041",
    "timestamp": "2026-01-28T03:53:00+00:00",
    "station": "KCPS"
  },
  "kstl": {
    "metar": "KSTL 280351Z 33005KT 10SM BKN200 M08/M15 A3040 RMK AO2 SLP311 T10781150 $",
    "windDirection": 330,
    "windSpeed": 5,
    "windGust": null,
    "visibility": 10,
    "temperatureC": -8,
    "dewPointC": -15,
    "cloudCeiling": 20000,
    "altimeter": "A3040",
    "timestamp": "2026-01-28T03:51:00+00:00",
    "station": "KSTL"
  }
}