{
  "lastUpdated": "2026-04-28T22:05:24.836918+00:00",
  "kcps": {
    "metar": "KCPS 282153Z 04004KT 6SM RA BR FEW080 OVC100 14/13 A2993 RMK AO2 LTG DSNT S AND SW PRESFR SLP135 P0004 T01440133 $",
    "windDirection": 40,
    "windSpeed": 4,
    "windGust": null,
    "visibility": 6,
    "temperatureC": 14,
    "dewPointC": 13,
    "cloudCeiling": 10000,
    "altimeter": "A2993",
    "timestamp": "2026-04-28T21:53:00+00:00",
    "station": "KCPS"
  },
  "kstl": {
    "metar": "KSTL 282151Z 04007KT 10SM -RA FEW026 BKN032 BKN075 15/11 A2993 RMK AO2 RAB09 SLP133 P0001 T01500111 $",
    "windDirection": 40,
    "windSpeed": 7,
    "windGust": null,
    "visibility": 10,
    "temperatureC": 15,
    "dewPointC": 11,
    "cloudCeiling": 3200,
    "altimeter": "A2993",
    "timestamp": "2026-04-28T21:51:00+00:00",
    "station": "KSTL"
  }
}