{
  "lastUpdated": "2026-04-19T02:37:01.721248+00:00",
  "kcps": {
    "metar": "KCPS 190153Z 30010KT 10SM CLR 11/M02 A3016 RMK AO2 SLP213 T01111022 $",
    "windDirection": 300,
    "windSpeed": 10,
    "windGust": null,
    "visibility": 10,
    "temperatureC": 11,
    "dewPointC": -2,
    "cloudCeiling": 99999,
    "altimeter": "A3016",
    "timestamp": "2026-04-19T01:53:00+00:00",
    "station": "KCPS"
  },
  "kstl": {
    "metar": "KSTL 190151Z 30007KT 10SM FEW250 10/M02 A3017 RMK AO2 SLP219 T01001017 $",
    "windDirection": 300,
    "windSpeed": 7,
    "windGust": null,
    "visibility": 10,
    "temperatureC": 10,
    "dewPointC": -2,
    "cloudCeiling": null,
    "altimeter": "A3017",
    "timestamp": "2026-04-19T01:51:00+00:00",
    "station": "KSTL"
  }
}