{
  "lastUpdated": "2026-05-30T18:49:42.895490+00:00",
  "kcps": {
    "metar": "KCPS 301845Z 09007KT 10SM VCTS -RA SCT021 BKN031 BKN049 26/22 A2996 RMK AO2 LTG DSNT S AND NW RAB04 P0000 T02560222 $",
    "windDirection": 90,
    "windSpeed": 7,
    "windGust": null,
    "visibility": 10,
    "temperatureC": 26,
    "dewPointC": 22,
    "cloudCeiling": 3100,
    "altimeter": "A2996",
    "timestamp": "2026-05-30T18:45:00+00:00",
    "station": "KCPS"
  },
  "kstl": {
    "metar": "KSTL 301830Z 09006KT 10SM TS BKN045CB BKN150 OVC250 28/20 A2997 RMK AO2 TSB29 OCNL LTGIC NE-E TS NE-E MOV NE T02780200 $",
    "windDirection": 90,
    "windSpeed": 6,
    "windGust": null,
    "visibility": 10,
    "temperatureC": 28,
    "dewPointC": 20,
    "cloudCeiling": 4500,
    "altimeter": "A2997",
    "timestamp": "2026-05-30T18:30:00+00:00",
    "station": "KSTL"
  }
}