{
  "lastUpdated": "2026-05-18T10:52:39.711203+00:00",
  "kcps": {
    "metar": "KCPS 180953Z AUTO 16008KT 10SM FEW040 FEW050 24/19 A2987 RMK AO2 SLP110 T02440194 $",
    "windDirection": 160,
    "windSpeed": 8,
    "windGust": null,
    "visibility": 10,
    "temperatureC": 24,
    "dewPointC": 19,
    "cloudCeiling": null,
    "altimeter": "A2987",
    "timestamp": "2026-05-18T09:53:00+00:00",
    "station": "KCPS"
  },
  "kstl": {
    "metar": "KSTL 180951Z 17012G19KT 10SM SCT045 25/19 A2987 RMK AO2 SLP101 T02500194 $",
    "windDirection": 170,
    "windSpeed": 12,
    "windGust": 19,
    "visibility": 10,
    "temperatureC": 25,
    "dewPointC": 19,
    "cloudCeiling": null,
    "altimeter": "A2987",
    "timestamp": "2026-05-18T09:51:00+00:00",
    "station": "KSTL"
  }
}