{
  "lastUpdated": "2026-01-23T07:23:44.550546+00:00",
  "kcps": {
    "metar": "KCPS 230653Z AUTO 36011KT 10SM CLR M04/M12 A3041 RMK AO2 SLP301 T10391122 $",
    "windDirection": 360,
    "windSpeed": 11,
    "windGust": null,
    "visibility": 10,
    "temperatureC": -4,
    "dewPointC": -12,
    "cloudCeiling": 99999,
    "altimeter": "A3041",
    "timestamp": "2026-01-23T06:53:00+00:00",
    "station": "KCPS"
  },
  "kstl": {
    "metar": "KSTL 230651Z 36012KT 10SM FEW250 M04/M13 A3040 RMK AO2 SLP307 T10441133 $",
    "windDirection": 360,
    "windSpeed": 12,
    "windGust": null,
    "visibility": 10,
    "temperatureC": -4,
    "dewPointC": -13,
    "cloudCeiling": null,
    "altimeter": "A3040",
    "timestamp": "2026-01-23T06:51:00+00:00",
    "station": "KSTL"
  }
}