{
  "lastUpdated": "2026-01-13T02:36:29.786174+00:00",
  "kcps": {
    "metar": "KCPS 130153Z 17004KT 10SM CLR 07/M03 A3014 RMK AO2 SLP210 T00671033 $",
    "windDirection": 170,
    "windSpeed": 4,
    "windGust": null,
    "visibility": 10,
    "temperatureC": 7,
    "dewPointC": -3,
    "cloudCeiling": 99999,
    "altimeter": "A3014",
    "timestamp": "2026-01-13T01:53:00+00:00",
    "station": "KCPS"
  },
  "kstl": {
    "metar": "KSTL 130151Z 00000KT 10SM FEW160 SCT210 BKN250 06/M03 A3014 RMK AO2 SLP215 T00561028 $",
    "windDirection": 0,
    "windSpeed": 0,
    "windGust": null,
    "visibility": 10,
    "temperatureC": 6,
    "dewPointC": -3,
    "cloudCeiling": 25000,
    "altimeter": "A3014",
    "timestamp": "2026-01-13T01:51:00+00:00",
    "station": "KSTL"
  }
}