{
  "lastUpdated": "2026-01-29T13:23:38.462856+00:00",
  "kcps": {
    "metar": "KCPS 291253Z 06005KT 10SM SCT075 BKN100 M06/M13 A3029 RMK AO2 SLP261 T10611133 $",
    "windDirection": 60,
    "windSpeed": 5,
    "windGust": null,
    "visibility": 10,
    "temperatureC": -6,
    "dewPointC": -13,
    "cloudCeiling": 10000,
    "altimeter": "A3029",
    "timestamp": "2026-01-29T12:53:00+00:00",
    "station": "KCPS"
  },
  "kstl": {
    "metar": "KSTL 291251Z 06006KT 10SM SCT080 BKN180 BKN250 M07/M13 A3029 RMK AO2 SLP269 T10671133 $",
    "windDirection": 60,
    "windSpeed": 6,
    "windGust": null,
    "visibility": 10,
    "temperatureC": -7,
    "dewPointC": -13,
    "cloudCeiling": 18000,
    "altimeter": "A3029",
    "timestamp": "2026-01-29T12:51:00+00:00",
    "station": "KSTL"
  }
}