{
  "lastUpdated": "2026-01-19T11:48:26.345812+00:00",
  "kcps": {
    "metar": "KCPS 191053Z AUTO 30021G33KT 10SM CLR M05/M12 A3021 RMK AO2 PK WND 30033/1053 SLP236 T10501117 $",
    "windDirection": 300,
    "windSpeed": 21,
    "windGust": 33,
    "visibility": 10,
    "temperatureC": -5,
    "dewPointC": -12,
    "cloudCeiling": 99999,
    "altimeter": "A3021",
    "timestamp": "2026-01-19T10:53:00+00:00",
    "station": "KCPS"
  },
  "kstl": {
    "metar": "KSTL 191138Z 32021G32KT 9SM -SN SCT026 M08/M16 A3025 RMK AO2 PK WND 31032/1135 SNB08E28B38 PRESRR P0000 T10781156 $",
    "windDirection": 320,
    "windSpeed": 21,
    "windGust": 32,
    "visibility": 9,
    "temperatureC": -8,
    "dewPointC": -16,
    "cloudCeiling": null,
    "altimeter": "A3025",
    "timestamp": "2026-01-19T11:38:00+00:00",
    "station": "KSTL"
  }
}