{
  "lastUpdated": "2026-05-01T16:33:40.505865+00:00",
  "kcps": {
    "metar": "KCPS 011553Z 34008G16KT 10SM CLR 14/01 A3008 RMK AO2 SLP186 T01390006 $",
    "windDirection": 340,
    "windSpeed": 8,
    "windGust": 16,
    "visibility": 10,
    "temperatureC": 14,
    "dewPointC": 1,
    "cloudCeiling": 99999,
    "altimeter": "A3008",
    "timestamp": "2026-05-01T15:53:00+00:00",
    "station": "KCPS"
  },
  "kstl": {
    "metar": "KSTL 011551Z 33009KT 10SM FEW050 FEW250 14/01 A3008 RMK AO2 SLP186 T01390006",
    "windDirection": 330,
    "windSpeed": 9,
    "windGust": null,
    "visibility": 10,
    "temperatureC": 14,
    "dewPointC": 1,
    "cloudCeiling": null,
    "altimeter": "A3008",
    "timestamp": "2026-05-01T15:51:00+00:00",
    "station": "KSTL"
  }
}