{
  "lastUpdated": "2026-01-02T09:48:54.880434+00:00",
  "kcps": {
    "metar": "KCPS 020853Z AUTO 04003KT 5SM BR OVC007 01/00 A2989 RMK AO2 SLP124 T00110000 56004 $",
    "windDirection": 40,
    "windSpeed": 3,
    "windGust": null,
    "visibility": 5,
    "temperatureC": 1,
    "dewPointC": 0,
    "cloudCeiling": 700,
    "altimeter": "A2989",
    "timestamp": "2026-01-02T08:53:00+00:00",
    "station": "KCPS"
  },
  "kstl": {
    "metar": "KSTL 020851Z 35006KT 6SM BR OVC006 01/M01 A2988 RMK AO2 SLP129 T00061006 56001 $",
    "windDirection": 350,
    "windSpeed": 6,
    "windGust": null,
    "visibility": 6,
    "temperatureC": 1,
    "dewPointC": -1,
    "cloudCeiling": 600,
    "altimeter": "A2988",
    "timestamp": "2026-01-02T08:51:00+00:00",
    "station": "KSTL"
  }
}