{
  "lastUpdated": "2026-05-12T05:45:17.048256+00:00",
  "kcps": {
    "metar": "KCPS 120453Z AUTO 00000KT 10SM CLR 13/10 A3013 RMK AO2 SLP202 T01330100 $",
    "windDirection": 0,
    "windSpeed": 0,
    "windGust": null,
    "visibility": 10,
    "temperatureC": 13,
    "dewPointC": 10,
    "cloudCeiling": 99999,
    "altimeter": "A3013",
    "timestamp": "2026-05-12T04:53:00+00:00",
    "station": "KCPS"
  },
  "kstl": {
    "metar": "KSTL 120451Z 09004KT 10SM SCT090 17/08 A3014 RMK AO2 SLP201 T01720083 $",
    "windDirection": 90,
    "windSpeed": 4,
    "windGust": null,
    "visibility": 10,
    "temperatureC": 17,
    "dewPointC": 8,
    "cloudCeiling": null,
    "altimeter": "A3014",
    "timestamp": "2026-05-12T04:51:00+00:00",
    "station": "KSTL"
  }
}