{
  "lastUpdated": "2026-05-04T01:09:04.849169+00:00",
  "kcps": {
    "metar": "KCPS 040053Z 18005KT 10SM CLR 22/06 A2978 RMK AO2 SLP085 T02220061 $",
    "windDirection": 180,
    "windSpeed": 5,
    "windGust": null,
    "visibility": 10,
    "temperatureC": 22,
    "dewPointC": 6,
    "cloudCeiling": 99999,
    "altimeter": "A2978",
    "timestamp": "2026-05-04T00:53:00+00:00",
    "station": "KCPS"
  },
  "kstl": {
    "metar": "KSTL 040051Z 20008KT 10SM SCT085 BKN250 23/07 A2978 RMK AO2 SLP082 T02330072 $",
    "windDirection": 200,
    "windSpeed": 8,
    "windGust": null,
    "visibility": 10,
    "temperatureC": 23,
    "dewPointC": 7,
    "cloudCeiling": 25000,
    "altimeter": "A2978",
    "timestamp": "2026-05-04T00:51:00+00:00",
    "station": "KSTL"
  }
}