{
  "lastUpdated": "2026-03-30T18:15:17.475788+00:00",
  "kcps": {
    "metar": "KCPS 301753Z 19013G24KT 10SM CLR 27/13 A2995 RMK AO2 PK WND 17031/1654 SLP140 T02720133 10272 20156 58020 $",
    "windDirection": 190,
    "windSpeed": 13,
    "windGust": 24,
    "visibility": 10,
    "temperatureC": 27,
    "dewPointC": 13,
    "cloudCeiling": 99999,
    "altimeter": "A2995",
    "timestamp": "2026-03-30T17:53:00+00:00",
    "station": "KCPS"
  },
  "kstl": {
    "metar": "KSTL 301751Z 22019G29KT 10SM FEW055 FEW250 27/13 A2995 RMK AO2 PK WND 22029/1744 SLP133 T02720133 10272 20172 58016 $",
    "windDirection": 220,
    "windSpeed": 19,
    "windGust": 29,
    "visibility": 10,
    "temperatureC": 27,
    "dewPointC": 13,
    "cloudCeiling": null,
    "altimeter": "A2995",
    "timestamp": "2026-03-30T17:51:00+00:00",
    "station": "KSTL"
  }
}