{
  "lastUpdated": "2026-03-14T12:44:51.196091+00:00",
  "kcps": {
    "metar": "KCPS 141153Z 09006KT 10SM CLR 04/M03 A3012 RMK AO2 SLP199 T00391028 10050 20028 51008 $",
    "windDirection": 90,
    "windSpeed": 6,
    "windGust": null,
    "visibility": 10,
    "temperatureC": 4,
    "dewPointC": -3,
    "cloudCeiling": 99999,
    "altimeter": "A3012",
    "timestamp": "2026-03-14T11:53:00+00:00",
    "station": "KCPS"
  },
  "kstl": {
    "metar": "KSTL 141151Z 08007KT 10SM BKN140 BKN250 04/M03 A3012 RMK AO2 SLP200 T00391028 10067 20039 53005 $",
    "windDirection": 80,
    "windSpeed": 7,
    "windGust": null,
    "visibility": 10,
    "temperatureC": 4,
    "dewPointC": -3,
    "cloudCeiling": 14000,
    "altimeter": "A3012",
    "timestamp": "2026-03-14T11:51:00+00:00",
    "station": "KSTL"
  }
}