{
  "lastUpdated": "2026-03-17T10:15:01.958706+00:00",
  "kcps": {
    "metar": "KCPS 170953Z AUTO 32013KT 10SM CLR M07/M14 A3019 RMK AO2 PK WND 33028/0856 SLP230 T10721144 $",
    "windDirection": 320,
    "windSpeed": 13,
    "windGust": null,
    "visibility": 10,
    "temperatureC": -7,
    "dewPointC": -14,
    "cloudCeiling": 99999,
    "altimeter": "A3019",
    "timestamp": "2026-03-17T09:53:00+00:00",
    "station": "KCPS"
  },
  "kstl": {
    "metar": "KSTL 170951Z 32015G21KT 10SM FEW035 M08/M14 A3018 RMK AO2 SLP236 T10781144 $",
    "windDirection": 320,
    "windSpeed": 15,
    "windGust": 21,
    "visibility": 10,
    "temperatureC": -8,
    "dewPointC": -14,
    "cloudCeiling": null,
    "altimeter": "A3018",
    "timestamp": "2026-03-17T09:51:00+00:00",
    "station": "KSTL"
  }
}