{
  "lastUpdated": "2026-04-08T14:31:40.250666+00:00",
  "kcps": {
    "metar": "KCPS 081353Z 16006KT 10SM CLR 10/03 A3024 RMK AO2 SLP242 T01000028 $",
    "windDirection": 160,
    "windSpeed": 6,
    "windGust": null,
    "visibility": 10,
    "temperatureC": 10,
    "dewPointC": 3,
    "cloudCeiling": 99999,
    "altimeter": "A3024",
    "timestamp": "2026-04-08T13:53:00+00:00",
    "station": "KCPS"
  },
  "kstl": {
    "metar": "KSTL 081351Z 16013G21KT 10SM FEW150 FEW200 BKN250 11/01 A3023 RMK AO2 SLP237 T01110006 $",
    "windDirection": 160,
    "windSpeed": 13,
    "windGust": 21,
    "visibility": 10,
    "temperatureC": 11,
    "dewPointC": 1,
    "cloudCeiling": 25000,
    "altimeter": "A3023",
    "timestamp": "2026-04-08T13:51:00+00:00",
    "station": "KSTL"
  }
}