{
  "lastUpdated": "2025-12-02T20:22:37.194633+00:00",
  "kcps": {
    "metar": "KCPS 021953Z 25005KT 10SM OVC016 M03/M07 A3011 RMK AO2 SLP200 T10331067",
    "windDirection": 250,
    "windSpeed": 5,
    "windGust": null,
    "visibility": 10,
    "temperatureC": -3,
    "dewPointC": -7,
    "cloudCeiling": 1600,
    "altimeter": "A3011",
    "timestamp": "2025-12-02T19:53:00+00:00",
    "station": "KCPS"
  },
  "kstl": {
    "metar": "KSTL 021951Z 27010KT 10SM OVC014 M04/M07 A3009 RMK AO2 SNE16 SLP205 P0000 T10391067 $",
    "windDirection": 270,
    "windSpeed": 10,
    "windGust": null,
    "visibility": 10,
    "temperatureC": -4,
    "dewPointC": -7,
    "cloudCeiling": 1400,
    "altimeter": "A3009",
    "timestamp": "2025-12-02T19:51:00+00:00",
    "station": "KSTL"
  }
}