{
  "lastUpdated": "2025-12-07T14:21:04.938568+00:00",
  "kcps": {
    "metar": "KCPS 071353Z 24004KT 7SM OVC026 04/02 A2998 RMK AO2 SLP155 T00440022 $",
    "windDirection": 240,
    "windSpeed": 4,
    "windGust": null,
    "visibility": 7,
    "temperatureC": 4,
    "dewPointC": 2,
    "cloudCeiling": 2600,
    "altimeter": "A2998",
    "timestamp": "2025-12-07T13:53:00+00:00",
    "station": "KCPS"
  },
  "kstl": {
    "metar": "KSTL 071351Z 24004KT 8SM OVC018 04/02 A2998 RMK AO2 SLP158 T00440022 $",
    "windDirection": 240,
    "windSpeed": 4,
    "windGust": null,
    "visibility": 8,
    "temperatureC": 4,
    "dewPointC": 2,
    "cloudCeiling": 1800,
    "altimeter": "A2998",
    "timestamp": "2025-12-07T13:51:00+00:00",
    "station": "KSTL"
  }
}