{
  "lastUpdated": "2025-12-29T02:13:52.245228+00:00",
  "kcps": {
    "metar": "KCPS 290153Z 29025G39KT 10SM -SN OVC021 02/M04 A2993 RMK AO2 PK WND 31041/0128 SNB00 PRESRR SLP135 P0000 T00171039 $",
    "windDirection": 290,
    "windSpeed": 25,
    "windGust": 39,
    "visibility": 10,
    "temperatureC": 2,
    "dewPointC": -4,
    "cloudCeiling": 2100,
    "altimeter": "A2993",
    "timestamp": "2025-12-29T01:53:00+00:00",
    "station": "KCPS"
  },
  "kstl": {
    "metar": "KSTL 290151Z 30027G38KT 10SM BKN023 BKN039 00/M06 A2994 RMK AO2 PK WND 28044/0110 SLP139 T00001056 $",
    "windDirection": 300,
    "windSpeed": 27,
    "windGust": 38,
    "visibility": 10,
    "temperatureC": 0,
    "dewPointC": -6,
    "cloudCeiling": 2300,
    "altimeter": "A2994",
    "timestamp": "2025-12-29T01:51:00+00:00",
    "station": "KSTL"
  }
}