{
  "lastUpdated": "2025-10-14T00:07:00.637120+00:00",
  "kcps": {
    "metar": "KCPS 132353Z 00000KT 10SM SCT085 23/15 A3008 RMK AO2 SLP182 T02280150 10272 20222 53012 $",
    "windDirection": 0,
    "windSpeed": 0,
    "windGust": null,
    "visibility": 10,
    "temperatureC": 23,
    "dewPointC": 15,
    "cloudCeiling": null,
    "altimeter": "A3008",
    "timestamp": "2025-10-13T23:53:00+00:00",
    "station": "KCPS"
  },
  "kstl": {
    "metar": "KSTL 132351Z 09005KT 10SM FEW080 BKN210 24/16 A3009 RMK AO2 SLP180 T02390156 10272 20239 53013 $",
    "windDirection": 90,
    "windSpeed": 5,
    "windGust": null,
    "visibility": 10,
    "temperatureC": 24,
    "dewPointC": 16,
    "cloudCeiling": 21000,
    "altimeter": "A3009",
    "timestamp": "2025-10-13T23:51:00+00:00",
    "station": "KSTL"
  }
}