{
  "lastUpdated": "2026-01-29T20:54:19.817771+00:00",
  "kcps": {
    "metar": "KCPS 291953Z 01009KT 10SM BKN095 M03/M13 A3028 RMK AO2 SLP258 T10331133 $",
    "windDirection": 10,
    "windSpeed": 9,
    "windGust": null,
    "visibility": 10,
    "temperatureC": -3,
    "dewPointC": -13,
    "cloudCeiling": 9500,
    "altimeter": "A3028",
    "timestamp": "2026-01-29T19:53:00+00:00",
    "station": "KCPS"
  },
  "kstl": {
    "metar": "KSTL 292051Z 36008KT 10SM BKN060 BKN090 BKN250 M04/M12 A3027 RMK AO2 SLP265 T1039",
    "windDirection": 360,
    "windSpeed": 8,
    "windGust": null,
    "visibility": 10,
    "temperatureC": -4,
    "dewPointC": -12,
    "cloudCeiling": 6000,
    "altimeter": "A3027",
    "timestamp": "2026-01-29T20:51:00+00:00",
    "station": "KSTL"
  }
}