{
  "lastUpdated": "2025-11-24T04:53:15.897232+00:00",
  "kcps": {
    "metar": "KCPS 240431Z AUTO 20003KT 1 1/4SM BR OVC002 08/08 A3016 RMK AO2 T00830083 $",
    "windDirection": 200,
    "windSpeed": 3,
    "windGust": null,
    "visibility": 0.25,
    "temperatureC": 8,
    "dewPointC": 8,
    "cloudCeiling": 200,
    "altimeter": "A3016",
    "timestamp": "2025-11-24T04:31:00+00:00",
    "station": "KCPS"
  },
  "kstl": {
    "metar": "KSTL 240436Z 14006KT 1/4SM R30R/2800V4500FT FG OVC001 08/08 A3016 RMK AO2 T00830078 $",
    "windDirection": 140,
    "windSpeed": 6,
    "windGust": null,
    "visibility": 0.25,
    "temperatureC": 8,
    "dewPointC": 8,
    "cloudCeiling": 100,
    "altimeter": "A3016",
    "timestamp": "2025-11-24T04:36:00+00:00",
    "station": "KSTL"
  }
}