{
  "lastUpdated": "2026-01-08T16:23:04.274356+00:00",
  "kcps": {
    "metar": "KCPS 081556Z 16006KT 6SM -RA BR SCT007 BKN015 12/11 A2980 RMK AO2 P0000 T01220106",
    "windDirection": 160,
    "windSpeed": 6,
    "windGust": null,
    "visibility": 6,
    "temperatureC": 12,
    "dewPointC": 11,
    "cloudCeiling": 1500,
    "altimeter": "A2980",
    "timestamp": "2026-01-08T15:56:00+00:00",
    "station": "KCPS"
  },
  "kstl": {
    "metar": "KSTL 081551Z 17012G19KT 6SM BR FEW014 SCT065 OVC095 14/12 A2977 RMK AO2 SLP081 T01390117 $",
    "windDirection": 170,
    "windSpeed": 12,
    "windGust": 19,
    "visibility": 6,
    "temperatureC": 14,
    "dewPointC": 12,
    "cloudCeiling": 9500,
    "altimeter": "A2977",
    "timestamp": "2026-01-08T15:51:00+00:00",
    "station": "KSTL"
  }
}