{
  "lastUpdated": "2026-01-15T01:51:39.048087+00:00",
  "kcps": {
    "metar": "KCPS 150053Z 33018KT 10SM CLR M01/M11 A3010 RMK AO2 PK WND 32027/0011 SLP196 T10061106",
    "windDirection": 330,
    "windSpeed": 18,
    "windGust": null,
    "visibility": 10,
    "temperatureC": -1,
    "dewPointC": -11,
    "cloudCeiling": 99999,
    "altimeter": "A3010",
    "timestamp": "2026-01-15T00:53:00+00:00",
    "station": "KCPS"
  },
  "kstl": {
    "metar": "KSTL 150051Z 32014G27KT 10SM FEW250 M01/M10 A3010 RMK AO2 PK WND 33027/0048 SLP203 T10111100 $",
    "windDirection": 320,
    "windSpeed": 14,
    "windGust": 27,
    "visibility": 10,
    "temperatureC": -1,
    "dewPointC": -10,
    "cloudCeiling": null,
    "altimeter": "A3010",
    "timestamp": "2026-01-15T00:51:00+00:00",
    "station": "KSTL"
  }
}