{
  "lastUpdated": "2026-02-24T19:20:34.230623+00:00",
  "kcps": {
    "metar": "KCPS 241853Z 19010G22KT 10SM CLR 07/M07 A2974 RMK AO2 PK WND 18028/1757 SLP072 T00721072 $",
    "windDirection": 190,
    "windSpeed": 10,
    "windGust": 22,
    "visibility": 10,
    "temperatureC": 7,
    "dewPointC": -7,
    "cloudCeiling": 99999,
    "altimeter": "A2974",
    "timestamp": "2026-02-24T18:53:00+00:00",
    "station": "KCPS"
  },
  "kstl": {
    "metar": "KSTL 241851Z 19015G23KT 10SM BKN150 OVC250 08/M07 A2971 RMK AO2 SLP068 T00831072 $",
    "windDirection": 190,
    "windSpeed": 15,
    "windGust": 23,
    "visibility": 10,
    "temperatureC": 8,
    "dewPointC": -7,
    "cloudCeiling": 15000,
    "altimeter": "A2971",
    "timestamp": "2026-02-24T18:51:00+00:00",
    "station": "KSTL"
  }
}