{
  "lastUpdated": "2026-01-16T09:22:51.258903+00:00",
  "kcps": {
    "metar": "KCPS 160853Z AUTO VRB06KT 10SM OVC060 02/M11 A2972 RMK AO2 SLP066 T00171106 55015 $",
    "windDirection": null,
    "windSpeed": null,
    "windGust": null,
    "visibility": 10,
    "temperatureC": 2,
    "dewPointC": -11,
    "cloudCeiling": 6000,
    "altimeter": "A2972",
    "timestamp": "2026-01-16T08:53:00+00:00",
    "station": "KCPS"
  },
  "kstl": {
    "metar": "KSTL 160851Z 20009KT 10SM BKN055 02/M12 A2970 RMK AO2 SLP066 T00221117 55015 $",
    "windDirection": 200,
    "windSpeed": 9,
    "windGust": null,
    "visibility": 10,
    "temperatureC": 2,
    "dewPointC": -12,
    "cloudCeiling": 5500,
    "altimeter": "A2970",
    "timestamp": "2026-01-16T08:51:00+00:00",
    "station": "KSTL"
  }
}