{
  "lastUpdated": "2025-12-05T01:08:14.812575+00:00",
  "kcps": {
    "metar": "KCPS 050053Z 04005KT 10SM CLR M07/M13 A3028 RMK AO2 SLP261 T10721133",
    "windDirection": 40,
    "windSpeed": 5,
    "windGust": null,
    "visibility": 10,
    "temperatureC": -7,
    "dewPointC": -13,
    "cloudCeiling": 99999,
    "altimeter": "A3028",
    "timestamp": "2025-12-05T00:53:00+00:00",
    "station": "KCPS"
  },
  "kstl": {
    "metar": "KSTL 050051Z 03004KT 10SM FEW250 M07/M14 A3028 RMK AO2 SLP270 T10721139 $",
    "windDirection": 30,
    "windSpeed": 4,
    "windGust": null,
    "visibility": 10,
    "temperatureC": -7,
    "dewPointC": -14,
    "cloudCeiling": null,
    "altimeter": "A3028",
    "timestamp": "2025-12-05T00:51:00+00:00",
    "station": "KSTL"
  }
}