{
  "lastUpdated": "2025-10-17T17:33:20.539342+00:00",
  "kcps": {
    "metar": "KCPS 171653Z 16004KT 10SM CLR 22/14 A2996 RMK AO2 SLP141 T02170139",
    "windDirection": 160,
    "windSpeed": 4,
    "windGust": null,
    "visibility": 10,
    "temperatureC": 22,
    "dewPointC": 14,
    "cloudCeiling": 99999,
    "altimeter": "A2996",
    "timestamp": "2025-10-17T16:53:00+00:00",
    "station": "KCPS"
  },
  "kstl": {
    "metar": "KSTL 171651Z 19007KT 10SM BKN240 22/14 A2995 RMK AO2 SLP134 T02220139 $",
    "windDirection": 190,
    "windSpeed": 7,
    "windGust": null,
    "visibility": 10,
    "temperatureC": 22,
    "dewPointC": 14,
    "cloudCeiling": 24000,
    "altimeter": "A2995",
    "timestamp": "2025-10-17T16:51:00+00:00",
    "station": "KSTL"
  }
}