{
  "lastUpdated": "2026-01-12T01:58:09.125913+00:00",
  "kcps": {
    "metar": "KCPS 120153Z 18004KT 9SM CLR M02/M08 A3048 RMK AO2 SLP326 T10171078 $",
    "windDirection": 180,
    "windSpeed": 4,
    "windGust": null,
    "visibility": 9,
    "temperatureC": -2,
    "dewPointC": -8,
    "cloudCeiling": 99999,
    "altimeter": "A3048",
    "timestamp": "2026-01-12T01:53:00+00:00",
    "station": "KCPS"
  },
  "kstl": {
    "metar": "KSTL 120151Z 20005KT 10SM CLR 00/M08 A3047 RMK AO2 SLP332 T00001083 $",
    "windDirection": 200,
    "windSpeed": 5,
    "windGust": null,
    "visibility": 10,
    "temperatureC": 0,
    "dewPointC": -8,
    "cloudCeiling": 99999,
    "altimeter": "A3047",
    "timestamp": "2026-01-12T01:51:00+00:00",
    "station": "KSTL"
  }
}