{
  "lastUpdated": "2026-01-19T17:05:18.541292+00:00",
  "kcps": {
    "metar": "KCPS 191653Z 32015G23KT 10SM CLR M07/M19 A3046 RMK AO2 SLP321 T10721194 $",
    "windDirection": 320,
    "windSpeed": 15,
    "windGust": 23,
    "visibility": 10,
    "temperatureC": -7,
    "dewPointC": -19,
    "cloudCeiling": 99999,
    "altimeter": "A3046",
    "timestamp": "2026-01-19T16:53:00+00:00",
    "station": "KCPS"
  },
  "kstl": {
    "metar": "KSTL 191651Z 30012G21KT 10SM FEW200 BKN250 M08/M19 A3045 RMK AO2 PK WND 29026/1555 SLP325 T10781189 $",
    "windDirection": 300,
    "windSpeed": 12,
    "windGust": 21,
    "visibility": 10,
    "temperatureC": -8,
    "dewPointC": -19,
    "cloudCeiling": 25000,
    "altimeter": "A3045",
    "timestamp": "2026-01-19T16:51:00+00:00",
    "station": "KSTL"
  }
}