{
  "lastUpdated": "2025-11-14T04:22:38.536922+00:00",
  "kcps": {
    "metar": "KCPS 140353Z 18003KT 10SM CLR 11/04 A3010 RMK AO2 SLP193 T01110039",
    "windDirection": 180,
    "windSpeed": 3,
    "windGust": null,
    "visibility": 10,
    "temperatureC": 11,
    "dewPointC": 4,
    "cloudCeiling": 99999,
    "altimeter": "A3010",
    "timestamp": "2025-11-14T03:53:00+00:00",
    "station": "KCPS"
  },
  "kstl": {
    "metar": "KSTL 140351Z 18005KT 10SM CLR 14/03 A3010 RMK AO2 SLP191 T01390033",
    "windDirection": 180,
    "windSpeed": 5,
    "windGust": null,
    "visibility": 10,
    "temperatureC": 14,
    "dewPointC": 3,
    "cloudCeiling": 99999,
    "altimeter": "A3010",
    "timestamp": "2025-11-14T03:51:00+00:00",
    "station": "KSTL"
  }
}