{
  "lastUpdated": "2025-11-11T15:47:45.543007+00:00",
  "kcps": {
    "metar": "KCPS 111453Z 19007G18KT 10SM CLR 02/M08 A3010 RMK AO2 SLP194 T00221078 56032 $",
    "windDirection": 190,
    "windSpeed": 7,
    "windGust": 18,
    "visibility": 10,
    "temperatureC": 2,
    "dewPointC": -8,
    "cloudCeiling": 99999,
    "altimeter": "A3010",
    "timestamp": "2025-11-11T14:53:00+00:00",
    "station": "KCPS"
  },
  "kstl": {
    "metar": "KSTL 111451Z 19012KT 10SM BKN160 OVC250 02/M08 A3006 RMK AO2 SLP189 T00221083 56034 $",
    "windDirection": 190,
    "windSpeed": 12,
    "windGust": null,
    "visibility": 10,
    "temperatureC": 2,
    "dewPointC": -8,
    "cloudCeiling": 16000,
    "altimeter": "A3006",
    "timestamp": "2025-11-11T14:51:00+00:00",
    "station": "KSTL"
  }
}