{
  "lastUpdated": "2025-11-21T01:08:03.132936+00:00",
  "kcps": {
    "metar": "KCPS 210053Z 00000KT 1SM BR OVC003 11/11 A3005 RMK AO2 SLP175 T01110111",
    "windDirection": 0,
    "windSpeed": 0,
    "windGust": null,
    "visibility": 1,
    "temperatureC": 11,
    "dewPointC": 11,
    "cloudCeiling": 300,
    "altimeter": "A3005",
    "timestamp": "2025-11-21T00:53:00+00:00",
    "station": "KCPS"
  },
  "kstl": {
    "metar": "KSTL 210051Z 15004KT 1 1/2SM BR OVC003 12/11 A3005 RMK AO2 SLP176 T01170111 $",
    "windDirection": 150,
    "windSpeed": 4,
    "windGust": null,
    "visibility": 0.5,
    "temperatureC": 12,
    "dewPointC": 11,
    "cloudCeiling": 300,
    "altimeter": "A3005",
    "timestamp": "2025-11-21T00:51:00+00:00",
    "station": "KSTL"
  }
}