{
  "lastUpdated": "2025-12-26T22:48:24.560798+00:00",
  "kcps": {
    "metar": "KCPS 262153Z 35011KT 10SM CLR 16/11 A2985 RMK AO2 SLP108 T01610106 $",
    "windDirection": 350,
    "windSpeed": 11,
    "windGust": null,
    "visibility": 10,
    "temperatureC": 16,
    "dewPointC": 11,
    "cloudCeiling": 99999,
    "altimeter": "A2985",
    "timestamp": "2025-12-26T21:53:00+00:00",
    "station": "KCPS"
  },
  "kstl": {
    "metar": "KSTL 262151Z 31009KT 10SM FEW022 FEW250 16/11 A2987 RMK AO2 SLP111 T01560106 $",
    "windDirection": 310,
    "windSpeed": 9,
    "windGust": null,
    "visibility": 10,
    "temperatureC": 16,
    "dewPointC": 11,
    "cloudCeiling": null,
    "altimeter": "A2987",
    "timestamp": "2025-12-26T21:51:00+00:00",
    "station": "KSTL"
  }
}