{
  "lastUpdated": "2025-12-29T15:48:54.165457+00:00",
  "kcps": {
    "metar": "KCPS 291453Z 28017G25KT 10SM BKN034 M08/M16 A3032 RMK AO2 PK WND 31037/1354 SNE29 SLP271 P0000 60000 T10831161 53036",
    "windDirection": 280,
    "windSpeed": 17,
    "windGust": 25,
    "visibility": 10,
    "temperatureC": -8,
    "dewPointC": -16,
    "cloudCeiling": 3400,
    "altimeter": "A3032",
    "timestamp": "2025-12-29T14:53:00+00:00",
    "station": "KCPS"
  },
  "kstl": {
    "metar": "KSTL 291451Z 30021G32KT 10SM SCT034 M08/M16 A3029 RMK AO2 PK WND 29035/1424 SLP273 T10831161 53037 $",
    "windDirection": 300,
    "windSpeed": 21,
    "windGust": 32,
    "visibility": 10,
    "temperatureC": -8,
    "dewPointC": -16,
    "cloudCeiling": null,
    "altimeter": "A3029",
    "timestamp": "2025-12-29T14:51:00+00:00",
    "station": "KSTL"
  }
}