{
  "lastUpdated": "2025-11-13T01:08:09.774493+00:00",
  "kcps": {
    "metar": "KCPS 130053Z 00000KT 10SM CLR 07/02 A3015 RMK AO2 SLP212 T00720017",
    "windDirection": 0,
    "windSpeed": 0,
    "windGust": null,
    "visibility": 10,
    "temperatureC": 7,
    "dewPointC": 2,
    "cloudCeiling": 99999,
    "altimeter": "A3015",
    "timestamp": "2025-11-13T00:53:00+00:00",
    "station": "KCPS"
  },
  "kstl": {
    "metar": "KSTL 130051Z 23004KT 10SM FEW200 BKN250 12/01 A3016 RMK AO2 SLP216 T01170011",
    "windDirection": 230,
    "windSpeed": 4,
    "windGust": null,
    "visibility": 10,
    "temperatureC": 12,
    "dewPointC": 1,
    "cloudCeiling": 25000,
    "altimeter": "A3016",
    "timestamp": "2025-11-13T00:51:00+00:00",
    "station": "KSTL"
  }
}