{
  "lastUpdated": "2026-02-25T17:47:02.384744+00:00",
  "kcps": {
    "metar": "KCPS 251653Z 25003KT 10SM BKN120 10/M02 A2978 RMK AO2 SLP086 T01001017 $",
    "windDirection": 250,
    "windSpeed": 3,
    "windGust": null,
    "visibility": 10,
    "temperatureC": 10,
    "dewPointC": -2,
    "cloudCeiling": 12000,
    "altimeter": "A2978",
    "timestamp": "2026-02-25T16:53:00+00:00",
    "station": "KCPS"
  },
  "kstl": {
    "metar": "KSTL 251651Z 00000KT 10SM FEW120 BKN150 BKN250 09/M02 A2979 RMK AO2 SLP090 T00891022 $",
    "windDirection": 0,
    "windSpeed": 0,
    "windGust": null,
    "visibility": 10,
    "temperatureC": 9,
    "dewPointC": -2,
    "cloudCeiling": 15000,
    "altimeter": "A2979",
    "timestamp": "2026-02-25T16:51:00+00:00",
    "station": "KSTL"
  }
}