{
  "lastUpdated": "2026-06-13T17:08:41.814122+00:00",
  "kcps": {
    "metar": "KCPS 131653Z VRB04KT 7SM -RA BKN017 BKN022 OVC100 23/22 A3000 RMK AO2 SLP155 P0001 T02330217 $",
    "windDirection": "VRB",
    "windSpeed": 4,
    "windGust": null,
    "visibility": 7.0,
    "temperatureC": 23.3,
    "dewPointC": 21.7,
    "cloudCeiling": 1700,
    "altimeter": "A3000",
    "timestamp": "2026-06-13T17:00:00.000Z",
    "station": "KCPS"
  },
  "kstl": {
    "metar": "KSTL 131651Z 23007KT 10SM FEW038 BKN050 OVC120 23/21 A3001 RMK AO2 RAB32E50 SLP151 P0000 T02330206 $",
    "windDirection": 230,
    "windSpeed": 7,
    "windGust": null,
    "visibility": 10.0,
    "temperatureC": 23.3,
    "dewPointC": 20.6,
    "cloudCeiling": 5000,
    "altimeter": "A3001",
    "timestamp": "2026-06-13T17:00:00.000Z",
    "station": "KSTL"
  }
}