{
  "lastUpdated": "2026-05-05T21:35:56.531171+00:00",
  "kcps": {
    "metar": "KCPS 052105Z 34011KT 10SM -RA BKN015 BKN020 OVC036 09/08 A2983 RMK AO2 P0000 T00940083 $",
    "windDirection": 340,
    "windSpeed": 11,
    "windGust": null,
    "visibility": 10,
    "temperatureC": 9,
    "dewPointC": 8,
    "cloudCeiling": 1500,
    "altimeter": "A2983",
    "timestamp": "2026-05-05T21:05:00+00:00",
    "station": "KCPS"
  },
  "kstl": {
    "metar": "KSTL 052133Z 01008KT 7SM -RA FEW009 SCT040 OVC049 09/07 A2983 RMK AO2 P0001 T00890",
    "windDirection": 10,
    "windSpeed": 8,
    "windGust": null,
    "visibility": 7,
    "temperatureC": 9,
    "dewPointC": 7,
    "cloudCeiling": 4900,
    "altimeter": "A2983",
    "timestamp": "2026-05-05T21:33:00+00:00",
    "station": "KSTL"
  }
}