{
  "lastUpdated": "2026-02-13T10:47:19.276181+00:00",
  "kcps": {
    "metar": "KCPS 130953Z AUTO 00000KT 10SM SCT100 M01/M03 A3021 RMK AO2 SLP231 T10061028 $",
    "windDirection": 0,
    "windSpeed": 0,
    "windGust": null,
    "visibility": 10,
    "temperatureC": -1,
    "dewPointC": -3,
    "cloudCeiling": null,
    "altimeter": "A3021",
    "timestamp": "2026-02-13T09:53:00+00:00",
    "station": "KCPS"
  },
  "kstl": {
    "metar": "KSTL 130951Z 12005KT 10SM BKN095 02/M03 A3020 RMK AO2 SLP230 T00221028 $",
    "windDirection": 120,
    "windSpeed": 5,
    "windGust": null,
    "visibility": 10,
    "temperatureC": 2,
    "dewPointC": -3,
    "cloudCeiling": 9500,
    "altimeter": "A3020",
    "timestamp": "2026-02-13T09:51:00+00:00",
    "station": "KSTL"
  }
}