{
  "lastUpdated": "2025-11-25T10:39:00.296673+00:00",
  "kcps": {
    "metar": "KCPS 250953Z AUTO 00000KT 9SM FEW008 OVC022 12/11 A2980 RMK AO2 RAB07E20 SLP090 P0000 T01170111 $",
    "windDirection": 0,
    "windSpeed": 0,
    "windGust": null,
    "visibility": 9,
    "temperatureC": 12,
    "dewPointC": 11,
    "cloudCeiling": 2200,
    "altimeter": "A2980",
    "timestamp": "2025-11-25T09:53:00+00:00",
    "station": "KCPS"
  },
  "kstl": {
    "metar": "KSTL 251031Z 00000KT 3SM -DZ BR SCT007 BKN012 OVC016 11/11 A2980 RMK AO2 DZB30 P0000 T01110111 $",
    "windDirection": 0,
    "windSpeed": 0,
    "windGust": null,
    "visibility": 3,
    "temperatureC": 11,
    "dewPointC": 11,
    "cloudCeiling": 1200,
    "altimeter": "A2980",
    "timestamp": "2025-11-25T10:31:00+00:00",
    "station": "KSTL"
  }
}