{
  "lastUpdated": "2025-12-31T14:02:24.831740+00:00",
  "kcps": {
    "metar": "KCPS 311353Z 26003KT 10SM SCT017 BKN028 M01/M06 A3009 RMK AO2 SLP195 T10111061",
    "windDirection": 260,
    "windSpeed": 3,
    "windGust": null,
    "visibility": 10,
    "temperatureC": -1,
    "dewPointC": -6,
    "cloudCeiling": 2800,
    "altimeter": "A3009",
    "timestamp": "2025-12-31T13:53:00+00:00",
    "station": "KCPS"
  },
  "kstl": {
    "metar": "KSTL 311351Z 27006KT 10SM OVC017 00/M04 A3009 RMK AO2 SLP198 T00001044 $",
    "windDirection": 270,
    "windSpeed": 6,
    "windGust": null,
    "visibility": 10,
    "temperatureC": 0,
    "dewPointC": -4,
    "cloudCeiling": 1700,
    "altimeter": "A3009",
    "timestamp": "2025-12-31T13:51:00+00:00",
    "station": "KSTL"
  }
}