{
  "lastUpdated": "2025-11-14T14:35:28.699856+00:00",
  "kcps": {
    "metar": "KCPS 141353Z AUTO 00000KT 10SM FEW060 11/08 A3006 RMK AO2 SLP181 T01060083",
    "windDirection": 0,
    "windSpeed": 0,
    "windGust": null,
    "visibility": 10,
    "temperatureC": 11,
    "dewPointC": 8,
    "cloudCeiling": null,
    "altimeter": "A3006",
    "timestamp": "2025-11-14T13:53:00+00:00",
    "station": "KCPS"
  },
  "kstl": {
    "metar": "KSTL 141351Z 00000KT 10SM SCT060 14/10 A3006 RMK AO2 SLP175 T01390100",
    "windDirection": 0,
    "windSpeed": 0,
    "windGust": null,
    "visibility": 10,
    "temperatureC": 14,
    "dewPointC": 10,
    "cloudCeiling": null,
    "altimeter": "A3006",
    "timestamp": "2025-11-14T13:51:00+00:00",
    "station": "KSTL"
  }
}