{
  "lastUpdated": "2026-04-17T04:17:53.468851+00:00",
  "kcps": {
    "metar": "KCPS 170353Z AUTO 14003KT 10SM CLR 19/16 A2994 RMK AO2 SLP134 T01940156 $",
    "windDirection": 140,
    "windSpeed": 3,
    "windGust": null,
    "visibility": 10,
    "temperatureC": 19,
    "dewPointC": 16,
    "cloudCeiling": 99999,
    "altimeter": "A2994",
    "timestamp": "2026-04-17T03:53:00+00:00",
    "station": "KCPS"
  },
  "kstl": {
    "metar": "KSTL 170351Z 18007KT 10SM CLR 22/16 A2993 RMK AO2 SLP127 T02170161 $",
    "windDirection": 180,
    "windSpeed": 7,
    "windGust": null,
    "visibility": 10,
    "temperatureC": 22,
    "dewPointC": 16,
    "cloudCeiling": 99999,
    "altimeter": "A2993",
    "timestamp": "2026-04-17T03:51:00+00:00",
    "station": "KSTL"
  }
}