{
  "lastUpdated": "2025-11-25T07:46:33.388353+00:00",
  "kcps": {
    "metar": "KCPS 250743Z AUTO 16004KT 7SM -RA FEW009 BKN090 OVC110 11/10 A2981 RMK AO2 P0002 T01060100 $",
    "windDirection": 160,
    "windSpeed": 4,
    "windGust": null,
    "visibility": 7,
    "temperatureC": 11,
    "dewPointC": 10,
    "cloudCeiling": 9000,
    "altimeter": "A2981",
    "timestamp": "2025-11-25T07:43:00+00:00",
    "station": "KCPS"
  },
  "kstl": {
    "metar": "KSTL 250739Z 16005KT 7SM SCT006 BKN019 OVC100 11/10 A2980 RMK AO2 RAE23 P0001 T01110100 $",
    "windDirection": 160,
    "windSpeed": 5,
    "windGust": null,
    "visibility": 7,
    "temperatureC": 11,
    "dewPointC": 10,
    "cloudCeiling": 1900,
    "altimeter": "A2980",
    "timestamp": "2025-11-25T07:39:00+00:00",
    "station": "KSTL"
  }
}