{
  "lastUpdated": "2026-05-06T19:07:58.481458+00:00",
  "kcps": {
    "metar": "KCPS 061853Z 35008G17KT 10SM FEW090 16/04 A3001 RMK AO2 SLP161 T01610039 $",
    "windDirection": 350,
    "windSpeed": 8,
    "windGust": 17,
    "visibility": 10,
    "temperatureC": 16,
    "dewPointC": 4,
    "cloudCeiling": null,
    "altimeter": "A3001",
    "timestamp": "2026-05-06T18:53:00+00:00",
    "station": "KCPS"
  },
  "kstl": {
    "metar": "KSTL 061851Z 35005G19KT 10SM FEW055 FEW250 15/01 A3002 RMK AO2 SLP165 T01500011 $",
    "windDirection": 350,
    "windSpeed": 5,
    "windGust": 19,
    "visibility": 10,
    "temperatureC": 15,
    "dewPointC": 1,
    "cloudCeiling": null,
    "altimeter": "A3002",
    "timestamp": "2026-05-06T18:51:00+00:00",
    "station": "KSTL"
  }
}