{
  "lastUpdated": "2025-12-21T04:14:36.455248+00:00",
  "kcps": {
    "metar": "KCPS 210353Z 35009KT 10SM CLR 03/M06 A3025 RMK AO2 SLP246 T00331061 $",
    "windDirection": 350,
    "windSpeed": 9,
    "windGust": null,
    "visibility": 10,
    "temperatureC": 3,
    "dewPointC": -6,
    "cloudCeiling": 99999,
    "altimeter": "A3025",
    "timestamp": "2025-12-21T03:53:00+00:00",
    "station": "KCPS"
  },
  "kstl": {
    "metar": "KSTL 210351Z 31004KT 10SM SCT220 01/M07 A3026 RMK AO2 SLP253 T00111067 $",
    "windDirection": 310,
    "windSpeed": 4,
    "windGust": null,
    "visibility": 10,
    "temperatureC": 1,
    "dewPointC": -7,
    "cloudCeiling": null,
    "altimeter": "A3026",
    "timestamp": "2025-12-21T03:51:00+00:00",
    "station": "KSTL"
  }
}