{
  "lastUpdated": "2025-12-29T01:15:34.542232+00:00",
  "kcps": {
    "metar": "KCPS 290053Z 29021G31KT 10SM OVC021 03/M01 A2986 RMK AO2 PK WND 29045/0005 SLP111 T00281011 $",
    "windDirection": 290,
    "windSpeed": 21,
    "windGust": 31,
    "visibility": 10,
    "temperatureC": 3,
    "dewPointC": -1,
    "cloudCeiling": 2100,
    "altimeter": "A2986",
    "timestamp": "2025-12-29T00:53:00+00:00",
    "station": "KCPS"
  },
  "kstl": {
    "metar": "KSTL 290051Z 30019G37KT 10SM OVC015 02/M02 A2988 RMK AO2 PK WND 28044/2355 SLP118 T00171017 $",
    "windDirection": 300,
    "windSpeed": 19,
    "windGust": 37,
    "visibility": 10,
    "temperatureC": 2,
    "dewPointC": -2,
    "cloudCeiling": 1500,
    "altimeter": "A2988",
    "timestamp": "2025-12-29T00:51:00+00:00",
    "station": "KSTL"
  }
}