{
  "lastUpdated": "2025-10-24T09:22:00.580016+00:00",
  "kcps": {
    "metar": "KCPS 240853Z AUTO 00000KT 9SM CLR 02/02 A3025 RMK AO2 SLP244 T00170017 53008 $",
    "windDirection": 0,
    "windSpeed": 0,
    "windGust": null,
    "visibility": 9,
    "temperatureC": 2,
    "dewPointC": 2,
    "cloudCeiling": 99999,
    "altimeter": "A3025",
    "timestamp": "2025-10-24T08:53:00+00:00",
    "station": "KCPS"
  },
  "kstl": {
    "metar": "KSTL 240851Z 00000KT 10SM FEW250 06/03 A3025 RMK AO2 SLP243 T00560033 53009 $",
    "windDirection": 0,
    "windSpeed": 0,
    "windGust": null,
    "visibility": 10,
    "temperatureC": 6,
    "dewPointC": 3,
    "cloudCeiling": null,
    "altimeter": "A3025",
    "timestamp": "2025-10-24T08:51:00+00:00",
    "station": "KSTL"
  }
}