{
  "lastUpdated": "2025-11-06T09:35:43.278142+00:00",
  "kcps": {
    "metar": "KCPS 060853Z AUTO 00000KT 10SM CLR 02/02 A3025 RMK AO2 SLP243 T00220017 58005 TSNO $",
    "windDirection": 0,
    "windSpeed": 0,
    "windGust": null,
    "visibility": 10,
    "temperatureC": 2,
    "dewPointC": 2,
    "cloudCeiling": 99999,
    "altimeter": "A3025",
    "timestamp": "2025-11-06T08:53:00+00:00",
    "station": "KCPS"
  },
  "kstl": {
    "metar": "KSTL 060851Z 04004KT 10SM CLR 04/02 A3025 RMK AO2 SLP242 T00440017 58006 $",
    "windDirection": 40,
    "windSpeed": 4,
    "windGust": null,
    "visibility": 10,
    "temperatureC": 4,
    "dewPointC": 2,
    "cloudCeiling": 99999,
    "altimeter": "A3025",
    "timestamp": "2025-11-06T08:51:00+00:00",
    "station": "KSTL"
  }
}