{
  "lastUpdated": "2025-10-16T07:21:32.997288+00:00",
  "kcps": {
    "metar": "KCPS 160653Z AUTO 00000KT 10SM CLR 16/16 A3011 RMK AO2 SLP192 T01610156",
    "windDirection": 0,
    "windSpeed": 0,
    "windGust": null,
    "visibility": 10,
    "temperatureC": 16,
    "dewPointC": 16,
    "cloudCeiling": 99999,
    "altimeter": "A3011",
    "timestamp": "2025-10-16T06:53:00+00:00",
    "station": "KCPS"
  },
  "kstl": {
    "metar": "KSTL 160651Z 09006KT 10SM CLR 19/14 A3011 RMK AO2 SLP187 T01890139",
    "windDirection": 90,
    "windSpeed": 6,
    "windGust": null,
    "visibility": 10,
    "temperatureC": 19,
    "dewPointC": 14,
    "cloudCeiling": 99999,
    "altimeter": "A3011",
    "timestamp": "2025-10-16T06:51:00+00:00",
    "station": "KSTL"
  }
}