{
  "lastUpdated": "2025-11-26T19:20:22.284936+00:00",
  "kcps": {
    "metar": "KCPS 261853Z 30018G29KT 10SM SCT055 07/M06 A3020 RMK AO2 PK WND 29034/1819 SLP229 T00721061",
    "windDirection": 300,
    "windSpeed": 18,
    "windGust": 29,
    "visibility": 10,
    "temperatureC": 7,
    "dewPointC": -6,
    "cloudCeiling": null,
    "altimeter": "A3020",
    "timestamp": "2025-11-26T18:53:00+00:00",
    "station": "KCPS"
  },
  "kstl": {
    "metar": "KSTL 261851Z 29019G33KT 10SM FEW055 07/M07 A3019 RMK AO2 PK WND 28034/1810 SLP230 T00671067 $",
    "windDirection": 290,
    "windSpeed": 19,
    "windGust": 33,
    "visibility": 10,
    "temperatureC": 7,
    "dewPointC": -7,
    "cloudCeiling": null,
    "altimeter": "A3019",
    "timestamp": "2025-11-26T18:51:00+00:00",
    "station": "KSTL"
  }
}