{
  "lastUpdated": "2026-03-15T22:53:53.709001+00:00",
  "kcps": {
    "metar": "KCPS 152249Z 28016G29KT 5SM TSRA BR BKN013 OVC039 08/07 A2941 RMK AO2 PK WND 25038/2211 WSHFT 2204 LTG DSNT ALQDS RAB09 TSB29 P0049 $",
    "windDirection": 280,
    "windSpeed": 16,
    "windGust": 29,
    "visibility": 5,
    "temperatureC": 8,
    "dewPointC": 7,
    "cloudCeiling": 1300,
    "altimeter": "A2941",
    "timestamp": "2026-03-15T22:49:00+00:00",
    "station": "KCPS"
  },
  "kstl": {
    "station": "KSTL",
    "metar": null,
    "error": "Failed to fetch METAR"
  }
}