{
  "lastUpdated": "2026-05-16T05:35:44.374541+00:00",
  "kcps": {
    "metar": "KCPS 160453Z AUTO 14003KT 10SM CLR 22/17 A2981 RMK AO2 SLP089 T02220167 $",
    "windDirection": 140,
    "windSpeed": 3,
    "windGust": null,
    "visibility": 10,
    "temperatureC": 22,
    "dewPointC": 17,
    "cloudCeiling": 99999,
    "altimeter": "A2981",
    "timestamp": "2026-05-16T04:53:00+00:00",
    "station": "KCPS"
  },
  "kstl": {
    "metar": "KSTL 160451Z 19007KT 10SM BKN150 OVC250 24/17 A2981 RMK AO2 SLP082 T02390167 $",
    "windDirection": 190,
    "windSpeed": 7,
    "windGust": null,
    "visibility": 10,
    "temperatureC": 24,
    "dewPointC": 17,
    "cloudCeiling": 15000,
    "altimeter": "A2981",
    "timestamp": "2026-05-16T04:51:00+00:00",
    "station": "KSTL"
  }
}