{
  "lastUpdated": "2026-05-14T18:18:38.531968+00:00",
  "kcps": {
    "metar": "KCPS 141753Z 10004KT 10SM CLR 21/04 A3009 RMK AO2 SLP188 T02110044 10217 20094 58017 $",
    "windDirection": 100,
    "windSpeed": 4,
    "windGust": null,
    "visibility": 10,
    "temperatureC": 21,
    "dewPointC": 4,
    "cloudCeiling": 99999,
    "altimeter": "A3009",
    "timestamp": "2026-05-14T17:53:00+00:00",
    "station": "KCPS"
  },
  "kstl": {
    "metar": "KSTL 141751Z 14006KT 10SM FEW250 21/06 A3009 RMK AO2 SLP185 T02060056 10206 20117 58015 $",
    "windDirection": 140,
    "windSpeed": 6,
    "windGust": null,
    "visibility": 10,
    "temperatureC": 21,
    "dewPointC": 6,
    "cloudCeiling": null,
    "altimeter": "A3009",
    "timestamp": "2026-05-14T17:51:00+00:00",
    "station": "KSTL"
  }
}