{
  "lastUpdated": "2025-10-27T01:09:14.719323+00:00",
  "kcps": {
    "metar": "KCPS 270059Z 07008KT 7SM -RA BKN009 BKN012 OVC024 12/11 A3014 RMK AO2 P0001 T01170106 $",
    "windDirection": 70,
    "windSpeed": 8,
    "windGust": null,
    "visibility": 7,
    "temperatureC": 12,
    "dewPointC": 11,
    "cloudCeiling": 900,
    "altimeter": "A3014",
    "timestamp": "2025-10-27T00:59:00+00:00",
    "station": "KCPS"
  },
  "kstl": {
    "metar": "KSTL 270053Z 08012KT 4SM RA BR FEW007 BKN020 OVC060 11/11 A3015 RMK AO2 P0000 T01110106 $",
    "windDirection": 80,
    "windSpeed": 12,
    "windGust": null,
    "visibility": 4,
    "temperatureC": 11,
    "dewPointC": 11,
    "cloudCeiling": 2000,
    "altimeter": "A3015",
    "timestamp": "2025-10-27T00:53:00+00:00",
    "station": "KSTL"
  }
}