{
  "lastUpdated": "2026-02-28T05:10:52.919921+00:00",
  "kcps": {
    "metar": "KCPS 280453Z AUTO 14003KT 10SM CLR 08/01 A2994 RMK AO2 SLP137 T00780006 $",
    "windDirection": 140,
    "windSpeed": 3,
    "windGust": null,
    "visibility": 10,
    "temperatureC": 8,
    "dewPointC": 1,
    "cloudCeiling": 99999,
    "altimeter": "A2994",
    "timestamp": "2026-02-28T04:53:00+00:00",
    "station": "KCPS"
  },
  "kstl": {
    "metar": "KSTL 280451Z 32006KT 10SM CLR 12/M01 A2995 RMK AO2 SLP139 T01221006 $",
    "windDirection": 320,
    "windSpeed": 6,
    "windGust": null,
    "visibility": 10,
    "temperatureC": 12,
    "dewPointC": -1,
    "cloudCeiling": 99999,
    "altimeter": "A2995",
    "timestamp": "2026-02-28T04:51:00+00:00",
    "station": "KSTL"
  }
}