{
  "lastUpdated": "2026-05-09T15:17:41.149273+00:00",
  "kcps": {
    "metar": "KCPS 091453Z 25008G16KT 10SM CLR 17/13 A2981 RMK AO2 SLP093 T01720133 52005 $",
    "windDirection": 250,
    "windSpeed": 8,
    "windGust": 16,
    "visibility": 10,
    "temperatureC": 17,
    "dewPointC": 13,
    "cloudCeiling": 99999,
    "altimeter": "A2981",
    "timestamp": "2026-05-09T14:53:00+00:00",
    "station": "KCPS"
  },
  "kstl": {
    "metar": "KSTL 091451Z 24008KT 10SM FEW009 18/13 A2981 RMK AO2 SLP092 T01780133 52006 $",
    "windDirection": 240,
    "windSpeed": 8,
    "windGust": null,
    "visibility": 10,
    "temperatureC": 18,
    "dewPointC": 13,
    "cloudCeiling": null,
    "altimeter": "A2981",
    "timestamp": "2026-05-09T14:51:00+00:00",
    "station": "KSTL"
  }
}