{
  "lastUpdated": "2026-01-15T04:58:00.799057+00:00",
  "kcps": {
    "metar": "KCPS 150453Z AUTO 34013G21KT 10SM CLR M03/M13 A3013 RMK AO2 SLP206 T10331128",
    "windDirection": 340,
    "windSpeed": 13,
    "windGust": 21,
    "visibility": 10,
    "temperatureC": -3,
    "dewPointC": -13,
    "cloudCeiling": 99999,
    "altimeter": "A3013",
    "timestamp": "2026-01-15T04:53:00+00:00",
    "station": "KCPS"
  },
  "kstl": {
    "metar": "KSTL 150451Z 32010KT 10SM CLR M04/M13 A3013 RMK AO2 SLP212 T10391128 $",
    "windDirection": 320,
    "windSpeed": 10,
    "windGust": null,
    "visibility": 10,
    "temperatureC": -4,
    "dewPointC": -13,
    "cloudCeiling": 99999,
    "altimeter": "A3013",
    "timestamp": "2026-01-15T04:51:00+00:00",
    "station": "KSTL"
  }
}