{
  "lastUpdated": "2026-01-19T20:02:33.603393+00:00",
  "kcps": {
    "metar": "KCPS 191953Z 30015G23KT 10SM CLR M05/M21 A3042 RMK AO2 WSHFT 1931 SLP306 T10501206 $",
    "windDirection": 300,
    "windSpeed": 15,
    "windGust": 23,
    "visibility": 10,
    "temperatureC": -5,
    "dewPointC": -21,
    "cloudCeiling": 99999,
    "altimeter": "A3042",
    "timestamp": "2026-01-19T19:53:00+00:00",
    "station": "KCPS"
  },
  "kstl": {
    "metar": "KSTL 191951Z 30013G20KT 10SM FEW250 M07/M20 A3041 RMK AO2 SLP314 T10671200 $",
    "windDirection": 300,
    "windSpeed": 13,
    "windGust": 20,
    "visibility": 10,
    "temperatureC": -7,
    "dewPointC": -20,
    "cloudCeiling": null,
    "altimeter": "A3041",
    "timestamp": "2026-01-19T19:51:00+00:00",
    "station": "KSTL"
  }
}