{
  "lastUpdated": "2026-04-05T19:24:46.929239+00:00",
  "kcps": {
    "metar": "KCPS 051853Z 29010G20KT 10SM CLR 14/M01 A3031 RMK AO2 SLP263 T01391006 $",
    "windDirection": 290,
    "windSpeed": 10,
    "windGust": 20,
    "visibility": 10,
    "temperatureC": 14,
    "dewPointC": -1,
    "cloudCeiling": 99999,
    "altimeter": "A3031",
    "timestamp": "2026-04-05T18:53:00+00:00",
    "station": "KCPS"
  },
  "kstl": {
    "metar": "KSTL 051851Z 30011G19KT 10SM CLR 13/00 A3032 RMK AO2 SLP268 T01330000 $",
    "windDirection": 300,
    "windSpeed": 11,
    "windGust": 19,
    "visibility": 10,
    "temperatureC": 13,
    "dewPointC": 0,
    "cloudCeiling": 99999,
    "altimeter": "A3032",
    "timestamp": "2026-04-05T18:51:00+00:00",
    "station": "KSTL"
  }
}