{
  "lastUpdated": "2026-04-14T21:03:33.400578+00:00",
  "kcps": {
    "metar": "KCPS 142053Z 18013G22KT 10SM SCT060 31/18 A2981 RMK AO2 SLP092 T03110183 58015 $",
    "windDirection": 180,
    "windSpeed": 13,
    "windGust": 22,
    "visibility": 10,
    "temperatureC": 31,
    "dewPointC": 18,
    "cloudCeiling": null,
    "altimeter": "A2981",
    "timestamp": "2026-04-14T20:53:00+00:00",
    "station": "KCPS"
  },
  "kstl": {
    "metar": "KSTL 142051Z 20015G25KT 10SM FEW060 FEW150 SCT250 31/18 A2981 RMK AO2 SLP083 T03110178 58016 $",
    "windDirection": 200,
    "windSpeed": 15,
    "windGust": 25,
    "visibility": 10,
    "temperatureC": 31,
    "dewPointC": 18,
    "cloudCeiling": null,
    "altimeter": "A2981",
    "timestamp": "2026-04-14T20:51:00+00:00",
    "station": "KSTL"
  }
}