{
  "lastUpdated": "2026-04-01T01:10:06.183456+00:00",
  "kcps": {
    "metar": "KCPS 010053Z 00000KT 10SM FEW120 24/10 A2986 RMK AO2 LTG DSNT N SLP110 T02440100 $",
    "windDirection": 0,
    "windSpeed": 0,
    "windGust": null,
    "visibility": 10,
    "temperatureC": 24,
    "dewPointC": 10,
    "cloudCeiling": null,
    "altimeter": "A2986",
    "timestamp": "2026-04-01T00:53:00+00:00",
    "station": "KCPS"
  },
  "kstl": {
    "metar": "KSTL 010051Z 00000KT 10SM BKN075 BKN085 OVC250 22/15 A2988 RMK AO2 SLP109 VCSH W-NW T02220150 $",
    "windDirection": 0,
    "windSpeed": 0,
    "windGust": null,
    "visibility": 10,
    "temperatureC": 22,
    "dewPointC": 15,
    "cloudCeiling": 7500,
    "altimeter": "A2988",
    "timestamp": "2026-04-01T00:51:00+00:00",
    "station": "KSTL"
  }
}