{
  "lastUpdated": "2025-11-22T04:35:31.602804+00:00",
  "kcps": {
    "metar": "KCPS 220427Z AUTO 02009KT 3SM BR OVC005 11/11 A2995 RMK AO2 CIG 003V008 T01110106",
    "windDirection": 20,
    "windSpeed": 9,
    "windGust": null,
    "visibility": 3,
    "temperatureC": 11,
    "dewPointC": 11,
    "cloudCeiling": 500,
    "altimeter": "A2995",
    "timestamp": "2025-11-22T04:27:00+00:00",
    "station": "KCPS"
  },
  "kstl": {
    "metar": "KSTL 220421Z 01009KT 4SM -DZ BR OVC005 11/10 A2996 RMK AO2 P0000 T01060100 $",
    "windDirection": 10,
    "windSpeed": 9,
    "windGust": null,
    "visibility": 4,
    "temperatureC": 11,
    "dewPointC": 10,
    "cloudCeiling": 500,
    "altimeter": "A2996",
    "timestamp": "2025-11-22T04:21:00+00:00",
    "station": "KSTL"
  }
}