{
  "lastUpdated": "2026-03-09T15:17:21.954334+00:00",
  "kcps": {
    "metar": "KCPS 091453Z 18009G15KT 10SM CLR 16/11 A2988 RMK AO2 SLP117 T01560111 50003 $",
    "windDirection": 180,
    "windSpeed": 9,
    "windGust": 15,
    "visibility": 10,
    "temperatureC": 16,
    "dewPointC": 11,
    "cloudCeiling": 99999,
    "altimeter": "A2988",
    "timestamp": "2026-03-09T14:53:00+00:00",
    "station": "KCPS"
  },
  "kstl": {
    "metar": "KSTL 091451Z 20011G16KT 10SM CLR 18/11 A2987 RMK AO2 SLP110 T01780111 50003 $",
    "windDirection": 200,
    "windSpeed": 11,
    "windGust": 16,
    "visibility": 10,
    "temperatureC": 18,
    "dewPointC": 11,
    "cloudCeiling": 99999,
    "altimeter": "A2987",
    "timestamp": "2026-03-09T14:51:00+00:00",
    "station": "KSTL"
  }
}