{
  "lastUpdated": "2026-03-11T16:14:54.431409+00:00",
  "kcps": {
    "metar": "KCPS 111613Z 33024G35KT 2SM RA BR BKN008 BKN033 OVC045 11/09 A2984 RMK AO2 PK WND 35036/1555 WSHFT 1553 LTG DSNT NW P0",
    "windDirection": 330,
    "windSpeed": 24,
    "windGust": 35,
    "visibility": 2,
    "temperatureC": 11,
    "dewPointC": 9,
    "cloudCeiling": 800,
    "altimeter": "A2984",
    "timestamp": "2026-03-11T16:13:00+00:00",
    "station": "KCPS"
  },
  "kstl": {
    "metar": "KSTL 111609Z 33012G23KT 2 1/2SM -RA BR SCT006 BKN010 OVC016 09/08 A2987 RMK AO2 PK WND 34029/1553 PRESRR P0000 T00890078 $",
    "windDirection": 330,
    "windSpeed": 12,
    "windGust": 23,
    "visibility": 0.5,
    "temperatureC": 9,
    "dewPointC": 8,
    "cloudCeiling": 1000,
    "altimeter": "A2987",
    "timestamp": "2026-03-11T16:09:00+00:00",
    "station": "KSTL"
  }
}