{
  "lastUpdated": "2025-11-07T05:21:29.637461+00:00",
  "kcps": {
    "metar": "KCPS 070453Z AUTO 15005KT 10SM FEW045 BKN070 13/08 A2983 RMK AO2 SLP099 T01330078 TSNO $",
    "windDirection": 150,
    "windSpeed": 5,
    "windGust": null,
    "visibility": 10,
    "temperatureC": 13,
    "dewPointC": 8,
    "cloudCeiling": 7000,
    "altimeter": "A2983",
    "timestamp": "2025-11-07T04:53:00+00:00",
    "station": "KCPS"
  },
  "kstl": {
    "metar": "KSTL 070451Z 16007KT 10SM BKN065 OVC095 15/09 A2981 RMK AO2 SLP092 T01500089 $",
    "windDirection": 160,
    "windSpeed": 7,
    "windGust": null,
    "visibility": 10,
    "temperatureC": 15,
    "dewPointC": 9,
    "cloudCeiling": 6500,
    "altimeter": "A2981",
    "timestamp": "2025-11-07T04:51:00+00:00",
    "station": "KSTL"
  }
}