{
  "lastUpdated": "2025-10-18T18:47:30.507508+00:00",
  "kcps": {
    "metar": "KCPS 181843Z 25005KT 7SM VCTS -RA BKN095 OVC110 19/18 A2972 RMK AO2 LTG DSNT SE-W TSE37 P0011 T01890178 $",
    "windDirection": 250,
    "windSpeed": 5,
    "windGust": null,
    "visibility": 7,
    "temperatureC": 19,
    "dewPointC": 18,
    "cloudCeiling": 9500,
    "altimeter": "A2972",
    "timestamp": "2025-10-18T18:43:00+00:00",
    "station": "KCPS"
  },
  "kstl": {
    "metar": "KSTL 181803Z 18008KT 10SM -TSRA SCT070CB BKN095 OVC110 19/18 A2976 RMK AO2 TSB02 OCNL LTGIC E-SW TS E-SW MOV NE P0002 T01890178 $",
    "windDirection": 180,
    "windSpeed": 8,
    "windGust": null,
    "visibility": 10,
    "temperatureC": 19,
    "dewPointC": 18,
    "cloudCeiling": 9500,
    "altimeter": "A2976",
    "timestamp": "2025-10-18T18:03:00+00:00",
    "station": "KSTL"
  }
}