{
  "lastUpdated": "2025-10-09T23:21:01.682020+00:00",
  "kcps": {
    "metar": "KCPS 092253Z 06005KT 10SM CLR 22/06 A3028 RMK AO2 SLP253 T02170061",
    "windDirection": 60,
    "windSpeed": 5,
    "windGust": null,
    "visibility": 10,
    "temperatureC": 22,
    "dewPointC": 6,
    "cloudCeiling": 99999,
    "altimeter": "A3028",
    "timestamp": "2025-10-09T22:53:00+00:00",
    "station": "KCPS"
  },
  "kstl": {
    "metar": "KSTL 092251Z 10005KT 10SM CLR 22/03 A3029 RMK AO2 SLP254 T02170033 $",
    "windDirection": 100,
    "windSpeed": 5,
    "windGust": null,
    "visibility": 10,
    "temperatureC": 22,
    "dewPointC": 3,
    "cloudCeiling": 99999,
    "altimeter": "A3029",
    "timestamp": "2025-10-09T22:51:00+00:00",
    "station": "KSTL"
  }
}