{
  "lastUpdated": "2026-03-15T16:23:11.797669+00:00",
  "kcps": {
    "metar": "KCPS 151553Z 20016G34KT 10SM FEW037 19/11 A2945 RMK AO2 PK WND 20034/1551 LTG DSNT NE AND E SLP969 T01940111 $",
    "windDirection": 200,
    "windSpeed": 16,
    "windGust": 34,
    "visibility": 10,
    "temperatureC": 19,
    "dewPointC": 11,
    "cloudCeiling": null,
    "altimeter": "A2945",
    "timestamp": "2026-03-15T15:53:00+00:00",
    "station": "KCPS"
  },
  "kstl": {
    "metar": "KSTL 151551Z 19017G28KT 10SM FEW030 BKN120 BKN250 20/11 A2943 RMK AO2 PK WND 20035/1532 SLP960 T02000106 $",
    "windDirection": 190,
    "windSpeed": 17,
    "windGust": 28,
    "visibility": 10,
    "temperatureC": 20,
    "dewPointC": 11,
    "cloudCeiling": 12000,
    "altimeter": "A2943",
    "timestamp": "2026-03-15T15:51:00+00:00",
    "station": "KSTL"
  }
}