{
  "lastUpdated": "2025-11-07T18:48:46.292638+00:00",
  "kcps": {
    "metar": "KCPS 071753Z 31009KT 10SM CLR 21/06 A2972 RMK AO2 SLP063 T02110061 10211 20167 50002",
    "windDirection": 310,
    "windSpeed": 9,
    "windGust": null,
    "visibility": 10,
    "temperatureC": 21,
    "dewPointC": 6,
    "cloudCeiling": 99999,
    "altimeter": "A2972",
    "timestamp": "2025-11-07T17:53:00+00:00",
    "station": "KCPS"
  },
  "kstl": {
    "metar": "KSTL 071751Z 28011KT 10SM FEW030 SCT120 20/07 A2973 RMK AO2 SLP063 T02000072 10217 20172 50003 $",
    "windDirection": 280,
    "windSpeed": 11,
    "windGust": null,
    "visibility": 10,
    "temperatureC": 20,
    "dewPointC": 7,
    "cloudCeiling": null,
    "altimeter": "A2973",
    "timestamp": "2025-11-07T17:51:00+00:00",
    "station": "KSTL"
  }
}