{
  "lastUpdated": "2026-01-02T02:37:41.458505+00:00",
  "kcps": {
    "metar": "KCPS 020153Z 09003KT 6SM BR OVC006 01/00 A2991 RMK AO2 SLP133 T00110000 $",
    "windDirection": 90,
    "windSpeed": 3,
    "windGust": null,
    "visibility": 6,
    "temperatureC": 1,
    "dewPointC": 0,
    "cloudCeiling": 600,
    "altimeter": "A2991",
    "timestamp": "2026-01-02T01:53:00+00:00",
    "station": "KCPS"
  },
  "kstl": {
    "metar": "KSTL 020151Z 12005KT 5SM BR OVC006 01/00 A2990 RMK AO2 SLP135 T00110000 $",
    "windDirection": 120,
    "windSpeed": 5,
    "windGust": null,
    "visibility": 5,
    "temperatureC": 1,
    "dewPointC": 0,
    "cloudCeiling": 600,
    "altimeter": "A2990",
    "timestamp": "2026-01-02T01:51:00+00:00",
    "station": "KSTL"
  }
}