{
  "lastUpdated": "2026-04-16T09:08:36.847515+00:00",
  "kcps": {
    "metar": "KCPS 160853Z AUTO 18009KT 10SM -RA OVC100 16/15 A2984 RMK AO2 SLP101 P0003 60037 T01610150 58009 $",
    "windDirection": 180,
    "windSpeed": 9,
    "windGust": null,
    "visibility": 10,
    "temperatureC": 16,
    "dewPointC": 15,
    "cloudCeiling": 10000,
    "altimeter": "A2984",
    "timestamp": "2026-04-16T08:53:00+00:00",
    "station": "KCPS"
  },
  "kstl": {
    "metar": "KSTL 160851Z 20009KT 10SM BKN110 OVC140 16/14 A2984 RMK AO2 RAE41 PRESRR SLP098 P0004 60022 T01610144 58004 $",
    "windDirection": 200,
    "windSpeed": 9,
    "windGust": null,
    "visibility": 10,
    "temperatureC": 16,
    "dewPointC": 14,
    "cloudCeiling": 11000,
    "altimeter": "A2984",
    "timestamp": "2026-04-16T08:51:00+00:00",
    "station": "KSTL"
  }
}