{
  "lastUpdated": "2025-11-26T08:02:39.210172+00:00",
  "kcps": {
    "metar": "KCPS 260753Z AUTO 28013G22KT 10SM CLR 05/M03 A3006 RMK AO2 PK WND 26035/0728 SLP181 T00501033",
    "windDirection": 280,
    "windSpeed": 13,
    "windGust": 22,
    "visibility": 10,
    "temperatureC": 5,
    "dewPointC": -3,
    "cloudCeiling": 99999,
    "altimeter": "A3006",
    "timestamp": "2025-11-26T07:53:00+00:00",
    "station": "KCPS"
  },
  "kstl": {
    "metar": "KSTL 260751Z 27018G26KT 10SM FEW040 SCT250 04/M03 A3006 RMK AO2 PK WND 28036/0736 SLP179 T00441033 $",
    "windDirection": 270,
    "windSpeed": 18,
    "windGust": 26,
    "visibility": 10,
    "temperatureC": 4,
    "dewPointC": -3,
    "cloudCeiling": null,
    "altimeter": "A3006",
    "timestamp": "2025-11-26T07:51:00+00:00",
    "station": "KSTL"
  }
}