{
  "lastUpdated": "2026-06-12T07:31:37.515368+00:00",
  "kcps": {
    "metar": "KCPS 120653Z AUTO 36003KT 10SM FEW070 BKN090 22/21 A2990 RMK AO2 SLP121 T02220211 $",
    "windDirection": 360,
    "windSpeed": 3,
    "windGust": null,
    "visibility": 10.0,
    "temperatureC": 22.2,
    "dewPointC": 21.1,
    "cloudCeiling": 9000,
    "altimeter": "A2990",
    "timestamp": "2026-06-12T07:00:00.000Z",
    "station": "KCPS"
  },
  "kstl": {
    "metar": "KSTL 120651Z 31003KT 10SM BKN070 BKN100 22/21 A2992 RMK AO2 SLP118 FRQ LTGIC DSNT SE-S CB DSNT SE-S MOV SE T02220206 $",
    "windDirection": 310,
    "windSpeed": 3,
    "windGust": null,
    "visibility": 10.0,
    "temperatureC": 22.2,
    "dewPointC": 20.6,
    "cloudCeiling": 7000,
    "altimeter": "A2992",
    "timestamp": "2026-06-12T07:00:00.000Z",
    "station": "KSTL"
  }
}