{
  "lastUpdated": "2026-04-14T10:26:31.603893+00:00",
  "kcps": {
    "metar": "KCPS 140953Z AUTO 22013G23KT 10SM CLR 23/17 A2988 RMK AO2 SLP114 T02280172 $",
    "windDirection": 220,
    "windSpeed": 13,
    "windGust": 23,
    "visibility": 10,
    "temperatureC": 23,
    "dewPointC": 17,
    "cloudCeiling": 99999,
    "altimeter": "A2988",
    "timestamp": "2026-04-14T09:53:00+00:00",
    "station": "KCPS"
  },
  "kstl": {
    "metar": "KSTL 140951Z 23008KT 10SM BKN250 21/15 A2989 RMK AO2 SLP112 T02060150 $",
    "windDirection": 230,
    "windSpeed": 8,
    "windGust": null,
    "visibility": 10,
    "temperatureC": 21,
    "dewPointC": 15,
    "cloudCeiling": 25000,
    "altimeter": "A2989",
    "timestamp": "2026-04-14T09:51:00+00:00",
    "station": "KSTL"
  }
}