{
  "lastUpdated": "2025-11-20T20:02:29.094451+00:00",
  "kcps": {
    "metar": "KCPS 201953Z 13004KT 6SM BR OVC006 12/11 A3002 RMK AO2 SLP167 T01170106",
    "windDirection": 130,
    "windSpeed": 4,
    "windGust": null,
    "visibility": 6,
    "temperatureC": 12,
    "dewPointC": 11,
    "cloudCeiling": 600,
    "altimeter": "A3002",
    "timestamp": "2025-11-20T19:53:00+00:00",
    "station": "KCPS"
  },
  "kstl": {
    "metar": "KSTL 201951Z 11005KT 8SM OVC009 12/10 A3002 RMK AO2 SLP168 T01220100 $",
    "windDirection": 110,
    "windSpeed": 5,
    "windGust": null,
    "visibility": 8,
    "temperatureC": 12,
    "dewPointC": 10,
    "cloudCeiling": 900,
    "altimeter": "A3002",
    "timestamp": "2025-11-20T19:51:00+00:00",
    "station": "KSTL"
  }
}