{
  "lastUpdated": "2026-03-27T08:51:00.788634+00:00",
  "kcps": {
    "metar": "KCPS 270844Z AUTO 03017G24KT 3SM -RA BR SCT012 BKN018 OVC042 07/06 A3013 RMK AO2 PK WND 36036/0825 LTG DSNT W AND NW RAB09 P0004 T00720056 $",
    "windDirection": 30,
    "windSpeed": 17,
    "windGust": 24,
    "visibility": 3,
    "temperatureC": 7,
    "dewPointC": 6,
    "cloudCeiling": 1800,
    "altimeter": "A3013",
    "timestamp": "2026-03-27T08:44:00+00:00",
    "station": "KCPS"
  },
  "kstl": {
    "metar": "KSTL 270847Z 01019G26KT 4SM +TSRA BR BKN012 BKN024 OVC055CB 08/06 A3015 RMK AO2 PK WND 04030/0816 TSB26 OCNL LTGCCCG ALQDS TS ALQDS MOV E P0007 $",
    "windDirection": 10,
    "windSpeed": 19,
    "windGust": 26,
    "visibility": 4,
    "temperatureC": 8,
    "dewPointC": 6,
    "cloudCeiling": 1200,
    "altimeter": "A3015",
    "timestamp": "2026-03-27T08:47:00+00:00",
    "station": "KSTL"
  }
}