{
  "lastUpdated": "2025-12-16T05:49:07.044755+00:00",
  "kcps": {
    "metar": "KCPS 160545Z AUTO 16004KT 10SM SCT026 00/M10 A3012 RMK AO2 T00001100 $",
    "windDirection": 160,
    "windSpeed": 4,
    "windGust": null,
    "visibility": 10,
    "temperatureC": 0,
    "dewPointC": -10,
    "cloudCeiling": null,
    "altimeter": "A3012",
    "timestamp": "2025-12-16T05:45:00+00:00",
    "station": "KCPS"
  },
  "kstl": {
    "metar": "KSTL 160519Z 00000KT 10SM SCT025 01/M09 A3011 RMK AO2 T00111089 $",
    "windDirection": 0,
    "windSpeed": 0,
    "windGust": null,
    "visibility": 10,
    "temperatureC": 1,
    "dewPointC": -9,
    "cloudCeiling": null,
    "altimeter": "A3011",
    "timestamp": "2025-12-16T05:19:00+00:00",
    "station": "KSTL"
  }
}