{
  "lastUpdated": "2026-02-24T12:51:58.511180+00:00",
  "kcps": {
    "metar": "KCPS 241153Z AUTO 16007KT 10SM CLR M05/M10 A3011 RMK AO2 SLP202 6//// 7//// T10501100 11044 21061 56036 PNO $",
    "windDirection": 160,
    "windSpeed": 7,
    "windGust": null,
    "visibility": 10,
    "temperatureC": -5,
    "dewPointC": -10,
    "cloudCeiling": 99999,
    "altimeter": "A3011",
    "timestamp": "2026-02-24T11:53:00+00:00",
    "station": "KCPS"
  },
  "kstl": {
    "metar": "KSTL 241151Z 16009KT 10SM FEW200 BKN250 M04/M12 A3008 RMK AO2 SLP199 T10391117 11039 21044 58038 $",
    "windDirection": 160,
    "windSpeed": 9,
    "windGust": null,
    "visibility": 10,
    "temperatureC": -4,
    "dewPointC": -12,
    "cloudCeiling": 25000,
    "altimeter": "A3008",
    "timestamp": "2026-02-24T11:51:00+00:00",
    "station": "KSTL"
  }
}