{
  "lastUpdated": "2026-03-31T21:24:32.223936+00:00",
  "kcps": {
    "metar": "KCPS 312053Z 20009G17KT 10SM CLR 28/13 A2981 RMK AO2 SLP092 T02830128 56024 $",
    "windDirection": 200,
    "windSpeed": 9,
    "windGust": 17,
    "visibility": 10,
    "temperatureC": 28,
    "dewPointC": 13,
    "cloudCeiling": 99999,
    "altimeter": "A2981",
    "timestamp": "2026-03-31T20:53:00+00:00",
    "station": "KCPS"
  },
  "kstl": {
    "metar": "KSTL 312051Z 32006KT 10SM FEW055 SCT075 BKN110 OVC250 25/16 A2984 RMK AO2 SLP095 60000 T02500156 55017 $",
    "windDirection": 320,
    "windSpeed": 6,
    "windGust": null,
    "visibility": 10,
    "temperatureC": 25,
    "dewPointC": 16,
    "cloudCeiling": 11000,
    "altimeter": "A2984",
    "timestamp": "2026-03-31T20:51:00+00:00",
    "station": "KSTL"
  }
}