{
  "lastUpdated": "2025-11-08T18:37:43.189252+00:00",
  "kcps": {
    "metar": "KCPS 081753Z 00000KT 10SM CLR 14/04 A2985 RMK AO2 SLP107 T01440039 10144 20039 58015 $",
    "windDirection": 0,
    "windSpeed": 0,
    "windGust": null,
    "visibility": 10,
    "temperatureC": 14,
    "dewPointC": 4,
    "cloudCeiling": 99999,
    "altimeter": "A2985",
    "timestamp": "2025-11-08T17:53:00+00:00",
    "station": "KCPS"
  },
  "kstl": {
    "metar": "KSTL 081751Z 00000KT 10SM SCT140 BKN220 13/04 A2985 RMK AO2 SLP109 T01330039 10133 20067 58015 $",
    "windDirection": 0,
    "windSpeed": 0,
    "windGust": null,
    "visibility": 10,
    "temperatureC": 13,
    "dewPointC": 4,
    "cloudCeiling": 22000,
    "altimeter": "A2985",
    "timestamp": "2025-11-08T17:51:00+00:00",
    "station": "KSTL"
  }
}