{
  "lastUpdated": "2026-02-03T04:24:29.402713+00:00",
  "kcps": {
    "metar": "KCPS 030353Z 06004KT 10SM CLR M01/M04 A3015 RMK AO2 SLP214 T10061039 $",
    "windDirection": 60,
    "windSpeed": 4,
    "windGust": null,
    "visibility": 10,
    "temperatureC": -1,
    "dewPointC": -4,
    "cloudCeiling": 99999,
    "altimeter": "A3015",
    "timestamp": "2026-02-03T03:53:00+00:00",
    "station": "KCPS"
  },
  "kstl": {
    "metar": "KSTL 030351Z 07007KT 10SM BKN180 OVC250 01/M03 A3015 RMK AO2 SLP219 T00111033 $",
    "windDirection": 70,
    "windSpeed": 7,
    "windGust": null,
    "visibility": 10,
    "temperatureC": 1,
    "dewPointC": -3,
    "cloudCeiling": 18000,
    "altimeter": "A3015",
    "timestamp": "2026-02-03T03:51:00+00:00",
    "station": "KSTL"
  }
}