{
  "lastUpdated": "2025-11-16T14:02:10.649738+00:00",
  "kcps": {
    "metar": "KCPS 161353Z 35007KT 10SM CLR 08/M02 A3002 RMK AO2 SLP166 T00781022 $",
    "windDirection": 350,
    "windSpeed": 7,
    "windGust": null,
    "visibility": 10,
    "temperatureC": 8,
    "dewPointC": -2,
    "cloudCeiling": 99999,
    "altimeter": "A3002",
    "timestamp": "2025-11-16T13:53:00+00:00",
    "station": "KCPS"
  },
  "kstl": {
    "metar": "KSTL 161351Z 33006KT 10SM FEW250 07/M03 A3003 RMK AO2 SLP166 T00721028 $",
    "windDirection": 330,
    "windSpeed": 6,
    "windGust": null,
    "visibility": 10,
    "temperatureC": 7,
    "dewPointC": -3,
    "cloudCeiling": null,
    "altimeter": "A3003",
    "timestamp": "2025-11-16T13:51:00+00:00",
    "station": "KSTL"
  }
}