{
  "lastUpdated": "2026-01-14T19:47:02.187143+00:00",
  "kcps": {
    "metar": "KCPS 141853Z 33026G35KT 10SM -RA FEW050 04/M07 A2995 RMK AO2 PK WND 34039/1820 RAB1756 SLP144 P0000 T00391072",
    "windDirection": 330,
    "windSpeed": 26,
    "windGust": 35,
    "visibility": 10,
    "temperatureC": 4,
    "dewPointC": -7,
    "cloudCeiling": null,
    "altimeter": "A2995",
    "timestamp": "2026-01-14T18:53:00+00:00",
    "station": "KCPS"
  },
  "kstl": {
    "metar": "KSTL 141851Z 33021G35KT 10SM FEW045 04/M08 A2995 RMK AO2 PK WND 35035/1843 SLP147 T00391078 $",
    "windDirection": 330,
    "windSpeed": 21,
    "windGust": 35,
    "visibility": 10,
    "temperatureC": 4,
    "dewPointC": -8,
    "cloudCeiling": null,
    "altimeter": "A2995",
    "timestamp": "2026-01-14T18:51:00+00:00",
    "station": "KSTL"
  }
}