{
  "lastUpdated": "2026-04-05T14:57:45.115814+00:00",
  "kcps": {
    "metar": "KCPS 051453Z 33012KT 10SM CLR 09/M01 A3030 RMK AO2 SLP263 T00891006 51020 $",
    "windDirection": 330,
    "windSpeed": 12,
    "windGust": null,
    "visibility": 10,
    "temperatureC": 9,
    "dewPointC": -1,
    "cloudCeiling": 99999,
    "altimeter": "A3030",
    "timestamp": "2026-04-05T14:53:00+00:00",
    "station": "KCPS"
  },
  "kstl": {
    "metar": "KSTL 051451Z 32012KT 10SM FEW250 08/M02 A3031 RMK AO2 SLP267 T00831017 51022 $",
    "windDirection": 320,
    "windSpeed": 12,
    "windGust": null,
    "visibility": 10,
    "temperatureC": 8,
    "dewPointC": -2,
    "cloudCeiling": null,
    "altimeter": "A3031",
    "timestamp": "2026-04-05T14:51:00+00:00",
    "station": "KSTL"
  }
}