{
  "lastUpdated": "2025-12-10T23:33:22.875679+00:00",
  "kcps": {
    "metar": "KCPS 102319Z 30014G19KT 10SM OVC029 02/M04 A3001 RMK AO2 T00171039",
    "windDirection": 300,
    "windSpeed": 14,
    "windGust": 19,
    "visibility": 10,
    "temperatureC": 2,
    "dewPointC": -4,
    "cloudCeiling": 2900,
    "altimeter": "A3001",
    "timestamp": "2025-12-10T23:19:00+00:00",
    "station": "KCPS"
  },
  "kstl": {
    "metar": "KSTL 102251Z 30011KT 10SM BKN027 02/M04 A3000 RMK AO2 SLP164 T00171039 $",
    "windDirection": 300,
    "windSpeed": 11,
    "windGust": null,
    "visibility": 10,
    "temperatureC": 2,
    "dewPointC": -4,
    "cloudCeiling": 2700,
    "altimeter": "A3000",
    "timestamp": "2025-12-10T22:51:00+00:00",
    "station": "KSTL"
  }
}