{
  "lastUpdated": "2026-01-09T00:07:34.265569+00:00",
  "kcps": {
    "metar": "KCPS 082353Z 18015G32KT 10SM BKN031 BKN039 OVC046 19/16 A2949 RMK AO2 PK WND 17032/2349 SLP984 60001 T01940156 10194 20144 58016",
    "windDirection": 180,
    "windSpeed": 15,
    "windGust": 32,
    "visibility": 10,
    "temperatureC": 19,
    "dewPointC": 16,
    "cloudCeiling": 3100,
    "altimeter": "A2949",
    "timestamp": "2026-01-08T23:53:00+00:00",
    "station": "KCPS"
  },
  "kstl": {
    "metar": "KSTL 090002Z 19016G32KT 6SM -RA BKN027 OVC034 18/16 A2949 RMK AO2 PK WND 19032/2357 P0003 T01830156 $",
    "windDirection": 190,
    "windSpeed": 16,
    "windGust": 32,
    "visibility": 6,
    "temperatureC": 18,
    "dewPointC": 16,
    "cloudCeiling": 2700,
    "altimeter": "A2949",
    "timestamp": "2026-01-09T00:02:00+00:00",
    "station": "KSTL"
  }
}