{
  "lastUpdated": "2025-12-27T22:35:21.589412+00:00",
  "kcps": {
    "metar": "KCPS 272222Z 15008KT 1 1/2SM BR OVC003 13/13 A2980 RMK AO2 T01330128 $",
    "windDirection": 150,
    "windSpeed": 8,
    "windGust": null,
    "visibility": 0.5,
    "temperatureC": 13,
    "dewPointC": 13,
    "cloudCeiling": 300,
    "altimeter": "A2980",
    "timestamp": "2025-12-27T22:22:00+00:00",
    "station": "KCPS"
  },
  "kstl": {
    "metar": "KSTL 272151Z 12012KT 3/4SM R30R/5000VP6000FT BR OVC002 13/12 A2978 RMK AO2 SFC VIS 1 SLP084 T01280122 $",
    "windDirection": 120,
    "windSpeed": 12,
    "windGust": null,
    "visibility": 0.75,
    "temperatureC": 13,
    "dewPointC": 12,
    "cloudCeiling": 200,
    "altimeter": "A2978",
    "timestamp": "2025-12-27T21:51:00+00:00",
    "station": "KSTL"
  }
}