{
  "lastUpdated": "2025-12-13T12:02:42.421555+00:00",
  "kcps": {
    "metar": "KCPS 131153Z AUTO 36010KT 10SM OVC016 01/M02 A3017 RMK AO2 SLP220 T00111017 10011 20006 55005 $",
    "windDirection": 360,
    "windSpeed": 10,
    "windGust": null,
    "visibility": 10,
    "temperatureC": 1,
    "dewPointC": -2,
    "cloudCeiling": 1600,
    "altimeter": "A3017",
    "timestamp": "2025-12-13T11:53:00+00:00",
    "station": "KCPS"
  },
  "kstl": {
    "metar": "KSTL 131151Z 03010KT 8SM OVC008 M01/M03 A3017 RMK AO2 SLP227 T10061028 10011 21006 55003 $",
    "windDirection": 30,
    "windSpeed": 10,
    "windGust": null,
    "visibility": 8,
    "temperatureC": -1,
    "dewPointC": -3,
    "cloudCeiling": 800,
    "altimeter": "A3017",
    "timestamp": "2025-12-13T11:51:00+00:00",
    "station": "KSTL"
  }
}