{
  "lastUpdated": "2026-01-19T22:37:01.994473+00:00",
  "kcps": {
    "metar": "KCPS 192153Z 32012KT 10SM CLR M06/M22 A3041 RMK AO2 SLP304 T10611222 $",
    "windDirection": 320,
    "windSpeed": 12,
    "windGust": null,
    "visibility": 10,
    "temperatureC": -6,
    "dewPointC": -22,
    "cloudCeiling": 99999,
    "altimeter": "A3041",
    "timestamp": "2026-01-19T21:53:00+00:00",
    "station": "KCPS"
  },
  "kstl": {
    "metar": "KSTL 192151Z 29008KT 10SM FEW250 M06/M22 A3041 RMK AO2 SLP312 T10611217 $",
    "windDirection": 290,
    "windSpeed": 8,
    "windGust": null,
    "visibility": 10,
    "temperatureC": -6,
    "dewPointC": -22,
    "cloudCeiling": null,
    "altimeter": "A3041",
    "timestamp": "2026-01-19T21:51:00+00:00",
    "station": "KSTL"
  }
}