{
  "lastUpdated": "2026-02-13T08:44:26.986009+00:00",
  "kcps": {
    "metar": "KCPS 130753Z AUTO 17003KT 10SM BKN100 02/M02 A3022 RMK AO2 SLP233 T00221022 $",
    "windDirection": 170,
    "windSpeed": 3,
    "windGust": null,
    "visibility": 10,
    "temperatureC": 2,
    "dewPointC": -2,
    "cloudCeiling": 10000,
    "altimeter": "A3022",
    "timestamp": "2026-02-13T07:53:00+00:00",
    "station": "KCPS"
  },
  "kstl": {
    "metar": "KSTL 130751Z 12005KT 10SM BKN100 03/M03 A3021 RMK AO2 SLP233 T00281028 $",
    "windDirection": 120,
    "windSpeed": 5,
    "windGust": null,
    "visibility": 10,
    "temperatureC": 3,
    "dewPointC": -3,
    "cloudCeiling": 10000,
    "altimeter": "A3021",
    "timestamp": "2026-02-13T07:51:00+00:00",
    "station": "KSTL"
  }
}