{
  "lastUpdated": "2026-05-03T04:57:17.874381+00:00",
  "kcps": {
    "metar": "KCPS 030453Z AUTO 16003KT 10SM CLR 07/04 A3011 RMK AO2 SLP195 T00670044 $",
    "windDirection": 160,
    "windSpeed": 3,
    "windGust": null,
    "visibility": 10,
    "temperatureC": 7,
    "dewPointC": 4,
    "cloudCeiling": 99999,
    "altimeter": "A3011",
    "timestamp": "2026-05-03T04:53:00+00:00",
    "station": "KCPS"
  },
  "kstl": {
    "metar": "KSTL 030451Z 12004KT 10SM CLR 09/03 A3011 RMK AO2 SLP194 T00890033 $",
    "windDirection": 120,
    "windSpeed": 4,
    "windGust": null,
    "visibility": 10,
    "temperatureC": 9,
    "dewPointC": 3,
    "cloudCeiling": 99999,
    "altimeter": "A3011",
    "timestamp": "2026-05-03T04:51:00+00:00",
    "station": "KSTL"
  }
}