{
  "lastUpdated": "2026-01-16T00:07:37.565762+00:00",
  "kcps": {
    "metar": "KCPS 152353Z 14004KT 10SM CLR M02/M13 A2991 RMK AO2 SLP132 T10221133 10000 21033 56023 $",
    "windDirection": 140,
    "windSpeed": 4,
    "windGust": null,
    "visibility": 10,
    "temperatureC": -2,
    "dewPointC": -13,
    "cloudCeiling": 99999,
    "altimeter": "A2991",
    "timestamp": "2026-01-15T23:53:00+00:00",
    "station": "KCPS"
  },
  "kstl": {
    "metar": "KSTL 152351Z 16006KT 10SM SCT140 BKN250 M01/M14 A2989 RMK AO2 SLP135 T10061144 10006 21039 58026 $",
    "windDirection": 160,
    "windSpeed": 6,
    "windGust": null,
    "visibility": 10,
    "temperatureC": -1,
    "dewPointC": -14,
    "cloudCeiling": 25000,
    "altimeter": "A2989",
    "timestamp": "2026-01-15T23:51:00+00:00",
    "station": "KSTL"
  }
}