{
  "lastUpdated": "2026-05-17T08:14:56.934948+00:00",
  "kcps": {
    "metar": "KCPS 170753Z AUTO 18003KT 10SM CLR 21/18 A2988 RMK AO2 SLP114 T02110178 $",
    "windDirection": 180,
    "windSpeed": 3,
    "windGust": null,
    "visibility": 10,
    "temperatureC": 21,
    "dewPointC": 18,
    "cloudCeiling": 99999,
    "altimeter": "A2988",
    "timestamp": "2026-05-17T07:53:00+00:00",
    "station": "KCPS"
  },
  "kstl": {
    "metar": "KSTL 170751Z 16004KT 10SM SCT150 BKN250 22/18 A2988 RMK AO2 SLP110 T02220178 $",
    "windDirection": 160,
    "windSpeed": 4,
    "windGust": null,
    "visibility": 10,
    "temperatureC": 22,
    "dewPointC": 18,
    "cloudCeiling": 25000,
    "altimeter": "A2988",
    "timestamp": "2026-05-17T07:51:00+00:00",
    "station": "KSTL"
  }
}