{
  "lastUpdated": "2025-12-25T23:33:46.917008+00:00",
  "kcps": {
    "metar": "KCPS 252311Z 12005KT 10SM SCT026 17/15 A2992 RMK AO2 T01720150 $",
    "windDirection": 120,
    "windSpeed": 5,
    "windGust": null,
    "visibility": 10,
    "temperatureC": 17,
    "dewPointC": 15,
    "cloudCeiling": null,
    "altimeter": "A2992",
    "timestamp": "2025-12-25T23:11:00+00:00",
    "station": "KCPS"
  },
  "kstl": {
    "metar": "KSTL 252251Z 09007KT 9SM FEW032 SCT250 16/14 A2992 RMK AO2 SLP130 T01610144 $",
    "windDirection": 90,
    "windSpeed": 7,
    "windGust": null,
    "visibility": 9,
    "temperatureC": 16,
    "dewPointC": 14,
    "cloudCeiling": null,
    "altimeter": "A2992",
    "timestamp": "2025-12-25T22:51:00+00:00",
    "station": "KSTL"
  }
}