{
  "lastUpdated": "2025-10-24T07:02:44.090494+00:00",
  "kcps": {
    "metar": "KCPS 240653Z AUTO 00000KT 10SM CLR 03/02 A3022 RMK AO2 SLP232 T00280022 $",
    "windDirection": 0,
    "windSpeed": 0,
    "windGust": null,
    "visibility": 10,
    "temperatureC": 3,
    "dewPointC": 2,
    "cloudCeiling": 99999,
    "altimeter": "A3022",
    "timestamp": "2025-10-24T06:53:00+00:00",
    "station": "KCPS"
  },
  "kstl": {
    "metar": "KSTL 240651Z 00000KT 10SM BKN250 07/03 A3022 RMK AO2 SLP232 T00720028 $",
    "windDirection": 0,
    "windSpeed": 0,
    "windGust": null,
    "visibility": 10,
    "temperatureC": 7,
    "dewPointC": 3,
    "cloudCeiling": 25000,
    "altimeter": "A3022",
    "timestamp": "2025-10-24T06:51:00+00:00",
    "station": "KSTL"
  }
}