{
  "lastUpdated": "2026-04-08T17:07:50.520540+00:00",
  "kcps": {
    "metar": "KCPS 081653Z 18011G18KT 10SM CLR 19/06 A3020 RMK AO2 SLP225 T01890061 $",
    "windDirection": 180,
    "windSpeed": 11,
    "windGust": 18,
    "visibility": 10,
    "temperatureC": 19,
    "dewPointC": 6,
    "cloudCeiling": 99999,
    "altimeter": "A3020",
    "timestamp": "2026-04-08T16:53:00+00:00",
    "station": "KCPS"
  },
  "kstl": {
    "metar": "KSTL 081651Z 19012G19KT 10SM SCT200 SCT250 20/04 A3019 RMK AO2 SLP223 T02000044 $",
    "windDirection": 190,
    "windSpeed": 12,
    "windGust": 19,
    "visibility": 10,
    "temperatureC": 20,
    "dewPointC": 4,
    "cloudCeiling": null,
    "altimeter": "A3019",
    "timestamp": "2026-04-08T16:51:00+00:00",
    "station": "KSTL"
  }
}