{
  "lastUpdated": "2026-06-07T18:53:28.069038+00:00",
  "kcps": {
    "metar": "KCPS 071753Z 14011G20KT 10SM CLR 31/19 A2990 RMK AO2 SLP120 T03060194 10306 20233 56013 $",
    "windDirection": 140,
    "windSpeed": 11,
    "windGust": 20,
    "visibility": 10,
    "temperatureC": 31,
    "dewPointC": 19,
    "cloudCeiling": 99999,
    "altimeter": "A2990",
    "timestamp": "2026-06-07T17:53:00+00:00",
    "station": "KCPS"
  },
  "kstl": {
    "metar": "KSTL 071751Z 13009G15KT 10SM FEW045 BKN120 BKN250 29/19 A2991 RMK AO2 SLP115 T02890189 10300 20244 56012 $",
    "windDirection": 130,
    "windSpeed": 9,
    "windGust": 15,
    "visibility": 10,
    "temperatureC": 29,
    "dewPointC": 19,
    "cloudCeiling": 12000,
    "altimeter": "A2991",
    "timestamp": "2026-06-07T17:51:00+00:00",
    "station": "KSTL"
  }
}