{
  "lastUpdated": "2026-04-16T01:42:17.332530+00:00",
  "kcps": {
    "metar": "KCPS 160053Z 19005KT 10SM OVC060 21/17 A2984 RMK AO2 SLP103 T02110172 $",
    "windDirection": 190,
    "windSpeed": 5,
    "windGust": null,
    "visibility": 10,
    "temperatureC": 21,
    "dewPointC": 17,
    "cloudCeiling": 6000,
    "altimeter": "A2984",
    "timestamp": "2026-04-16T00:53:00+00:00",
    "station": "KCPS"
  },
  "kstl": {
    "metar": "KSTL 160136Z 17009KT 10SM -TSRA BKN055 BKN075CB OVC110 21/17 A2984 RMK AO2 RAB33 TSB35 CONS LTGCCCG DSNT SW AND W-NW TS W-NW MOV NE CB DSNT SW MOV NE P0000 T02110172",
    "windDirection": 170,
    "windSpeed": 9,
    "windGust": null,
    "visibility": 10,
    "temperatureC": 21,
    "dewPointC": 17,
    "cloudCeiling": 5500,
    "altimeter": "A2984",
    "timestamp": "2026-04-16T01:36:00+00:00",
    "station": "KSTL"
  }
}