{
  "lastUpdated": "2025-12-03T16:41:25.391923+00:00",
  "kcps": {
    "metar": "KCPS 031453Z 18007KT 10SM OVC007 M02/M04 A3013 RMK AO2 SLP208 I1000 I3000 T10221039 53012",
    "windDirection": 180,
    "windSpeed": 7,
    "windGust": null,
    "visibility": 10,
    "temperatureC": -2,
    "dewPointC": -4,
    "cloudCeiling": 700,
    "altimeter": "A3013",
    "timestamp": "2025-12-03T14:53:00+00:00",
    "station": "KCPS"
  },
  "kstl": {
    "metar": "KSTL 031551Z 17006KT 10SM OVC100 M01/M04 A3012 RMK AO2 SLP212 T10111039 $",
    "windDirection": 170,
    "windSpeed": 6,
    "windGust": null,
    "visibility": 10,
    "temperatureC": -1,
    "dewPointC": -4,
    "cloudCeiling": 10000,
    "altimeter": "A3012",
    "timestamp": "2025-12-03T15:51:00+00:00",
    "station": "KSTL"
  }
}