{
  "lastUpdated": "2025-12-07T23:21:03.857812+00:00",
  "kcps": {
    "metar": "KCPS 072307Z 36010KT 8SM OVC014 01/M02 A3021 RMK AO2 T00111017 $",
    "windDirection": 360,
    "windSpeed": 10,
    "windGust": null,
    "visibility": 8,
    "temperatureC": 1,
    "dewPointC": -2,
    "cloudCeiling": 1400,
    "altimeter": "A3021",
    "timestamp": "2025-12-07T23:07:00+00:00",
    "station": "KCPS"
  },
  "kstl": {
    "metar": "KSTL 072251Z 35010KT 10SM OVC013 01/M02 A3021 RMK AO2 SLP237 T00061022 $",
    "windDirection": 350,
    "windSpeed": 10,
    "windGust": null,
    "visibility": 10,
    "temperatureC": 1,
    "dewPointC": -2,
    "cloudCeiling": 1300,
    "altimeter": "A3021",
    "timestamp": "2025-12-07T22:51:00+00:00",
    "station": "KSTL"
  }
}