{
  "lastUpdated": "2026-01-09T18:03:09.007967+00:00",
  "kcps": {
    "metar": "KCPS 091553Z 32009KT 10SM FEW024 08/03 A3006 RMK AO2 SLP179 T00830033",
    "windDirection": 320,
    "windSpeed": 9,
    "windGust": null,
    "visibility": 10,
    "temperatureC": 8,
    "dewPointC": 3,
    "cloudCeiling": null,
    "altimeter": "A3006",
    "timestamp": "2026-01-09T15:53:00+00:00",
    "station": "KCPS"
  },
  "kstl": {
    "metar": "KSTL 091751Z 31008KT 10SM OVC021 09/03 A3010 RMK AO2 SLP191 T00890033 10094 20072 51024 $",
    "windDirection": 310,
    "windSpeed": 8,
    "windGust": null,
    "visibility": 10,
    "temperatureC": 9,
    "dewPointC": 3,
    "cloudCeiling": 2100,
    "altimeter": "A3010",
    "timestamp": "2026-01-09T17:51:00+00:00",
    "station": "KSTL"
  }
}