{
  "lastUpdated": "2026-03-30T19:46:22.138168+00:00",
  "kcps": {
    "metar": "KCPS 301853Z 19016G28KT 10SM CLR 28/14 A2992 RMK AO2 PK WND 21028/1845 SLP130 T02780139 $",
    "windDirection": 190,
    "windSpeed": 16,
    "windGust": 28,
    "visibility": 10,
    "temperatureC": 28,
    "dewPointC": 14,
    "cloudCeiling": 99999,
    "altimeter": "A2992",
    "timestamp": "2026-03-30T18:53:00+00:00",
    "station": "KCPS"
  },
  "kstl": {
    "metar": "KSTL 301851Z 23015G26KT 10SM FEW055 FEW250 28/13 A2992 RMK AO2 PK WND 20028/1815 SLP124 T02830133 $",
    "windDirection": 230,
    "windSpeed": 15,
    "windGust": 26,
    "visibility": 10,
    "temperatureC": 28,
    "dewPointC": 13,
    "cloudCeiling": null,
    "altimeter": "A2992",
    "timestamp": "2026-03-30T18:51:00+00:00",
    "station": "KSTL"
  }
}