{
  "lastUpdated": "2026-01-22T03:23:53.417700+00:00",
  "kcps": {
    "metar": "KCPS 220253Z 23006KT 10SM CLR 04/M08 A3013 RMK AO2 SLP205 T00391083 51018 $",
    "windDirection": 230,
    "windSpeed": 6,
    "windGust": null,
    "visibility": 10,
    "temperatureC": 4,
    "dewPointC": -8,
    "cloudCeiling": 99999,
    "altimeter": "A3013",
    "timestamp": "2026-01-22T02:53:00+00:00",
    "station": "KCPS"
  },
  "kstl": {
    "metar": "KSTL 220251Z 25011KT 10SM FEW080 04/M08 A3012 RMK AO2 SLP207 T00441083 51017 $",
    "windDirection": 250,
    "windSpeed": 11,
    "windGust": null,
    "visibility": 10,
    "temperatureC": 4,
    "dewPointC": -8,
    "cloudCeiling": null,
    "altimeter": "A3012",
    "timestamp": "2026-01-22T02:51:00+00:00",
    "station": "KSTL"
  }
}