{
  "lastUpdated": "2026-05-30T14:30:01.044058+00:00",
  "kcps": {
    "metar": "KCPS 301353Z 00000KT 10SM FEW018 SCT120 24/19 A2995 RMK AO2 SLP138 T02390194 $",
    "windDirection": 0,
    "windSpeed": 0,
    "windGust": null,
    "visibility": 10,
    "temperatureC": 24,
    "dewPointC": 19,
    "cloudCeiling": null,
    "altimeter": "A2995",
    "timestamp": "2026-05-30T13:53:00+00:00",
    "station": "KCPS"
  },
  "kstl": {
    "metar": "KSTL 301351Z 11006KT 10SM FEW030 BKN130 BKN250 24/18 A2996 RMK AO2 SLP135 T02440183 $",
    "windDirection": 110,
    "windSpeed": 6,
    "windGust": null,
    "visibility": 10,
    "temperatureC": 24,
    "dewPointC": 18,
    "cloudCeiling": 13000,
    "altimeter": "A2996",
    "timestamp": "2026-05-30T13:51:00+00:00",
    "station": "KSTL"
  }
}