{
  "lastUpdated": "2025-12-23T23:46:41.581339+00:00",
  "kcps": {
    "metar": "KCPS 232253Z 00000KT 8SM CLR 15/13 A3016 RMK AO2 SLP213 T01500128 $",
    "windDirection": 0,
    "windSpeed": 0,
    "windGust": null,
    "visibility": 8,
    "temperatureC": 15,
    "dewPointC": 13,
    "cloudCeiling": 99999,
    "altimeter": "A3016",
    "timestamp": "2025-12-23T22:53:00+00:00",
    "station": "KCPS"
  },
  "kstl": {
    "metar": "KSTL 232251Z 00000KT 10SM FEW035 SCT250 15/12 A3017 RMK AO2 SLP218 T01500122 $",
    "windDirection": 0,
    "windSpeed": 0,
    "windGust": null,
    "visibility": 10,
    "temperatureC": 15,
    "dewPointC": 12,
    "cloudCeiling": null,
    "altimeter": "A3017",
    "timestamp": "2025-12-23T22:51:00+00:00",
    "station": "KSTL"
  }
}