{
  "lastUpdated": "2025-10-24T05:46:20.338772+00:00",
  "kcps": {
    "metar": "KCPS 240453Z AUTO 00000KT 10SM CLR 03/03 A3022 RMK AO2 SLP235 T00330033 $",
    "windDirection": 0,
    "windSpeed": 0,
    "windGust": null,
    "visibility": 10,
    "temperatureC": 3,
    "dewPointC": 3,
    "cloudCeiling": 99999,
    "altimeter": "A3022",
    "timestamp": "2025-10-24T04:53:00+00:00",
    "station": "KCPS"
  },
  "kstl": {
    "metar": "KSTL 240451Z 00000KT 10SM BKN250 08/03 A3022 RMK AO2 SLP234 T00830028 $",
    "windDirection": 0,
    "windSpeed": 0,
    "windGust": null,
    "visibility": 10,
    "temperatureC": 8,
    "dewPointC": 3,
    "cloudCeiling": 25000,
    "altimeter": "A3022",
    "timestamp": "2025-10-24T04:51:00+00:00",
    "station": "KSTL"
  }
}