{
  "lastUpdated": "2025-12-10T21:22:05.213507+00:00",
  "kcps": {
    "metar": "KCPS 102053Z 31017G26KT 10SM OVC031 02/M04 A2995 RMK AO2 PK WND 32030/2028 SNB12E21 SLP145 P0000 60000 T00221044 53041",
    "windDirection": 310,
    "windSpeed": 17,
    "windGust": 26,
    "visibility": 10,
    "temperatureC": 2,
    "dewPointC": -4,
    "cloudCeiling": 3100,
    "altimeter": "A2995",
    "timestamp": "2025-12-10T20:53:00+00:00",
    "station": "KCPS"
  },
  "kstl": {
    "metar": "KSTL 102051Z 31014G25KT 10SM OVC026 02/M04 A2994 RMK AO2 PK WND 31028/2015 SLP143 T00171044 51036 $",
    "windDirection": 310,
    "windSpeed": 14,
    "windGust": 25,
    "visibility": 10,
    "temperatureC": 2,
    "dewPointC": -4,
    "cloudCeiling": 2600,
    "altimeter": "A2994",
    "timestamp": "2025-12-10T20:51:00+00:00",
    "station": "KSTL"
  }
}