{
  "lastUpdated": "2025-12-20T04:49:38.649413+00:00",
  "kcps": {
    "metar": "KCPS 200353Z 17009KT 10SM CLR 02/M06 A2996 RMK AO2 SLP148 T00171056",
    "windDirection": 170,
    "windSpeed": 9,
    "windGust": null,
    "visibility": 10,
    "temperatureC": 2,
    "dewPointC": -6,
    "cloudCeiling": 99999,
    "altimeter": "A2996",
    "timestamp": "2025-12-20T03:53:00+00:00",
    "station": "KCPS"
  },
  "kstl": {
    "metar": "KSTL 200351Z 16012KT 10SM BKN250 02/M08 A2993 RMK AO2 SLP146 T00221078 $",
    "windDirection": 160,
    "windSpeed": 12,
    "windGust": null,
    "visibility": 10,
    "temperatureC": 2,
    "dewPointC": -8,
    "cloudCeiling": 25000,
    "altimeter": "A2993",
    "timestamp": "2025-12-20T03:51:00+00:00",
    "station": "KSTL"
  }
}