{
  "lastUpdated": "2026-01-10T14:35:48.140434+00:00",
  "kcps": {
    "metar": "KCPS 101422Z 32020G29KT 10SM -RA OVC013 04/02 A3007 RMK AO2 PK WND 33029/1422 RAB16 P0000 T00440022 $",
    "windDirection": 320,
    "windSpeed": 20,
    "windGust": 29,
    "visibility": 10,
    "temperatureC": 4,
    "dewPointC": 2,
    "cloudCeiling": 1300,
    "altimeter": "A3007",
    "timestamp": "2026-01-10T14:22:00+00:00",
    "station": "KCPS"
  },
  "kstl": {
    "metar": "KSTL 101426Z 32014G24KT 10SM -RA FEW009 BKN014 OVC043 03/01 A3007 RMK AO2 P0002 T00280011 $",
    "windDirection": 320,
    "windSpeed": 14,
    "windGust": 24,
    "visibility": 10,
    "temperatureC": 3,
    "dewPointC": 1,
    "cloudCeiling": 1400,
    "altimeter": "A3007",
    "timestamp": "2026-01-10T14:26:00+00:00",
    "station": "KSTL"
  }
}