{
  "lastUpdated": "2025-12-14T14:46:52.355854+00:00",
  "kcps": {
    "metar": "KCPS 141353Z 36007KT 10SM CLR M13/M20 A3072 RMK AO2 SLP410 T11331200 $",
    "windDirection": 360,
    "windSpeed": 7,
    "windGust": null,
    "visibility": 10,
    "temperatureC": -13,
    "dewPointC": -20,
    "cloudCeiling": 99999,
    "altimeter": "A3072",
    "timestamp": "2025-12-14T13:53:00+00:00",
    "station": "KCPS"
  },
  "kstl": {
    "metar": "KSTL 141351Z 34010KT 10SM FEW250 M14/M19 A3069 RMK AO2 SLP416 T11391194 $",
    "windDirection": 340,
    "windSpeed": 10,
    "windGust": null,
    "visibility": 10,
    "temperatureC": -14,
    "dewPointC": -19,
    "cloudCeiling": null,
    "altimeter": "A3069",
    "timestamp": "2025-12-14T13:51:00+00:00",
    "station": "KSTL"
  }
}