{
  "lastUpdated": "2025-12-15T00:07:56.454979+00:00",
  "kcps": {
    "metar": "KCPS 142353Z 00000KT 10SM CLR M10/M18 A3069 RMK AO2 SLP402 T11001178 11078 21106 58006 $",
    "windDirection": 0,
    "windSpeed": 0,
    "windGust": null,
    "visibility": 10,
    "temperatureC": -10,
    "dewPointC": -18,
    "cloudCeiling": 99999,
    "altimeter": "A3069",
    "timestamp": "2025-12-14T23:53:00+00:00",
    "station": "KCPS"
  },
  "kstl": {
    "metar": "KSTL 142351Z 08005KT 10SM CLR M11/M18 A3067 RMK AO2 SLP410 T11111183 11078 21111 58009 $",
    "windDirection": 80,
    "windSpeed": 5,
    "windGust": null,
    "visibility": 10,
    "temperatureC": -11,
    "dewPointC": -18,
    "cloudCeiling": 99999,
    "altimeter": "A3067",
    "timestamp": "2025-12-14T23:51:00+00:00",
    "station": "KSTL"
  }
}