{
  "lastUpdated": "2026-06-07T13:30:44.169194+00:00",
  "kcps": {
    "metar": "KCPS 071253Z 15005KT 10SM CLR 24/22 A2994 RMK AO2 SLP133 T02440217 $",
    "windDirection": 150,
    "windSpeed": 5,
    "windGust": null,
    "visibility": 10,
    "temperatureC": 24,
    "dewPointC": 22,
    "cloudCeiling": 99999,
    "altimeter": "A2994",
    "timestamp": "2026-06-07T12:53:00+00:00",
    "station": "KCPS"
  },
  "kstl": {
    "metar": "KSTL 071251Z 15007KT 10SM SCT120 OVC200 25/21 A2994 RMK AO2 SLP126 T02500206 $",
    "windDirection": 150,
    "windSpeed": 7,
    "windGust": null,
    "visibility": 10,
    "temperatureC": 25,
    "dewPointC": 21,
    "cloudCeiling": 20000,
    "altimeter": "A2994",
    "timestamp": "2026-06-07T12:51:00+00:00",
    "station": "KSTL"
  }
}