{
  "lastUpdated": "2026-06-06T03:43:46.920768+00:00",
  "kcps": {
    "metar": "KCPS 060253Z 18004KT 10SM CLR 26/21 A2993 RMK AO2 SLP130 T02560206 53006 $",
    "windDirection": 180,
    "windSpeed": 4,
    "windGust": null,
    "visibility": 10,
    "temperatureC": 26,
    "dewPointC": 21,
    "cloudCeiling": 99999,
    "altimeter": "A2993",
    "timestamp": "2026-06-06T02:53:00+00:00",
    "station": "KCPS"
  },
  "kstl": {
    "metar": "KSTL 060251Z 20012KT 10SM FEW150 BKN250 27/21 A2993 RMK AO2 SLP121 T02670206 51007 $",
    "windDirection": 200,
    "windSpeed": 12,
    "windGust": null,
    "visibility": 10,
    "temperatureC": 27,
    "dewPointC": 21,
    "cloudCeiling": 25000,
    "altimeter": "A2993",
    "timestamp": "2026-06-06T02:51:00+00:00",
    "station": "KSTL"
  }
}