{
  "lastUpdated": "2026-04-04T12:24:15.585072+00:00",
  "kcps": {
    "metar": "KCPS 041214Z 25004KT 10SM BKN014 OVC110 17/16 A2993 RMK AO2 LTG DSNT E RAE10 P0000 T01720161 $",
    "windDirection": 250,
    "windSpeed": 4,
    "windGust": null,
    "visibility": 10,
    "temperatureC": 17,
    "dewPointC": 16,
    "cloudCeiling": 1400,
    "altimeter": "A2993",
    "timestamp": "2026-04-04T12:14:00+00:00",
    "station": "KCPS"
  },
  "kstl": {
    "metar": "KSTL 041212Z 28009KT 9SM -RA FEW013 BKN095 BKN110 15/14 A2994 RMK AO2 RAB1154 P0001 T01500139 $",
    "windDirection": 280,
    "windSpeed": 9,
    "windGust": null,
    "visibility": 9,
    "temperatureC": 15,
    "dewPointC": 14,
    "cloudCeiling": 9500,
    "altimeter": "A2994",
    "timestamp": "2026-04-04T12:12:00+00:00",
    "station": "KSTL"
  }
}