{
  "lastUpdated": "2026-01-28T17:24:08.513498+00:00",
  "kcps": {
    "metar": "KCPS 281653Z 25003KT 10SM BKN070 M04/M14 A3038 RMK AO2 SLP293 T10441144 $",
    "windDirection": 250,
    "windSpeed": 3,
    "windGust": null,
    "visibility": 10,
    "temperatureC": -4,
    "dewPointC": -14,
    "cloudCeiling": 7000,
    "altimeter": "A3038",
    "timestamp": "2026-01-28T16:53:00+00:00",
    "station": "KCPS"
  },
  "kstl": {
    "metar": "KSTL 281651Z 28008KT 10SM SCT060 BKN100 BKN250 M04/M15 A3036 RMK AO2 SLP298 T10391150 $",
    "windDirection": 280,
    "windSpeed": 8,
    "windGust": null,
    "visibility": 10,
    "temperatureC": -4,
    "dewPointC": -15,
    "cloudCeiling": 10000,
    "altimeter": "A3036",
    "timestamp": "2026-01-28T16:51:00+00:00",
    "station": "KSTL"
  }
}