{
  "lastUpdated": "2026-02-07T21:04:31.073049+00:00",
  "kcps": {
    "metar": "KCPS 072053Z 12006KT 10SM CLR 03/M08 A3036 RMK AO2 SLP286 T00331078 56017 $",
    "windDirection": 120,
    "windSpeed": 6,
    "windGust": null,
    "visibility": 10,
    "temperatureC": 3,
    "dewPointC": -8,
    "cloudCeiling": 99999,
    "altimeter": "A3036",
    "timestamp": "2026-02-07T20:53:00+00:00",
    "station": "KCPS"
  },
  "kstl": {
    "metar": "KSTL 072051Z 11008KT 10SM BKN250 03/M09 A3035 RMK AO2 SLP288 T00331089 56018 $",
    "windDirection": 110,
    "windSpeed": 8,
    "windGust": null,
    "visibility": 10,
    "temperatureC": 3,
    "dewPointC": -9,
    "cloudCeiling": 25000,
    "altimeter": "A3035",
    "timestamp": "2026-02-07T20:51:00+00:00",
    "station": "KSTL"
  }
}