{
  "lastUpdated": "2026-03-09T19:54:30.005218+00:00",
  "kcps": {
    "metar": "KCPS 091853Z 17015G24KT 10SM CLR 22/16 A2978 RMK AO2 SLP083 T02220156 $",
    "windDirection": 170,
    "windSpeed": 15,
    "windGust": 24,
    "visibility": 10,
    "temperatureC": 22,
    "dewPointC": 16,
    "cloudCeiling": 99999,
    "altimeter": "A2978",
    "timestamp": "2026-03-09T18:53:00+00:00",
    "station": "KCPS"
  },
  "kstl": {
    "metar": "KSTL 091951Z 16015G23KT 10SM FEW032 FEW120 FEW200 25/15 A2975 RMK AO2 PK WND 20026/1904 SLP069 T02500150 $",
    "windDirection": 160,
    "windSpeed": 15,
    "windGust": 23,
    "visibility": 10,
    "temperatureC": 25,
    "dewPointC": 15,
    "cloudCeiling": null,
    "altimeter": "A2975",
    "timestamp": "2026-03-09T19:51:00+00:00",
    "station": "KSTL"
  }
}