{
  "lastUpdated": "2025-11-11T22:47:01.445867+00:00",
  "kcps": {
    "metar": "KCPS 112153Z 22006KT 10SM CLR 16/M04 A2986 RMK AO2 SLP113 T01561039 $",
    "windDirection": 220,
    "windSpeed": 6,
    "windGust": null,
    "visibility": 10,
    "temperatureC": 16,
    "dewPointC": -4,
    "cloudCeiling": 99999,
    "altimeter": "A2986",
    "timestamp": "2025-11-11T21:53:00+00:00",
    "station": "KCPS"
  },
  "kstl": {
    "metar": "KSTL 112151Z 24012G23KT 10SM BKN150 15/M03 A2985 RMK AO2 SLP113 T01501033 $",
    "windDirection": 240,
    "windSpeed": 12,
    "windGust": 23,
    "visibility": 10,
    "temperatureC": 15,
    "dewPointC": -3,
    "cloudCeiling": 15000,
    "altimeter": "A2985",
    "timestamp": "2025-11-11T21:51:00+00:00",
    "station": "KSTL"
  }
}