{
  "lastUpdated": "2025-10-16T13:39:44.328397+00:00",
  "kcps": {
    "metar": "KCPS 161253Z 16003KT 10SM CLR 16/14 A3013 RMK AO2 SLP199 T01560139",
    "windDirection": 160,
    "windSpeed": 3,
    "windGust": null,
    "visibility": 10,
    "temperatureC": 16,
    "dewPointC": 14,
    "cloudCeiling": 99999,
    "altimeter": "A3013",
    "timestamp": "2025-10-16T12:53:00+00:00",
    "station": "KCPS"
  },
  "kstl": {
    "metar": "KSTL 161251Z 12005KT 10SM FEW085 17/14 A3013 RMK AO2 SLP195 T01720139 $",
    "windDirection": 120,
    "windSpeed": 5,
    "windGust": null,
    "visibility": 10,
    "temperatureC": 17,
    "dewPointC": 14,
    "cloudCeiling": null,
    "altimeter": "A3013",
    "timestamp": "2025-10-16T12:51:00+00:00",
    "station": "KSTL"
  }
}