{
  "lastUpdated": "2025-11-28T11:32:08.850843+00:00",
  "kcps": {
    "metar": "KCPS 281053Z AUTO 34004KT 10SM FEW032 M05/M08 A3047 RMK AO2 SLP324 T10501083 $",
    "windDirection": 340,
    "windSpeed": 4,
    "windGust": null,
    "visibility": 10,
    "temperatureC": -5,
    "dewPointC": -8,
    "cloudCeiling": null,
    "altimeter": "A3047",
    "timestamp": "2025-11-28T10:53:00+00:00",
    "station": "KCPS"
  },
  "kstl": {
    "metar": "KSTL 281051Z 29004KT 10SM CLR M04/M08 A3047 RMK AO2 SLP329 T10441078 $",
    "windDirection": 290,
    "windSpeed": 4,
    "windGust": null,
    "visibility": 10,
    "temperatureC": -4,
    "dewPointC": -8,
    "cloudCeiling": 99999,
    "altimeter": "A3047",
    "timestamp": "2025-11-28T10:51:00+00:00",
    "station": "KSTL"
  }
}