{
  "lastUpdated": "2025-11-20T00:37:54.332110+00:00",
  "kcps": {
    "metar": "KCPS 192253Z AUTO 06005KT 7SM OVC012 09/07 A3018 RMK AO2 SLP221 T00940072",
    "windDirection": 60,
    "windSpeed": 5,
    "windGust": null,
    "visibility": 7,
    "temperatureC": 9,
    "dewPointC": 7,
    "cloudCeiling": 1200,
    "altimeter": "A3018",
    "timestamp": "2025-11-19T22:53:00+00:00",
    "station": "KCPS"
  },
  "kstl": {
    "metar": "KSTL 192351Z 10006KT 5SM BR OVC010 09/07 A3019 RMK AO2 SLP225 T00890072 10100 20089 53003 $",
    "windDirection": 100,
    "windSpeed": 6,
    "windGust": null,
    "visibility": 5,
    "temperatureC": 9,
    "dewPointC": 7,
    "cloudCeiling": 1000,
    "altimeter": "A3019",
    "timestamp": "2025-11-19T23:51:00+00:00",
    "station": "KSTL"
  }
}