{
  "lastUpdated": "2026-03-14T16:42:52.066514+00:00",
  "kcps": {
    "metar": "KCPS 141553Z 10010KT 10SM CLR 10/M02 A3011 RMK AO2 SLP196 T01001017 $",
    "windDirection": 100,
    "windSpeed": 10,
    "windGust": null,
    "visibility": 10,
    "temperatureC": 10,
    "dewPointC": -2,
    "cloudCeiling": 99999,
    "altimeter": "A3011",
    "timestamp": "2026-03-14T15:53:00+00:00",
    "station": "KCPS"
  },
  "kstl": {
    "metar": "KSTL 141551Z 10014KT 10SM FEW140 SCT250 09/M02 A3010 RMK AO2 SLP196 T00941017 $",
    "windDirection": 100,
    "windSpeed": 14,
    "windGust": null,
    "visibility": 10,
    "temperatureC": 9,
    "dewPointC": -2,
    "cloudCeiling": null,
    "altimeter": "A3010",
    "timestamp": "2026-03-14T15:51:00+00:00",
    "station": "KSTL"
  }
}