{
  "lastUpdated": "2026-04-02T22:46:47.990040+00:00",
  "kcps": {
    "metar": "KCPS 022153Z AUTO 17013G21KT 10SM FEW030 SCT035 23/18 A2972 RMK AO2 PK WND 18026/2119 SLP062 T02330183 $",
    "windDirection": 170,
    "windSpeed": 13,
    "windGust": 21,
    "visibility": 10,
    "temperatureC": 23,
    "dewPointC": 18,
    "cloudCeiling": null,
    "altimeter": "A2972",
    "timestamp": "2026-04-02T21:53:00+00:00",
    "station": "KCPS"
  },
  "kstl": {
    "metar": "KSTL 022151Z 18018G27KT 10SM BKN036 BKN110 OVC250 23/17 A2972 RMK AO2 PK WND 20031/2052 SLP058 T02330172 $",
    "windDirection": 180,
    "windSpeed": 18,
    "windGust": 27,
    "visibility": 10,
    "temperatureC": 23,
    "dewPointC": 17,
    "cloudCeiling": 3600,
    "altimeter": "A2972",
    "timestamp": "2026-04-02T21:51:00+00:00",
    "station": "KSTL"
  }
}