{
  "lastUpdated": "2026-02-09T22:01:01.889074+00:00",
  "kcps": {
    "metar": "KCPS 092153Z 15005KT 10SM CLR 14/02 A3003 RMK AO2 SLP170 T01440017 $",
    "windDirection": 150,
    "windSpeed": 5,
    "windGust": null,
    "visibility": 10,
    "temperatureC": 14,
    "dewPointC": 2,
    "cloudCeiling": 99999,
    "altimeter": "A3003",
    "timestamp": "2026-02-09T21:53:00+00:00",
    "station": "KCPS"
  },
  "kstl": {
    "metar": "KSTL 092151Z 11006KT 10SM BKN250 14/00 A3003 RMK AO2 SLP175 T01390000 $",
    "windDirection": 110,
    "windSpeed": 6,
    "windGust": null,
    "visibility": 10,
    "temperatureC": 14,
    "dewPointC": 0,
    "cloudCeiling": 25000,
    "altimeter": "A3003",
    "timestamp": "2026-02-09T21:51:00+00:00",
    "station": "KSTL"
  }
}