{
  "lastUpdated": "2026-05-16T19:37:31.815133+00:00",
  "kcps": {
    "metar": "KCPS 161853Z 35009KT 10SM -RA SCT048 BKN070 OVC085 25/22 A2993 RMK AO2 SLP132 P0001 T02500217 $",
    "windDirection": 350,
    "windSpeed": 9,
    "windGust": null,
    "visibility": 10,
    "temperatureC": 25,
    "dewPointC": 22,
    "cloudCeiling": 7000,
    "altimeter": "A2993",
    "timestamp": "2026-05-16T18:53:00+00:00",
    "station": "KCPS"
  },
  "kstl": {
    "metar": "KSTL 161851Z 02007KT 9SM -RA FEW065 BKN100 OVC120 23/21 A2996 RMK AO2 SLP135 P0001 T02280211 $",
    "windDirection": 20,
    "windSpeed": 7,
    "windGust": null,
    "visibility": 9,
    "temperatureC": 23,
    "dewPointC": 21,
    "cloudCeiling": 10000,
    "altimeter": "A2996",
    "timestamp": "2026-05-16T18:51:00+00:00",
    "station": "KSTL"
  }
}