{
  "lastUpdated": "2026-02-05T21:41:08.092665+00:00",
  "kcps": {
    "metar": "KCPS 052053Z 17009KT 10SM OVC100 02/M04 A2993 RMK AO2 SLP141 T00221044 56055 $",
    "windDirection": 170,
    "windSpeed": 9,
    "windGust": null,
    "visibility": 10,
    "temperatureC": 2,
    "dewPointC": -4,
    "cloudCeiling": 10000,
    "altimeter": "A2993",
    "timestamp": "2026-02-05T20:53:00+00:00",
    "station": "KCPS"
  },
  "kstl": {
    "metar": "KSTL 052051Z 19009KT 10SM BKN095 BKN250 03/M04 A2992 RMK AO2 SLP146 T00281044 56051 $",
    "windDirection": 190,
    "windSpeed": 9,
    "windGust": null,
    "visibility": 10,
    "temperatureC": 3,
    "dewPointC": -4,
    "cloudCeiling": 9500,
    "altimeter": "A2992",
    "timestamp": "2026-02-05T20:51:00+00:00",
    "station": "KSTL"
  }
}