{
  "lastUpdated": "2025-11-29T21:02:06.267031+00:00",
  "kcps": {
    "metar": "KCPS 292053Z 16007KT 4SM -RA BR OVC021 02/02 A2994 RMK AO2 SLP141 P0014 60031 T00220017 56009 $",
    "windDirection": 160,
    "windSpeed": 7,
    "windGust": null,
    "visibility": 4,
    "temperatureC": 2,
    "dewPointC": 2,
    "cloudCeiling": 2100,
    "altimeter": "A2994",
    "timestamp": "2025-11-29T20:53:00+00:00",
    "station": "KCPS"
  },
  "kstl": {
    "metar": "KSTL 292051Z 15008KT 6SM -RA BR SCT007 OVC016 02/01 A2992 RMK AO2 SLP141 P0005 60021 T00220011 56027 $",
    "windDirection": 150,
    "windSpeed": 8,
    "windGust": null,
    "visibility": 6,
    "temperatureC": 2,
    "dewPointC": 1,
    "cloudCeiling": 1600,
    "altimeter": "A2992",
    "timestamp": "2025-11-29T20:51:00+00:00",
    "station": "KSTL"
  }
}