{
  "lastUpdated": "2026-01-03T08:50:42.331291+00:00",
  "kcps": {
    "metar": "KCPS 030653Z 04008KT 10SM BKN110 M01/M05 A3000 RMK AO2 SLP163 T10111050 $",
    "windDirection": 40,
    "windSpeed": 8,
    "windGust": null,
    "visibility": 10,
    "temperatureC": -1,
    "dewPointC": -5,
    "cloudCeiling": 11000,
    "altimeter": "A3000",
    "timestamp": "2026-01-03T06:53:00+00:00",
    "station": "KCPS"
  },
  "kstl": {
    "metar": "KSTL 030751Z 03006KT 10SM OVC100 M01/M06 A3000 RMK AO2 SLP172 T10111056 $",
    "windDirection": 30,
    "windSpeed": 6,
    "windGust": null,
    "visibility": 10,
    "temperatureC": -1,
    "dewPointC": -6,
    "cloudCeiling": 10000,
    "altimeter": "A3000",
    "timestamp": "2026-01-03T07:51:00+00:00",
    "station": "KSTL"
  }
}