{
  "lastUpdated": "2026-02-18T20:01:01.847385+00:00",
  "kcps": {
    "metar": "KCPS 181953Z 25011G17KT 10SM CLR 22/M03 A2965 RMK AO2 SLP038 T02221028 $",
    "windDirection": 250,
    "windSpeed": 11,
    "windGust": 17,
    "visibility": 10,
    "temperatureC": 22,
    "dewPointC": -3,
    "cloudCeiling": 99999,
    "altimeter": "A2965",
    "timestamp": "2026-02-18T19:53:00+00:00",
    "station": "KCPS"
  },
  "kstl": {
    "metar": "KSTL 181951Z 26006G18KT 10SM FEW250 22/M03 A2965 RMK AO2 SLP035 T02221033 $",
    "windDirection": 260,
    "windSpeed": 6,
    "windGust": 18,
    "visibility": 10,
    "temperatureC": 22,
    "dewPointC": -3,
    "cloudCeiling": null,
    "altimeter": "A2965",
    "timestamp": "2026-02-18T19:51:00+00:00",
    "station": "KSTL"
  }
}