{
  "lastUpdated": "2026-05-31T05:28:10.933657+00:00",
  "kcps": {
    "metar": "KCPS 310514Z AUTO 00000KT 1SM BR CLR 22/22 A2998 RMK AO2 T02170217 $",
    "windDirection": 0,
    "windSpeed": 0,
    "windGust": null,
    "visibility": 1,
    "temperatureC": 22,
    "dewPointC": 22,
    "cloudCeiling": 99999,
    "altimeter": "A2998",
    "timestamp": "2026-05-31T05:14:00+00:00",
    "station": "KCPS"
  },
  "kstl": {
    "metar": "KSTL 310451Z 00000KT 10SM SCT100 24/21 A2999 RMK AO2 SLP144 T02390206 $",
    "windDirection": 0,
    "windSpeed": 0,
    "windGust": null,
    "visibility": 10,
    "temperatureC": 24,
    "dewPointC": 21,
    "cloudCeiling": null,
    "altimeter": "A2999",
    "timestamp": "2026-05-31T04:51:00+00:00",
    "station": "KSTL"
  }
}