{
  "lastUpdated": "2026-05-31T16:06:57.213702+00:00",
  "kcps": {
    "metar": "KCPS 311553Z 12005KT 10SM FEW038 FEW055 FEW100 22/15 A3002 RMK AO2 RAB26E35 SLP163 P0000 T02220150 $",
    "windDirection": 120,
    "windSpeed": 5,
    "windGust": null,
    "visibility": 10,
    "temperatureC": 22,
    "dewPointC": 15,
    "cloudCeiling": null,
    "altimeter": "A3002",
    "timestamp": "2026-05-31T15:53:00+00:00",
    "station": "KCPS"
  },
  "kstl": {
    "metar": "KSTL 311551Z 10007KT 10SM BKN120 BKN250 23/15 A3002 RMK AO2 SLP157 T02280150 $",
    "windDirection": 100,
    "windSpeed": 7,
    "windGust": null,
    "visibility": 10,
    "temperatureC": 23,
    "dewPointC": 15,
    "cloudCeiling": 12000,
    "altimeter": "A3002",
    "timestamp": "2026-05-31T15:51:00+00:00",
    "station": "KSTL"
  }
}