{
  "lastUpdated": "2026-04-03T05:21:08.701485+00:00",
  "kcps": {
    "metar": "KCPS 030453Z 19008G19KT 10SM CLR 22/17 A2985 RMK AO2 SLP106 T02170167 $",
    "windDirection": 190,
    "windSpeed": 8,
    "windGust": 19,
    "visibility": 10,
    "temperatureC": 22,
    "dewPointC": 17,
    "cloudCeiling": 99999,
    "altimeter": "A2985",
    "timestamp": "2026-04-03T04:53:00+00:00",
    "station": "KCPS"
  },
  "kstl": {
    "metar": "KSTL 030451Z 24008KT 10SM BKN039 BKN060 23/16 A2987 RMK AO2 SLP104 T02280156 $",
    "windDirection": 240,
    "windSpeed": 8,
    "windGust": null,
    "visibility": 10,
    "temperatureC": 23,
    "dewPointC": 16,
    "cloudCeiling": 3900,
    "altimeter": "A2987",
    "timestamp": "2026-04-03T04:51:00+00:00",
    "station": "KSTL"
  }
}