{
  "lastUpdated": "2025-11-13T21:31:50.984137+00:00",
  "kcps": {
    "metar": "KCPS 132053Z 16007KT 10SM CLR 20/02 A3014 RMK AO2 SLP207 T02000017 56026",
    "windDirection": 160,
    "windSpeed": 7,
    "windGust": null,
    "visibility": 10,
    "temperatureC": 20,
    "dewPointC": 2,
    "cloudCeiling": 99999,
    "altimeter": "A3014",
    "timestamp": "2025-11-13T20:53:00+00:00",
    "station": "KCPS"
  },
  "kstl": {
    "metar": "KSTL 132051Z 16011KT 10SM FEW160 FEW250 19/01 A3014 RMK AO2 SLP206 T01940006 56025",
    "windDirection": 160,
    "windSpeed": 11,
    "windGust": null,
    "visibility": 10,
    "temperatureC": 19,
    "dewPointC": 1,
    "cloudCeiling": null,
    "altimeter": "A3014",
    "timestamp": "2025-11-13T20:51:00+00:00",
    "station": "KSTL"
  }
}