{
  "lastUpdated": "2026-03-28T14:29:18.023006+00:00",
  "kcps": {
    "metar": "KCPS 281353Z 01005KT 10SM CLR 03/M06 A3068 RMK AO2 SLP391 T00281056 $",
    "windDirection": 10,
    "windSpeed": 5,
    "windGust": null,
    "visibility": 10,
    "temperatureC": 3,
    "dewPointC": -6,
    "cloudCeiling": 99999,
    "altimeter": "A3068",
    "timestamp": "2026-03-28T13:53:00+00:00",
    "station": "KCPS"
  },
  "kstl": {
    "metar": "KSTL 281351Z 36004KT 10SM CLR 02/M06 A3068 RMK AO2 SLP397 T00171056 $",
    "windDirection": 360,
    "windSpeed": 4,
    "windGust": null,
    "visibility": 10,
    "temperatureC": 2,
    "dewPointC": -6,
    "cloudCeiling": 99999,
    "altimeter": "A3068",
    "timestamp": "2026-03-28T13:51:00+00:00",
    "station": "KSTL"
  }
}