{
  "lastUpdated": "2026-04-06T12:12:58.286098+00:00",
  "kcps": {
    "metar": "KCPS 061153Z VRB03KT 10SM CLR 07/02 A3028 RMK AO2 SLP253 T00670017 10089 20028 53002 $",
    "windDirection": null,
    "windSpeed": null,
    "windGust": null,
    "visibility": 10,
    "temperatureC": 7,
    "dewPointC": 2,
    "cloudCeiling": 99999,
    "altimeter": "A3028",
    "timestamp": "2026-04-06T11:53:00+00:00",
    "station": "KCPS"
  },
  "kstl": {
    "metar": "KSTL 061151Z 00000KT 10SM CLR 07/01 A3029 RMK AO2 SLP258 T00670011 10083 20061 53005 $",
    "windDirection": 0,
    "windSpeed": 0,
    "windGust": null,
    "visibility": 10,
    "temperatureC": 7,
    "dewPointC": 1,
    "cloudCeiling": 99999,
    "altimeter": "A3029",
    "timestamp": "2026-04-06T11:51:00+00:00",
    "station": "KSTL"
  }
}