{
  "lastUpdated": "2026-02-26T09:34:15.436719+00:00",
  "kcps": {
    "metar": "KCPS 260853Z AUTO 05004KT 10SM -RA OVC049 06/00 A2983 RMK AO2 RAB0754 SLP101 P0000 60000 T00560000 53007 $",
    "windDirection": 50,
    "windSpeed": 4,
    "windGust": null,
    "visibility": 10,
    "temperatureC": 6,
    "dewPointC": 0,
    "cloudCeiling": 4900,
    "altimeter": "A2983",
    "timestamp": "2026-02-26T08:53:00+00:00",
    "station": "KCPS"
  },
  "kstl": {
    "metar": "KSTL 260851Z 08006KT 10SM -RA SCT048 OVC090 05/M02 A2982 RMK AO2 RAB40 SLP099 P0000 60000 T00501022 58001 $",
    "windDirection": 80,
    "windSpeed": 6,
    "windGust": null,
    "visibility": 10,
    "temperatureC": 5,
    "dewPointC": -2,
    "cloudCeiling": 9000,
    "altimeter": "A2982",
    "timestamp": "2026-02-26T08:51:00+00:00",
    "station": "KSTL"
  }
}