{
  "lastUpdated": "2026-06-03T01:39:47.843635+00:00",
  "kcps": {
    "metar": "KCPS 030053Z 10005KT 10SM CLR 23/11 A3019 RMK AO2 SLP221 T02330106 $",
    "windDirection": 100,
    "windSpeed": 5,
    "windGust": null,
    "visibility": 10,
    "temperatureC": 23,
    "dewPointC": 11,
    "cloudCeiling": 99999,
    "altimeter": "A3019",
    "timestamp": "2026-06-03T00:53:00+00:00",
    "station": "KCPS"
  },
  "kstl": {
    "metar": "KSTL 030051Z 11009KT 10SM SCT250 24/08 A3020 RMK AO2 SLP219 T02440083 $",
    "windDirection": 110,
    "windSpeed": 9,
    "windGust": null,
    "visibility": 10,
    "temperatureC": 24,
    "dewPointC": 8,
    "cloudCeiling": null,
    "altimeter": "A3020",
    "timestamp": "2026-06-03T00:51:00+00:00",
    "station": "KSTL"
  }
}