{
  "lastUpdated": "2026-01-17T04:40:37.078311+00:00",
  "kcps": {
    "metar": "KCPS 170353Z 29013G22KT 10SM CLR 01/M07 A2990 RMK AO2 SLP127 T00111067 $",
    "windDirection": 290,
    "windSpeed": 13,
    "windGust": 22,
    "visibility": 10,
    "temperatureC": 1,
    "dewPointC": -7,
    "cloudCeiling": 99999,
    "altimeter": "A2990",
    "timestamp": "2026-01-17T03:53:00+00:00",
    "station": "KCPS"
  },
  "kstl": {
    "metar": "KSTL 170351Z 29013G25KT 10SM FEW065 BKN090 01/M08 A2990 RMK AO2 PK WND 28027/0303 SLP132 T00061083 $",
    "windDirection": 290,
    "windSpeed": 13,
    "windGust": 25,
    "visibility": 10,
    "temperatureC": 1,
    "dewPointC": -8,
    "cloudCeiling": 9000,
    "altimeter": "A2990",
    "timestamp": "2026-01-17T03:51:00+00:00",
    "station": "KSTL"
  }
}