{
  "lastUpdated": "2025-11-17T04:38:47.125261+00:00",
  "kcps": {
    "metar": "KCPS 170353Z 00000KT 10SM CLR 02/M02 A3004 RMK AO2 SLP175 T00171022 $",
    "windDirection": 0,
    "windSpeed": 0,
    "windGust": null,
    "visibility": 10,
    "temperatureC": 2,
    "dewPointC": -2,
    "cloudCeiling": 99999,
    "altimeter": "A3004",
    "timestamp": "2025-11-17T03:53:00+00:00",
    "station": "KCPS"
  },
  "kstl": {
    "metar": "KSTL 170351Z 00000KT 10SM FEW230 07/M05 A3004 RMK AO2 SLP176 T00671050 $",
    "windDirection": 0,
    "windSpeed": 0,
    "windGust": null,
    "visibility": 10,
    "temperatureC": 7,
    "dewPointC": -5,
    "cloudCeiling": null,
    "altimeter": "A3004",
    "timestamp": "2025-11-17T03:51:00+00:00",
    "station": "KSTL"
  }
}