{
  "lastUpdated": "2026-04-28T01:53:44.066128+00:00",
  "kcps": {
    "metar": "KCPS 280108Z 24003KT 10SM VCTS FEW075 FEW100 SCT110 20/18 A2965 RMK AO2 LTG DSNT ALQDS RAE04 TSE02 PRESRR P0000 T02000178 $",
    "windDirection": 240,
    "windSpeed": 3,
    "windGust": null,
    "visibility": 10,
    "temperatureC": 20,
    "dewPointC": 18,
    "cloudCeiling": null,
    "altimeter": "A2965",
    "timestamp": "2026-04-28T01:08:00+00:00",
    "station": "KCPS"
  },
  "kstl": {
    "station": "KSTL",
    "metar": null,
    "error": "Failed to fetch METAR"
  }
}