{
  "lastUpdated": "2026-01-31T16:54:08.619579+00:00",
  "kcps": {
    "metar": "KCPS 311553Z 32010KT 10SM FEW090 M12/M18 A3057 RMK AO2 SLP358 T11171178 $",
    "windDirection": 320,
    "windSpeed": 10,
    "windGust": null,
    "visibility": 10,
    "temperatureC": -12,
    "dewPointC": -18,
    "cloudCeiling": null,
    "altimeter": "A3057",
    "timestamp": "2026-01-31T15:53:00+00:00",
    "station": "KCPS"
  },
  "kstl": {
    "metar": "KSTL 311651Z 30009KT 10SM FEW120 M12/M18 A3055 RMK AO2 SLP367 T11171178 $",
    "windDirection": 300,
    "windSpeed": 9,
    "windGust": null,
    "visibility": 10,
    "temperatureC": -12,
    "dewPointC": -18,
    "cloudCeiling": null,
    "altimeter": "A3055",
    "timestamp": "2026-01-31T16:51:00+00:00",
    "station": "KSTL"
  }
}