{
  "lastUpdated": "2025-11-10T10:37:50.013941+00:00",
  "kcps": {
    "metar": "KCPS 100953Z AUTO 32013G23KT 10SM FEW035 SCT045 OVC060 M02/M09 A3033 RMK AO2 PK WND 33028/0929 SLP274 T10171089 TSNO $",
    "windDirection": 320,
    "windSpeed": 13,
    "windGust": 23,
    "visibility": 10,
    "temperatureC": -2,
    "dewPointC": -9,
    "cloudCeiling": 6000,
    "altimeter": "A3033",
    "timestamp": "2025-11-10T09:53:00+00:00",
    "station": "KCPS"
  },
  "kstl": {
    "metar": "KSTL 101023Z 32012G22KT 10SM BKN029 BKN036 OVC060 M02/M08 A3033 RMK AO2 SNB0956E12 P0000 T10221078 $",
    "windDirection": 320,
    "windSpeed": 12,
    "windGust": 22,
    "visibility": 10,
    "temperatureC": -2,
    "dewPointC": -8,
    "cloudCeiling": 2900,
    "altimeter": "A3033",
    "timestamp": "2025-11-10T10:23:00+00:00",
    "station": "KSTL"
  }
}