{
  "lastUpdated": "2025-11-30T19:31:40.514833+00:00",
  "kcps": {
    "metar": "KCPS 301853Z 31013KT 10SM FEW032 M02/M08 A3041 RMK AO2 SLP301 T10221078 $",
    "windDirection": 310,
    "windSpeed": 13,
    "windGust": null,
    "visibility": 10,
    "temperatureC": -2,
    "dewPointC": -8,
    "cloudCeiling": null,
    "altimeter": "A3041",
    "timestamp": "2025-11-30T18:53:00+00:00",
    "station": "KCPS"
  },
  "kstl": {
    "metar": "KSTL 301851Z 31013G19KT 10SM SCT027 BKN250 M04/M09 A3041 RMK AO2 SLP310 T10391089 $",
    "windDirection": 310,
    "windSpeed": 13,
    "windGust": 19,
    "visibility": 10,
    "temperatureC": -4,
    "dewPointC": -9,
    "cloudCeiling": 25000,
    "altimeter": "A3041",
    "timestamp": "2025-11-30T18:51:00+00:00",
    "station": "KSTL"
  }
}