{
  "lastUpdated": "2026-05-27T14:43:41.342487+00:00",
  "kcps": {
    "metar": "KCPS 271353Z 26004KT 5SM BR FEW010 BKN035 OVC085 23/21 A2999 RMK AO2 SLP153 T02280206 $",
    "windDirection": 260,
    "windSpeed": 4,
    "windGust": null,
    "visibility": 5,
    "temperatureC": 23,
    "dewPointC": 21,
    "cloudCeiling": 3500,
    "altimeter": "A2999",
    "timestamp": "2026-05-27T13:53:00+00:00",
    "station": "KCPS"
  },
  "kstl": {
    "metar": "KSTL 271351Z 29004KT 10SM SCT032 BKN080 BKN120 23/20 A3001 RMK AO2 SLP150 T02330200 $",
    "windDirection": 290,
    "windSpeed": 4,
    "windGust": null,
    "visibility": 10,
    "temperatureC": 23,
    "dewPointC": 20,
    "cloudCeiling": 8000,
    "altimeter": "A3001",
    "timestamp": "2026-05-27T13:51:00+00:00",
    "station": "KSTL"
  }
}