{
  "lastUpdated": "2025-12-13T11:20:36.570614+00:00",
  "kcps": {
    "metar": "KCPS 131053Z AUTO 32004KT 10SM OVC017 01/M02 A3016 RMK AO2 SLP217 T00111022 $",
    "windDirection": 320,
    "windSpeed": 4,
    "windGust": null,
    "visibility": 10,
    "temperatureC": 1,
    "dewPointC": -2,
    "cloudCeiling": 1700,
    "altimeter": "A3016",
    "timestamp": "2025-12-13T10:53:00+00:00",
    "station": "KCPS"
  },
  "kstl": {
    "metar": "KSTL 131104Z 36009KT 7SM OVC010 00/M02 A3016 RMK AO2 T00001022 $",
    "windDirection": 360,
    "windSpeed": 9,
    "windGust": null,
    "visibility": 7,
    "temperatureC": 0,
    "dewPointC": -2,
    "cloudCeiling": 1000,
    "altimeter": "A3016",
    "timestamp": "2025-12-13T11:04:00+00:00",
    "station": "KSTL"
  }
}