{
  "lastUpdated": "2025-12-13T05:21:48.224628+00:00",
  "kcps": {
    "metar": "KCPS 130422Z AUTO 29006KT 10SM OVC014 02/M02 A3020 RMK AO2 T00171017",
    "windDirection": 290,
    "windSpeed": 6,
    "windGust": null,
    "visibility": 10,
    "temperatureC": 2,
    "dewPointC": -2,
    "cloudCeiling": 1400,
    "altimeter": "A3020",
    "timestamp": "2025-12-13T04:22:00+00:00",
    "station": "KCPS"
  },
  "kstl": {
    "metar": "KSTL 130451Z 26007KT 10SM OVC012 01/M02 A3020 RMK AO2 SLP235 T00061017 $",
    "windDirection": 260,
    "windSpeed": 7,
    "windGust": null,
    "visibility": 10,
    "temperatureC": 1,
    "dewPointC": -2,
    "cloudCeiling": 1200,
    "altimeter": "A3020",
    "timestamp": "2025-12-13T04:51:00+00:00",
    "station": "KSTL"
  }
}