{
  "lastUpdated": "2026-02-06T20:23:40.677622+00:00",
  "kcps": {
    "metar": "KCPS 061953Z 36013KT 10SM BKN035 09/02 A2998 RMK AO2 SLP156 T00940017 $",
    "windDirection": 360,
    "windSpeed": 13,
    "windGust": null,
    "visibility": 10,
    "temperatureC": 9,
    "dewPointC": 2,
    "cloudCeiling": 3500,
    "altimeter": "A2998",
    "timestamp": "2026-02-06T19:53:00+00:00",
    "station": "KCPS"
  },
  "kstl": {
    "metar": "KSTL 061951Z 33014G20KT 10SM BKN033 09/02 A2999 RMK AO2 PK WND 32026/1905 SLP163 T00940022 $",
    "windDirection": 330,
    "windSpeed": 14,
    "windGust": 20,
    "visibility": 10,
    "temperatureC": 9,
    "dewPointC": 2,
    "cloudCeiling": 3300,
    "altimeter": "A2999",
    "timestamp": "2026-02-06T19:51:00+00:00",
    "station": "KSTL"
  }
}