{
  "lastUpdated": "2026-01-17T22:21:29.292235+00:00",
  "kcps": {
    "metar": "KCPS 172153Z 29016G22KT 10SM BKN049 BKN055 M06/M14 A3022 RMK AO2 SLP240 T10611139 $",
    "windDirection": 290,
    "windSpeed": 16,
    "windGust": 22,
    "visibility": 10,
    "temperatureC": -6,
    "dewPointC": -14,
    "cloudCeiling": 4900,
    "altimeter": "A3022",
    "timestamp": "2026-01-17T21:53:00+00:00",
    "station": "KCPS"
  },
  "kstl": {
    "metar": "KSTL 172151Z 30017G25KT 9SM -SN SCT038 BKN050 BKN085 M07/M16 A3022 RMK AO2 PK WND 31026/2130 SLP249 P0000 T10671156 $",
    "windDirection": 300,
    "windSpeed": 17,
    "windGust": 25,
    "visibility": 9,
    "temperatureC": -7,
    "dewPointC": -16,
    "cloudCeiling": 5000,
    "altimeter": "A3022",
    "timestamp": "2026-01-17T21:51:00+00:00",
    "station": "KSTL"
  }
}