{
  "lastUpdated": "2026-05-29T22:55:09.104907+00:00",
  "kcps": {
    "metar": "KCPS 292153Z 16006KT 10SM SCT060 BKN075 26/18 A2992 RMK AO2 SLP130 T02560183 $",
    "windDirection": 160,
    "windSpeed": 6,
    "windGust": null,
    "visibility": 10,
    "temperatureC": 26,
    "dewPointC": 18,
    "cloudCeiling": 7500,
    "altimeter": "A2992",
    "timestamp": "2026-05-29T21:53:00+00:00",
    "station": "KCPS"
  },
  "kstl": {
    "metar": "KSTL 292251Z 09011KT 10SM FEW050 BKN160 OVC250 26/17 A2990 RMK AO2 SLP116 T02610167 $",
    "windDirection": 90,
    "windSpeed": 11,
    "windGust": null,
    "visibility": 10,
    "temperatureC": 26,
    "dewPointC": 17,
    "cloudCeiling": 16000,
    "altimeter": "A2990",
    "timestamp": "2026-05-29T22:51:00+00:00",
    "station": "KSTL"
  }
}