{
  "lastUpdated": "2025-10-31T18:03:09.595808+00:00",
  "kcps": {
    "metar": "KCPS 311753Z 27006KT 10SM CLR 16/04 A3000 RMK AO2 SLP160 T01560039 10156 20033 58009",
    "windDirection": 270,
    "windSpeed": 6,
    "windGust": null,
    "visibility": 10,
    "temperatureC": 16,
    "dewPointC": 4,
    "cloudCeiling": 99999,
    "altimeter": "A3000",
    "timestamp": "2025-10-31T17:53:00+00:00",
    "station": "KCPS"
  },
  "kstl": {
    "metar": "KSTL 311751Z 26008KT 10SM FEW250 16/04 A3000 RMK AO2 SLP159 T01560044 10156 20044 58009 $",
    "windDirection": 260,
    "windSpeed": 8,
    "windGust": null,
    "visibility": 10,
    "temperatureC": 16,
    "dewPointC": 4,
    "cloudCeiling": null,
    "altimeter": "A3000",
    "timestamp": "2025-10-31T17:51:00+00:00",
    "station": "KSTL"
  }
}