{
  "lastUpdated": "2026-03-12T23:22:48.260215+00:00",
  "kcps": {
    "metar": "KCPS 122253Z 17008KT 10SM CLR 11/M04 A3006 RMK AO2 SLP183 T01111044 $",
    "windDirection": 170,
    "windSpeed": 8,
    "windGust": null,
    "visibility": 10,
    "temperatureC": 11,
    "dewPointC": -4,
    "cloudCeiling": 99999,
    "altimeter": "A3006",
    "timestamp": "2026-03-12T22:53:00+00:00",
    "station": "KCPS"
  },
  "kstl": {
    "metar": "KSTL 122251Z 15013G20KT 10SM BKN140 BKN250 12/M06 A3005 RMK AO2 SLP181 T01171061 $",
    "windDirection": 150,
    "windSpeed": 13,
    "windGust": 20,
    "visibility": 10,
    "temperatureC": 12,
    "dewPointC": -6,
    "cloudCeiling": 14000,
    "altimeter": "A3005",
    "timestamp": "2026-03-12T22:51:00+00:00",
    "station": "KSTL"
  }
}