{
  "lastUpdated": "2026-04-14T07:02:52.684751+00:00",
  "kcps": {
    "metar": "KCPS 140653Z AUTO 25008G17KT 10SM CLR 23/17 A2992 RMK AO2 SLP126 T02280167 $",
    "windDirection": 250,
    "windSpeed": 8,
    "windGust": 17,
    "visibility": 10,
    "temperatureC": 23,
    "dewPointC": 17,
    "cloudCeiling": 99999,
    "altimeter": "A2992",
    "timestamp": "2026-04-14T06:53:00+00:00",
    "station": "KCPS"
  },
  "kstl": {
    "metar": "KSTL 140651Z 22011KT 10SM FEW050 BKN220 23/17 A2992 RMK AO2 SLP118 T02330172 $",
    "windDirection": 220,
    "windSpeed": 11,
    "windGust": null,
    "visibility": 10,
    "temperatureC": 23,
    "dewPointC": 17,
    "cloudCeiling": 22000,
    "altimeter": "A2992",
    "timestamp": "2026-04-14T06:51:00+00:00",
    "station": "KSTL"
  }
}