{
  "lastUpdated": "2026-06-04T07:00:24.053671+00:00",
  "kcps": {
    "metar": "KCPS 040653Z AUTO 00000KT 10SM CLR 16/13 A3015 RMK AO2 SLP208 T01560133 $",
    "windDirection": 0,
    "windSpeed": 0,
    "windGust": null,
    "visibility": 10,
    "temperatureC": 16,
    "dewPointC": 13,
    "cloudCeiling": 99999,
    "altimeter": "A3015",
    "timestamp": "2026-06-04T06:53:00+00:00",
    "station": "KCPS"
  },
  "kstl": {
    "metar": "KSTL 040651Z 18005KT 10SM BKN250 21/11 A3016 RMK AO2 SLP201 T02110106 $",
    "windDirection": 180,
    "windSpeed": 5,
    "windGust": null,
    "visibility": 10,
    "temperatureC": 21,
    "dewPointC": 11,
    "cloudCeiling": 25000,
    "altimeter": "A3016",
    "timestamp": "2026-06-04T06:51:00+00:00",
    "station": "KSTL"
  }
}