{
  "lastUpdated": "2026-05-30T08:17:44.083457+00:00",
  "kcps": {
    "metar": "KCPS 300753Z AUTO 00000KT 10SM CLR 21/19 A2990 RMK AO2 SLP121 T02060189 $",
    "windDirection": 0,
    "windSpeed": 0,
    "windGust": null,
    "visibility": 10,
    "temperatureC": 21,
    "dewPointC": 19,
    "cloudCeiling": 99999,
    "altimeter": "A2990",
    "timestamp": "2026-05-30T07:53:00+00:00",
    "station": "KCPS"
  },
  "kstl": {
    "metar": "KSTL 300751Z 10003KT 10SM FEW049 BKN130 OVC180 22/18 A2991 RMK AO2 SLP118 T02170183 $",
    "windDirection": 100,
    "windSpeed": 3,
    "windGust": null,
    "visibility": 10,
    "temperatureC": 22,
    "dewPointC": 18,
    "cloudCeiling": 13000,
    "altimeter": "A2991",
    "timestamp": "2026-05-30T07:51:00+00:00",
    "station": "KSTL"
  }
}