{
  "lastUpdated": "2026-01-18T12:44:04.459105+00:00",
  "kcps": {
    "metar": "KCPS 181153Z 21004KT 10SM CLR M12/M17 A3019 RMK AO2 SLP231 T11171167 11094 21117 58020 $",
    "windDirection": 210,
    "windSpeed": 4,
    "windGust": null,
    "visibility": 10,
    "temperatureC": -12,
    "dewPointC": -17,
    "cloudCeiling": 99999,
    "altimeter": "A3019",
    "timestamp": "2026-01-18T11:53:00+00:00",
    "station": "KCPS"
  },
  "kstl": {
    "metar": "KSTL 181151Z 22007KT 10SM FEW025 M12/M16 A3017 RMK AO2 SLP238 70001 T11171161 11100 21117 56019 $",
    "windDirection": 220,
    "windSpeed": 7,
    "windGust": null,
    "visibility": 10,
    "temperatureC": -12,
    "dewPointC": -16,
    "cloudCeiling": null,
    "altimeter": "A3017",
    "timestamp": "2026-01-18T11:51:00+00:00",
    "station": "KSTL"
  }
}