{
  "lastUpdated": "2026-03-30T16:46:37.556758+00:00",
  "kcps": {
    "station": "KCPS",
    "metar": null,
    "error": "Failed to fetch METAR"
  },
  "kstl": {
    "metar": "KSTL 301551Z 21018G28KT 10SM FEW080 FEW250 24/12 A3000 RMK AO2 PK WND 20032/1520 SLP151 T02390117 $",
    "windDirection": 210,
    "windSpeed": 18,
    "windGust": 28,
    "visibility": 10,
    "temperatureC": 24,
    "dewPointC": 12,
    "cloudCeiling": null,
    "altimeter": "A3000",
    "timestamp": "2026-03-30T15:51:00+00:00",
    "station": "KSTL"
  }
}