{
  "lastUpdated": "2026-01-04T13:39:00.764972+00:00",
  "kcps": {
    "metar": "KCPS 041253Z 14003KT 9SM CLR M07/M08 A3022 RMK AO2 SLP238 I1000 T10721078 $",
    "windDirection": 140,
    "windSpeed": 3,
    "windGust": null,
    "visibility": 9,
    "temperatureC": -7,
    "dewPointC": -8,
    "cloudCeiling": 99999,
    "altimeter": "A3022",
    "timestamp": "2026-01-04T12:53:00+00:00",
    "station": "KCPS"
  },
  "kstl": {
    "metar": "KSTL 041251Z 00000KT 10SM FEW250 M05/M07 A3021 RMK AO2 SLP241 T10501067 $",
    "windDirection": 0,
    "windSpeed": 0,
    "windGust": null,
    "visibility": 10,
    "temperatureC": -5,
    "dewPointC": -7,
    "cloudCeiling": null,
    "altimeter": "A3021",
    "timestamp": "2026-01-04T12:51:00+00:00",
    "station": "KSTL"
  }
}