{
  "lastUpdated": "2026-02-03T14:15:30.168893+00:00",
  "kcps": {
    "metar": "KCPS 031353Z 01007KT 10SM SCT110 M01/M04 A3011 RMK AO2 SLP200 T10061039 $",
    "windDirection": 10,
    "windSpeed": 7,
    "windGust": null,
    "visibility": 10,
    "temperatureC": -1,
    "dewPointC": -4,
    "cloudCeiling": null,
    "altimeter": "A3011",
    "timestamp": "2026-02-03T13:53:00+00:00",
    "station": "KCPS"
  },
  "kstl": {
    "metar": "KSTL 031351Z 06006KT 9SM FEW110 BKN170 OVC200 M01/M03 A3011 RMK AO2 SLP208 T10061033 $",
    "windDirection": 60,
    "windSpeed": 6,
    "windGust": null,
    "visibility": 9,
    "temperatureC": -1,
    "dewPointC": -3,
    "cloudCeiling": 17000,
    "altimeter": "A3011",
    "timestamp": "2026-02-03T13:51:00+00:00",
    "station": "KSTL"
  }
}