{
  "lastUpdated": "2026-01-01T03:23:09.349660+00:00",
  "kcps": {
    "metar": "KCPS 010253Z 00000KT 10SM CLR M02/M04 A2999 RMK AO2 SLP159 T10221039 56005 $",
    "windDirection": 0,
    "windSpeed": 0,
    "windGust": null,
    "visibility": 10,
    "temperatureC": -2,
    "dewPointC": -4,
    "cloudCeiling": 99999,
    "altimeter": "A2999",
    "timestamp": "2026-01-01T02:53:00+00:00",
    "station": "KCPS"
  },
  "kstl": {
    "metar": "KSTL 010251Z 00000KT 10SM FEW250 M01/M02 A2998 RMK AO2 SLP162 T10061022 58005 $",
    "windDirection": 0,
    "windSpeed": 0,
    "windGust": null,
    "visibility": 10,
    "temperatureC": -1,
    "dewPointC": -2,
    "cloudCeiling": null,
    "altimeter": "A2998",
    "timestamp": "2026-01-01T02:51:00+00:00",
    "station": "KSTL"
  }
}