{
  "lastUpdated": "2025-10-27T21:20:56.828934+00:00",
  "kcps": {
    "metar": "KCPS 271853Z 07006KT 10SM OVC010 12/09 A3003 RMK AO2 SLP168 T01170094",
    "windDirection": 70,
    "windSpeed": 6,
    "windGust": null,
    "visibility": 10,
    "temperatureC": 12,
    "dewPointC": 9,
    "cloudCeiling": 1000,
    "altimeter": "A3003",
    "timestamp": "2025-10-27T18:53:00+00:00",
    "station": "KCPS"
  },
  "kstl": {
    "metar": "KSTL 272051Z 10004KT 10SM BKN020 14/09 A3000 RMK AO2 SLP158 T01390094 56020 $",
    "windDirection": 100,
    "windSpeed": 4,
    "windGust": null,
    "visibility": 10,
    "temperatureC": 14,
    "dewPointC": 9,
    "cloudCeiling": 2000,
    "altimeter": "A3000",
    "timestamp": "2025-10-27T20:51:00+00:00",
    "station": "KSTL"
  }
}