{
  "lastUpdated": "2026-03-16T14:01:52.824920+00:00",
  "kcps": {
    "metar": "KCPS 161353Z 29021G32KT 9SM -SN BKN027 OVC032 M06/M11 A2996 RMK AO2 PK WND 30032/1353 SNB00 SLP148 P0000 T10561111 $",
    "windDirection": 290,
    "windSpeed": 21,
    "windGust": 32,
    "visibility": 9,
    "temperatureC": -6,
    "dewPointC": -11,
    "cloudCeiling": 2700,
    "altimeter": "A2996",
    "timestamp": "2026-03-16T13:53:00+00:00",
    "station": "KCPS"
  },
  "kstl": {
    "metar": "KSTL 161351Z 30018G31KT 8SM -SN SCT024 OVC031 M06/M11 A2995 RMK AO2 PK WND 28033/1320 SLP152 P0000 T10611111 $",
    "windDirection": 300,
    "windSpeed": 18,
    "windGust": 31,
    "visibility": 8,
    "temperatureC": -6,
    "dewPointC": -11,
    "cloudCeiling": 3100,
    "altimeter": "A2995",
    "timestamp": "2026-03-16T13:51:00+00:00",
    "station": "KSTL"
  }
}