{
  "lastUpdated": "2026-02-15T05:38:00.013731+00:00",
  "kcps": {
    "metar": "KCPS 150412Z AUTO 07009KT 7SM -RA OVC009 07/06 A2989 RMK AO2 RAB06 CIG 006V012 P0001 T00720061 $",
    "windDirection": 70,
    "windSpeed": 9,
    "windGust": null,
    "visibility": 7,
    "temperatureC": 7,
    "dewPointC": 6,
    "cloudCeiling": 900,
    "altimeter": "A2989",
    "timestamp": "2026-02-15T04:12:00+00:00",
    "station": "KCPS"
  },
  "kstl": {
    "metar": "KSTL 150451Z 07012KT 4SM -RA BR BKN007 BKN010 OVC027 07/06 A2990 RMK AO2 SLP129 P0008 T00720061 $",
    "windDirection": 70,
    "windSpeed": 12,
    "windGust": null,
    "visibility": 4,
    "temperatureC": 7,
    "dewPointC": 6,
    "cloudCeiling": 700,
    "altimeter": "A2990",
    "timestamp": "2026-02-15T04:51:00+00:00",
    "station": "KSTL"
  }
}