{
  "lastUpdated": "2026-04-26T06:13:23.088725+00:00",
  "kcps": {
    "metar": "KCPS 260553Z AUTO 00000KT 10SM CLR 16/08 A2992 RMK AO2 SLP129 T01560078 10228 20150 402610122 53006 $",
    "windDirection": 0,
    "windSpeed": 0,
    "windGust": null,
    "visibility": 10,
    "temperatureC": 16,
    "dewPointC": 8,
    "cloudCeiling": 99999,
    "altimeter": "A2992",
    "timestamp": "2026-04-26T05:53:00+00:00",
    "station": "KCPS"
  },
  "kstl": {
    "metar": "KSTL 260551Z 08007KT 10SM FEW250 16/08 A2993 RMK AO2 SLP127 T01560083 10228 20156 402500117 53006 $",
    "windDirection": 80,
    "windSpeed": 7,
    "windGust": null,
    "visibility": 10,
    "temperatureC": 16,
    "dewPointC": 8,
    "cloudCeiling": null,
    "altimeter": "A2993",
    "timestamp": "2026-04-26T05:51:00+00:00",
    "station": "KSTL"
  }
}