{
  "lastUpdated": "2025-12-07T12:23:24.436340+00:00",
  "kcps": {
    "metar": "KCPS 071153Z AUTO 19003KT 8SM OVC032 04/02 A2995 RMK AO2 SLP143 T00390022 10039 20028 53003 $",
    "windDirection": 190,
    "windSpeed": 3,
    "windGust": null,
    "visibility": 8,
    "temperatureC": 4,
    "dewPointC": 2,
    "cloudCeiling": 3200,
    "altimeter": "A2995",
    "timestamp": "2025-12-07T11:53:00+00:00",
    "station": "KCPS"
  },
  "kstl": {
    "metar": "KSTL 071151Z 20004KT 10SM BKN028 04/02 A2994 RMK AO2 SLP143 T00390017 10039 20028 53006 $",
    "windDirection": 200,
    "windSpeed": 4,
    "windGust": null,
    "visibility": 10,
    "temperatureC": 4,
    "dewPointC": 2,
    "cloudCeiling": 2800,
    "altimeter": "A2994",
    "timestamp": "2025-12-07T11:51:00+00:00",
    "station": "KSTL"
  }
}