{
  "lastUpdated": "2026-05-02T15:05:09.984440+00:00",
  "kcps": {
    "metar": "KCPS 021453Z 02007KT 10SM FEW095 13/06 A3010 RMK AO2 SLP192 T01330061 51015 $",
    "windDirection": 20,
    "windSpeed": 7,
    "windGust": null,
    "visibility": 10,
    "temperatureC": 13,
    "dewPointC": 6,
    "cloudCeiling": null,
    "altimeter": "A3010",
    "timestamp": "2026-05-02T14:53:00+00:00",
    "station": "KCPS"
  },
  "kstl": {
    "metar": "KSTL 021451Z 06007KT 10SM SCT090 SCT250 13/04 A3011 RMK AO2 SLP195 T01280044 51014 $",
    "windDirection": 60,
    "windSpeed": 7,
    "windGust": null,
    "visibility": 10,
    "temperatureC": 13,
    "dewPointC": 4,
    "cloudCeiling": null,
    "altimeter": "A3011",
    "timestamp": "2026-05-02T14:51:00+00:00",
    "station": "KSTL"
  }
}