{
  "lastUpdated": "2025-11-12T15:36:35.834573+00:00",
  "kcps": {
    "metar": "KCPS 121453Z 31004KT 10SM CLR 11/01 A3013 RMK AO2 SLP204 T01060011 51020 $",
    "windDirection": 310,
    "windSpeed": 4,
    "windGust": null,
    "visibility": 10,
    "temperatureC": 11,
    "dewPointC": 1,
    "cloudCeiling": 99999,
    "altimeter": "A3013",
    "timestamp": "2025-11-12T14:53:00+00:00",
    "station": "KCPS"
  },
  "kstl": {
    "metar": "KSTL 121451Z 27005KT 10SM FEW250 11/01 A3013 RMK AO2 SLP206 T01110011 53022",
    "windDirection": 270,
    "windSpeed": 5,
    "windGust": null,
    "visibility": 10,
    "temperatureC": 11,
    "dewPointC": 1,
    "cloudCeiling": null,
    "altimeter": "A3013",
    "timestamp": "2025-11-12T14:51:00+00:00",
    "station": "KSTL"
  }
}