{
  "lastUpdated": "2025-11-15T04:47:25.977048+00:00",
  "kcps": {
    "metar": "KCPS 150353Z 18004KT 10SM CLR 19/14 A2988 RMK AO2 SLP117 T01890144 $",
    "windDirection": 180,
    "windSpeed": 4,
    "windGust": null,
    "visibility": 10,
    "temperatureC": 19,
    "dewPointC": 14,
    "cloudCeiling": 99999,
    "altimeter": "A2988",
    "timestamp": "2025-11-15T03:53:00+00:00",
    "station": "KCPS"
  },
  "kstl": {
    "metar": "KSTL 150351Z 20009KT 10SM BKN250 20/13 A2988 RMK AO2 SLP109 T02000133 $",
    "windDirection": 200,
    "windSpeed": 9,
    "windGust": null,
    "visibility": 10,
    "temperatureC": 20,
    "dewPointC": 13,
    "cloudCeiling": 25000,
    "altimeter": "A2988",
    "timestamp": "2025-11-15T03:51:00+00:00",
    "station": "KSTL"
  }
}