{
  "lastUpdated": "2026-01-06T21:02:34.412681+00:00",
  "kcps": {
    "metar": "KCPS 062053Z 25009KT 10SM CLR 20/05 A2970 RMK AO2 SLP057 T02000050 55010",
    "windDirection": 250,
    "windSpeed": 9,
    "windGust": null,
    "visibility": 10,
    "temperatureC": 20,
    "dewPointC": 5,
    "cloudCeiling": 99999,
    "altimeter": "A2970",
    "timestamp": "2026-01-06T20:53:00+00:00",
    "station": "KCPS"
  },
  "kstl": {
    "metar": "KSTL 062051Z 26013G20KT 10SM CLR 19/04 A2971 RMK AO2 SLP056 T01940044 55009 $",
    "windDirection": 260,
    "windSpeed": 13,
    "windGust": 20,
    "visibility": 10,
    "temperatureC": 19,
    "dewPointC": 4,
    "cloudCeiling": 99999,
    "altimeter": "A2971",
    "timestamp": "2026-01-06T20:51:00+00:00",
    "station": "KSTL"
  }
}