{
  "lastUpdated": "2026-03-29T04:47:36.731361+00:00",
  "kcps": {
    "metar": "KCPS 290353Z AUTO 15009KT 10SM OVC110 10/M04 A3033 RMK AO2 SLP273 T01001039 $",
    "windDirection": 150,
    "windSpeed": 9,
    "windGust": null,
    "visibility": 10,
    "temperatureC": 10,
    "dewPointC": -4,
    "cloudCeiling": 11000,
    "altimeter": "A3033",
    "timestamp": "2026-03-29T03:53:00+00:00",
    "station": "KCPS"
  },
  "kstl": {
    "metar": "KSTL 290351Z 14012KT 10SM OVC110 11/M06 A3033 RMK AO2 SLP273 T01061061 $",
    "windDirection": 140,
    "windSpeed": 12,
    "windGust": null,
    "visibility": 10,
    "temperatureC": 11,
    "dewPointC": -6,
    "cloudCeiling": 11000,
    "altimeter": "A3033",
    "timestamp": "2026-03-29T03:51:00+00:00",
    "station": "KSTL"
  }
}