{
  "lastUpdated": "2026-04-09T11:19:17.569887+00:00",
  "kcps": {
    "metar": "KCPS 091053Z AUTO 20004KT 10SM CLR 14/06 A3017 RMK AO2 SLP216 T01440056 $",
    "windDirection": 200,
    "windSpeed": 4,
    "windGust": null,
    "visibility": 10,
    "temperatureC": 14,
    "dewPointC": 6,
    "cloudCeiling": 99999,
    "altimeter": "A3017",
    "timestamp": "2026-04-09T10:53:00+00:00",
    "station": "KCPS"
  },
  "kstl": {
    "metar": "KSTL 091051Z 20006KT 10SM FEW250 17/04 A3017 RMK AO2 SLP208 T01720044 $",
    "windDirection": 200,
    "windSpeed": 6,
    "windGust": null,
    "visibility": 10,
    "temperatureC": 17,
    "dewPointC": 4,
    "cloudCeiling": null,
    "altimeter": "A3017",
    "timestamp": "2026-04-09T10:51:00+00:00",
    "station": "KSTL"
  }
}