{
  "lastUpdated": "2025-12-27T13:47:47.088777+00:00",
  "kcps": {
    "metar": "KCPS 271329Z 13007KT 1SM BR VV003 08/08 A2996 RMK AO2 T00830083 $",
    "windDirection": 130,
    "windSpeed": 7,
    "windGust": null,
    "visibility": 1,
    "temperatureC": 8,
    "dewPointC": 8,
    "cloudCeiling": 300,
    "altimeter": "A2996",
    "timestamp": "2025-12-27T13:29:00+00:00",
    "station": "KCPS"
  },
  "kstl": {
    "metar": "KSTL 271333Z 11010KT 1/2SM R30R/1600V2200FT FG VV002 08/08 A2996 RMK AO2 VIS N-NE 1/8 T00780078 $",
    "windDirection": 110,
    "windSpeed": 10,
    "windGust": null,
    "visibility": 0.5,
    "temperatureC": 8,
    "dewPointC": 8,
    "cloudCeiling": 200,
    "altimeter": "A2996",
    "timestamp": "2025-12-27T13:33:00+00:00",
    "station": "KSTL"
  }
}