{
  "lastUpdated": "2026-05-03T01:15:45.261919+00:00",
  "kcps": {
    "metar": "KCPS 030053Z 35003KT 10SM CLR 13/02 A3008 RMK AO2 SLP187 T01280017 $",
    "windDirection": 350,
    "windSpeed": 3,
    "windGust": null,
    "visibility": 10,
    "temperatureC": 13,
    "dewPointC": 2,
    "cloudCeiling": 99999,
    "altimeter": "A3008",
    "timestamp": "2026-05-03T00:53:00+00:00",
    "station": "KCPS"
  },
  "kstl": {
    "metar": "KSTL 030051Z 31004KT 10SM FEW065 BKN250 13/01 A3009 RMK AO2 SLP188 T01330011 $",
    "windDirection": 310,
    "windSpeed": 4,
    "windGust": null,
    "visibility": 10,
    "temperatureC": 13,
    "dewPointC": 1,
    "cloudCeiling": 25000,
    "altimeter": "A3009",
    "timestamp": "2026-05-03T00:51:00+00:00",
    "station": "KSTL"
  }
}