{
  "lastUpdated": "2026-05-22T17:55:38.158978+00:00",
  "kcps": {
    "metar": "KCPS 221753Z 07004KT 10SM OVC021 20/15 A2993 RMK AO2 SLP134 6//// T02000",
    "windDirection": 70,
    "windSpeed": 4,
    "windGust": null,
    "visibility": 10,
    "temperatureC": 20,
    "dewPointC": 15,
    "cloudCeiling": 2100,
    "altimeter": "A2993",
    "timestamp": "2026-05-22T17:53:00+00:00",
    "station": "KCPS"
  },
  "kstl": {
    "metar": "KSTL 221751Z 07004KT 10SM OVC022 19/14 A2995 RMK AO2 SLP136 T01890139 10194 20172 58006 $",
    "windDirection": 70,
    "windSpeed": 4,
    "windGust": null,
    "visibility": 10,
    "temperatureC": 19,
    "dewPointC": 14,
    "cloudCeiling": 2200,
    "altimeter": "A2995",
    "timestamp": "2026-05-22T17:51:00+00:00",
    "station": "KSTL"
  }
}