{
  "lastUpdated": "2025-12-29T17:35:41.999632+00:00",
  "kcps": {
    "metar": "KCPS 291653Z 30016G27KT 10SM OVC033 M07/M15 A3034 RMK AO2 PK WND 31031/1633 SNB35E45 SLP280 P0000 T10671150",
    "windDirection": 300,
    "windSpeed": 16,
    "windGust": 27,
    "visibility": 10,
    "temperatureC": -7,
    "dewPointC": -15,
    "cloudCeiling": 3300,
    "altimeter": "A3034",
    "timestamp": "2025-12-29T16:53:00+00:00",
    "station": "KCPS"
  },
  "kstl": {
    "metar": "KSTL 291651Z 28021G29KT 10SM OVC030 M07/M15 A3033 RMK AO2 PK WND 29031/1612 SLP287 T10721150 $",
    "windDirection": 280,
    "windSpeed": 21,
    "windGust": 29,
    "visibility": 10,
    "temperatureC": -7,
    "dewPointC": -15,
    "cloudCeiling": 3000,
    "altimeter": "A3033",
    "timestamp": "2025-12-29T16:51:00+00:00",
    "station": "KSTL"
  }
}