{
  "lastUpdated": "2026-02-24T23:57:30.651453+00:00",
  "kcps": {
    "metar": "KCPS 242353Z 18008KT 10SM CLR 08/M05 A2964 RMK AO2 SLP039 T00831050 10111 20061 53012 $",
    "windDirection": 180,
    "windSpeed": 8,
    "windGust": null,
    "visibility": 10,
    "temperatureC": 8,
    "dewPointC": -5,
    "cloudCeiling": 99999,
    "altimeter": "A2964",
    "timestamp": "2026-02-24T23:53:00+00:00",
    "station": "KCPS"
  },
  "kstl": {
    "metar": "KSTL 242351Z 19006KT 10SM BKN140 OVC250 11/M06 A2962 RMK AO2 SLP039 T01111061 10133 20056 53016 $",
    "windDirection": 190,
    "windSpeed": 6,
    "windGust": null,
    "visibility": 10,
    "temperatureC": 11,
    "dewPointC": -6,
    "cloudCeiling": 14000,
    "altimeter": "A2962",
    "timestamp": "2026-02-24T23:51:00+00:00",
    "station": "KSTL"
  }
}