{
  "lastUpdated": "2025-11-18T19:31:45.303851+00:00",
  "kcps": {
    "metar": "KCPS 181853Z 28004KT 10SM SCT035 SCT043 22/15 A2978 RMK AO2 SLP081 T02170150",
    "windDirection": 280,
    "windSpeed": 4,
    "windGust": null,
    "visibility": 10,
    "temperatureC": 22,
    "dewPointC": 15,
    "cloudCeiling": null,
    "altimeter": "A2978",
    "timestamp": "2025-11-18T18:53:00+00:00",
    "station": "KCPS"
  },
  "kstl": {
    "metar": "KSTL 181851Z 09004KT 10SM SCT024 BKN050 19/14 A2979 RMK AO2 SLP086 T01890139 $",
    "windDirection": 90,
    "windSpeed": 4,
    "windGust": null,
    "visibility": 10,
    "temperatureC": 19,
    "dewPointC": 14,
    "cloudCeiling": 5000,
    "altimeter": "A2979",
    "timestamp": "2025-11-18T18:51:00+00:00",
    "station": "KSTL"
  }
}