{
  "lastUpdated": "2026-01-23T10:02:47.978612+00:00",
  "kcps": {
    "metar": "KCPS 230953Z AUTO 36016KT 10SM CLR M06/M17 A3048 RMK AO2 SLP325 T10611167 $",
    "windDirection": 360,
    "windSpeed": 16,
    "windGust": null,
    "visibility": 10,
    "temperatureC": -6,
    "dewPointC": -17,
    "cloudCeiling": 99999,
    "altimeter": "A3048",
    "timestamp": "2026-01-23T09:53:00+00:00",
    "station": "KCPS"
  },
  "kstl": {
    "metar": "KSTL 230951Z 01013G20KT 10SM FEW190 BKN240 M07/M18 A3047 RMK AO2 SLP329 T10721178 $",
    "windDirection": 10,
    "windSpeed": 13,
    "windGust": 20,
    "visibility": 10,
    "temperatureC": -7,
    "dewPointC": -18,
    "cloudCeiling": 24000,
    "altimeter": "A3047",
    "timestamp": "2026-01-23T09:51:00+00:00",
    "station": "KSTL"
  }
}