{
  "lastUpdated": "2025-12-01T06:55:57.695826+00:00",
  "kcps": {
    "metar": "\u0000\u0000\u0000\u0000\u0000\u0000\u0000\u0000\u0000\u0000\u0000\u0000\u0000\u0000\u0000\u0000\u0000\u0000\u0000\u0000\u0000\u0000\u0000\u0000\u0000\u0000\u0000\u0000",
    "windDirection": null,
    "windSpeed": null,
    "windGust": null,
    "visibility": null,
    "temperatureC": null,
    "dewPointC": null,
    "cloudCeiling": null,
    "altimeter": null,
    "timestamp": null
  },
  "kstl": {
    "metar": "KSTL 010651Z 04004KT 10SM OVC014 M05/M08 A3049 RMK AO2 SLP342 T10501083 $",
    "windDirection": 40,
    "windSpeed": 4,
    "windGust": null,
    "visibility": 10,
    "temperatureC": -5,
    "dewPointC": -8,
    "cloudCeiling": 1400,
    "altimeter": "A3049",
    "timestamp": "2025-12-01T06:51:00+00:00",
    "station": "KSTL"
  }
}