{
  "lastUpdated": "2026-04-16T04:58:12.896112+00:00",
  "kcps": {
    "metar": "KCPS 160453Z AUTO 19005KT 10SM -RA FEW060 BKN075 OVC090 18/17 A2987 RMK AO2 SLP111 P0003 T01780167 $",
    "windDirection": 190,
    "windSpeed": 5,
    "windGust": null,
    "visibility": 10,
    "temperatureC": 18,
    "dewPointC": 17,
    "cloudCeiling": 7500,
    "altimeter": "A2987",
    "timestamp": "2026-04-16T04:53:00+00:00",
    "station": "KCPS"
  },
  "kstl": {
    "metar": "KSTL 160451Z 17009KT 7SM -RA OVC095 18/17 A2986 RMK AO2 SLP103 P0003 T01780167",
    "windDirection": 170,
    "windSpeed": 9,
    "windGust": null,
    "visibility": 7,
    "temperatureC": 18,
    "dewPointC": 17,
    "cloudCeiling": 9500,
    "altimeter": "A2986",
    "timestamp": "2026-04-16T04:51:00+00:00",
    "station": "KSTL"
  }
}