{
  "lastUpdated": "2026-03-25T18:46:03.487320+00:00",
  "kcps": {
    "metar": "KCPS 251753Z 21008KT 10SM CLR 23/07 A2999 RMK AO2 SLP154 T02280067 10228 20050 58025 $",
    "windDirection": 210,
    "windSpeed": 8,
    "windGust": null,
    "visibility": 10,
    "temperatureC": 23,
    "dewPointC": 7,
    "cloudCeiling": 99999,
    "altimeter": "A2999",
    "timestamp": "2026-03-25T17:53:00+00:00",
    "station": "KCPS"
  },
  "kstl": {
    "metar": "KSTL 251751Z 21009G16KT 10SM FEW150 BKN250 23/07 A2999 RMK AO2 SLP151 T02330067 10233 20067 58023",
    "windDirection": 210,
    "windSpeed": 9,
    "windGust": 16,
    "visibility": 10,
    "temperatureC": 23,
    "dewPointC": 7,
    "cloudCeiling": 25000,
    "altimeter": "A2999",
    "timestamp": "2026-03-25T17:51:00+00:00",
    "station": "KSTL"
  }
}