{
  "lastUpdated": "2026-01-19T05:00:38.037165+00:00",
  "kcps": {
    "metar": "KCPS 190453Z AUTO 31022G34KT 10SM OVC049 00/M11 A3007 RMK AO2 PK WND 32034/0450 SLP187 T00001106 $",
    "windDirection": 310,
    "windSpeed": 22,
    "windGust": 34,
    "visibility": 10,
    "temperatureC": 0,
    "dewPointC": -11,
    "cloudCeiling": 4900,
    "altimeter": "A3007",
    "timestamp": "2026-01-19T04:53:00+00:00",
    "station": "KCPS"
  },
  "kstl": {
    "metar": "KSTL 190451Z 30013G25KT 10SM BKN049 M01/M10 A3005 RMK AO2 PK WND 31033/0434 SLP191 T10061100 $",
    "windDirection": 300,
    "windSpeed": 13,
    "windGust": 25,
    "visibility": 10,
    "temperatureC": -1,
    "dewPointC": -10,
    "cloudCeiling": 4900,
    "altimeter": "A3005",
    "timestamp": "2026-01-19T04:51:00+00:00",
    "station": "KSTL"
  }
}