{
  "lastUpdated": "2026-01-18T20:02:26.123531+00:00",
  "kcps": {
    "metar": "KCPS 181953Z 20007KT 10SM OVC100 M04/M15 A3003 RMK AO2 SLP176 T10391150 $",
    "windDirection": 200,
    "windSpeed": 7,
    "windGust": null,
    "visibility": 10,
    "temperatureC": -4,
    "dewPointC": -15,
    "cloudCeiling": 10000,
    "altimeter": "A3003",
    "timestamp": "2026-01-18T19:53:00+00:00",
    "station": "KCPS"
  },
  "kstl": {
    "metar": "KSTL 181951Z 22011KT 10SM OVC095 M05/M16 A3002 RMK AO2 SLP185 T10501156 $",
    "windDirection": 220,
    "windSpeed": 11,
    "windGust": null,
    "visibility": 10,
    "temperatureC": -5,
    "dewPointC": -16,
    "cloudCeiling": 9500,
    "altimeter": "A3002",
    "timestamp": "2026-01-18T19:51:00+00:00",
    "station": "KSTL"
  }
}