{
  "lastUpdated": "2026-04-18T15:45:42.499676+00:00",
  "kcps": {
    "metar": "KCPS 181453Z 33015G24KT 10SM SCT024 BKN046 OVC055 10/03 A3002 RMK AO2 SLP162 60000 T01000033 53031 $",
    "windDirection": 330,
    "windSpeed": 15,
    "windGust": 24,
    "visibility": 10,
    "temperatureC": 10,
    "dewPointC": 3,
    "cloudCeiling": 4600,
    "altimeter": "A3002",
    "timestamp": "2026-04-18T14:53:00+00:00",
    "station": "KCPS"
  },
  "kstl": {
    "metar": "KSTL 181451Z 34010KT 10SM SCT025 BKN031 10/04 A3001 RMK AO2 SLP156 T01000039 51034 $",
    "windDirection": 340,
    "windSpeed": 10,
    "windGust": null,
    "visibility": 10,
    "temperatureC": 10,
    "dewPointC": 4,
    "cloudCeiling": 3100,
    "altimeter": "A3001",
    "timestamp": "2026-04-18T14:51:00+00:00",
    "station": "KSTL"
  }
}