{
  "lastUpdated": "2026-04-14T16:07:00.919773+00:00",
  "kcps": {
    "metar": "KCPS 141553Z 21009G19KT 190V250 10SM CLR 27/18 A2990 RMK AO2 SLP120 T02720183 $",
    "windDirection": 210,
    "windSpeed": 9,
    "windGust": 19,
    "visibility": 10,
    "temperatureC": 27,
    "dewPointC": 18,
    "cloudCeiling": 99999,
    "altimeter": "A2990",
    "timestamp": "2026-04-14T15:53:00+00:00",
    "station": "KCPS"
  },
  "kstl": {
    "metar": "KSTL 141551Z 21009G21KT 10SM FEW037 SCT150 SCT250 26/18 A2990 RMK AO2 SLP114 T02610183 $",
    "windDirection": 210,
    "windSpeed": 9,
    "windGust": 21,
    "visibility": 10,
    "temperatureC": 26,
    "dewPointC": 18,
    "cloudCeiling": null,
    "altimeter": "A2990",
    "timestamp": "2026-04-14T15:51:00+00:00",
    "station": "KSTL"
  }
}