{
  "lastUpdated": "2026-01-27T02:53:23.021616+00:00",
  "kcps": {
    "metar": "KCPS 270153Z 18005KT 10SM CLR M12/M19 A3037 RMK AO2 SLP294 T11221189 $",
    "windDirection": 180,
    "windSpeed": 5,
    "windGust": null,
    "visibility": 10,
    "temperatureC": -12,
    "dewPointC": -19,
    "cloudCeiling": 99999,
    "altimeter": "A3037",
    "timestamp": "2026-01-27T01:53:00+00:00",
    "station": "KCPS"
  },
  "kstl": {
    "metar": "KSTL 270151Z 20007KT 10SM CLR M10/M18 A3035 RMK AO2 SLP302 T11001183 $",
    "windDirection": 200,
    "windSpeed": 7,
    "windGust": null,
    "visibility": 10,
    "temperatureC": -10,
    "dewPointC": -18,
    "cloudCeiling": 99999,
    "altimeter": "A3035",
    "timestamp": "2026-01-27T01:51:00+00:00",
    "station": "KSTL"
  }
}