{
  "lastUpdated": "2026-04-04T13:12:41.743986+00:00",
  "kcps": {
    "metar": "KCPS 041253Z 30008KT 10SM -RA BKN009 OVC014 17/16 A2994 RMK AO2 RAE10B15 CIG 007V011 SLP135 P0003 T01720161 $",
    "windDirection": 300,
    "windSpeed": 8,
    "windGust": null,
    "visibility": 10,
    "temperatureC": 17,
    "dewPointC": 16,
    "cloudCeiling": 900,
    "altimeter": "A2994",
    "timestamp": "2026-04-04T12:53:00+00:00",
    "station": "KCPS"
  },
  "kstl": {
    "metar": "KSTL 041256Z 28007KT 10SM -RA FEW006 BKN060 OVC110 14/13 A2994 RMK AO2 RAB55 P0000 T01390128 $",
    "windDirection": 280,
    "windSpeed": 7,
    "windGust": null,
    "visibility": 10,
    "temperatureC": 14,
    "dewPointC": 13,
    "cloudCeiling": 6000,
    "altimeter": "A2994",
    "timestamp": "2026-04-04T12:56:00+00:00",
    "station": "KSTL"
  }
}