{
  "lastUpdated": "2025-10-18T02:47:04.274570+00:00",
  "kcps": {
    "metar": "KCPS 180153Z 17006KT 10SM CLR 22/14 A2982 RMK AO2 SLP093 T02170144 $",
    "windDirection": 170,
    "windSpeed": 6,
    "windGust": null,
    "visibility": 10,
    "temperatureC": 22,
    "dewPointC": 14,
    "cloudCeiling": 99999,
    "altimeter": "A2982",
    "timestamp": "2025-10-18T01:53:00+00:00",
    "station": "KCPS"
  },
  "kstl": {
    "metar": "KSTL 180151Z 18008KT 10SM SCT180 SCT250 24/13 A2981 RMK AO2 SLP087 T02440133 $",
    "windDirection": 180,
    "windSpeed": 8,
    "windGust": null,
    "visibility": 10,
    "temperatureC": 24,
    "dewPointC": 13,
    "cloudCeiling": null,
    "altimeter": "A2981",
    "timestamp": "2025-10-18T01:51:00+00:00",
    "station": "KSTL"
  }
}