{
  "lastUpdated": "2026-01-25T15:21:47.362034+00:00",
  "kcps": {
    "metar": "KCPS 251510Z 36014G21KT 2SM -SN BKN027 OVC038 M13/M16 A3013 RMK AO2 P0000 T11281161 $",
    "windDirection": 360,
    "windSpeed": 14,
    "windGust": 21,
    "visibility": 2,
    "temperatureC": -13,
    "dewPointC": -16,
    "cloudCeiling": 2700,
    "altimeter": "A3013",
    "timestamp": "2026-01-25T15:10:00+00:00",
    "station": "KCPS"
  },
  "kstl": {
    "metar": "KSTL 251451Z 36011KT 1 1/2SM -SN OVC023 M13/M17 A3010 RMK AO2 SLP216 P0001 60004 T11331167 50003 $",
    "windDirection": 360,
    "windSpeed": 11,
    "windGust": null,
    "visibility": 0.5,
    "temperatureC": -13,
    "dewPointC": -17,
    "cloudCeiling": 2300,
    "altimeter": "A3010",
    "timestamp": "2026-01-25T14:51:00+00:00",
    "station": "KSTL"
  }
}