{
  "lastUpdated": "2026-02-26T08:45:27.954495+00:00",
  "kcps": {
    "metar": "KCPS 260753Z AUTO 02005KT 10SM OVC055 07/01 A2982 RMK AO2 RAB27E40 SLP097 P0000 T00720006 $",
    "windDirection": 20,
    "windSpeed": 5,
    "windGust": null,
    "visibility": 10,
    "temperatureC": 7,
    "dewPointC": 1,
    "cloudCeiling": 5500,
    "altimeter": "A2982",
    "timestamp": "2026-02-26T07:53:00+00:00",
    "station": "KCPS"
  },
  "kstl": {
    "metar": "KSTL 260751Z 07009KT 10SM OVC070 07/M02 A2983 RMK AO2 SLP101 T00721017 $",
    "windDirection": 70,
    "windSpeed": 9,
    "windGust": null,
    "visibility": 10,
    "temperatureC": 7,
    "dewPointC": -2,
    "cloudCeiling": 7000,
    "altimeter": "A2983",
    "timestamp": "2026-02-26T07:51:00+00:00",
    "station": "KSTL"
  }
}