{
  "lastUpdated": "2025-11-11T18:02:48.407487+00:00",
  "kcps": {
    "metar": "KCPS 111753Z 19010G22KT 10SM CLR 09/M07 A2995 RMK AO2 SLP145 T00891067 10089 21011 56049 $",
    "windDirection": 190,
    "windSpeed": 10,
    "windGust": 22,
    "visibility": 10,
    "temperatureC": 9,
    "dewPointC": -7,
    "cloudCeiling": 99999,
    "altimeter": "A2995",
    "timestamp": "2025-11-11T17:53:00+00:00",
    "station": "KCPS"
  },
  "kstl": {
    "metar": "KSTL 111751Z 20014G27KT 10SM BKN140 BKN250 08/M08 A2992 RMK AO2 PK WND 19027/1744 SLP140 T00831078 10083 20000 58047 $",
    "windDirection": 200,
    "windSpeed": 14,
    "windGust": 27,
    "visibility": 10,
    "temperatureC": 8,
    "dewPointC": -8,
    "cloudCeiling": 14000,
    "altimeter": "A2992",
    "timestamp": "2025-11-11T17:51:00+00:00",
    "station": "KSTL"
  }
}