{
  "lastUpdated": "2026-03-15T22:03:54.582784+00:00",
  "kcps": {
    "metar": "KCPS 152153Z 18014G23KT 10SM BKN026 OVC033 18/14 A2928 RMK AO2 PK WND 19030/2112 LTG DSNT W AND NW RAB24E46 SLP913 P0000 T01830139 $",
    "windDirection": 180,
    "windSpeed": 14,
    "windGust": 23,
    "visibility": 10,
    "temperatureC": 18,
    "dewPointC": 14,
    "cloudCeiling": 2600,
    "altimeter": "A2928",
    "timestamp": "2026-03-15T21:53:00+00:00",
    "station": "KCPS"
  },
  "kstl": {
    "metar": "KSTL 152200Z 29024G36KT 1/2SM R30R/3000VP6000FT +TSRA FG SCT015 BKN029CB OVC080 09/09 A2937 RMK AO2 PK WND 29035/2152 WSHFT 2138 PRESRR OCNL LTGICCG ALQDS CB ALQDS MON NE P0014 T00940089 $",
    "windDirection": 290,
    "windSpeed": 24,
    "windGust": 36,
    "visibility": 0.5,
    "temperatureC": 9,
    "dewPointC": 9,
    "cloudCeiling": 2900,
    "altimeter": "A2937",
    "timestamp": "2026-03-15T22:00:00+00:00",
    "station": "KSTL"
  }
}