{
  "lastUpdated": "2025-11-19T22:21:24.662762+00:00",
  "kcps": {
    "metar": "KCPS 192200Z AUTO 00000KT 5SM BR OVC011 09/07 A3018 RMK AO2 CIG 009V012 T00940072",
    "windDirection": 0,
    "windSpeed": 0,
    "windGust": null,
    "visibility": 5,
    "temperatureC": 9,
    "dewPointC": 7,
    "cloudCeiling": 1100,
    "altimeter": "A3018",
    "timestamp": "2025-11-19T22:00:00+00:00",
    "station": "KCPS"
  },
  "kstl": {
    "metar": "KSTL 192151Z VRB03KT 6SM HZ OVC012 10/07 A3018 RMK AO2 SLP222 T01000072 $",
    "windDirection": null,
    "windSpeed": null,
    "windGust": null,
    "visibility": 6,
    "temperatureC": 10,
    "dewPointC": 7,
    "cloudCeiling": 1200,
    "altimeter": "A3018",
    "timestamp": "2025-11-19T21:51:00+00:00",
    "station": "KSTL"
  }
}