{
  "lastUpdated": "2026-05-20T14:19:40.010391+00:00",
  "kcps": {
    "metar": "KCPS 201353Z 36012KT 10SM SCT022 OVC032 14/09 A3022 RMK AO2 SLP232 T01390094 PNO $",
    "windDirection": 360,
    "windSpeed": 12,
    "windGust": null,
    "visibility": 10,
    "temperatureC": 14,
    "dewPointC": 9,
    "cloudCeiling": 3200,
    "altimeter": "A3022",
    "timestamp": "2026-05-20T13:53:00+00:00",
    "station": "KCPS"
  },
  "kstl": {
    "metar": "KSTL 201351Z 01010KT 10SM FEW020 OVC036 13/08 A3023 RMK AO2 SLP232 T01330083 $",
    "windDirection": 10,
    "windSpeed": 10,
    "windGust": null,
    "visibility": 10,
    "temperatureC": 13,
    "dewPointC": 8,
    "cloudCeiling": 3600,
    "altimeter": "A3023",
    "timestamp": "2026-05-20T13:51:00+00:00",
    "station": "KSTL"
  }
}