{
  "lastUpdated": "2026-05-19T02:17:36.279602+00:00",
  "kcps": {
    "metar": "KCPS 190153Z 16010KT 10SM CLR 19/17 A2992 RMK AO2 SLP127 T01940172 $",
    "windDirection": 160,
    "windSpeed": 10,
    "windGust": null,
    "visibility": 10,
    "temperatureC": 19,
    "dewPointC": 17,
    "cloudCeiling": 99999,
    "altimeter": "A2992",
    "timestamp": "2026-05-19T01:53:00+00:00",
    "station": "KCPS"
  },
  "kstl": {
    "metar": "KSTL 190151Z 18005KT 10SM FEW180 SCT250 19/17 A2992 RMK AO2 SLP123 T01940172 $",
    "windDirection": 180,
    "windSpeed": 5,
    "windGust": null,
    "visibility": 10,
    "temperatureC": 19,
    "dewPointC": 17,
    "cloudCeiling": null,
    "altimeter": "A2992",
    "timestamp": "2026-05-19T01:51:00+00:00",
    "station": "KSTL"
  }
}