{
  "lastUpdated": "2025-12-31T19:02:12.015735+00:00",
  "kcps": {
    "metar": "KCPS 311853Z 27010KT 10SM OVC022 03/M02 A3004 RMK AO2 SLP175 T00331017",
    "windDirection": 270,
    "windSpeed": 10,
    "windGust": null,
    "visibility": 10,
    "temperatureC": 3,
    "dewPointC": -2,
    "cloudCeiling": 2200,
    "altimeter": "A3004",
    "timestamp": "2025-12-31T18:53:00+00:00",
    "station": "KCPS"
  },
  "kstl": {
    "metar": "KSTL 311851Z 27015KT 10SM OVC019 03/M02 A3003 RMK AO2 SLP178 T00331017 $",
    "windDirection": 270,
    "windSpeed": 15,
    "windGust": null,
    "visibility": 10,
    "temperatureC": 3,
    "dewPointC": -2,
    "cloudCeiling": 1900,
    "altimeter": "A3003",
    "timestamp": "2025-12-31T18:51:00+00:00",
    "station": "KSTL"
  }
}