{
  "lastUpdated": "2026-04-28T15:59:19.146673+00:00",
  "kcps": {
    "metar": "KCPS 281553Z 01011KT 340V040 10SM OVC026 16/11 A3004 RMK AO2 SLP169 T01610106 $",
    "windDirection": 10,
    "windSpeed": 11,
    "windGust": null,
    "visibility": 10,
    "temperatureC": 16,
    "dewPointC": 11,
    "cloudCeiling": 2600,
    "altimeter": "A3004",
    "timestamp": "2026-04-28T15:53:00+00:00",
    "station": "KCPS"
  },
  "kstl": {
    "metar": "KSTL 281551Z 35009G16KT 10SM OVC023 14/09 A3005 RMK AO2 SLP172 T01440089 $",
    "windDirection": 350,
    "windSpeed": 9,
    "windGust": 16,
    "visibility": 10,
    "temperatureC": 14,
    "dewPointC": 9,
    "cloudCeiling": 2300,
    "altimeter": "A3005",
    "timestamp": "2026-04-28T15:51:00+00:00",
    "station": "KSTL"
  }
}