{
  "lastUpdated": "2025-12-20T19:46:28.722838+00:00",
  "kcps": {
    "metar": "KCPS 201853Z VRB04KT 10SM CLR 14/00 A2984 RMK AO2 SLP107 T01390000 $",
    "windDirection": null,
    "windSpeed": null,
    "windGust": null,
    "visibility": 10,
    "temperatureC": 14,
    "dewPointC": 0,
    "cloudCeiling": 99999,
    "altimeter": "A2984",
    "timestamp": "2025-12-20T18:53:00+00:00",
    "station": "KCPS"
  },
  "kstl": {
    "metar": "KSTL 201851Z 26010KT 10SM BKN230 13/M01 A2986 RMK AO2 SLP115 T01281011 $",
    "windDirection": 260,
    "windSpeed": 10,
    "windGust": null,
    "visibility": 10,
    "temperatureC": 13,
    "dewPointC": -1,
    "cloudCeiling": 23000,
    "altimeter": "A2986",
    "timestamp": "2025-12-20T18:51:00+00:00",
    "station": "KSTL"
  }
}