{
  "lastUpdated": "2026-03-13T23:51:33.314612+00:00",
  "kcps": {
    "metar": "KCPS 132253Z 34013KT 10SM CLR 16/M04 A2996 RMK AO2 SLP146 T01561044 $",
    "windDirection": 340,
    "windSpeed": 13,
    "windGust": null,
    "visibility": 10,
    "temperatureC": 16,
    "dewPointC": -4,
    "cloudCeiling": 99999,
    "altimeter": "A2996",
    "timestamp": "2026-03-13T22:53:00+00:00",
    "station": "KCPS"
  },
  "kstl": {
    "metar": "KSTL 132251Z 34010KT 10SM FEW200 BKN250 14/M06 A2997 RMK AO2 SLP149 T01441056 $",
    "windDirection": 340,
    "windSpeed": 10,
    "windGust": null,
    "visibility": 10,
    "temperatureC": 14,
    "dewPointC": -6,
    "cloudCeiling": 25000,
    "altimeter": "A2997",
    "timestamp": "2026-03-13T22:51:00+00:00",
    "station": "KSTL"
  }
}