{
  "lastUpdated": "2026-01-18T06:23:05.306716+00:00",
  "kcps": {
    "metar": "KCPS 180553Z 30010KT 10SM FEW033 M09/M16 A3030 RMK AO2 SLP267 T10941156 11078 21094 410221094 56003 $",
    "windDirection": 300,
    "windSpeed": 10,
    "windGust": null,
    "visibility": 10,
    "temperatureC": -9,
    "dewPointC": -16,
    "cloudCeiling": null,
    "altimeter": "A3030",
    "timestamp": "2026-01-18T05:53:00+00:00",
    "station": "KCPS"
  },
  "kstl": {
    "metar": "KSTL 180551Z 28011KT 10SM SCT100 M10/M16 A3028 RMK AO2 SLP272 T11001161 11083 21100 410331100 58003 $",
    "windDirection": 280,
    "windSpeed": 11,
    "windGust": null,
    "visibility": 10,
    "temperatureC": -10,
    "dewPointC": -16,
    "cloudCeiling": null,
    "altimeter": "A3028",
    "timestamp": "2026-01-18T05:51:00+00:00",
    "station": "KSTL"
  }
}