{
  "lastUpdated": "2026-01-26T09:12:26.878112+00:00",
  "kcps": {
    "metar": "KCPS 260753Z AUTO 32009KT 10SM CLR M16/M21 A3040 RMK AO2 SLP303 T11611206 $",
    "windDirection": 320,
    "windSpeed": 9,
    "windGust": null,
    "visibility": 10,
    "temperatureC": -16,
    "dewPointC": -21,
    "cloudCeiling": 99999,
    "altimeter": "A3040",
    "timestamp": "2026-01-26T07:53:00+00:00",
    "station": "KCPS"
  },
  "kstl": {
    "metar": "KSTL 260851Z 29008KT 10SM CLR M18/M23 A3041 RMK AO2 SLP322 T11831228 53012 $",
    "windDirection": 290,
    "windSpeed": 8,
    "windGust": null,
    "visibility": 10,
    "temperatureC": -18,
    "dewPointC": -23,
    "cloudCeiling": 99999,
    "altimeter": "A3041",
    "timestamp": "2026-01-26T08:51:00+00:00",
    "station": "KSTL"
  }
}