{
  "lastUpdated": "2025-10-18T17:02:17.622164+00:00",
  "kcps": {
    "metar": "KCPS 181653Z 00000KT 4SM -TSRA BR BKN008 BKN025 OVC070 19/18 A2981 RMK AO2 LTG DSNT ALQDS RAB1558 TSB1559 SLP091 T01940183 PNO $",
    "windDirection": 0,
    "windSpeed": 0,
    "windGust": null,
    "visibility": 4,
    "temperatureC": 19,
    "dewPointC": 18,
    "cloudCeiling": 800,
    "altimeter": "A2981",
    "timestamp": "2025-10-18T16:53:00+00:00",
    "station": "KCPS"
  },
  "kstl": {
    "metar": "KSTL 181656Z 14011KT 10SM -RA FEW034 BKN090 OVC120 19/18 A2976 RMK AO2 TSE55 PRESFR P0001 T01940183 $",
    "windDirection": 140,
    "windSpeed": 11,
    "windGust": null,
    "visibility": 10,
    "temperatureC": 19,
    "dewPointC": 18,
    "cloudCeiling": 9000,
    "altimeter": "A2976",
    "timestamp": "2025-10-18T16:56:00+00:00",
    "station": "KSTL"
  }
}