{
  "lastUpdated": "2025-11-07T23:46:26.302491+00:00",
  "kcps": {
    "metar": "KCPS 072253Z 29007KT 10SM FEW100 20/03 A2971 RMK AO2 SLP058 T02000028",
    "windDirection": 290,
    "windSpeed": 7,
    "windGust": null,
    "visibility": 10,
    "temperatureC": 20,
    "dewPointC": 3,
    "cloudCeiling": null,
    "altimeter": "A2971",
    "timestamp": "2025-11-07T22:53:00+00:00",
    "station": "KCPS"
  },
  "kstl": {
    "metar": "KSTL 072251Z 27010KT 10SM FEW070 19/03 A2972 RMK AO2 SLP057 T01940033 $",
    "windDirection": 270,
    "windSpeed": 10,
    "windGust": null,
    "visibility": 10,
    "temperatureC": 19,
    "dewPointC": 3,
    "cloudCeiling": null,
    "altimeter": "A2972",
    "timestamp": "2025-11-07T22:51:00+00:00",
    "station": "KSTL"
  }
}