{
  "lastUpdated": "2025-10-17T02:28:32.780036+00:00",
  "kcps": {
    "metar": "KCPS 170153Z 15006KT 10SM CLR 22/15 A3001 RMK AO2 SLP160 T02170150",
    "windDirection": 150,
    "windSpeed": 6,
    "windGust": null,
    "visibility": 10,
    "temperatureC": 22,
    "dewPointC": 15,
    "cloudCeiling": 99999,
    "altimeter": "A3001",
    "timestamp": "2025-10-17T01:53:00+00:00",
    "station": "KCPS"
  },
  "kstl": {
    "metar": "KSTL 170151Z 14011KT 10SM BKN250 24/14 A3001 RMK AO2 SLP154 T02390144 $",
    "windDirection": 140,
    "windSpeed": 11,
    "windGust": null,
    "visibility": 10,
    "temperatureC": 24,
    "dewPointC": 14,
    "cloudCeiling": 25000,
    "altimeter": "A3001",
    "timestamp": "2025-10-17T01:51:00+00:00",
    "station": "KSTL"
  }
}