{
  "lastUpdated": "2025-12-05T10:02:31.191452+00:00",
  "kcps": {
    "metar": "KCPS 050953Z AUTO 00000KT 10SM CLR M12/M13 A3015 RMK AO2 SLP216 I1000 T11171133",
    "windDirection": 0,
    "windSpeed": 0,
    "windGust": null,
    "visibility": 10,
    "temperatureC": -12,
    "dewPointC": -13,
    "cloudCeiling": 99999,
    "altimeter": "A3015",
    "timestamp": "2025-12-05T09:53:00+00:00",
    "station": "KCPS"
  },
  "kstl": {
    "metar": "KSTL 050951Z 00000KT 10SM CLR M10/M14 A3012 RMK AO2 SLP218 T11001139 $",
    "windDirection": 0,
    "windSpeed": 0,
    "windGust": null,
    "visibility": 10,
    "temperatureC": -10,
    "dewPointC": -14,
    "cloudCeiling": 99999,
    "altimeter": "A3012",
    "timestamp": "2025-12-05T09:51:00+00:00",
    "station": "KSTL"
  }
}