{
  "lastUpdated": "2026-04-25T02:59:41.951791+00:00",
  "kcps": {
    "metar": "KCPS 250253Z 00000KT 10SM CLR 17/16 A2982 RMK AO2 SLP095 T01670156 53015 $",
    "windDirection": 0,
    "windSpeed": 0,
    "windGust": null,
    "visibility": 10,
    "temperatureC": 17,
    "dewPointC": 16,
    "cloudCeiling": 99999,
    "altimeter": "A2982",
    "timestamp": "2026-04-25T02:53:00+00:00",
    "station": "KCPS"
  },
  "kstl": {
    "metar": "KSTL 250251Z 01007KT 10SM FEW043 SCT050 20/14 A2984 RMK AO2 SLP098 T02000144 53017 $",
    "windDirection": 10,
    "windSpeed": 7,
    "windGust": null,
    "visibility": 10,
    "temperatureC": 20,
    "dewPointC": 14,
    "cloudCeiling": null,
    "altimeter": "A2984",
    "timestamp": "2026-04-25T02:51:00+00:00",
    "station": "KSTL"
  }
}