{
  "lastUpdated": "2026-06-08T15:05:13.112421+00:00",
  "kcps": {
    "metar": "KCPS 081429Z 31005KT 4SM TSRA FEW010 BKN027 OVC034 22/21 A2994 RMK AO2 LTG DSNT W-NE P0008 T02170206 $",
    "windDirection": 310,
    "windSpeed": 5,
    "windGust": null,
    "visibility": 4,
    "temperatureC": 22,
    "dewPointC": 21,
    "cloudCeiling": 2700,
    "altimeter": "A2994",
    "timestamp": "2026-06-08T14:29:00+00:00",
    "station": "KCPS"
  },
  "kstl": {
    "metar": "KSTL 081451Z 20004KT 2SM TSRA BR SCT014CB BKN038 OVC110 21/21 A2995 RMK AO2 SLP129 FRQ LTGICCG ALQDS TS ALQDS MOV NE P0024 60088 T02110206 53013 $",
    "windDirection": 200,
    "windSpeed": 4,
    "windGust": null,
    "visibility": 2,
    "temperatureC": 21,
    "dewPointC": 21,
    "cloudCeiling": 3800,
    "altimeter": "A2995",
    "timestamp": "2026-06-08T14:51:00+00:00",
    "station": "KSTL"
  }
}