{
  "lastUpdated": "2026-01-25T13:24:35.078848+00:00",
  "kcps": {
    "station": "KCPS",
    "metar": "Data unavailable",
    "error": "Failed to fetch METAR"
  },
  "kstl": {
    "metar": "KSTL 251321Z 35012KT 1SM R30R/2200VP6000FT -SN BR OVC023 M14/M16 A3013 RMK AO2 P0000 T11391161 $",
    "windDirection": 350,
    "windSpeed": 12,
    "windGust": null,
    "visibility": 1,
    "temperatureC": -14,
    "dewPointC": -16,
    "cloudCeiling": 2300,
    "altimeter": "A3013",
    "timestamp": "2026-01-25T13:21:00+00:00",
    "station": "KSTL"
  }
}