{
  "lastUpdated": "2026-01-25T19:46:33.701194+00:00",
  "kcps": {
    "metar": "KCPS 251931Z 32014KT 2 1/2SM -SN FEW017 BKN021 OVC029 M11/M14 A3015 RMK AO2 P0000 T11111144 $",
    "windDirection": 320,
    "windSpeed": 14,
    "windGust": null,
    "visibility": 0.5,
    "temperatureC": -11,
    "dewPointC": -14,
    "cloudCeiling": 2100,
    "altimeter": "A3015",
    "timestamp": "2026-01-25T19:31:00+00:00",
    "station": "KCPS"
  },
  "kstl": {
    "metar": "KSTL 251911Z 32015G24KT 1SM R30R/5000VP6000FT -SN BKN020 OVC030 M12/M14 A3013 RMK AO2 P0000 T11171144 $",
    "windDirection": 320,
    "windSpeed": 15,
    "windGust": 24,
    "visibility": 1,
    "temperatureC": -12,
    "dewPointC": -14,
    "cloudCeiling": 2000,
    "altimeter": "A3013",
    "timestamp": "2026-01-25T19:11:00+00:00",
    "station": "KSTL"
  }
}