{
  "lastUpdated": "2025-12-01T01:31:07.635323+00:00",
  "kcps": {
    "metar": "KCPS 010053Z 32006KT 10SM OVC022 M04/M09 A3052 RMK AO2 SLP339 T10441089 $",
    "windDirection": 320,
    "windSpeed": 6,
    "windGust": null,
    "visibility": 10,
    "temperatureC": -4,
    "dewPointC": -9,
    "cloudCeiling": 2200,
    "altimeter": "A3052",
    "timestamp": "2025-12-01T00:53:00+00:00",
    "station": "KCPS"
  },
  "kstl": {
    "metar": "KSTL 010051Z 32005KT 10SM OVC019 M05/M09 A3051 RMK AO2 SLP347 T10501089 $",
    "windDirection": 320,
    "windSpeed": 5,
    "windGust": null,
    "visibility": 10,
    "temperatureC": -5,
    "dewPointC": -9,
    "cloudCeiling": 1900,
    "altimeter": "A3051",
    "timestamp": "2025-12-01T00:51:00+00:00",
    "station": "KSTL"
  }
}