{
  "lastUpdated": "2025-11-12T09:03:02.688078+00:00",
  "kcps": {
    "metar": "KCPS 120853Z 00000KT 10SM CLR 02/M02 A3001 RMK AO2 SLP163 T00171017 53010 $",
    "windDirection": 0,
    "windSpeed": 0,
    "windGust": null,
    "visibility": 10,
    "temperatureC": 2,
    "dewPointC": -2,
    "cloudCeiling": 99999,
    "altimeter": "A3001",
    "timestamp": "2025-11-12T08:53:00+00:00",
    "station": "KCPS"
  },
  "kstl": {
    "metar": "KSTL 120851Z 26008KT 10SM CLR 08/M01 A3001 RMK AO2 SLP162 T00781006 53011 $",
    "windDirection": 260,
    "windSpeed": 8,
    "windGust": null,
    "visibility": 10,
    "temperatureC": 8,
    "dewPointC": -1,
    "cloudCeiling": 99999,
    "altimeter": "A3001",
    "timestamp": "2025-11-12T08:51:00+00:00",
    "station": "KSTL"
  }
}