{
  "lastUpdated": "2025-10-26T22:46:13.626840+00:00",
  "kcps": {
    "metar": "KCPS 262153Z 08011KT 8SM -RA OVC043 12/10 A3014 RMK AO2 SLP206 P0004 T01170100 $",
    "windDirection": 80,
    "windSpeed": 11,
    "windGust": null,
    "visibility": 8,
    "temperatureC": 12,
    "dewPointC": 10,
    "cloudCeiling": 4300,
    "altimeter": "A3014",
    "timestamp": "2025-10-26T21:53:00+00:00",
    "station": "KCPS"
  },
  "kstl": {
    "metar": "KSTL 262223Z 09012KT 9SM -RA FEW009 SCT048 OVC090 11/09 A3014 RMK AO2 P0003 T01110094 $",
    "windDirection": 90,
    "windSpeed": 12,
    "windGust": null,
    "visibility": 9,
    "temperatureC": 11,
    "dewPointC": 9,
    "cloudCeiling": 9000,
    "altimeter": "A3014",
    "timestamp": "2025-10-26T22:23:00+00:00",
    "station": "KSTL"
  }
}