{
  "lastUpdated": "2025-11-29T09:21:29.378875+00:00",
  "kcps": {
    "metar": "KCPS 290853Z 15005KT 10SM BKN060 OVC080 02/M05 A3030 RMK AO2 SLP264 T00171050 52008 $",
    "windDirection": 150,
    "windSpeed": 5,
    "windGust": null,
    "visibility": 10,
    "temperatureC": 2,
    "dewPointC": -5,
    "cloudCeiling": 6000,
    "altimeter": "A3030",
    "timestamp": "2025-11-29T08:53:00+00:00",
    "station": "KCPS"
  },
  "kstl": {
    "metar": "KSTL 290914Z 13009KT 1 1/2SM -SN BR OVC013 01/M02 A3029 RMK AO2 SNB0852 P0001 T00061017 $",
    "windDirection": 130,
    "windSpeed": 9,
    "windGust": null,
    "visibility": 0.5,
    "temperatureC": 1,
    "dewPointC": -2,
    "cloudCeiling": 1300,
    "altimeter": "A3029",
    "timestamp": "2025-11-29T09:14:00+00:00",
    "station": "KSTL"
  }
}