{
  "lastUpdated": "2026-02-22T10:52:06.530008+00:00",
  "kcps": {
    "metar": "KCPS 220953Z 31015G29KT 10SM CLR M03/M11 A3036 RMK AO2 PK WND 29029/0950 SLP286 T10331111 PNO $",
    "windDirection": 310,
    "windSpeed": 15,
    "windGust": 29,
    "visibility": 10,
    "temperatureC": -3,
    "dewPointC": -11,
    "cloudCeiling": 99999,
    "altimeter": "A3036",
    "timestamp": "2026-02-22T09:53:00+00:00",
    "station": "KCPS"
  },
  "kstl": {
    "metar": "KSTL 220951Z 30013G22KT 10SM CLR M04/M11 A3036 RMK AO2 SLP291 T10441106 $",
    "windDirection": 300,
    "windSpeed": 13,
    "windGust": 22,
    "visibility": 10,
    "temperatureC": -4,
    "dewPointC": -11,
    "cloudCeiling": 99999,
    "altimeter": "A3036",
    "timestamp": "2026-02-22T09:51:00+00:00",
    "station": "KSTL"
  }
}