{
  "lastUpdated": "2026-05-19T18:48:19.838073+00:00",
  "kcps": {
    "metar": "KCPS 191753Z VRB05KT 10SM FEW075 SCT090 26/19 A3002 RMK AO2 SLP161 60000 T02560189 10256 20189 53002 $",
    "windDirection": null,
    "windSpeed": null,
    "windGust": null,
    "visibility": 10,
    "temperatureC": 26,
    "dewPointC": 19,
    "cloudCeiling": null,
    "altimeter": "A3002",
    "timestamp": "2026-05-19T17:53:00+00:00",
    "station": "KCPS"
  },
  "kstl": {
    "metar": "KSTL 191751Z 25013KT 10SM -RA FEW060 BKN095 OVC110 25/19 A3005 RMK AO2 RAB34 SLP167 P0000 60000 T02500194 10256 20183 53015 $",
    "windDirection": 250,
    "windSpeed": 13,
    "windGust": null,
    "visibility": 10,
    "temperatureC": 25,
    "dewPointC": 19,
    "cloudCeiling": 9500,
    "altimeter": "A3005",
    "timestamp": "2026-05-19T17:51:00+00:00",
    "station": "KSTL"
  }
}