{
  "lastUpdated": "2026-05-15T16:14:17.884326+00:00",
  "kcps": {
    "metar": "KCPS 151553Z 17011G21KT 10SM BKN080 23/09 A2991 RMK AO2 SLP125 T02280094 $",
    "windDirection": 170,
    "windSpeed": 11,
    "windGust": 21,
    "visibility": 10,
    "temperatureC": 23,
    "dewPointC": 9,
    "cloudCeiling": 8000,
    "altimeter": "A2991",
    "timestamp": "2026-05-15T15:53:00+00:00",
    "station": "KCPS"
  },
  "kstl": {
    "metar": "KSTL 151551Z 16012G20KT 10SM FEW075 SCT250 22/09 A2991 RMK AO2 SLP121 T02170094 $",
    "windDirection": 160,
    "windSpeed": 12,
    "windGust": 20,
    "visibility": 10,
    "temperatureC": 22,
    "dewPointC": 9,
    "cloudCeiling": null,
    "altimeter": "A2991",
    "timestamp": "2026-05-15T15:51:00+00:00",
    "station": "KSTL"
  }
}