{
  "lastUpdated": "2025-12-27T19:46:31.427730+00:00",
  "kcps": {
    "metar": "KCPS 271916Z 13008KT 1 1/2SM BR OVC003 12/11 A2984 RMK AO2 T01170111 $",
    "windDirection": 130,
    "windSpeed": 8,
    "windGust": null,
    "visibility": 0.5,
    "temperatureC": 12,
    "dewPointC": 11,
    "cloudCeiling": 300,
    "altimeter": "A2984",
    "timestamp": "2025-12-27T19:16:00+00:00",
    "station": "KCPS"
  },
  "kstl": {
    "metar": "KSTL 271851Z 10010KT 1/2SM R30R/3000FT FG OVC001 11/10 A2985 RMK AO2 SLP109 T01060100 $",
    "windDirection": 100,
    "windSpeed": 10,
    "windGust": null,
    "visibility": 0.5,
    "temperatureC": 11,
    "dewPointC": 10,
    "cloudCeiling": 100,
    "altimeter": "A2985",
    "timestamp": "2025-12-27T18:51:00+00:00",
    "station": "KSTL"
  }
}