{
  "lastUpdated": "2026-04-19T12:45:31.422603+00:00",
  "kcps": {
    "metar": "KCPS 191153Z 10SM CLR 04/02 A3023 RMK AO2 SLP238 T00390022 10056 20022 53003 $",
    "windDirection": null,
    "windSpeed": null,
    "windGust": null,
    "visibility": 10,
    "temperatureC": 4,
    "dewPointC": 2,
    "cloudCeiling": 99999,
    "altimeter": "A3023",
    "timestamp": "2026-04-19T11:53:00+00:00",
    "station": "KCPS"
  },
  "kstl": {
    "metar": "KSTL 191151Z 24005KT 10SM CLR 06/01 A3023 RMK AO2 SLP237 T00610006 10072 20056 53003 $",
    "windDirection": 240,
    "windSpeed": 5,
    "windGust": null,
    "visibility": 10,
    "temperatureC": 6,
    "dewPointC": 1,
    "cloudCeiling": 99999,
    "altimeter": "A3023",
    "timestamp": "2026-04-19T11:51:00+00:00",
    "station": "KSTL"
  }
}