{
  "lastUpdated": "2026-04-17T20:27:56.770331+00:00",
  "kcps": {
    "metar": "KCPS 171953Z 18014G27KT 10SM SCT055 29/17 A2978 RMK AO2 PK WND 20027/1947 SLP081 T02890172 $",
    "windDirection": 180,
    "windSpeed": 14,
    "windGust": 27,
    "visibility": 10,
    "temperatureC": 29,
    "dewPointC": 17,
    "cloudCeiling": null,
    "altimeter": "A2978",
    "timestamp": "2026-04-17T19:53:00+00:00",
    "station": "KCPS"
  },
  "kstl": {
    "metar": "KSTL 171951Z 17017G25KT 10SM SCT060 BKN200 BKN250 29/17 A2978 RMK AO2 SLP074 T02940167 $",
    "windDirection": 170,
    "windSpeed": 17,
    "windGust": 25,
    "visibility": 10,
    "temperatureC": 29,
    "dewPointC": 17,
    "cloudCeiling": 20000,
    "altimeter": "A2978",
    "timestamp": "2026-04-17T19:51:00+00:00",
    "station": "KSTL"
  }
}