{
  "lastUpdated": "2026-04-14T08:30:29.914643+00:00",
  "kcps": {
    "metar": "KCPS 140753Z AUTO 23009G15KT 10SM -RA FEW039 BKN048 BKN070 23/17 A2992 RMK AO2 RAB47 SLP129 P0000 T02330172 $",
    "windDirection": 230,
    "windSpeed": 9,
    "windGust": 15,
    "visibility": 10,
    "temperatureC": 23,
    "dewPointC": 17,
    "cloudCeiling": 4800,
    "altimeter": "A2992",
    "timestamp": "2026-04-14T07:53:00+00:00",
    "station": "KCPS"
  },
  "kstl": {
    "metar": "KSTL 140751Z 24015G28KT 10SM -RA FEW060 BKN110 OVC220 22/16 A2991 RMK AO2 PK WND 26034/0732 RAB31 SLP116 P0000 T02170156 $",
    "windDirection": 240,
    "windSpeed": 15,
    "windGust": 28,
    "visibility": 10,
    "temperatureC": 22,
    "dewPointC": 16,
    "cloudCeiling": 11000,
    "altimeter": "A2991",
    "timestamp": "2026-04-14T07:51:00+00:00",
    "station": "KSTL"
  }
}