{
  "lastUpdated": "2026-01-17T16:48:52.470658+00:00",
  "kcps": {
    "metar": "KCPS 171640Z 29008KT 2 1/2SM -SN FEW020 BKN026 OVC060 M06/M09 A3017 RMK AO2 SNE24B35 P0000 T10561094 $",
    "windDirection": 290,
    "windSpeed": 8,
    "windGust": null,
    "visibility": 0.5,
    "temperatureC": -6,
    "dewPointC": -9,
    "cloudCeiling": 2600,
    "altimeter": "A3017",
    "timestamp": "2026-01-17T16:40:00+00:00",
    "station": "KCPS"
  },
  "kstl": {
    "metar": "KSTL 171627Z 29011KT 8SM R30R/6000VP6000FT -SN BKN023 OVC044 M07/M11 A3016 RMK AO2 P0000 T10671111 $",
    "windDirection": 290,
    "windSpeed": 11,
    "windGust": null,
    "visibility": 8,
    "temperatureC": -7,
    "dewPointC": -11,
    "cloudCeiling": 2300,
    "altimeter": "A3016",
    "timestamp": "2026-01-17T16:27:00+00:00",
    "station": "KSTL"
  }
}