{
  "lastUpdated": "2026-02-08T15:04:34.062844+00:00",
  "kcps": {
    "metar": "KCPS 081453Z 15010KT 10SM CLR M01/M09 A3022 RMK AO2 SLP237 T10111089 51003 $",
    "windDirection": 150,
    "windSpeed": 10,
    "windGust": null,
    "visibility": 10,
    "temperatureC": -1,
    "dewPointC": -9,
    "cloudCeiling": 99999,
    "altimeter": "A3022",
    "timestamp": "2026-02-08T14:53:00+00:00",
    "station": "KCPS"
  },
  "kstl": {
    "metar": "KSTL 081451Z 13012KT 10SM BKN250 M01/M09 A3020 RMK AO2 SLP237 T10061094 50004 $",
    "windDirection": 130,
    "windSpeed": 12,
    "windGust": null,
    "visibility": 10,
    "temperatureC": -1,
    "dewPointC": -9,
    "cloudCeiling": 25000,
    "altimeter": "A3020",
    "timestamp": "2026-02-08T14:51:00+00:00",
    "station": "KSTL"
  }
}