{
  "lastUpdated": "2026-01-29T09:48:35.898388+00:00",
  "kcps": {
    "metar": "KCPS 290853Z AUTO 05004KT 10SM CLR M06/M12 A3026 RMK AO2 SLP251 T10561117 58007 $",
    "windDirection": 50,
    "windSpeed": 4,
    "windGust": null,
    "visibility": 10,
    "temperatureC": -6,
    "dewPointC": -12,
    "cloudCeiling": 99999,
    "altimeter": "A3026",
    "timestamp": "2026-01-29T08:53:00+00:00",
    "station": "KCPS"
  },
  "kstl": {
    "metar": "KSTL 290851Z 06007KT 10SM OVC220 M05/M12 A3025 RMK AO2 SLP258 T10501122 58007 $",
    "windDirection": 60,
    "windSpeed": 7,
    "windGust": null,
    "visibility": 10,
    "temperatureC": -5,
    "dewPointC": -12,
    "cloudCeiling": 22000,
    "altimeter": "A3025",
    "timestamp": "2026-01-29T08:51:00+00:00",
    "station": "KSTL"
  }
}