{
  "lastUpdated": "2025-10-16T05:21:23.339260+00:00",
  "kcps": {
    "metar": "KCPS 160453Z AUTO 00000KT 10SM CLR 16/15 A3010 RMK AO2 SLP191 T01610150",
    "windDirection": 0,
    "windSpeed": 0,
    "windGust": null,
    "visibility": 10,
    "temperatureC": 16,
    "dewPointC": 15,
    "cloudCeiling": 99999,
    "altimeter": "A3010",
    "timestamp": "2025-10-16T04:53:00+00:00",
    "station": "KCPS"
  },
  "kstl": {
    "metar": "KSTL 160451Z 09005KT 10SM CLR 21/14 A3012 RMK AO2 SLP187 T02110144",
    "windDirection": 90,
    "windSpeed": 5,
    "windGust": null,
    "visibility": 10,
    "temperatureC": 21,
    "dewPointC": 14,
    "cloudCeiling": 99999,
    "altimeter": "A3012",
    "timestamp": "2025-10-16T04:51:00+00:00",
    "station": "KSTL"
  }
}