{
  "lastUpdated": "2025-12-15T16:23:26.531912+00:00",
  "kcps": {
    "metar": "KCPS 151553Z 20012G18KT 10SM CLR M05/M15 A3038 RMK AO2 PRESFR SLP295 T10501150 $",
    "windDirection": 200,
    "windSpeed": 12,
    "windGust": 18,
    "visibility": 10,
    "temperatureC": -5,
    "dewPointC": -15,
    "cloudCeiling": 99999,
    "altimeter": "A3038",
    "timestamp": "2025-12-15T15:53:00+00:00",
    "station": "KCPS"
  },
  "kstl": {
    "metar": "KSTL 151551Z 20013G20KT 10SM FEW200 M05/M16 A3034 RMK AO2 SLP293 T10501156 $",
    "windDirection": 200,
    "windSpeed": 13,
    "windGust": 20,
    "visibility": 10,
    "temperatureC": -5,
    "dewPointC": -16,
    "cloudCeiling": null,
    "altimeter": "A3034",
    "timestamp": "2025-12-15T15:51:00+00:00",
    "station": "KSTL"
  }
}