{
  "lastUpdated": "2026-01-28T01:11:31.858064+00:00",
  "kcps": {
    "metar": "KCPS 280053Z 32009KT 10SM CLR M06/M13 A3039 RMK AO2 SLP296 T10611133 $",
    "windDirection": 320,
    "windSpeed": 9,
    "windGust": null,
    "visibility": 10,
    "temperatureC": -6,
    "dewPointC": -13,
    "cloudCeiling": 99999,
    "altimeter": "A3039",
    "timestamp": "2026-01-28T00:53:00+00:00",
    "station": "KCPS"
  },
  "kstl": {
    "metar": "KSTL 280051Z 31004KT 10SM BKN250 M07/M14 A3038 RMK AO2 SLP306 T10671139 $",
    "windDirection": 310,
    "windSpeed": 4,
    "windGust": null,
    "visibility": 10,
    "temperatureC": -7,
    "dewPointC": -14,
    "cloudCeiling": 25000,
    "altimeter": "A3038",
    "timestamp": "2026-01-28T00:51:00+00:00",
    "station": "KSTL"
  }
}