{
  "lastUpdated": "2026-01-28T12:24:12.418474+00:00",
  "kcps": {
    "metar": "KCPS 281153Z AUTO 00000KT 10SM OVC100 M11/M14 A3039 RMK AO2 SLP298 I6000 T11111144 11111 21172 50002 $",
    "windDirection": 0,
    "windSpeed": 0,
    "windGust": null,
    "visibility": 10,
    "temperatureC": -11,
    "dewPointC": -14,
    "cloudCeiling": 10000,
    "altimeter": "A3039",
    "timestamp": "2026-01-28T11:53:00+00:00",
    "station": "KCPS"
  },
  "kstl": {
    "metar": "KSTL 281151Z 00000KT 10SM FEW075 OVC095 M09/M14 A3038 RMK AO2 SLP305 4/005 T10891139 11089 21144 51003 $",
    "windDirection": 0,
    "windSpeed": 0,
    "windGust": null,
    "visibility": 10,
    "temperatureC": -9,
    "dewPointC": -14,
    "cloudCeiling": 9500,
    "altimeter": "A3038",
    "timestamp": "2026-01-28T11:51:00+00:00",
    "station": "KSTL"
  }
}