{
  "lastUpdated": "2025-11-26T05:21:40.917385+00:00",
  "kcps": {
    "metar": "KCPS 260353Z AUTO 29022G30KT 10SM SCT043 09/01 A2999 RMK AO2 PK WND 30035/0314 SLP155 T00940006",
    "windDirection": 290,
    "windSpeed": 22,
    "windGust": 30,
    "visibility": 10,
    "temperatureC": 9,
    "dewPointC": 1,
    "cloudCeiling": null,
    "altimeter": "A2999",
    "timestamp": "2025-11-26T03:53:00+00:00",
    "station": "KCPS"
  },
  "kstl": {
    "metar": "KSTL 260451Z 29020G32KT 10SM CLR 07/M01 A3000 RMK AO2 PK WND 28037/0434 SLP160 T00721011 $",
    "windDirection": 290,
    "windSpeed": 20,
    "windGust": 32,
    "visibility": 10,
    "temperatureC": 7,
    "dewPointC": -1,
    "cloudCeiling": 99999,
    "altimeter": "A3000",
    "timestamp": "2025-11-26T04:51:00+00:00",
    "station": "KSTL"
  }
}