{
  "lastUpdated": "2026-01-14T05:22:18.222794+00:00",
  "kcps": {
    "metar": "KCPS 140453Z AUTO 25006KT 10SM -RA OVC047 08/07 A2981 RMK AO2 SLP094 P0004 T00830067 $",
    "windDirection": 250,
    "windSpeed": 6,
    "windGust": null,
    "visibility": 10,
    "temperatureC": 8,
    "dewPointC": 7,
    "cloudCeiling": 4700,
    "altimeter": "A2981",
    "timestamp": "2026-01-14T04:53:00+00:00",
    "station": "KCPS"
  },
  "kstl": {
    "metar": "KSTL 140451Z 23011KT 10SM -RA OVC049 08/07 A2980 RMK AO2 SLP090 P0003 T00830067 $",
    "windDirection": 230,
    "windSpeed": 11,
    "windGust": null,
    "visibility": 10,
    "temperatureC": 8,
    "dewPointC": 7,
    "cloudCeiling": 4900,
    "altimeter": "A2980",
    "timestamp": "2026-01-14T04:51:00+00:00",
    "station": "KSTL"
  }
}