{
  "lastUpdated": "2026-05-17T15:46:48.388746+00:00",
  "kcps": {
    "metar": "KCPS 171453Z 18010G21KT 10SM CLR 25/18 A2991 RMK AO2 SLP123 T02500183 58004 $",
    "windDirection": 180,
    "windSpeed": 10,
    "windGust": 21,
    "visibility": 10,
    "temperatureC": 25,
    "dewPointC": 18,
    "cloudCeiling": 99999,
    "altimeter": "A2991",
    "timestamp": "2026-05-17T14:53:00+00:00",
    "station": "KCPS"
  },
  "kstl": {
    "metar": "KSTL 171451Z 19017G24KT 10SM SCT150 BKN250 24/18 A2990 RMK AO2 PK WND 20026/1359 SLP115 T02440183 58004 $",
    "windDirection": 190,
    "windSpeed": 17,
    "windGust": 24,
    "visibility": 10,
    "temperatureC": 24,
    "dewPointC": 18,
    "cloudCeiling": 25000,
    "altimeter": "A2990",
    "timestamp": "2026-05-17T14:51:00+00:00",
    "station": "KSTL"
  }
}