{
  "lastUpdated": "2026-02-20T02:36:03.215259+00:00",
  "kcps": {
    "metar": "KCPS 200153Z 26015G26KT 10SM CLR 19/M03 A2944 RMK AO2 PK WND 29027/0113 SLP968 T01891028 $",
    "windDirection": 260,
    "windSpeed": 15,
    "windGust": 26,
    "visibility": 10,
    "temperatureC": 19,
    "dewPointC": -3,
    "cloudCeiling": 99999,
    "altimeter": "A2944",
    "timestamp": "2026-02-20T01:53:00+00:00",
    "station": "KCPS"
  },
  "kstl": {
    "metar": "KSTL 200151Z 26014G25KT 10SM SCT200 17/M04 A2945 RMK AO2 PK WND 27037/0119 SLP973 T01671039 $",
    "windDirection": 260,
    "windSpeed": 14,
    "windGust": 25,
    "visibility": 10,
    "temperatureC": 17,
    "dewPointC": -4,
    "cloudCeiling": null,
    "altimeter": "A2945",
    "timestamp": "2026-02-20T01:51:00+00:00",
    "station": "KSTL"
  }
}