{
  "lastUpdated": "2026-03-13T00:49:55.892781+00:00",
  "kcps": {
    "metar": "KCPS 122353Z 15008KT 10SM CLR 10/M02 A3003 RMK AO2 SLP172 T01001022 10128 20094 56044 $",
    "windDirection": 150,
    "windSpeed": 8,
    "windGust": null,
    "visibility": 10,
    "temperatureC": 10,
    "dewPointC": -2,
    "cloudCeiling": 99999,
    "altimeter": "A3003",
    "timestamp": "2026-03-12T23:53:00+00:00",
    "station": "KCPS"
  },
  "kstl": {
    "metar": "KSTL 122351Z 16012KT 10SM SCT200 BKN250 12/M06 A3001 RMK AO2 SLP167 T01171061 10128 20089 56048 $",
    "windDirection": 160,
    "windSpeed": 12,
    "windGust": null,
    "visibility": 10,
    "temperatureC": 12,
    "dewPointC": -6,
    "cloudCeiling": 25000,
    "altimeter": "A3001",
    "timestamp": "2026-03-12T23:51:00+00:00",
    "station": "KSTL"
  }
}