{
  "lastUpdated": "2025-12-29T04:59:00.292970+00:00",
  "kcps": {
    "metar": "KCPS 290453Z AUTO 29022G32KT 10SM -SN BKN029 M03/M09 A3004 RMK AO2 PK WND 29037/0415 SLP172 P0000 T10331094 $",
    "windDirection": 290,
    "windSpeed": 22,
    "windGust": 32,
    "visibility": 10,
    "temperatureC": -3,
    "dewPointC": -9,
    "cloudCeiling": 2900,
    "altimeter": "A3004",
    "timestamp": "2025-12-29T04:53:00+00:00",
    "station": "KCPS"
  },
  "kstl": {
    "metar": "KSTL 290451Z 29025G35KT 10SM BKN027 M04/M11 A3003 RMK AO2 PK WND 29039/0406 SLP170 T10441106 $",
    "windDirection": 290,
    "windSpeed": 25,
    "windGust": 35,
    "visibility": 10,
    "temperatureC": -4,
    "dewPointC": -11,
    "cloudCeiling": 2700,
    "altimeter": "A3003",
    "timestamp": "2025-12-29T04:51:00+00:00",
    "station": "KSTL"
  }
}