{
  "lastUpdated": "2025-11-01T22:02:13.225751+00:00",
  "kcps": {
    "metar": "KCPS 012153Z AUTO 33010KT 10SM -RA OVC065 09/03 A3011 RMK AO2 RAB2057E11B40 SLP198 P0000 T00890033 TSNO",
    "windDirection": 330,
    "windSpeed": 10,
    "windGust": null,
    "visibility": 10,
    "temperatureC": 9,
    "dewPointC": 3,
    "cloudCeiling": 6500,
    "altimeter": "A3011",
    "timestamp": "2025-11-01T21:53:00+00:00",
    "station": "KCPS"
  },
  "kstl": {
    "metar": "KSTL 012151Z 30010KT 10SM SCT040 BKN060 BKN075 09/02 A3012 RMK AO2 RAB07E23 SLP202 P0000 T00890022 $",
    "windDirection": 300,
    "windSpeed": 10,
    "windGust": null,
    "visibility": 10,
    "temperatureC": 9,
    "dewPointC": 2,
    "cloudCeiling": 6000,
    "altimeter": "A3012",
    "timestamp": "2025-11-01T21:51:00+00:00",
    "station": "KSTL"
  }
}