{
  "lastUpdated": "2026-01-30T19:23:54.541020+00:00",
  "kcps": {
    "metar": "KCPS 301853Z 35009KT 10SM CLR M08/M17 A3039 RMK AO2 SLP300 T10781172 $",
    "windDirection": 350,
    "windSpeed": 9,
    "windGust": null,
    "visibility": 10,
    "temperatureC": -8,
    "dewPointC": -17,
    "cloudCeiling": 99999,
    "altimeter": "A3039",
    "timestamp": "2026-01-30T18:53:00+00:00",
    "station": "KCPS"
  },
  "kstl": {
    "metar": "KSTL 301851Z 33008KT 10SM BKN180 M09/M18 A3039 RMK AO2 SLP312 T10941178 $",
    "windDirection": 330,
    "windSpeed": 8,
    "windGust": null,
    "visibility": 10,
    "temperatureC": -9,
    "dewPointC": -18,
    "cloudCeiling": 18000,
    "altimeter": "A3039",
    "timestamp": "2026-01-30T18:51:00+00:00",
    "station": "KSTL"
  }
}