{
  "lastUpdated": "2026-02-13T03:37:51.549500+00:00",
  "kcps": {
    "metar": "KCPS 130253Z 15005KT 10SM CLR 06/M03 A3020 RMK AO2 SLP229 T00561033 53007 $",
    "windDirection": 150,
    "windSpeed": 5,
    "windGust": null,
    "visibility": 10,
    "temperatureC": 6,
    "dewPointC": -3,
    "cloudCeiling": 99999,
    "altimeter": "A3020",
    "timestamp": "2026-02-13T02:53:00+00:00",
    "station": "KCPS"
  },
  "kstl": {
    "metar": "KSTL 130251Z 13006KT 10SM FEW070 05/M04 A3020 RMK AO2 SLP230 T00501039 53005 $",
    "windDirection": 130,
    "windSpeed": 6,
    "windGust": null,
    "visibility": 10,
    "temperatureC": 5,
    "dewPointC": -4,
    "cloudCeiling": null,
    "altimeter": "A3020",
    "timestamp": "2026-02-13T02:51:00+00:00",
    "station": "KSTL"
  }
}