{
  "lastUpdated": "2026-02-21T07:02:42.021306+00:00",
  "kcps": {
    "metar": "KCPS 210653Z AUTO 36003KT 10SM FEW120 01/M05 A3007 RMK AO2 SLP185 T00061050 PNO $",
    "windDirection": 360,
    "windSpeed": 3,
    "windGust": null,
    "visibility": 10,
    "temperatureC": 1,
    "dewPointC": -5,
    "cloudCeiling": null,
    "altimeter": "A3007",
    "timestamp": "2026-02-21T06:53:00+00:00",
    "station": "KCPS"
  },
  "kstl": {
    "metar": "KSTL 210651Z 01005KT 10SM BKN120 00/M06 A3006 RMK AO2 SLP188 T00001061 $",
    "windDirection": 10,
    "windSpeed": 5,
    "windGust": null,
    "visibility": 10,
    "temperatureC": 0,
    "dewPointC": -6,
    "cloudCeiling": 12000,
    "altimeter": "A3006",
    "timestamp": "2026-02-21T06:51:00+00:00",
    "station": "KSTL"
  }
}