{
  "lastUpdated": "2026-05-14T01:20:02.755779+00:00",
  "kcps": {
    "metar": "KCPS 140053Z 35009KT 10SM CLR 20/04 A3002 RMK AO2 SLP164 T02000039 $",
    "windDirection": 350,
    "windSpeed": 9,
    "windGust": null,
    "visibility": 10,
    "temperatureC": 20,
    "dewPointC": 4,
    "cloudCeiling": 99999,
    "altimeter": "A3002",
    "timestamp": "2026-05-14T00:53:00+00:00",
    "station": "KCPS"
  },
  "kstl": {
    "metar": "KSTL 140051Z 34008KT 10SM CLR 20/02 A3004 RMK AO2 SLP165 T02000022 $",
    "windDirection": 340,
    "windSpeed": 8,
    "windGust": null,
    "visibility": 10,
    "temperatureC": 20,
    "dewPointC": 2,
    "cloudCeiling": 99999,
    "altimeter": "A3004",
    "timestamp": "2026-05-14T00:51:00+00:00",
    "station": "KSTL"
  }
}