{
  "lastUpdated": "2026-01-08T00:41:50.938093+00:00",
  "kcps": {
    "metar": "KCPS 072253Z 16005KT 10SM CLR 14/03 A2991 RMK AO2 SLP128 T01390033 $",
    "windDirection": 160,
    "windSpeed": 5,
    "windGust": null,
    "visibility": 10,
    "temperatureC": 14,
    "dewPointC": 3,
    "cloudCeiling": 99999,
    "altimeter": "A2991",
    "timestamp": "2026-01-07T22:53:00+00:00",
    "station": "KCPS"
  },
  "kstl": {
    "metar": "KSTL 072351Z 15009KT 10SM FEW200 BKN250 14/03 A2990 RMK AO2 SLP126 T01440028 10183 20111 56007 $",
    "windDirection": 150,
    "windSpeed": 9,
    "windGust": null,
    "visibility": 10,
    "temperatureC": 14,
    "dewPointC": 3,
    "cloudCeiling": 25000,
    "altimeter": "A2990",
    "timestamp": "2026-01-07T23:51:00+00:00",
    "station": "KSTL"
  }
}