{
  "lastUpdated": "2026-03-12T07:31:57.578531+00:00",
  "kcps": {
    "metar": "KCPS 120653Z AUTO 33007KT 10SM CLR 03/M02 A3030 RMK AO2 SLP262 T00281022 $",
    "windDirection": 330,
    "windSpeed": 7,
    "windGust": null,
    "visibility": 10,
    "temperatureC": 3,
    "dewPointC": -2,
    "cloudCeiling": 99999,
    "altimeter": "A3030",
    "timestamp": "2026-03-12T06:53:00+00:00",
    "station": "KCPS"
  },
  "kstl": {
    "metar": "KSTL 120651Z 31007KT 10SM FEW250 03/M02 A3030 RMK AO2 SLP267 T00281022 $",
    "windDirection": 310,
    "windSpeed": 7,
    "windGust": null,
    "visibility": 10,
    "temperatureC": 3,
    "dewPointC": -2,
    "cloudCeiling": null,
    "altimeter": "A3030",
    "timestamp": "2026-03-12T06:51:00+00:00",
    "station": "KSTL"
  }
}