{
  "lastUpdated": "2026-02-20T01:31:40.030830+00:00",
  "kcps": {
    "metar": "KCPS 200053Z 27011KT 10SM CLR 21/01 A2942 RMK AO2 SLP960 T02060006 $",
    "windDirection": 270,
    "windSpeed": 11,
    "windGust": null,
    "visibility": 10,
    "temperatureC": 21,
    "dewPointC": 1,
    "cloudCeiling": 99999,
    "altimeter": "A2942",
    "timestamp": "2026-02-20T00:53:00+00:00",
    "station": "KCPS"
  },
  "kstl": {
    "metar": "KSTL 200051Z 26012KT 10SM FEW120 FEW250 18/03 A2943 RMK AO2 SLP965 T01830028 $",
    "windDirection": 260,
    "windSpeed": 12,
    "windGust": null,
    "visibility": 10,
    "temperatureC": 18,
    "dewPointC": 3,
    "cloudCeiling": null,
    "altimeter": "A2943",
    "timestamp": "2026-02-20T00:51:00+00:00",
    "station": "KSTL"
  }
}