{
  "lastUpdated": "2026-02-02T18:09:40.599264+00:00",
  "kcps": {
    "metar": "KCPS 021753Z 00000KT 10SM OVC046 02/M05 A3019 RMK AO2 SLP228 T00221050 10022 21028 58005 $",
    "windDirection": 0,
    "windSpeed": 0,
    "windGust": null,
    "visibility": 10,
    "temperatureC": 2,
    "dewPointC": -5,
    "cloudCeiling": 4600,
    "altimeter": "A3019",
    "timestamp": "2026-02-02T17:53:00+00:00",
    "station": "KCPS"
  },
  "kstl": {
    "metar": "KSTL 021751Z 00000KT 10SM OVC042 02/M05 A3019 RMK AO2 SLP235 4/004 933005 T00221050 10022 21011 58002 $",
    "windDirection": 0,
    "windSpeed": 0,
    "windGust": null,
    "visibility": 10,
    "temperatureC": 2,
    "dewPointC": -5,
    "cloudCeiling": 4200,
    "altimeter": "A3019",
    "timestamp": "2026-02-02T17:51:00+00:00",
    "station": "KSTL"
  }
}