{
  "lastUpdated": "2025-11-29T19:02:14.668371+00:00",
  "kcps": {
    "metar": "KCPS 291853Z 14011KT 3SM RA BR SCT036 OVC045 01/00 A2997 RMK AO2 PRESFR SLP150 P0013 T00110000 $",
    "windDirection": 140,
    "windSpeed": 11,
    "windGust": null,
    "visibility": 3,
    "temperatureC": 1,
    "dewPointC": 0,
    "cloudCeiling": 4500,
    "altimeter": "A2997",
    "timestamp": "2025-11-29T18:53:00+00:00",
    "station": "KCPS"
  },
  "kstl": {
    "metar": "KSTL 291851Z 14013KT 4SM -RA BR SCT011 BKN014 OVC033 02/01 A2994 RMK AO2 SLP148 P0008 T00170006 $",
    "windDirection": 140,
    "windSpeed": 13,
    "windGust": null,
    "visibility": 4,
    "temperatureC": 2,
    "dewPointC": 1,
    "cloudCeiling": 1400,
    "altimeter": "A2994",
    "timestamp": "2025-11-29T18:51:00+00:00",
    "station": "KSTL"
  }
}