{
  "lastUpdated": "2026-02-22T23:50:54.306252+00:00",
  "kcps": {
    "metar": "KCPS 222153Z 30017G24KT 10SM CLR 00/M12 A3045 RMK AO2 PK WND 31029/2113 SLP317 T00001122 PNO $",
    "windDirection": 300,
    "windSpeed": 17,
    "windGust": 24,
    "visibility": 10,
    "temperatureC": 0,
    "dewPointC": -12,
    "cloudCeiling": 99999,
    "altimeter": "A3045",
    "timestamp": "2026-02-22T21:53:00+00:00",
    "station": "KCPS"
  },
  "kstl": {
    "metar": "KSTL 222251Z 32017G26KT 10SM CLR 00/M13 A3046 RMK AO2 PK WND 31027/2232 SLP326 T00001133 $",
    "windDirection": 320,
    "windSpeed": 17,
    "windGust": 26,
    "visibility": 10,
    "temperatureC": 0,
    "dewPointC": -13,
    "cloudCeiling": 99999,
    "altimeter": "A3046",
    "timestamp": "2026-02-22T22:51:00+00:00",
    "station": "KSTL"
  }
}