{
  "lastUpdated": "2026-02-23T15:30:17.608964+00:00",
  "kcps": {
    "metar": "KCPS 231521Z 33011KT 10SM BKN025 OVC041 M07/M14 A3060 RMK AO2 T10721139 PNO $",
    "windDirection": 330,
    "windSpeed": 11,
    "windGust": null,
    "visibility": 10,
    "temperatureC": -7,
    "dewPointC": -14,
    "cloudCeiling": 2500,
    "altimeter": "A3060",
    "timestamp": "2026-02-23T15:21:00+00:00",
    "station": "KCPS"
  },
  "kstl": {
    "metar": "KSTL 231451Z COR 32010KT 10SM FEW024 SCT038 SCT250 M07/M14 A3059 RMK AO2 SNE43 SLP373 P0000 60000 T10721139 51012 $",
    "windDirection": 320,
    "windSpeed": 10,
    "windGust": null,
    "visibility": 10,
    "temperatureC": -7,
    "dewPointC": -14,
    "cloudCeiling": null,
    "altimeter": "A3059",
    "timestamp": "2026-02-23T14:51:00+00:00",
    "station": "KSTL"
  }
}