{
  "lastUpdated": "2026-02-17T06:34:20.160265+00:00",
  "kcps": {
    "metar": "KCPS 170553Z AUTO 15005KT 10SM CLR 08/05 A2998 RMK AO2 SLP153 T00780050 10144 20078 401891006 53002 $",
    "windDirection": 150,
    "windSpeed": 5,
    "windGust": null,
    "visibility": 10,
    "temperatureC": 8,
    "dewPointC": 5,
    "cloudCeiling": 99999,
    "altimeter": "A2998",
    "timestamp": "2026-02-17T05:53:00+00:00",
    "station": "KCPS"
  },
  "kstl": {
    "metar": "KSTL 170551Z 14006KT 10SM FEW250 09/04 A2997 RMK AO2 SLP147 T00940039 10161 20094 401940050 51001 $",
    "windDirection": 140,
    "windSpeed": 6,
    "windGust": null,
    "visibility": 10,
    "temperatureC": 9,
    "dewPointC": 4,
    "cloudCeiling": null,
    "altimeter": "A2997",
    "timestamp": "2026-02-17T05:51:00+00:00",
    "station": "KSTL"
  }
}