{
  "lastUpdated": "2026-01-16T06:56:27.649329+00:00",
  "kcps": {
    "metar": "KCPS 160653Z AUTO 18006KT 10SM OVC060 01/M09 A2973 RMK AO2 SLP070 T00061094 $",
    "windDirection": 180,
    "windSpeed": 6,
    "windGust": null,
    "visibility": 10,
    "temperatureC": 1,
    "dewPointC": -9,
    "cloudCeiling": 6000,
    "altimeter": "A2973",
    "timestamp": "2026-01-16T06:53:00+00:00",
    "station": "KCPS"
  },
  "kstl": {
    "metar": "KSTL 160651Z 17007KT 10SM OVC055 01/M11 A2971 RMK AO2 SLP071 T00111111 $",
    "windDirection": 170,
    "windSpeed": 7,
    "windGust": null,
    "visibility": 10,
    "temperatureC": 1,
    "dewPointC": -11,
    "cloudCeiling": 5500,
    "altimeter": "A2971",
    "timestamp": "2026-01-16T06:51:00+00:00",
    "station": "KSTL"
  }
}