{
  "lastUpdated": "2026-05-19T22:40:21.175940+00:00",
  "kcps": {
    "metar": "KCPS 192153Z 33007KT 10SM SCT100 BKN120 24/19 A3001 RMK AO2 RAE29 PRESFR SLP158 P0000 T02390194 $",
    "windDirection": 330,
    "windSpeed": 7,
    "windGust": null,
    "visibility": 10,
    "temperatureC": 24,
    "dewPointC": 19,
    "cloudCeiling": 12000,
    "altimeter": "A3001",
    "timestamp": "2026-05-19T21:53:00+00:00",
    "station": "KCPS"
  },
  "kstl": {
    "metar": "KSTL 192224Z 32004KT 10SM FEW025 BKN032 OVC180 22/19 A3004 RMK AO2 T02220189 $",
    "windDirection": 320,
    "windSpeed": 4,
    "windGust": null,
    "visibility": 10,
    "temperatureC": 22,
    "dewPointC": 19,
    "cloudCeiling": 3200,
    "altimeter": "A3004",
    "timestamp": "2026-05-19T22:24:00+00:00",
    "station": "KSTL"
  }
}