{
  "lastUpdated": "2025-10-15T11:21:03.516991+00:00",
  "kcps": {
    "metar": "KCPS 151053Z AUTO 00000KT 10SM CLR 13/12 A3018 RMK AO2 SLP217 T01280122 $",
    "windDirection": 0,
    "windSpeed": 0,
    "windGust": null,
    "visibility": 10,
    "temperatureC": 13,
    "dewPointC": 12,
    "cloudCeiling": 99999,
    "altimeter": "A3018",
    "timestamp": "2025-10-15T10:53:00+00:00",
    "station": "KCPS"
  },
  "kstl": {
    "metar": "KSTL 151051Z 09003KT 10SM CLR 17/13 A3019 RMK AO2 SLP213 T01670128 $",
    "windDirection": 90,
    "windSpeed": 3,
    "windGust": null,
    "visibility": 10,
    "temperatureC": 17,
    "dewPointC": 13,
    "cloudCeiling": 99999,
    "altimeter": "A3019",
    "timestamp": "2025-10-15T10:51:00+00:00",
    "station": "KSTL"
  }
}