{
  "lastUpdated": "2026-03-21T11:35:57.869963+00:00",
  "kcps": {
    "metar": "KCPS 211053Z 00000KT 10SM CLR 10/08 A2986 RMK AO2 SLP108 T01000078 $",
    "windDirection": 0,
    "windSpeed": 0,
    "windGust": null,
    "visibility": 10,
    "temperatureC": 10,
    "dewPointC": 8,
    "cloudCeiling": 99999,
    "altimeter": "A2986",
    "timestamp": "2026-03-21T10:53:00+00:00",
    "station": "KCPS"
  },
  "kstl": {
    "metar": "KSTL 211051Z 00000KT 10SM CLR 13/07 A2987 RMK AO2 SLP104 T01280072 $",
    "windDirection": 0,
    "windSpeed": 0,
    "windGust": null,
    "visibility": 10,
    "temperatureC": 13,
    "dewPointC": 7,
    "cloudCeiling": 99999,
    "altimeter": "A2987",
    "timestamp": "2026-03-21T10:51:00+00:00",
    "station": "KSTL"
  }
}