{
  "lastUpdated": "2025-12-09T18:51:42.247066+00:00",
  "kcps": {
    "metar": "KCPS 091753Z 18010KT 10SM CLR 10/01 A2985 RMK AO2 SLP110 T01000006 10100 20022 58037",
    "windDirection": 180,
    "windSpeed": 10,
    "windGust": null,
    "visibility": 10,
    "temperatureC": 10,
    "dewPointC": 1,
    "cloudCeiling": 99999,
    "altimeter": "A2985",
    "timestamp": "2025-12-09T17:53:00+00:00",
    "station": "KCPS"
  },
  "kstl": {
    "metar": "KSTL 091751Z 20012KT 10SM SCT110 SCT250 10/01 A2984 RMK AO2 SLP109 T01000006 10100 20028 58033 $",
    "windDirection": 200,
    "windSpeed": 12,
    "windGust": null,
    "visibility": 10,
    "temperatureC": 10,
    "dewPointC": 1,
    "cloudCeiling": null,
    "altimeter": "A2984",
    "timestamp": "2025-12-09T17:51:00+00:00",
    "station": "KSTL"
  }
}