{
  "lastUpdated": "2026-01-24T20:47:48.259866+00:00",
  "kcps": {
    "metar": "KCPS 242017Z 02008KT 1SM -SN BKN029 OVC036 M14/M17 A3048 RMK AO2 P0001 T11391172 $",
    "windDirection": 20,
    "windSpeed": 8,
    "windGust": null,
    "visibility": 1,
    "temperatureC": -14,
    "dewPointC": -17,
    "cloudCeiling": 2900,
    "altimeter": "A3048",
    "timestamp": "2026-01-24T20:17:00+00:00",
    "station": "KCPS"
  },
  "kstl": {
    "metar": "KSTL 242035Z 05008KT 2 1/2SM -SN BKN032 OVC041 M14/M18 A3046 RMK AO2 P0002 T11441178 $",
    "windDirection": 50,
    "windSpeed": 8,
    "windGust": null,
    "visibility": 0.5,
    "temperatureC": -14,
    "dewPointC": -18,
    "cloudCeiling": 3200,
    "altimeter": "A3046",
    "timestamp": "2026-01-24T20:35:00+00:00",
    "station": "KSTL"
  }
}