{
  "lastUpdated": "2026-04-29T08:31:17.132822+00:00",
  "kcps": {
    "metar": "KCPS 290821Z AUTO 35009KT 10SM SCT012 BKN041 OVC049 13/12 A2993 RMK AO2 T01330117 $",
    "windDirection": 350,
    "windSpeed": 9,
    "windGust": null,
    "visibility": 10,
    "temperatureC": 13,
    "dewPointC": 12,
    "cloudCeiling": 4100,
    "altimeter": "A2993",
    "timestamp": "2026-04-29T08:21:00+00:00",
    "station": "KCPS"
  },
  "kstl": {
    "metar": "KSTL 290751Z 32007KT 10SM -RA FEW006 BKN060 BKN075 13/12 A2993 RMK AO2 SLP132 P0005 T01280117 $",
    "windDirection": 320,
    "windSpeed": 7,
    "windGust": null,
    "visibility": 10,
    "temperatureC": 13,
    "dewPointC": 12,
    "cloudCeiling": 6000,
    "altimeter": "A2993",
    "timestamp": "2026-04-29T07:51:00+00:00",
    "station": "KSTL"
  }
}