{
  "lastUpdated": "2026-04-19T16:18:44.070579+00:00",
  "kcps": {
    "metar": "KCPS 191553Z 27009KT 10SM CLR 16/02 A3024 RMK AO2 SLP241 T01560022 $",
    "windDirection": 270,
    "windSpeed": 9,
    "windGust": null,
    "visibility": 10,
    "temperatureC": 16,
    "dewPointC": 2,
    "cloudCeiling": 99999,
    "altimeter": "A3024",
    "timestamp": "2026-04-19T15:53:00+00:00",
    "station": "KCPS"
  },
  "kstl": {
    "metar": "KSTL 191551Z 27010KT 10SM CLR 14/02 A3025 RMK AO2 SLP244 T01440017 $",
    "windDirection": 270,
    "windSpeed": 10,
    "windGust": null,
    "visibility": 10,
    "temperatureC": 14,
    "dewPointC": 2,
    "cloudCeiling": 99999,
    "altimeter": "A3025",
    "timestamp": "2026-04-19T15:51:00+00:00",
    "station": "KSTL"
  }
}