{
  "lastUpdated": "2026-01-12T08:02:51.113706+00:00",
  "kcps": {
    "metar": "KCPS 120753Z AUTO 18005KT 10SM CLR M06/M08 A3039 RMK AO2 SLP295 T10561078 $",
    "windDirection": 180,
    "windSpeed": 5,
    "windGust": null,
    "visibility": 10,
    "temperatureC": -6,
    "dewPointC": -8,
    "cloudCeiling": 99999,
    "altimeter": "A3039",
    "timestamp": "2026-01-12T07:53:00+00:00",
    "station": "KCPS"
  },
  "kstl": {
    "metar": "KSTL 120751Z 21007KT 10SM CLR M01/M08 A3037 RMK AO2 SLP295 T10061083 $",
    "windDirection": 210,
    "windSpeed": 7,
    "windGust": null,
    "visibility": 10,
    "temperatureC": -1,
    "dewPointC": -8,
    "cloudCeiling": 99999,
    "altimeter": "A3037",
    "timestamp": "2026-01-12T07:51:00+00:00",
    "station": "KSTL"
  }
}