{
  "lastUpdated": "2026-06-07T21:07:24.877673+00:00",
  "kcps": {
    "metar": "KCPS 072053Z 17007KT 10SM FEW100 31/18 A2986 RMK AO2 SLP106 T03110183 56014 $",
    "windDirection": 170,
    "windSpeed": 7,
    "windGust": null,
    "visibility": 10,
    "temperatureC": 31,
    "dewPointC": 18,
    "cloudCeiling": null,
    "altimeter": "A2986",
    "timestamp": "2026-06-07T20:53:00+00:00",
    "station": "KCPS"
  },
  "kstl": {
    "metar": "KSTL 072051Z 17010KT 10SM SCT048 BKN120 BKN250 30/19 A2987 RMK AO2 SLP102 T03000189 57013 $",
    "windDirection": 170,
    "windSpeed": 10,
    "windGust": null,
    "visibility": 10,
    "temperatureC": 30,
    "dewPointC": 19,
    "cloudCeiling": 12000,
    "altimeter": "A2987",
    "timestamp": "2026-06-07T20:51:00+00:00",
    "station": "KSTL"
  }
}