{
  "lastUpdated": "2026-02-20T12:46:39.644930+00:00",
  "kcps": {
    "metar": "KCPS 201153Z 27015G21KT 10SM CLR M01/M07 A2977 RMK AO2 PK WND 29026/1111 SLP082 70005 T10061067 10094 21006 53032 $",
    "windDirection": 270,
    "windSpeed": 15,
    "windGust": 21,
    "visibility": 10,
    "temperatureC": -1,
    "dewPointC": -7,
    "cloudCeiling": 99999,
    "altimeter": "A2977",
    "timestamp": "2026-02-20T11:53:00+00:00",
    "station": "KCPS"
  },
  "kstl": {
    "metar": "KSTL 201151Z 27018G29KT 10SM FEW032 M01/M07 A2976 RMK AO2 PK WND 26030/1104 SLP077 70011 T10061067 10078 21006 53029 $",
    "windDirection": 270,
    "windSpeed": 18,
    "windGust": 29,
    "visibility": 10,
    "temperatureC": -1,
    "dewPointC": -7,
    "cloudCeiling": null,
    "altimeter": "A2976",
    "timestamp": "2026-02-20T11:51:00+00:00",
    "station": "KSTL"
  }
}