{
  "lastUpdated": "2026-04-13T16:13:28.257464+00:00",
  "kcps": {
    "metar": "KCPS 131553Z 18009G18KT 10SM SCT034 26/18 A3000 RMK AO2 SLP154 T02560178 $",
    "windDirection": 180,
    "windSpeed": 9,
    "windGust": 18,
    "visibility": 10,
    "temperatureC": 26,
    "dewPointC": 18,
    "cloudCeiling": null,
    "altimeter": "A3000",
    "timestamp": "2026-04-13T15:53:00+00:00",
    "station": "KCPS"
  },
  "kstl": {
    "metar": "KSTL 131551Z 22013KT 10SM BKN031 BKN250 24/17 A3000 RMK AO2 SLP150 T02440172 $",
    "windDirection": 220,
    "windSpeed": 13,
    "windGust": null,
    "visibility": 10,
    "temperatureC": 24,
    "dewPointC": 17,
    "cloudCeiling": 3100,
    "altimeter": "A3000",
    "timestamp": "2026-04-13T15:51:00+00:00",
    "station": "KSTL"
  }
}