{
  "lastUpdated": "2026-01-14T12:24:02.382508+00:00",
  "kcps": {
    "metar": "KCPS 141153Z AUTO 33017KT 10SM CLR 06/02 A2977 RMK AO2 SLP082 70010 T00610017 10083 20061 53008 $",
    "windDirection": 330,
    "windSpeed": 17,
    "windGust": null,
    "visibility": 10,
    "temperatureC": 6,
    "dewPointC": 2,
    "cloudCeiling": 99999,
    "altimeter": "A2977",
    "timestamp": "2026-01-14T11:53:00+00:00",
    "station": "KCPS"
  },
  "kstl": {
    "metar": "KSTL 141151Z 32013KT 10SM FEW021 05/01 A2978 RMK AO2 SLP086 70012 T00500006 10083 20050 53010 $",
    "windDirection": 320,
    "windSpeed": 13,
    "windGust": null,
    "visibility": 10,
    "temperatureC": 5,
    "dewPointC": 1,
    "cloudCeiling": null,
    "altimeter": "A2978",
    "timestamp": "2026-01-14T11:51:00+00:00",
    "station": "KSTL"
  }
}