{
  "lastUpdated": "2026-04-26T19:44:28.754567+00:00",
  "kcps": {
    "metar": "KCPS 261853Z 11007G17KT 10SM CLR 26/12 A2989 RMK AO2 SLP119 T02610117 $",
    "windDirection": 110,
    "windSpeed": 7,
    "windGust": 17,
    "visibility": 10,
    "temperatureC": 26,
    "dewPointC": 12,
    "cloudCeiling": 99999,
    "altimeter": "A2989",
    "timestamp": "2026-04-26T18:53:00+00:00",
    "station": "KCPS"
  },
  "kstl": {
    "metar": "KSTL 261851Z 14009G17KT 10SM FEW035 BKN250 26/11 A2990 RMK AO2 SLP118 T02560111 $",
    "windDirection": 140,
    "windSpeed": 9,
    "windGust": 17,
    "visibility": 10,
    "temperatureC": 26,
    "dewPointC": 11,
    "cloudCeiling": 25000,
    "altimeter": "A2990",
    "timestamp": "2026-04-26T18:51:00+00:00",
    "station": "KSTL"
  }
}