{
  "lastUpdated": "2026-01-25T10:21:51.682140+00:00",
  "kcps": {
    "metar": "KCPS 251006Z AUTO 01014KT 1SM BR VV012 M13/M15 A3014 RMK AO2 T11281150 PWINO FZRANO $",
    "windDirection": 10,
    "windSpeed": 14,
    "windGust": null,
    "visibility": 1,
    "temperatureC": -13,
    "dewPointC": -15,
    "cloudCeiling": 1200,
    "altimeter": "A3014",
    "timestamp": "2026-01-25T10:06:00+00:00",
    "station": "KCPS"
  },
  "kstl": {
    "metar": "KSTL 250951Z 36008KT 3/4SM R30R/P6000FT -SN OVC026 M13/M16 A3015 RMK AO2 SLP232 SNINCR 1/7 P0006 T11281156 $",
    "windDirection": 360,
    "windSpeed": 8,
    "windGust": null,
    "visibility": 0.75,
    "temperatureC": -13,
    "dewPointC": -16,
    "cloudCeiling": 2600,
    "altimeter": "A3015",
    "timestamp": "2026-01-25T09:51:00+00:00",
    "station": "KSTL"
  }
}