{
  "lastUpdated": "2025-12-18T01:08:07.035028+00:00",
  "kcps": {
    "metar": "KCPS 180053Z 16007KT 10SM SCT042 09/02 A2989 RMK AO2 SLP123 T00890022",
    "windDirection": 160,
    "windSpeed": 7,
    "windGust": null,
    "visibility": 10,
    "temperatureC": 9,
    "dewPointC": 2,
    "cloudCeiling": null,
    "altimeter": "A2989",
    "timestamp": "2025-12-18T00:53:00+00:00",
    "station": "KCPS"
  },
  "kstl": {
    "metar": "KSTL 180051Z 12007KT 10SM FEW250 09/02 A2988 RMK AO2 SLP123 T00890022 $",
    "windDirection": 120,
    "windSpeed": 7,
    "windGust": null,
    "visibility": 10,
    "temperatureC": 9,
    "dewPointC": 2,
    "cloudCeiling": null,
    "altimeter": "A2988",
    "timestamp": "2025-12-18T00:51:00+00:00",
    "station": "KSTL"
  }
}