{
  "lastUpdated": "2025-11-12T01:51:23.297458+00:00",
  "kcps": {
    "metar": "KCPS 120053Z 18004KT 10SM CLR 09/M03 A2990 RMK AO2 SLP127 T00941028 $",
    "windDirection": 180,
    "windSpeed": 4,
    "windGust": null,
    "visibility": 10,
    "temperatureC": 9,
    "dewPointC": -3,
    "cloudCeiling": 99999,
    "altimeter": "A2990",
    "timestamp": "2025-11-12T00:53:00+00:00",
    "station": "KCPS"
  },
  "kstl": {
    "metar": "KSTL 120051Z 00000KT 10SM CLR 08/M02 A2991 RMK AO2 SLP133 T00831017 $",
    "windDirection": 0,
    "windSpeed": 0,
    "windGust": null,
    "visibility": 10,
    "temperatureC": 8,
    "dewPointC": -2,
    "cloudCeiling": 99999,
    "altimeter": "A2991",
    "timestamp": "2025-11-12T00:51:00+00:00",
    "station": "KSTL"
  }
}