{
  "lastUpdated": "2025-12-04T23:21:33.116931+00:00",
  "kcps": {
    "metar": "KCPS 042253Z 04005KT 10SM CLR M05/M11 A3032 RMK AO2 SLP271 T10501111",
    "windDirection": 40,
    "windSpeed": 5,
    "windGust": null,
    "visibility": 10,
    "temperatureC": -5,
    "dewPointC": -11,
    "cloudCeiling": 99999,
    "altimeter": "A3032",
    "timestamp": "2025-12-04T22:53:00+00:00",
    "station": "KCPS"
  },
  "kstl": {
    "metar": "KSTL 042251Z 35006KT 10SM FEW190 BKN250 M07/M13 A3032 RMK AO2 SLP283 T10671133 $",
    "windDirection": 350,
    "windSpeed": 6,
    "windGust": null,
    "visibility": 10,
    "temperatureC": -7,
    "dewPointC": -13,
    "cloudCeiling": 25000,
    "altimeter": "A3032",
    "timestamp": "2025-12-04T22:51:00+00:00",
    "station": "KSTL"
  }
}