{
  "lastUpdated": "2026-02-13T18:44:56.792449+00:00",
  "kcps": {
    "metar": "KCPS 131753Z 19009KT 10SM CLR 13/M03 A3018 RMK AO2 SLP219 T01331028 10133 21028 58016 $",
    "windDirection": 190,
    "windSpeed": 9,
    "windGust": null,
    "visibility": 10,
    "temperatureC": 13,
    "dewPointC": -3,
    "cloudCeiling": 99999,
    "altimeter": "A3018",
    "timestamp": "2026-02-13T17:53:00+00:00",
    "station": "KCPS"
  },
  "kstl": {
    "metar": "KSTL 131751Z 15010KT 10SM FEW250 13/M03 A3017 RMK AO2 SLP221 T01281033 10128 20000 58013 $",
    "windDirection": 150,
    "windSpeed": 10,
    "windGust": null,
    "visibility": 10,
    "temperatureC": 13,
    "dewPointC": -3,
    "cloudCeiling": null,
    "altimeter": "A3017",
    "timestamp": "2026-02-13T17:51:00+00:00",
    "station": "KSTL"
  }
}