{
  "lastUpdated": "2026-05-21T10:43:01.914880+00:00",
  "kcps": {
    "metar": "KCPS 210953Z AUTO 02005KT 10SM CLR 13/08 A3016 RMK AO2 SLP212 T01280083 PNO $",
    "windDirection": 20,
    "windSpeed": 5,
    "windGust": null,
    "visibility": 10,
    "temperatureC": 13,
    "dewPointC": 8,
    "cloudCeiling": 99999,
    "altimeter": "A3016",
    "timestamp": "2026-05-21T09:53:00+00:00",
    "station": "KCPS"
  },
  "kstl": {
    "metar": "KSTL 210951Z AUTO 04006KT 10SM BKN055 13/07 A3018 RMK AO2 SLP215 T01280072 $",
    "windDirection": 40,
    "windSpeed": 6,
    "windGust": null,
    "visibility": 10,
    "temperatureC": 13,
    "dewPointC": 7,
    "cloudCeiling": 5500,
    "altimeter": "A3018",
    "timestamp": "2026-05-21T09:51:00+00:00",
    "station": "KSTL"
  }
}