{
  "lastUpdated": "2026-05-16T08:15:39.747534+00:00",
  "kcps": {
    "metar": "KCPS 160753Z AUTO 17005KT 10SM -RA FEW065 SCT085 BKN120 25/17 A2979 RMK AO2 RAB48 SLP083 P0000 T02500172 $",
    "windDirection": 170,
    "windSpeed": 5,
    "windGust": null,
    "visibility": 10,
    "temperatureC": 25,
    "dewPointC": 17,
    "cloudCeiling": 12000,
    "altimeter": "A2979",
    "timestamp": "2026-05-16T07:53:00+00:00",
    "station": "KCPS"
  },
  "kstl": {
    "metar": "KSTL 160751Z 21009KT 10SM BKN140 BKN200 25/17 A2979 RMK AO2 SLP075 T02500172 $",
    "windDirection": 210,
    "windSpeed": 9,
    "windGust": null,
    "visibility": 10,
    "temperatureC": 25,
    "dewPointC": 17,
    "cloudCeiling": 14000,
    "altimeter": "A2979",
    "timestamp": "2026-05-16T07:51:00+00:00",
    "station": "KSTL"
  }
}