{
  "lastUpdated": "2025-12-05T05:47:44.939230+00:00",
  "kcps": {
    "metar": "KCPS 050453Z AUTO 00000KT 10SM CLR M10/M14 A3024 RMK AO2 SLP247 T11001144",
    "windDirection": 0,
    "windSpeed": 0,
    "windGust": null,
    "visibility": 10,
    "temperatureC": -10,
    "dewPointC": -14,
    "cloudCeiling": 99999,
    "altimeter": "A3024",
    "timestamp": "2025-12-05T04:53:00+00:00",
    "station": "KCPS"
  },
  "kstl": {
    "metar": "KSTL 050451Z 12003KT 10SM CLR M09/M14 A3023 RMK AO2 SLP255 T10941144 $",
    "windDirection": 120,
    "windSpeed": 3,
    "windGust": null,
    "visibility": 10,
    "temperatureC": -9,
    "dewPointC": -14,
    "cloudCeiling": 99999,
    "altimeter": "A3023",
    "timestamp": "2025-12-05T04:51:00+00:00",
    "station": "KSTL"
  }
}