{
  "lastUpdated": "2026-02-22T19:37:15.830564+00:00",
  "kcps": {
    "metar": "KCPS 221853Z 31020G28KT 10SM CLR M01/M13 A3047 RMK AO2 PK WND 31029/1814 SLP323 T10111128 PNO $",
    "windDirection": 310,
    "windSpeed": 20,
    "windGust": 28,
    "visibility": 10,
    "temperatureC": -1,
    "dewPointC": -13,
    "cloudCeiling": 99999,
    "altimeter": "A3047",
    "timestamp": "2026-02-22T18:53:00+00:00",
    "station": "KCPS"
  },
  "kstl": {
    "metar": "KSTL 221851Z 28021G28KT 10SM FEW038 M01/M13 A3047 RMK AO2 PK WND 29031/1830 SLP331 T10111128 $",
    "windDirection": 280,
    "windSpeed": 21,
    "windGust": 28,
    "visibility": 10,
    "temperatureC": -1,
    "dewPointC": -13,
    "cloudCeiling": null,
    "altimeter": "A3047",
    "timestamp": "2026-02-22T18:51:00+00:00",
    "station": "KSTL"
  }
}