{
  "lastUpdated": "2026-03-23T23:55:14.728869+00:00",
  "kcps": {
    "metar": "KCPS 232253Z 04010KT 10SM CLR 11/M04 A3036 RMK AO2 SLP283 T01111039 $",
    "windDirection": 40,
    "windSpeed": 10,
    "windGust": null,
    "visibility": 10,
    "temperatureC": 11,
    "dewPointC": -4,
    "cloudCeiling": 99999,
    "altimeter": "A3036",
    "timestamp": "2026-03-23T22:53:00+00:00",
    "station": "KCPS"
  },
  "kstl": {
    "metar": "KSTL 232351Z 07009KT 10SM FEW120 BKN220 09/M04 A3037 RMK AO2 SLP290 T00941039 10117 20078 55004 $",
    "windDirection": 70,
    "windSpeed": 9,
    "windGust": null,
    "visibility": 10,
    "temperatureC": 9,
    "dewPointC": -4,
    "cloudCeiling": 22000,
    "altimeter": "A3037",
    "timestamp": "2026-03-23T23:51:00+00:00",
    "station": "KSTL"
  }
}