{
  "lastUpdated": "2026-04-18T08:49:30.319077+00:00",
  "kcps": {
    "metar": "KCPS 180753Z AUTO 17006KT 9SM -RA OVC090 17/16 A2976 RMK AO2 SLP074 P0012 T01670161 $",
    "windDirection": 170,
    "windSpeed": 6,
    "windGust": null,
    "visibility": 9,
    "temperatureC": 17,
    "dewPointC": 16,
    "cloudCeiling": 9000,
    "altimeter": "A2976",
    "timestamp": "2026-04-18T07:53:00+00:00",
    "station": "KCPS"
  },
  "kstl": {
    "metar": "KSTL 180843Z 30015G26KT 7SM RA BKN012 BKN027 OVC050 11/10 A2984 RMK AO2 PK WND 32031/0828 WSHFT 0827 PRESRR P0021 T01110100 $",
    "windDirection": 300,
    "windSpeed": 15,
    "windGust": 26,
    "visibility": 7,
    "temperatureC": 11,
    "dewPointC": 10,
    "cloudCeiling": 1200,
    "altimeter": "A2984",
    "timestamp": "2026-04-18T08:43:00+00:00",
    "station": "KSTL"
  }
}