{
  "lastUpdated": "2025-11-28T05:47:54.700874+00:00",
  "kcps": {
    "metar": "KCPS 280453Z AUTO 32011KT 10SM FEW070 01/M08 A3040 RMK AO2 SLP299 T00061083 $",
    "windDirection": 320,
    "windSpeed": 11,
    "windGust": null,
    "visibility": 10,
    "temperatureC": 1,
    "dewPointC": -8,
    "cloudCeiling": null,
    "altimeter": "A3040",
    "timestamp": "2025-11-28T04:53:00+00:00",
    "station": "KCPS"
  },
  "kstl": {
    "metar": "KSTL 280451Z 30006KT 10SM BKN070 M01/M08 A3040 RMK AO2 SLP306 T10061078 $",
    "windDirection": 300,
    "windSpeed": 6,
    "windGust": null,
    "visibility": 10,
    "temperatureC": -1,
    "dewPointC": -8,
    "cloudCeiling": 7000,
    "altimeter": "A3040",
    "timestamp": "2025-11-28T04:51:00+00:00",
    "station": "KSTL"
  }
}