{
  "lastUpdated": "2026-04-22T07:05:57.978718+00:00",
  "kcps": {
    "metar": "KCPS 220653Z AUTO 10SM CLR 18/09 A3004 RMK AO2 SLP169 T01830089 $",
    "windDirection": null,
    "windSpeed": null,
    "windGust": null,
    "visibility": 10,
    "temperatureC": 18,
    "dewPointC": 9,
    "cloudCeiling": 99999,
    "altimeter": "A3004",
    "timestamp": "2026-04-22T06:53:00+00:00",
    "station": "KCPS"
  },
  "kstl": {
    "metar": "KSTL 220651Z 24008KT 10SM FEW075 19/11 A3005 RMK AO2 SLP165 T01890106 $",
    "windDirection": 240,
    "windSpeed": 8,
    "windGust": null,
    "visibility": 10,
    "temperatureC": 19,
    "dewPointC": 11,
    "cloudCeiling": null,
    "altimeter": "A3005",
    "timestamp": "2026-04-22T06:51:00+00:00",
    "station": "KSTL"
  }
}