{
  "lastUpdated": "2025-12-12T19:46:31.660345+00:00",
  "kcps": {
    "metar": "KCPS 121934Z 35007KT 330V030 10SM OVC015 03/M01 A3013 RMK AO2 T00331006",
    "windDirection": 350,
    "windSpeed": 7,
    "windGust": null,
    "visibility": 10,
    "temperatureC": 3,
    "dewPointC": -1,
    "cloudCeiling": 1500,
    "altimeter": "A3013",
    "timestamp": "2025-12-12T19:34:00+00:00",
    "station": "KCPS"
  },
  "kstl": {
    "metar": "KSTL 121913Z 32004KT 9SM OVC011 02/M01 A3013 RMK AO2 T00221011 $",
    "windDirection": 320,
    "windSpeed": 4,
    "windGust": null,
    "visibility": 9,
    "temperatureC": 2,
    "dewPointC": -1,
    "cloudCeiling": 1100,
    "altimeter": "A3013",
    "timestamp": "2025-12-12T19:13:00+00:00",
    "station": "KSTL"
  }
}