{
  "lastUpdated": "2026-02-01T18:03:50.451858+00:00",
  "kcps": {
    "metar": "KCPS 011653Z 18004KT 10SM FEW120 M07/M16 A3038 RMK AO2 SLP296 T10721156 $",
    "windDirection": 180,
    "windSpeed": 4,
    "windGust": null,
    "visibility": 10,
    "temperatureC": -7,
    "dewPointC": -16,
    "cloudCeiling": null,
    "altimeter": "A3038",
    "timestamp": "2026-02-01T16:53:00+00:00",
    "station": "KCPS"
  },
  "kstl": {
    "metar": "KSTL 011751Z 21005KT 10SM OVC060 M06/M14 A3035 RMK AO2 SLP295 4/004 933004 T10561139 11056 21156 58013 $",
    "windDirection": 210,
    "windSpeed": 5,
    "windGust": null,
    "visibility": 10,
    "temperatureC": -6,
    "dewPointC": -14,
    "cloudCeiling": 6000,
    "altimeter": "A3035",
    "timestamp": "2026-02-01T17:51:00+00:00",
    "station": "KSTL"
  }
}