{
  "lastUpdated": "2025-10-10T11:46:24.396719+00:00",
  "kcps": {
    "metar": "KCPS 101053Z AUTO 00000KT 10SM CLR 07/06 A3026 RMK AO2 SLP247 T00720056",
    "windDirection": 0,
    "windSpeed": 0,
    "windGust": null,
    "visibility": 10,
    "temperatureC": 7,
    "dewPointC": 6,
    "cloudCeiling": 99999,
    "altimeter": "A3026",
    "timestamp": "2025-10-10T10:53:00+00:00",
    "station": "KCPS"
  },
  "kstl": {
    "metar": "KSTL 101051Z 19004KT 10SM BKN250 13/07 A3026 RMK AO2 SLP241 T01280067 $",
    "windDirection": 190,
    "windSpeed": 4,
    "windGust": null,
    "visibility": 10,
    "temperatureC": 13,
    "dewPointC": 7,
    "cloudCeiling": 25000,
    "altimeter": "A3026",
    "timestamp": "2025-10-10T10:51:00+00:00",
    "station": "KSTL"
  }
}