{
  "lastUpdated": "2026-01-10T19:21:07.923440+00:00",
  "kcps": {
    "metar": "KCPS 101853Z 30016G24KT 10SM BKN035 06/M02 A3014 RMK AO2 PK WND 31026/1838 SLP208 T00611017 $",
    "windDirection": 300,
    "windSpeed": 16,
    "windGust": 24,
    "visibility": 10,
    "temperatureC": 6,
    "dewPointC": -2,
    "cloudCeiling": 3500,
    "altimeter": "A3014",
    "timestamp": "2026-01-10T18:53:00+00:00",
    "station": "KCPS"
  },
  "kstl": {
    "metar": "KSTL 101851Z 28015KT 10SM SCT031 06/M01 A3013 RMK AO2 SLP210 T00611011 $",
    "windDirection": 280,
    "windSpeed": 15,
    "windGust": null,
    "visibility": 10,
    "temperatureC": 6,
    "dewPointC": -1,
    "cloudCeiling": null,
    "altimeter": "A3013",
    "timestamp": "2026-01-10T18:51:00+00:00",
    "station": "KSTL"
  }
}