{
  "lastUpdated": "2026-05-16T00:02:48.911940+00:00",
  "kcps": {
    "metar": "KCPS 152353Z 15006KT 10SM CLR 26/17 A2981 RMK AO2 SLP091 T02610167 10289 20261 58007 $",
    "windDirection": 150,
    "windSpeed": 6,
    "windGust": null,
    "visibility": 10,
    "temperatureC": 26,
    "dewPointC": 17,
    "cloudCeiling": 99999,
    "altimeter": "A2981",
    "timestamp": "2026-05-15T23:53:00+00:00",
    "station": "KCPS"
  },
  "kstl": {
    "metar": "KSTL 152351Z 17009KT 10SM SCT150 BKN250 26/17 A2981 RMK AO2 SLP086 T02610167 10283 20256 58008 $",
    "windDirection": 170,
    "windSpeed": 9,
    "windGust": null,
    "visibility": 10,
    "temperatureC": 26,
    "dewPointC": 17,
    "cloudCeiling": 25000,
    "altimeter": "A2981",
    "timestamp": "2026-05-15T23:51:00+00:00",
    "station": "KSTL"
  }
}