{
  "lastUpdated": "2026-05-06T08:35:44.470511+00:00",
  "kcps": {
    "metar": "KCPS 060753Z AUTO 25003KT 9SM OVC100 09/08 A2990 RMK AO2 RAE24 SLP125 P0001 T00890078 $",
    "windDirection": 250,
    "windSpeed": 3,
    "windGust": null,
    "visibility": 9,
    "temperatureC": 9,
    "dewPointC": 8,
    "cloudCeiling": 10000,
    "altimeter": "A2990",
    "timestamp": "2026-05-06T07:53:00+00:00",
    "station": "KCPS"
  },
  "kstl": {
    "metar": "KSTL 060751Z 31007KT 10SM -RA FEW005 SCT095 OVC120 08/07 A2991 RMK AO2 SLP129 P0000 T00780072 $",
    "windDirection": 310,
    "windSpeed": 7,
    "windGust": null,
    "visibility": 10,
    "temperatureC": 8,
    "dewPointC": 7,
    "cloudCeiling": 12000,
    "altimeter": "A2991",
    "timestamp": "2026-05-06T07:51:00+00:00",
    "station": "KSTL"
  }
}