{
  "lastUpdated": "2026-01-06T13:06:00.217128+00:00",
  "kcps": {
    "metar": "KCPS 061300Z 23006KT 10SM BKN024 10/08 A2971 RMK AO2 T01000078",
    "windDirection": 230,
    "windSpeed": 6,
    "windGust": null,
    "visibility": 10,
    "temperatureC": 10,
    "dewPointC": 8,
    "cloudCeiling": 2400,
    "altimeter": "A2971",
    "timestamp": "2026-01-06T13:00:00+00:00",
    "station": "KCPS"
  },
  "kstl": {
    "metar": "KSTL 061301Z 26011KT 10SM SCT018 SCT250 11/08 A2970 RMK AO2 T01060083 $",
    "windDirection": 260,
    "windSpeed": 11,
    "windGust": null,
    "visibility": 10,
    "temperatureC": 11,
    "dewPointC": 8,
    "cloudCeiling": null,
    "altimeter": "A2970",
    "timestamp": "2026-01-06T13:01:00+00:00",
    "station": "KSTL"
  }
}