{
  "lastUpdated": "2026-01-16T04:16:02.813967+00:00",
  "kcps": {
    "metar": "KCPS 160353Z 19008G16KT 170V240 9SM SCT035 BKN050 OVC070 M01/M10 A2983 RMK AO2 SNB35E52 SLP106 P0000 T10061100 $",
    "windDirection": 190,
    "windSpeed": 8,
    "windGust": 16,
    "visibility": 9,
    "temperatureC": -1,
    "dewPointC": -10,
    "cloudCeiling": 5000,
    "altimeter": "A2983",
    "timestamp": "2026-01-16T03:53:00+00:00",
    "station": "KCPS"
  },
  "kstl": {
    "metar": "KSTL 160351Z 18009KT 10SM SCT032 BKN060 OVC080 01/M12 A2980 RMK AO2 SLP105 T00061122 $",
    "windDirection": 180,
    "windSpeed": 9,
    "windGust": null,
    "visibility": 10,
    "temperatureC": 1,
    "dewPointC": -12,
    "cloudCeiling": 6000,
    "altimeter": "A2980",
    "timestamp": "2026-01-16T03:51:00+00:00",
    "station": "KSTL"
  }
}