{
  "lastUpdated": "2025-10-17T15:46:37.998699+00:00",
  "kcps": {
    "metar": "KCPS 171453Z 16005KT 10SM CLR 19/13 A2999 RMK AO2 SLP153 T01940133 56003",
    "windDirection": 160,
    "windSpeed": 5,
    "windGust": null,
    "visibility": 10,
    "temperatureC": 19,
    "dewPointC": 13,
    "cloudCeiling": 99999,
    "altimeter": "A2999",
    "timestamp": "2025-10-17T14:53:00+00:00",
    "station": "KCPS"
  },
  "kstl": {
    "metar": "KSTL 171451Z 17007KT 10SM FEW170 BKN240 19/13 A2999 RMK AO2 SLP146 T01940133 55001 $",
    "windDirection": 170,
    "windSpeed": 7,
    "windGust": null,
    "visibility": 10,
    "temperatureC": 19,
    "dewPointC": 13,
    "cloudCeiling": 24000,
    "altimeter": "A2999",
    "timestamp": "2025-10-17T14:51:00+00:00",
    "station": "KSTL"
  }
}