{
  "lastUpdated": "2026-03-19T05:08:14.998137+00:00",
  "kcps": {
    "metar": "KCPS 190353Z AUTO 00000KT 10SM CLR 09/03 A3007 RMK AO2 SLP181 T00890028 $",
    "windDirection": 0,
    "windSpeed": 0,
    "windGust": null,
    "visibility": 10,
    "temperatureC": 9,
    "dewPointC": 3,
    "cloudCeiling": 99999,
    "altimeter": "A3007",
    "timestamp": "2026-03-19T03:53:00+00:00",
    "station": "KCPS"
  },
  "kstl": {
    "metar": "KSTL 190451Z 12005KT 10SM CLR 09/03 A3006 RMK AO2 SLP177 T00940028",
    "windDirection": 120,
    "windSpeed": 5,
    "windGust": null,
    "visibility": 10,
    "temperatureC": 9,
    "dewPointC": 3,
    "cloudCeiling": 99999,
    "altimeter": "A3006",
    "timestamp": "2026-03-19T04:51:00+00:00",
    "station": "KSTL"
  }
}