{
  "lastUpdated": "2026-01-09T14:22:25.339245+00:00",
  "kcps": {
    "metar": "KCPS 091353Z 30011G19KT 10SM OVC027 08/04 A2999 RMK AO2 SLP155 T00830039",
    "windDirection": 300,
    "windSpeed": 11,
    "windGust": 19,
    "visibility": 10,
    "temperatureC": 8,
    "dewPointC": 4,
    "cloudCeiling": 2700,
    "altimeter": "A2999",
    "timestamp": "2026-01-09T13:53:00+00:00",
    "station": "KCPS"
  },
  "kstl": {
    "metar": "KSTL 091351Z 29014G23KT 10SM OVC020 07/03 A2999 RMK AO2 PK WND 28027/1252 PRESRR SLP155 T00720033 $",
    "windDirection": 290,
    "windSpeed": 14,
    "windGust": 23,
    "visibility": 10,
    "temperatureC": 7,
    "dewPointC": 3,
    "cloudCeiling": 2000,
    "altimeter": "A2999",
    "timestamp": "2026-01-09T13:51:00+00:00",
    "station": "KSTL"
  }
}