{
  "lastUpdated": "2026-03-18T00:53:55.128555+00:00",
  "kcps": {
    "metar": "KCPS 172353Z 16008KT 10SM OVC080 01/M13 A3018 RMK AO2 SLP225 T00111133 10011 21028 56017 $",
    "windDirection": 160,
    "windSpeed": 8,
    "windGust": null,
    "visibility": 10,
    "temperatureC": 1,
    "dewPointC": -13,
    "cloudCeiling": 8000,
    "altimeter": "A3018",
    "timestamp": "2026-03-17T23:53:00+00:00",
    "station": "KCPS"
  },
  "kstl": {
    "station": "KSTL",
    "metar": null,
    "error": "Failed to fetch METAR"
  }
}