{
  "lastUpdated": "2026-05-18T08:06:17.829862+00:00",
  "kcps": {
    "metar": "KCPS 180753Z AUTO 16007KT 10SM CLR 24/18 A2988 RMK AO2 SLP112 T02390183 $",
    "windDirection": 160,
    "windSpeed": 7,
    "windGust": null,
    "visibility": 10,
    "temperatureC": 24,
    "dewPointC": 18,
    "cloudCeiling": 99999,
    "altimeter": "A2988",
    "timestamp": "2026-05-18T07:53:00+00:00",
    "station": "KCPS"
  },
  "kstl": {
    "metar": "KSTL 180751Z 16011KT 10SM FEW070 24/19 A2988 RMK AO2 SLP103 T02440189 $",
    "windDirection": 160,
    "windSpeed": 11,
    "windGust": null,
    "visibility": 10,
    "temperatureC": 24,
    "dewPointC": 19,
    "cloudCeiling": null,
    "altimeter": "A2988",
    "timestamp": "2026-05-18T07:51:00+00:00",
    "station": "KSTL"
  }
}