{
  "lastUpdated": "2026-06-08T13:52:30.982626+00:00",
  "kcps": {
    "metar": "KCPS 081319Z 14008KT 3SM VCTS -RA BR FEW012 BKN020 OVC050 24/23 A2990 RMK AO2 LTG DSNT ALQDS TSE13 P0009 T02390228 $",
    "windDirection": 140,
    "windSpeed": 8,
    "windGust": null,
    "visibility": 3,
    "temperatureC": 24,
    "dewPointC": 23,
    "cloudCeiling": 2000,
    "altimeter": "A2990",
    "timestamp": "2026-06-08T13:19:00+00:00",
    "station": "KCPS"
  },
  "kstl": {
    "metar": "KSTL 081343Z 22006KT 7SM -TSRA FEW012 BKN018CB OVC090 22/21 A2992 RMK AO2 PK WND 28029/1318 WSHFT 1317 FRQ LTGICCG ALQDS TS ALQDS MOV NE P0061 T02170206 $",
    "windDirection": 220,
    "windSpeed": 6,
    "windGust": null,
    "visibility": 7,
    "temperatureC": 22,
    "dewPointC": 21,
    "cloudCeiling": 1800,
    "altimeter": "A2992",
    "timestamp": "2026-06-08T13:43:00+00:00",
    "station": "KSTL"
  }
}