{
  "lastUpdated": "2026-05-23T01:18:13.288890+00:00",
  "kcps": {
    "metar": "KCPS 230053Z 04003KT 10SM OVC018 19/16 A2990 RMK AO2 SLP122 T01890156 $",
    "windDirection": 40,
    "windSpeed": 3,
    "windGust": null,
    "visibility": 10,
    "temperatureC": 19,
    "dewPointC": 16,
    "cloudCeiling": 1800,
    "altimeter": "A2990",
    "timestamp": "2026-05-23T00:53:00+00:00",
    "station": "KCPS"
  },
  "kstl": {
    "metar": "KSTL 230051Z 06006KT 10SM BKN018 OVC022 19/14 A2990 RMK AO2 SLP121 T01890144 $",
    "windDirection": 60,
    "windSpeed": 6,
    "windGust": null,
    "visibility": 10,
    "temperatureC": 19,
    "dewPointC": 14,
    "cloudCeiling": 1800,
    "altimeter": "A2990",
    "timestamp": "2026-05-23T00:51:00+00:00",
    "station": "KSTL"
  }
}