{
  "lastUpdated": "2025-12-04T08:40:45.544136+00:00",
  "kcps": {
    "metar": "KCPS 040813Z AUTO 35010KT 10SM BKN020 M03/M06 A3032 RMK AO2 T10281061 $",
    "windDirection": 350,
    "windSpeed": 10,
    "windGust": null,
    "visibility": 10,
    "temperatureC": -3,
    "dewPointC": -6,
    "cloudCeiling": 2000,
    "altimeter": "A3032",
    "timestamp": "2025-12-04T08:13:00+00:00",
    "station": "KCPS"
  },
  "kstl": {
    "metar": "KSTL 040751Z 34013KT 9SM SCT017 SCT130 BKN250 M04/M07 A3031 RMK AO2 SLP276 T10391072 $",
    "windDirection": 340,
    "windSpeed": 13,
    "windGust": null,
    "visibility": 9,
    "temperatureC": -4,
    "dewPointC": -7,
    "cloudCeiling": 25000,
    "altimeter": "A3031",
    "timestamp": "2025-12-04T07:51:00+00:00",
    "station": "KSTL"
  }
}