{
  "lastUpdated": "2026-05-25T09:50:46.010723+00:00",
  "kcps": {
    "metar": "KCPS 250853Z AUTO 00000KT 10SM CLR 13/12 A3008 RMK AO2 SLP183 T01330122 53004 $",
    "windDirection": 0,
    "windSpeed": 0,
    "windGust": null,
    "visibility": 10,
    "temperatureC": 13,
    "dewPointC": 12,
    "cloudCeiling": 99999,
    "altimeter": "A3008",
    "timestamp": "2026-05-25T08:53:00+00:00",
    "station": "KCPS"
  },
  "kstl": {
    "metar": "KSTL 250851Z 00000KT 10SM CLR 16/13 A3009 RMK AO2 SLP180 T01560128 53002 $",
    "windDirection": 0,
    "windSpeed": 0,
    "windGust": null,
    "visibility": 10,
    "temperatureC": 16,
    "dewPointC": 13,
    "cloudCeiling": 99999,
    "altimeter": "A3009",
    "timestamp": "2026-05-25T08:51:00+00:00",
    "station": "KSTL"
  }
}