{
  "lastUpdated": "2026-03-22T23:04:33.077810+00:00",
  "kcps": {
    "metar": "KCPS 222253Z 01025G36KT 10SM CLR 21/09 A2977 RMK AO2 PK WND 35035/2241 RAB09E18 SLP079 P0000 T02110089 $",
    "windDirection": 10,
    "windSpeed": 25,
    "windGust": 36,
    "visibility": 10,
    "temperatureC": 21,
    "dewPointC": 9,
    "cloudCeiling": 99999,
    "altimeter": "A2977",
    "timestamp": "2026-03-22T22:53:00+00:00",
    "station": "KCPS"
  },
  "kstl": {
    "metar": "KSTL 222251Z 01021G37KT 10SM FEW050 SCT200 OVC250 19/07 A2981 RMK AO2 PK WND 34038/2215 PRESRR SLP088 T01890072 $",
    "windDirection": 10,
    "windSpeed": 21,
    "windGust": 37,
    "visibility": 10,
    "temperatureC": 19,
    "dewPointC": 7,
    "cloudCeiling": 25000,
    "altimeter": "A2981",
    "timestamp": "2026-03-22T22:51:00+00:00",
    "station": "KSTL"
  }
}