{
  "lastUpdated": "2026-05-14T07:18:01.372669+00:00",
  "kcps": {
    "metar": "KCPS 140653Z AUTO 00000KT 10SM CLR 09/07 A3007 RMK AO2 SLP181 T00940072 $",
    "windDirection": 0,
    "windSpeed": 0,
    "windGust": null,
    "visibility": 10,
    "temperatureC": 9,
    "dewPointC": 7,
    "cloudCeiling": 99999,
    "altimeter": "A3007",
    "timestamp": "2026-05-14T06:53:00+00:00",
    "station": "KCPS"
  },
  "kstl": {
    "metar": "KSTL 140651Z 11003KT 10SM CLR 14/04 A3008 RMK AO2 SLP179 T01390044 $",
    "windDirection": 110,
    "windSpeed": 3,
    "windGust": null,
    "visibility": 10,
    "temperatureC": 14,
    "dewPointC": 4,
    "cloudCeiling": 99999,
    "altimeter": "A3008",
    "timestamp": "2026-05-14T06:51:00+00:00",
    "station": "KSTL"
  }
}