{
  "lastUpdated": "2026-04-06T22:13:57.573990+00:00",
  "kcps": {
    "metar": "KCPS 062153Z 32007KT 10SM CLR 18/M01 A3025 RMK AO2 SLP243 T01781011 $",
    "windDirection": 320,
    "windSpeed": 7,
    "windGust": null,
    "visibility": 10,
    "temperatureC": 18,
    "dewPointC": -1,
    "cloudCeiling": 99999,
    "altimeter": "A3025",
    "timestamp": "2026-04-06T21:53:00+00:00",
    "station": "KCPS"
  },
  "kstl": {
    "metar": "KSTL 062151Z 32012KT 10SM FEW060 FEW150 17/M05 A3026 RMK AO2 SLP248 T01671050 $",
    "windDirection": 320,
    "windSpeed": 12,
    "windGust": null,
    "visibility": 10,
    "temperatureC": 17,
    "dewPointC": -5,
    "cloudCeiling": null,
    "altimeter": "A3026",
    "timestamp": "2026-04-06T21:51:00+00:00",
    "station": "KSTL"
  }
}