{
  "lastUpdated": "2025-11-16T18:48:45.161591+00:00",
  "kcps": {
    "metar": "KCPS 161653Z 01008KT 10SM CLR 11/M03 A3006 RMK AO2 SLP178 T01111033 $",
    "windDirection": 10,
    "windSpeed": 8,
    "windGust": null,
    "visibility": 10,
    "temperatureC": 11,
    "dewPointC": -3,
    "cloudCeiling": 99999,
    "altimeter": "A3006",
    "timestamp": "2025-11-16T16:53:00+00:00",
    "station": "KCPS"
  },
  "kstl": {
    "metar": "KSTL 161751Z 03006KT 10SM SCT250 12/M06 A3005 RMK AO2 SLP175 T01171061 10122 20056 50001 $",
    "windDirection": 30,
    "windSpeed": 6,
    "windGust": null,
    "visibility": 10,
    "temperatureC": 12,
    "dewPointC": -6,
    "cloudCeiling": null,
    "altimeter": "A3005",
    "timestamp": "2025-11-16T17:51:00+00:00",
    "station": "KSTL"
  }
}