{
  "lastUpdated": "2026-05-01T23:32:29.068200+00:00",
  "kcps": {
    "metar": "KCPS 012253Z 28008G18KT 10SM CLR 17/M01 A2998 RMK AO2 SLP153 T01721006 $",
    "windDirection": 280,
    "windSpeed": 8,
    "windGust": 18,
    "visibility": 10,
    "temperatureC": 17,
    "dewPointC": -1,
    "cloudCeiling": 99999,
    "altimeter": "A2998",
    "timestamp": "2026-05-01T22:53:00+00:00",
    "station": "KCPS"
  },
  "kstl": {
    "metar": "KSTL 012251Z 30008KT 10SM FEW070 BKN100 16/M01 A2999 RMK AO2 SLP157 T01561011",
    "windDirection": 300,
    "windSpeed": 8,
    "windGust": null,
    "visibility": 10,
    "temperatureC": 16,
    "dewPointC": -1,
    "cloudCeiling": 10000,
    "altimeter": "A2999",
    "timestamp": "2026-05-01T22:51:00+00:00",
    "station": "KSTL"
  }
}