{
  "lastUpdated": "2025-12-14T17:20:51.169293+00:00",
  "kcps": {
    "metar": "KCPS 141653Z 34009KT 10SM CLR M11/M19 A3075 RMK AO2 SLP420 T11061194 $",
    "windDirection": 340,
    "windSpeed": 9,
    "windGust": null,
    "visibility": 10,
    "temperatureC": -11,
    "dewPointC": -19,
    "cloudCeiling": 99999,
    "altimeter": "A3075",
    "timestamp": "2025-12-14T16:53:00+00:00",
    "station": "KCPS"
  },
  "kstl": {
    "metar": "KSTL 141651Z VRB05KT 10SM FEW250 M11/M19 A3073 RMK AO2 SLP431 T11111194 $",
    "windDirection": null,
    "windSpeed": null,
    "windGust": null,
    "visibility": 10,
    "temperatureC": -11,
    "dewPointC": -19,
    "cloudCeiling": null,
    "altimeter": "A3073",
    "timestamp": "2025-12-14T16:51:00+00:00",
    "station": "KSTL"
  }
}