{
  "lastUpdated": "2025-11-22T02:55:55.235096+00:00",
  "kcps": {
    "metar": "KCPS 220253Z 35007KT 4SM BR OVC004 12/12 A2992 RMK AO2 SLP133 60001 T01170117 51018",
    "windDirection": 350,
    "windSpeed": 7,
    "windGust": null,
    "visibility": 4,
    "temperatureC": 12,
    "dewPointC": 12,
    "cloudCeiling": 400,
    "altimeter": "A2992",
    "timestamp": "2025-11-22T02:53:00+00:00",
    "station": "KCPS"
  },
  "kstl": {
    "metar": "KSTL 220251Z 35008KT 2SM -DZ BR OVC002 11/11 A2994 RMK AO2 SLP138 P0000 60000 T01110106 51015 $",
    "windDirection": 350,
    "windSpeed": 8,
    "windGust": null,
    "visibility": 2,
    "temperatureC": 11,
    "dewPointC": 11,
    "cloudCeiling": 200,
    "altimeter": "A2994",
    "timestamp": "2025-11-22T02:51:00+00:00",
    "station": "KSTL"
  }
}