{
  "lastUpdated": "2025-11-29T08:37:34.585150+00:00",
  "kcps": {
    "metar": "KCPS 290753Z 13004KT 10SM OVC100 02/M05 A3030 RMK AO2 SLP263 T00171050 $",
    "windDirection": 130,
    "windSpeed": 4,
    "windGust": null,
    "visibility": 10,
    "temperatureC": 2,
    "dewPointC": -5,
    "cloudCeiling": 10000,
    "altimeter": "A3030",
    "timestamp": "2025-11-29T07:53:00+00:00",
    "station": "KCPS"
  },
  "kstl": {
    "metar": "KSTL 290751Z 12008KT 10SM OVC095 02/M06 A3028 RMK AO2 SLP262 T00221056 $",
    "windDirection": 120,
    "windSpeed": 8,
    "windGust": null,
    "visibility": 10,
    "temperatureC": 2,
    "dewPointC": -6,
    "cloudCeiling": 9500,
    "altimeter": "A3028",
    "timestamp": "2025-11-29T07:51:00+00:00",
    "station": "KSTL"
  }
}