{
  "lastUpdated": "2026-04-07T12:36:17.545022+00:00",
  "kcps": {
    "metar": "KCPS 071153Z 04013G17KT 10SM BKN090 06/M01 A3040 RMK AO2 SLP293 T00611006 10111 20061 53018 $",
    "windDirection": 40,
    "windSpeed": 13,
    "windGust": 17,
    "visibility": 10,
    "temperatureC": 6,
    "dewPointC": -1,
    "cloudCeiling": 9000,
    "altimeter": "A3040",
    "timestamp": "2026-04-07T11:53:00+00:00",
    "station": "KCPS"
  },
  "kstl": {
    "metar": "KSTL 071151Z 06014KT 10SM FEW055 BKN080 BKN130 OVC250 06/M01 A3040 RMK AO2 SLP295 T00561006 10106 20056 53015 $",
    "windDirection": 60,
    "windSpeed": 14,
    "windGust": null,
    "visibility": 10,
    "temperatureC": 6,
    "dewPointC": -1,
    "cloudCeiling": 8000,
    "altimeter": "A3040",
    "timestamp": "2026-04-07T11:51:00+00:00",
    "station": "KSTL"
  }
}