{
  "lastUpdated": "2026-03-16T00:12:57.652780+00:00",
  "kcps": {
    "metar": "KCPS 152353Z 29020G31KT 9SM -RA BKN021 BKN028 OVC050 06/03 A2952 RMK AO2 PK WND 30040/2332 TSE04 SLP994 P0008 60058 T00560028 10206 20056 53063 $",
    "windDirection": 290,
    "windSpeed": 20,
    "windGust": 31,
    "visibility": 9,
    "temperatureC": 6,
    "dewPointC": 3,
    "cloudCeiling": 2100,
    "altimeter": "A2952",
    "timestamp": "2026-03-15T23:53:00+00:00",
    "station": "KCPS"
  },
  "kstl": {
    "metar": "KSTL 152357Z 29023G35KT 6SM -RA BR BKN015 BKN036 OVC060 04/02 A2949 RMK AO2 PK WND 28035/2356 P0003 T00440022 $",
    "windDirection": 290,
    "windSpeed": 23,
    "windGust": 35,
    "visibility": 6,
    "temperatureC": 4,
    "dewPointC": 2,
    "cloudCeiling": 1500,
    "altimeter": "A2949",
    "timestamp": "2026-03-15T23:57:00+00:00",
    "station": "KSTL"
  }
}