{
  "lastUpdated": "2025-11-20T20:46:39.243632+00:00",
  "kcps": {
    "metar": "KCPS 202045Z 15005KT 6SM BR BKN007 OVC017 12/11 A3003 RMK AO2 T01220106",
    "windDirection": 150,
    "windSpeed": 5,
    "windGust": null,
    "visibility": 6,
    "temperatureC": 12,
    "dewPointC": 11,
    "cloudCeiling": 700,
    "altimeter": "A3003",
    "timestamp": "2025-11-20T20:45:00+00:00",
    "station": "KCPS"
  },
  "kstl": {
    "metar": "KSTL 202034Z 15004KT 3SM BR OVC008 12/11 A3003 RMK AO2 T01220106 $",
    "windDirection": 150,
    "windSpeed": 4,
    "windGust": null,
    "visibility": 3,
    "temperatureC": 12,
    "dewPointC": 11,
    "cloudCeiling": 800,
    "altimeter": "A3003",
    "timestamp": "2025-11-20T20:34:00+00:00",
    "station": "KSTL"
  }
}