{
  "lastUpdated": "2025-11-11T20:35:06.759118+00:00",
  "kcps": {
    "metar": "KCPS 111953Z 22008G17KT 10SM CLR 12/M06 A2988 RMK AO2 SLP119 T01221056 $",
    "windDirection": 220,
    "windSpeed": 8,
    "windGust": 17,
    "visibility": 10,
    "temperatureC": 12,
    "dewPointC": -6,
    "cloudCeiling": 99999,
    "altimeter": "A2988",
    "timestamp": "2025-11-11T19:53:00+00:00",
    "station": "KCPS"
  },
  "kstl": {
    "metar": "KSTL 111951Z 23012KT 10SM BKN160 12/M06 A2988 RMK AO2 SLP123 T01221056 $",
    "windDirection": 230,
    "windSpeed": 12,
    "windGust": null,
    "visibility": 10,
    "temperatureC": 12,
    "dewPointC": -6,
    "cloudCeiling": 16000,
    "altimeter": "A2988",
    "timestamp": "2025-11-11T19:51:00+00:00",
    "station": "KSTL"
  }
}