{
  "lastUpdated": "2026-03-17T14:46:49.581138+00:00",
  "kcps": {
    "metar": "KCPS 171353Z 33011KT 10SM CLR M07/M16 A3028 RMK AO2 SLP261 T10721156 $",
    "windDirection": 330,
    "windSpeed": 11,
    "windGust": null,
    "visibility": 10,
    "temperatureC": -7,
    "dewPointC": -16,
    "cloudCeiling": 99999,
    "altimeter": "A3028",
    "timestamp": "2026-03-17T13:53:00+00:00",
    "station": "KCPS"
  },
  "kstl": {
    "metar": "KSTL 171351Z 31008KT 10SM FEW022 FEW250 M08/M14 A3027 RMK AO2 SLP266 T10781144 $",
    "windDirection": 310,
    "windSpeed": 8,
    "windGust": null,
    "visibility": 10,
    "temperatureC": -8,
    "dewPointC": -14,
    "cloudCeiling": null,
    "altimeter": "A3027",
    "timestamp": "2026-03-17T13:51:00+00:00",
    "station": "KSTL"
  }
}