{
  "lastUpdated": "2026-04-10T23:17:55.144337+00:00",
  "kcps": {
    "metar": "KCPS 102253Z 35012KT 10SM FEW034 BKN043 19/13 A3027 RMK AO2 SLP249 T01890128 $",
    "windDirection": 350,
    "windSpeed": 12,
    "windGust": null,
    "visibility": 10,
    "temperatureC": 19,
    "dewPointC": 13,
    "cloudCeiling": 4300,
    "altimeter": "A3027",
    "timestamp": "2026-04-10T22:53:00+00:00",
    "station": "KCPS"
  },
  "kstl": {
    "metar": "KSTL 102251Z 01014KT 10SM BKN041 BKN100 BKN250 16/11 A3029 RMK AO2 SLP251 T01610111 $",
    "windDirection": 10,
    "windSpeed": 14,
    "windGust": null,
    "visibility": 10,
    "temperatureC": 16,
    "dewPointC": 11,
    "cloudCeiling": 4100,
    "altimeter": "A3029",
    "timestamp": "2026-04-10T22:51:00+00:00",
    "station": "KSTL"
  }
}