{
  "lastUpdated": "2026-04-01T04:17:48.494206+00:00",
  "kcps": {
    "metar": "KCPS 010353Z AUTO 19003KT 10SM OVC075 22/13 A2991 RMK AO2 SLP123 T02220133 $",
    "windDirection": 190,
    "windSpeed": 3,
    "windGust": null,
    "visibility": 10,
    "temperatureC": 22,
    "dewPointC": 13,
    "cloudCeiling": 7500,
    "altimeter": "A2991",
    "timestamp": "2026-04-01T03:53:00+00:00",
    "station": "KCPS"
  },
  "kstl": {
    "metar": "KSTL 010351Z 10005KT 10SM SCT080 OVC250 20/15 A2991 RMK AO2 SLP119 T02000150 $",
    "windDirection": 100,
    "windSpeed": 5,
    "windGust": null,
    "visibility": 10,
    "temperatureC": 20,
    "dewPointC": 15,
    "cloudCeiling": 25000,
    "altimeter": "A2991",
    "timestamp": "2026-04-01T03:51:00+00:00",
    "station": "KSTL"
  }
}