{
  "lastUpdated": "2025-11-14T19:20:54.255366+00:00",
  "kcps": {
    "metar": "KCPS 141853Z VRB04G15KT 10SM CLR 26/14 A2996 RMK AO2 SLP145 T02560144",
    "windDirection": null,
    "windSpeed": null,
    "windGust": null,
    "visibility": 10,
    "temperatureC": 26,
    "dewPointC": 14,
    "cloudCeiling": 99999,
    "altimeter": "A2996",
    "timestamp": "2025-11-14T18:53:00+00:00",
    "station": "KCPS"
  },
  "kstl": {
    "metar": "KSTL 141851Z 21010KT 10SM FEW040 26/14 A2997 RMK AO2 SLP142 T02560144",
    "windDirection": 210,
    "windSpeed": 10,
    "windGust": null,
    "visibility": 10,
    "temperatureC": 26,
    "dewPointC": 14,
    "cloudCeiling": null,
    "altimeter": "A2997",
    "timestamp": "2025-11-14T18:51:00+00:00",
    "station": "KSTL"
  }
}