{
  "lastUpdated": "2026-04-16T07:12:45.908222+00:00",
  "kcps": {
    "metar": "KCPS 160641Z AUTO 21005KT 10SM -RA SCT075 OVC100 18/16 A2988 RMK AO2 LTG DSNT NE-SE TSB04E20 P0021 T01780161 $",
    "windDirection": 210,
    "windSpeed": 5,
    "windGust": null,
    "visibility": 10,
    "temperatureC": 18,
    "dewPointC": 16,
    "cloudCeiling": 10000,
    "altimeter": "A2988",
    "timestamp": "2026-04-16T06:41:00+00:00",
    "station": "KCPS"
  },
  "kstl": {
    "metar": "KSTL 160651Z 21011KT 10SM -RA OVC100 17/16 A2988 RMK AO2 TSB0557E31 SLP111 P0007 T01720161 $",
    "windDirection": 210,
    "windSpeed": 11,
    "windGust": null,
    "visibility": 10,
    "temperatureC": 17,
    "dewPointC": 16,
    "cloudCeiling": 10000,
    "altimeter": "A2988",
    "timestamp": "2026-04-16T06:51:00+00:00",
    "station": "KSTL"
  }
}