{
  "lastUpdated": "2026-02-28T06:23:41.567553+00:00",
  "kcps": {
    "metar": "KCPS 280553Z AUTO 02003KT 10SM CLR 07/00 A2997 RMK AO2 SLP147 T00670000 10217 20061 402501022 53029 $",
    "windDirection": 20,
    "windSpeed": 3,
    "windGust": null,
    "visibility": 10,
    "temperatureC": 7,
    "dewPointC": 0,
    "cloudCeiling": 99999,
    "altimeter": "A2997",
    "timestamp": "2026-02-28T05:53:00+00:00",
    "station": "KCPS"
  },
  "kstl": {
    "metar": "KSTL 280551Z 35008KT 10SM CLR 14/M03 A2999 RMK AO2 SLP149 T01391033 10211 20122 402440017 51031 $",
    "windDirection": 350,
    "windSpeed": 8,
    "windGust": null,
    "visibility": 10,
    "temperatureC": 14,
    "dewPointC": -3,
    "cloudCeiling": 99999,
    "altimeter": "A2999",
    "timestamp": "2026-02-28T05:51:00+00:00",
    "station": "KSTL"
  }
}