{
  "lastUpdated": "2025-12-29T13:56:24.482323+00:00",
  "kcps": {
    "metar": "KCPS 291353Z 30024G34KT 9SM -SN BKN035 M09/M16 A3027 RMK AO2 PK WND 31034/1350 SNE05B24 SLP257 P0000 T10891161",
    "windDirection": 300,
    "windSpeed": 24,
    "windGust": 34,
    "visibility": 9,
    "temperatureC": -9,
    "dewPointC": -16,
    "cloudCeiling": 3500,
    "altimeter": "A3027",
    "timestamp": "2025-12-29T13:53:00+00:00",
    "station": "KCPS"
  },
  "kstl": {
    "metar": "KSTL 291351Z 30018G40KT 10SM BKN029 M09/M17 A3026 RMK AO2 PK WND 31040/1346 SLP261 T10941167 $",
    "windDirection": 300,
    "windSpeed": 18,
    "windGust": 40,
    "visibility": 10,
    "temperatureC": -9,
    "dewPointC": -17,
    "cloudCeiling": 2900,
    "altimeter": "A3026",
    "timestamp": "2025-12-29T13:51:00+00:00",
    "station": "KSTL"
  }
}