{
  "lastUpdated": "2026-05-12T19:31:56.164396+00:00",
  "kcps": {
    "metar": "KCPS 121853Z 24010G17KT 190V280 10SM CLR 27/08 A3004 RMK AO2 SLP170 T02720083 $",
    "windDirection": 240,
    "windSpeed": 10,
    "windGust": 17,
    "visibility": 10,
    "temperatureC": 27,
    "dewPointC": 8,
    "cloudCeiling": 99999,
    "altimeter": "A3004",
    "timestamp": "2026-05-12T18:53:00+00:00",
    "station": "KCPS"
  },
  "kstl": {
    "metar": "KSTL 121851Z 21014G23KT 10SM FEW250 27/10 A3005 RMK AO2 SLP169 T02670100 $",
    "windDirection": 210,
    "windSpeed": 14,
    "windGust": 23,
    "visibility": 10,
    "temperatureC": 27,
    "dewPointC": 10,
    "cloudCeiling": null,
    "altimeter": "A3005",
    "timestamp": "2026-05-12T18:51:00+00:00",
    "station": "KSTL"
  }
}