{
  "lastUpdated": "2026-04-05T01:53:01.427072+00:00",
  "kcps": {
    "metar": "KCPS 050053Z 31014KT 10SM OVC047 11/02 A3013 RMK AO2 SLP201 T01060022 $",
    "windDirection": 310,
    "windSpeed": 14,
    "windGust": null,
    "visibility": 10,
    "temperatureC": 11,
    "dewPointC": 2,
    "cloudCeiling": 4700,
    "altimeter": "A3013",
    "timestamp": "2026-04-05T00:53:00+00:00",
    "station": "KCPS"
  },
  "kstl": {
    "metar": "KSTL 050051Z 30012G23KT 10SM BKN048 BKN250 11/02 A3013 RMK AO2 SLP204 T01060017 $",
    "windDirection": 300,
    "windSpeed": 12,
    "windGust": 23,
    "visibility": 10,
    "temperatureC": 11,
    "dewPointC": 2,
    "cloudCeiling": 4800,
    "altimeter": "A3013",
    "timestamp": "2026-04-05T00:51:00+00:00",
    "station": "KSTL"
  }
}