{
  "lastUpdated": "2026-02-10T20:49:39.499818+00:00",
  "kcps": {
    "metar": "KCPS 101953Z 35015G21KT 10SM CLR 19/07 A2987 RMK AO2 SLP116 T01890067 $",
    "windDirection": 350,
    "windSpeed": 15,
    "windGust": 21,
    "visibility": 10,
    "temperatureC": 19,
    "dewPointC": 7,
    "cloudCeiling": 99999,
    "altimeter": "A2987",
    "timestamp": "2026-02-10T19:53:00+00:00",
    "station": "KCPS"
  },
  "kstl": {
    "metar": "KSTL 101951Z 31013KT 10SM SCT250 17/05 A2990 RMK AO2 SLP127 T01720050 $",
    "windDirection": 310,
    "windSpeed": 13,
    "windGust": null,
    "visibility": 10,
    "temperatureC": 17,
    "dewPointC": 5,
    "cloudCeiling": null,
    "altimeter": "A2990",
    "timestamp": "2026-02-10T19:51:00+00:00",
    "station": "KSTL"
  }
}