{
  "lastUpdated": "2026-01-18T00:08:41.339872+00:00",
  "kcps": {
    "metar": "KCPS 172353Z 32018G25KT 10SM OVC055 M08/M15 A3028 RMK AO2 SLP261 60000 T10781150 11044 21078 52030 $",
    "windDirection": 320,
    "windSpeed": 18,
    "windGust": 25,
    "visibility": 10,
    "temperatureC": -8,
    "dewPointC": -15,
    "cloudCeiling": 5500,
    "altimeter": "A3028",
    "timestamp": "2026-01-17T23:53:00+00:00",
    "station": "KCPS"
  },
  "kstl": {
    "metar": "KSTL 172351Z 29014G24KT 10SM FEW039 OVC050 M08/M16 A3028 RMK AO2 SLP269 60000 T10831161 11050 21083 51030 $",
    "windDirection": 290,
    "windSpeed": 14,
    "windGust": 24,
    "visibility": 10,
    "temperatureC": -8,
    "dewPointC": -16,
    "cloudCeiling": 5000,
    "altimeter": "A3028",
    "timestamp": "2026-01-17T23:51:00+00:00",
    "station": "KSTL"
  }
}