{
  "lastUpdated": "2025-11-13T05:21:38.952174+00:00",
  "kcps": {
    "metar": "KCPS 130453Z AUTO 00000KT 10SM CLR 02/01 A3018 RMK AO2 SLP220 T00220011 TSNO",
    "windDirection": 0,
    "windSpeed": 0,
    "windGust": null,
    "visibility": 10,
    "temperatureC": 2,
    "dewPointC": 1,
    "cloudCeiling": 99999,
    "altimeter": "A3018",
    "timestamp": "2025-11-13T04:53:00+00:00",
    "station": "KCPS"
  },
  "kstl": {
    "metar": "KSTL 130451Z 00000KT 9SM CLR 07/01 A3018 RMK AO2 SLP222 T00720011",
    "windDirection": 0,
    "windSpeed": 0,
    "windGust": null,
    "visibility": 9,
    "temperatureC": 7,
    "dewPointC": 1,
    "cloudCeiling": 99999,
    "altimeter": "A3018",
    "timestamp": "2025-11-13T04:51:00+00:00",
    "station": "KSTL"
  }
}