{
  "lastUpdated": "2026-06-08T16:35:33.651995+00:00",
  "kcps": {
    "metar": "KCPS 081611Z 31003KT 10SM VCTS -RA FEW010 BKN020 OVC025 22/21 A2995 RMK AO2 LTG DSNT W-NE TSE05 P0002 T02170211 $",
    "windDirection": 310,
    "windSpeed": 3,
    "windGust": null,
    "visibility": 10,
    "temperatureC": 22,
    "dewPointC": 21,
    "cloudCeiling": 2000,
    "altimeter": "A2995",
    "timestamp": "2026-06-08T16:11:00+00:00",
    "station": "KCPS"
  },
  "kstl": {
    "metar": "KSTL 081608Z 18011G18KT 5SM R30R/3000VP6000FT +TSRA BR FEW018CB BKN045 OVC070 22/20 A2995 RMK AO2 OCNL LTGIC NE-S TS NE-S MOV NE P0015 T02170200 $",
    "windDirection": 180,
    "windSpeed": 11,
    "windGust": 18,
    "visibility": 5,
    "temperatureC": 22,
    "dewPointC": 20,
    "cloudCeiling": 4500,
    "altimeter": "A2995",
    "timestamp": "2026-06-08T16:08:00+00:00",
    "station": "KSTL"
  }
}