{
  "lastUpdated": "2026-03-24T13:29:06.146015+00:00",
  "kcps": {
    "metar": "KCPS 241253Z 10003KT 10SM CLR 04/M02 A3034 RMK AO2 SLP278 T00441022 $",
    "windDirection": 100,
    "windSpeed": 3,
    "windGust": null,
    "visibility": 10,
    "temperatureC": 4,
    "dewPointC": -2,
    "cloudCeiling": 99999,
    "altimeter": "A3034",
    "timestamp": "2026-03-24T12:53:00+00:00",
    "station": "KCPS"
  },
  "kstl": {
    "metar": "KSTL 241251Z 12007KT 10SM SCT180 BKN250 04/M03 A3034 RMK AO2 SLP279 T00391028",
    "windDirection": 120,
    "windSpeed": 7,
    "windGust": null,
    "visibility": 10,
    "temperatureC": 4,
    "dewPointC": -3,
    "cloudCeiling": 25000,
    "altimeter": "A3034",
    "timestamp": "2026-03-24T12:51:00+00:00",
    "station": "KSTL"
  }
}