{
  "lastUpdated": "2026-04-21T21:29:54.404106+00:00",
  "kcps": {
    "metar": "KCPS 212053Z 22008G22KT 190V250 10SM CLR 28/10 A2998 RMK AO2 PK WND 24026/2018 SLP149 T02830100 58028 $",
    "windDirection": 220,
    "windSpeed": 8,
    "windGust": 22,
    "visibility": 10,
    "temperatureC": 28,
    "dewPointC": 10,
    "cloudCeiling": 99999,
    "altimeter": "A2998",
    "timestamp": "2026-04-21T20:53:00+00:00",
    "station": "KCPS"
  },
  "kstl": {
    "metar": "KSTL 212051Z 22019G24KT 10SM FEW075 FEW250 28/11 A2999 RMK AO2 PK WND 22029/2008 SLP148 T02780111 57024 $",
    "windDirection": 220,
    "windSpeed": 19,
    "windGust": 24,
    "visibility": 10,
    "temperatureC": 28,
    "dewPointC": 11,
    "cloudCeiling": null,
    "altimeter": "A2999",
    "timestamp": "2026-04-21T20:51:00+00:00",
    "station": "KSTL"
  }
}