{
  "lastUpdated": "2025-12-18T20:02:24.162453+00:00",
  "kcps": {
    "metar": "KCPS 181853Z 30012G23KT 9SM RA BKN017 BKN023 OVC029 08/06 A2955 RMK AO2 PK WND 31030/1812 WSHFT 1753 RAB1757 SLP006 P0019 T00830061",
    "windDirection": 300,
    "windSpeed": 12,
    "windGust": 23,
    "visibility": 9,
    "temperatureC": 8,
    "dewPointC": 6,
    "cloudCeiling": 1700,
    "altimeter": "A2955",
    "timestamp": "2025-12-18T18:53:00+00:00",
    "station": "KCPS"
  },
  "kstl": {
    "metar": "KSTL 181951Z 28007KT 10SM SCT015 BKN055 BKN250 07/06 A2957 RMK AO2 RAE51 SLP015 P0002 T00670056 $",
    "windDirection": 280,
    "windSpeed": 7,
    "windGust": null,
    "visibility": 10,
    "temperatureC": 7,
    "dewPointC": 6,
    "cloudCeiling": 5500,
    "altimeter": "A2957",
    "timestamp": "2025-12-18T19:51:00+00:00",
    "station": "KSTL"
  }
}