{
  "lastUpdated": "2025-12-17T09:05:00.594633+00:00",
  "kcps": {
    "metar": "KCPS 170853Z AUTO 23005KT 10SM CLR 07/M04 A3000 RMK AO2 SLP160 T00671044 53010",
    "windDirection": 230,
    "windSpeed": 5,
    "windGust": null,
    "visibility": 10,
    "temperatureC": 7,
    "dewPointC": -4,
    "cloudCeiling": 99999,
    "altimeter": "A3000",
    "timestamp": "2025-12-17T08:53:00+00:00",
    "station": "KCPS"
  },
  "kstl": {
    "metar": "KSTL 170851Z 24007KT 10SM CLR 04/M01 A2999 RMK AO2 SLP156 T00441011 53010 $",
    "windDirection": 240,
    "windSpeed": 7,
    "windGust": null,
    "visibility": 10,
    "temperatureC": 4,
    "dewPointC": -1,
    "cloudCeiling": 99999,
    "altimeter": "A2999",
    "timestamp": "2025-12-17T08:51:00+00:00",
    "station": "KSTL"
  }
}