{
  "lastUpdated": "2025-12-24T08:23:01.586164+00:00",
  "kcps": {
    "metar": "KCPS 240806Z 00000KT 1 1/4SM BR BKN055 07/07 A3024 RMK AO2 T00720072 $",
    "windDirection": 0,
    "windSpeed": 0,
    "windGust": null,
    "visibility": 0.25,
    "temperatureC": 7,
    "dewPointC": 7,
    "cloudCeiling": 5500,
    "altimeter": "A3024",
    "timestamp": "2025-12-24T08:06:00+00:00",
    "station": "KCPS"
  },
  "kstl": {
    "metar": "KSTL 240751Z 08003KT 6SM BCFG BR FEW000 FEW003 SCT050 BKN250 06/06 A3025 RMK AO2 SLP241 VIS W-NW 2 FG FEW000 T00610061 $",
    "windDirection": 80,
    "windSpeed": 3,
    "windGust": null,
    "visibility": 6,
    "temperatureC": 6,
    "dewPointC": 6,
    "cloudCeiling": 25000,
    "altimeter": "A3025",
    "timestamp": "2025-12-24T07:51:00+00:00",
    "station": "KSTL"
  }
}