{
  "lastUpdated": "2025-12-31T09:22:39.011437+00:00",
  "kcps": {
    "metar": "KCPS 310853Z AUTO 00000KT 10SM CLR M01/M09 A3007 RMK AO2 SLP185 T10061089 56007 $",
    "windDirection": 0,
    "windSpeed": 0,
    "windGust": null,
    "visibility": 10,
    "temperatureC": -1,
    "dewPointC": -9,
    "cloudCeiling": 99999,
    "altimeter": "A3007",
    "timestamp": "2025-12-31T08:53:00+00:00",
    "station": "KCPS"
  },
  "kstl": {
    "metar": "KSTL 310851Z 26006KT 10SM FEW250 M02/M08 A3007 RMK AO2 SLP194 T10171083 56003 $",
    "windDirection": 260,
    "windSpeed": 6,
    "windGust": null,
    "visibility": 10,
    "temperatureC": -2,
    "dewPointC": -8,
    "cloudCeiling": null,
    "altimeter": "A3007",
    "timestamp": "2025-12-31T08:51:00+00:00",
    "station": "KSTL"
  }
}