{
  "lastUpdated": "2025-11-24T10:49:40.569705+00:00",
  "kcps": {
    "metar": "KCPS 241039Z AUTO 16003KT 1 3/4SM BR OVC003 07/07 A3012 RMK AO2 T00720072 $",
    "windDirection": 160,
    "windSpeed": 3,
    "windGust": null,
    "visibility": 0.75,
    "temperatureC": 7,
    "dewPointC": 7,
    "cloudCeiling": 300,
    "altimeter": "A3012",
    "timestamp": "2025-11-24T10:39:00+00:00",
    "station": "KCPS"
  },
  "kstl": {
    "metar": "KSTL 240951Z 13009KT 1/2SM R30R/4000V5500FT FG OVC001 08/08 A3012 RMK AO2 SLP202 T00780078 $",
    "windDirection": 130,
    "windSpeed": 9,
    "windGust": null,
    "visibility": 0.5,
    "temperatureC": 8,
    "dewPointC": 8,
    "cloudCeiling": 100,
    "altimeter": "A3012",
    "timestamp": "2025-11-24T09:51:00+00:00",
    "station": "KSTL"
  }
}