{
  "lastUpdated": "2026-04-04T20:42:52.080685+00:00",
  "kcps": {
    "metar": "KCPS 041953Z 30013KT 10SM BKN025 12/07 A3006 RMK AO2 SLP176 T01220072 $",
    "windDirection": 300,
    "windSpeed": 13,
    "windGust": null,
    "visibility": 10,
    "temperatureC": 12,
    "dewPointC": 7,
    "cloudCeiling": 2500,
    "altimeter": "A3006",
    "timestamp": "2026-04-04T19:53:00+00:00",
    "station": "KCPS"
  },
  "kstl": {
    "metar": "KSTL 041951Z 30013G20KT 10SM BKN023 OVC028 11/06 A3007 RMK AO2 SLP176 T01110061 $",
    "windDirection": 300,
    "windSpeed": 13,
    "windGust": 20,
    "visibility": 10,
    "temperatureC": 11,
    "dewPointC": 6,
    "cloudCeiling": 2300,
    "altimeter": "A3007",
    "timestamp": "2026-04-04T19:51:00+00:00",
    "station": "KSTL"
  }
}