{
  "lastUpdated": "2026-06-04T13:36:48.735480+00:00",
  "kcps": {
    "metar": "KCPS 041253Z 00000KT 10SM FEW065 19/16 A3018 RMK AO2 SLP217 T01890156 $",
    "windDirection": 0,
    "windSpeed": 0,
    "windGust": null,
    "visibility": 10,
    "temperatureC": 19,
    "dewPointC": 16,
    "cloudCeiling": null,
    "altimeter": "A3018",
    "timestamp": "2026-06-04T12:53:00+00:00",
    "station": "KCPS"
  },
  "kstl": {
    "metar": "KSTL 041251Z 19007KT 10SM BKN060 BKN250 22/14 A3018 RMK AO2 SLP209 T02170139 $",
    "windDirection": 190,
    "windSpeed": 7,
    "windGust": null,
    "visibility": 10,
    "temperatureC": 22,
    "dewPointC": 14,
    "cloudCeiling": 6000,
    "altimeter": "A3018",
    "timestamp": "2026-06-04T12:51:00+00:00",
    "station": "KSTL"
  }
}