{
  "lastUpdated": "2025-11-03T22:02:29.181238+00:00",
  "kcps": {
    "metar": "KCPS 032153Z 36003KT 10SM CLR 17/04 A3026 RMK AO2 SLP246 T01720044",
    "windDirection": 360,
    "windSpeed": 3,
    "windGust": null,
    "visibility": 10,
    "temperatureC": 17,
    "dewPointC": 4,
    "cloudCeiling": 99999,
    "altimeter": "A3026",
    "timestamp": "2025-11-03T21:53:00+00:00",
    "station": "KCPS"
  },
  "kstl": {
    "metar": "KSTL 032151Z 29004KT 10SM FEW250 18/03 A3026 RMK AO2 SLP249 T01780028 $",
    "windDirection": 290,
    "windSpeed": 4,
    "windGust": null,
    "visibility": 10,
    "temperatureC": 18,
    "dewPointC": 3,
    "cloudCeiling": null,
    "altimeter": "A3026",
    "timestamp": "2025-11-03T21:51:00+00:00",
    "station": "KSTL"
  }
}