{
  "lastUpdated": "2026-05-09T21:30:35.528833+00:00",
  "kcps": {
    "metar": "KCPS 092053Z 28008KT 10SM CLR 27/11 A2977 RMK AO2 SLP077 T02670106 58007 $",
    "windDirection": 280,
    "windSpeed": 8,
    "windGust": null,
    "visibility": 10,
    "temperatureC": 27,
    "dewPointC": 11,
    "cloudCeiling": 99999,
    "altimeter": "A2977",
    "timestamp": "2026-05-09T20:53:00+00:00",
    "station": "KCPS"
  },
  "kstl": {
    "metar": "KSTL 092051Z 32014G19KT 10SM BKN250 26/08 A2978 RMK AO2 SLP078 T02610083 58007 $",
    "windDirection": 320,
    "windSpeed": 14,
    "windGust": 19,
    "visibility": 10,
    "temperatureC": 26,
    "dewPointC": 8,
    "cloudCeiling": 25000,
    "altimeter": "A2978",
    "timestamp": "2026-05-09T20:51:00+00:00",
    "station": "KSTL"
  }
}