{
  "lastUpdated": "2026-03-15T18:05:09.124358+00:00",
  "kcps": {
    "metar": "KCPS 151753Z 19015G30KT 10SM SCT044 21/12 A2942 RMK AO2 PK WND 16033/1708 SLP961 T02060122 10211 20167 58012 $",
    "windDirection": 190,
    "windSpeed": 15,
    "windGust": 30,
    "visibility": 10,
    "temperatureC": 21,
    "dewPointC": 12,
    "cloudCeiling": null,
    "altimeter": "A2942",
    "timestamp": "2026-03-15T17:53:00+00:00",
    "station": "KCPS"
  },
  "kstl": {
    "metar": "KSTL 151751Z 20018G31KT 10SM SCT043 BKN055 OVC150 20/12 A2942 RMK AO2 PK WND 20035/1658 SLP956 60000 T02000117 10206 20167 58006 $",
    "windDirection": 200,
    "windSpeed": 18,
    "windGust": 31,
    "visibility": 10,
    "temperatureC": 20,
    "dewPointC": 12,
    "cloudCeiling": 5500,
    "altimeter": "A2942",
    "timestamp": "2026-03-15T17:51:00+00:00",
    "station": "KSTL"
  }
}