{
  "lastUpdated": "2025-11-29T15:46:28.075755+00:00",
  "kcps": {
    "metar": "KCPS 291539Z 14013KT 2SM -SN BR OVC008 01/00 A3015 RMK AO2 CIG 007V013 P0002 T00060000 $",
    "windDirection": 140,
    "windSpeed": 13,
    "windGust": null,
    "visibility": 2,
    "temperatureC": 1,
    "dewPointC": 0,
    "cloudCeiling": 800,
    "altimeter": "A3015",
    "timestamp": "2025-11-29T15:39:00+00:00",
    "station": "KCPS"
  },
  "kstl": {
    "metar": "KSTL 291528Z 13015G24KT 2 1/2SM -SN BR BKN007 OVC013 01/00 A3013 RMK AO2 P0004 T00110000 $",
    "windDirection": 130,
    "windSpeed": 15,
    "windGust": 24,
    "visibility": 0.5,
    "temperatureC": 1,
    "dewPointC": 0,
    "cloudCeiling": 700,
    "altimeter": "A3013",
    "timestamp": "2025-11-29T15:28:00+00:00",
    "station": "KSTL"
  }
}