{
  "lastUpdated": "2026-04-12T10:26:55.821249+00:00",
  "kcps": {
    "metar": "KCPS 120953Z AUTO 16006KT 10SM CLR 16/13 A3006 RMK AO2 SLP178 T01610128 $",
    "windDirection": 160,
    "windSpeed": 6,
    "windGust": null,
    "visibility": 10,
    "temperatureC": 16,
    "dewPointC": 13,
    "cloudCeiling": 99999,
    "altimeter": "A3006",
    "timestamp": "2026-04-12T09:53:00+00:00",
    "station": "KCPS"
  },
  "kstl": {
    "metar": "KSTL 120951Z 18008KT 10SM CLR 18/13 A3006 RMK AO2 SLP174 T01830128 $",
    "windDirection": 180,
    "windSpeed": 8,
    "windGust": null,
    "visibility": 10,
    "temperatureC": 18,
    "dewPointC": 13,
    "cloudCeiling": 99999,
    "altimeter": "A3006",
    "timestamp": "2026-04-12T09:51:00+00:00",
    "station": "KSTL"
  }
}