{
  "lastUpdated": "2025-11-25T18:41:43.228575+00:00",
  "kcps": {
    "metar": "KCPS 251822Z 33006KT 1 1/2SM -RA BR BKN008 OVC013 13/12 A2985 RMK AO2 RAB06 CIG 005V009 P0000 T01280122",
    "windDirection": 330,
    "windSpeed": 6,
    "windGust": null,
    "visibility": 0.5,
    "temperatureC": 13,
    "dewPointC": 12,
    "cloudCeiling": 800,
    "altimeter": "A2985",
    "timestamp": "2025-11-25T18:22:00+00:00",
    "station": "KCPS"
  },
  "kstl": {
    "metar": "KSTL 251751Z 28009KT 6SM BR OVC009 13/11 A2985 RMK AO2 SLP109 60000 T01280111 10128 20117 50000 $",
    "windDirection": 280,
    "windSpeed": 9,
    "windGust": null,
    "visibility": 6,
    "temperatureC": 13,
    "dewPointC": 11,
    "cloudCeiling": 900,
    "altimeter": "A2985",
    "timestamp": "2025-11-25T17:51:00+00:00",
    "station": "KSTL"
  }
}