{
  "lastUpdated": "2026-01-09T13:45:25.910168+00:00",
  "kcps": {
    "metar": "KCPS 091253Z 28009G22KT 10SM OVC028 09/04 A2993 RMK AO2 SLP136 T00890044",
    "windDirection": 280,
    "windSpeed": 9,
    "windGust": 22,
    "visibility": 10,
    "temperatureC": 9,
    "dewPointC": 4,
    "cloudCeiling": 2800,
    "altimeter": "A2993",
    "timestamp": "2026-01-09T12:53:00+00:00",
    "station": "KCPS"
  },
  "kstl": {
    "metar": "KSTL 091251Z 29019G28KT 10SM BKN022 08/04 A2993 RMK AO2 PK WND 28033/1237 SLP132 T00830039 $",
    "windDirection": 290,
    "windSpeed": 19,
    "windGust": 28,
    "visibility": 10,
    "temperatureC": 8,
    "dewPointC": 4,
    "cloudCeiling": 2200,
    "altimeter": "A2993",
    "timestamp": "2026-01-09T12:51:00+00:00",
    "station": "KSTL"
  }
}