{
  "lastUpdated": "2025-12-24T09:04:40.064867+00:00",
  "kcps": {
    "metar": "KCPS 240853Z 00000KT 2 1/2SM BR BKN039 OVC050 08/08 A3024 RMK AO2 SLP240 T00780078 51007 $",
    "windDirection": 0,
    "windSpeed": 0,
    "windGust": null,
    "visibility": 0.5,
    "temperatureC": 8,
    "dewPointC": 8,
    "cloudCeiling": 3900,
    "altimeter": "A3024",
    "timestamp": "2025-12-24T08:53:00+00:00",
    "station": "KCPS"
  },
  "kstl": {
    "metar": "KSTL 240851Z 05003KT 6SM BR SCT032 BKN050 OVC250 07/07 A3024 RMK AO2 SLP241 T00670067 51005 $",
    "windDirection": 50,
    "windSpeed": 3,
    "windGust": null,
    "visibility": 6,
    "temperatureC": 7,
    "dewPointC": 7,
    "cloudCeiling": 5000,
    "altimeter": "A3024",
    "timestamp": "2025-12-24T08:51:00+00:00",
    "station": "KSTL"
  }
}