{
  "lastUpdated": "2025-10-16T23:31:45.275143+00:00",
  "kcps": {
    "metar": "KCPS 162153Z 11008KT 10SM CLR 28/14 A2999 RMK AO2 SLP154 T02830144",
    "windDirection": 110,
    "windSpeed": 8,
    "windGust": null,
    "visibility": 10,
    "temperatureC": 28,
    "dewPointC": 14,
    "cloudCeiling": 99999,
    "altimeter": "A2999",
    "timestamp": "2025-10-16T21:53:00+00:00",
    "station": "KCPS"
  },
  "kstl": {
    "metar": "KSTL 162251Z 12007KT 10SM SCT250 27/14 A3000 RMK AO2 SLP149 T02670144 $",
    "windDirection": 120,
    "windSpeed": 7,
    "windGust": null,
    "visibility": 10,
    "temperatureC": 27,
    "dewPointC": 14,
    "cloudCeiling": null,
    "altimeter": "A3000",
    "timestamp": "2025-10-16T22:51:00+00:00",
    "station": "KSTL"
  }
}