{
  "lastUpdated": "2025-12-24T01:51:35.252131+00:00",
  "kcps": {
    "metar": "KCPS 240145Z 08004KT 4SM BR BKN035 09/09 A3021 RMK AO2 T00940094 $",
    "windDirection": 80,
    "windSpeed": 4,
    "windGust": null,
    "visibility": 4,
    "temperatureC": 9,
    "dewPointC": 9,
    "cloudCeiling": 3500,
    "altimeter": "A3021",
    "timestamp": "2025-12-24T01:45:00+00:00",
    "station": "KCPS"
  },
  "kstl": {
    "metar": "KSTL 240051Z 00000KT 8SM SCT031 BKN250 10/10 A3021 RMK AO2 SLP233 T01000100 $",
    "windDirection": 0,
    "windSpeed": 0,
    "windGust": null,
    "visibility": 8,
    "temperatureC": 10,
    "dewPointC": 10,
    "cloudCeiling": 25000,
    "altimeter": "A3021",
    "timestamp": "2025-12-24T00:51:00+00:00",
    "station": "KSTL"
  }
}