{
  "lastUpdated": "2025-10-27T15:13:24.631497+00:00",
  "kcps": {
    "metar": "KCPS 271453Z 08006KT 10SM BKN011 OVC017 10/08 A3009 RMK AO2 RAE23 SLP191 P0000 60001 T01000083 53004",
    "windDirection": 80,
    "windSpeed": 6,
    "windGust": null,
    "visibility": 10,
    "temperatureC": 10,
    "dewPointC": 8,
    "cloudCeiling": 1100,
    "altimeter": "A3009",
    "timestamp": "2025-10-27T14:53:00+00:00",
    "station": "KCPS"
  },
  "kstl": {
    "metar": "KSTL 271451Z 09009KT 7SM OVC008 09/08 A3010 RMK AO2 SLP193 60000 T00940083 53005 $",
    "windDirection": 90,
    "windSpeed": 9,
    "windGust": null,
    "visibility": 7,
    "temperatureC": 9,
    "dewPointC": 8,
    "cloudCeiling": 800,
    "altimeter": "A3010",
    "timestamp": "2025-10-27T14:51:00+00:00",
    "station": "KSTL"
  }
}