{
  "lastUpdated": "2025-12-27T17:02:17.714620+00:00",
  "kcps": {
    "metar": "KCPS 271653Z 13007KT 3/4SM BR OVC002 10/09 A2994 RMK AO2 SLP139 T01000094 $",
    "windDirection": 130,
    "windSpeed": 7,
    "windGust": null,
    "visibility": 0.75,
    "temperatureC": 10,
    "dewPointC": 9,
    "cloudCeiling": 200,
    "altimeter": "A2994",
    "timestamp": "2025-12-27T16:53:00+00:00",
    "station": "KCPS"
  },
  "kstl": {
    "metar": "KSTL 271659Z 12012KT 1/2SM R30R/2000V2200FT FG OVC002 09/09 A2993 RMK AO2 T00940094 $",
    "windDirection": 120,
    "windSpeed": 12,
    "windGust": null,
    "visibility": 0.5,
    "temperatureC": 9,
    "dewPointC": 9,
    "cloudCeiling": 200,
    "altimeter": "A2993",
    "timestamp": "2025-12-27T16:59:00+00:00",
    "station": "KSTL"
  }
}