{
  "lastUpdated": "2026-02-06T03:35:14.439656+00:00",
  "kcps": {
    "metar": "KCPS 060253Z 00000KT 10SM CLR M01/M05 A2992 RMK AO2 SLP136 T10061050 58005 $",
    "windDirection": 0,
    "windSpeed": 0,
    "windGust": null,
    "visibility": 10,
    "temperatureC": -1,
    "dewPointC": -5,
    "cloudCeiling": 99999,
    "altimeter": "A2992",
    "timestamp": "2026-02-06T02:53:00+00:00",
    "station": "KCPS"
  },
  "kstl": {
    "metar": "KSTL 060251Z 00000KT 10SM BKN170 02/M04 A2991 RMK AO2 SLP140 T00171039 58004 $",
    "windDirection": 0,
    "windSpeed": 0,
    "windGust": null,
    "visibility": 10,
    "temperatureC": 2,
    "dewPointC": -4,
    "cloudCeiling": 17000,
    "altimeter": "A2991",
    "timestamp": "2026-02-06T02:51:00+00:00",
    "station": "KSTL"
  }
}