{
  "lastUpdated": "2025-11-27T13:24:13.549649+00:00",
  "kcps": {
    "metar": "KCPS 271318Z 32011KT 10SM BKN026 M01/M06 A3038 RMK AO2 T10111061 $",
    "windDirection": 320,
    "windSpeed": 11,
    "windGust": null,
    "visibility": 10,
    "temperatureC": -1,
    "dewPointC": -6,
    "cloudCeiling": 2600,
    "altimeter": "A3038",
    "timestamp": "2025-11-27T13:18:00+00:00",
    "station": "KCPS"
  },
  "kstl": {
    "metar": "KSTL 271251Z 30013G23KT 10SM BKN024 M02/M07 A3037 RMK AO2 SLP293 T10171067 $",
    "windDirection": 300,
    "windSpeed": 13,
    "windGust": 23,
    "visibility": 10,
    "temperatureC": -2,
    "dewPointC": -7,
    "cloudCeiling": 2400,
    "altimeter": "A3037",
    "timestamp": "2025-11-27T12:51:00+00:00",
    "station": "KSTL"
  }
}