{
  "lastUpdated": "2026-02-06T14:59:37.181711+00:00",
  "kcps": {
    "metar": "KCPS 061453Z 31018G27KT 10SM CLR 08/01 A2981 RMK AO2 PK WND 31027/1452 SLP096 T00780011 53014 $",
    "windDirection": 310,
    "windSpeed": 18,
    "windGust": 27,
    "visibility": 10,
    "temperatureC": 8,
    "dewPointC": 1,
    "cloudCeiling": 99999,
    "altimeter": "A2981",
    "timestamp": "2026-02-06T14:53:00+00:00",
    "station": "KCPS"
  },
  "kstl": {
    "metar": "KSTL 061451Z 30012G21KT 10SM CLR 07/01 A2982 RMK AO2 SLP105 T00720011 53020 $",
    "windDirection": 300,
    "windSpeed": 12,
    "windGust": 21,
    "visibility": 10,
    "temperatureC": 7,
    "dewPointC": 1,
    "cloudCeiling": 99999,
    "altimeter": "A2982",
    "timestamp": "2026-02-06T14:51:00+00:00",
    "station": "KSTL"
  }
}