{
  "lastUpdated": "2026-06-14T15:50:30.920704+00:00",
  "kcps": {
    "metar": "SPECI KCPS 141500Z 35014KT 10SM -RA FEW030 OVC037 21/15 A2996 RMK AO2 P0000 T02060150 $",
    "windDirection": 350,
    "windSpeed": 14,
    "windGust": null,
    "visibility": 10.0,
    "temperatureC": 20.6,
    "dewPointC": 15,
    "cloudCeiling": 3700,
    "altimeter": "A2996",
    "timestamp": "2026-06-14T15:00:00.000Z",
    "station": "KCPS"
  },
  "kstl": {
    "metar": "KSTL 141451Z 35008G19KT 10SM OVC037 20/14 A2998 RMK AO2 SLP142 T02000144 51024 $",
    "windDirection": 350,
    "windSpeed": 8,
    "windGust": 19,
    "visibility": 10.0,
    "temperatureC": 20,
    "dewPointC": 14.4,
    "cloudCeiling": 3700,
    "altimeter": "A2998",
    "timestamp": "2026-06-14T15:00:00.000Z",
    "station": "KSTL"
  }
}