{
  "lastUpdated": "2026-03-10T07:15:05.846247+00:00",
  "kcps": {
    "metar": "KCPS 100653Z AUTO 21005KT 10SM CLR 19/16 A2986 RMK AO2 SLP108 T01890156 $",
    "windDirection": 210,
    "windSpeed": 5,
    "windGust": null,
    "visibility": 10,
    "temperatureC": 19,
    "dewPointC": 16,
    "cloudCeiling": 99999,
    "altimeter": "A2986",
    "timestamp": "2026-03-10T06:53:00+00:00",
    "station": "KCPS"
  },
  "kstl": {
    "metar": "KSTL 100651Z 21011KT 10SM CLR 19/16 A2986 RMK AO2 SLP101 T01890156 $",
    "windDirection": 210,
    "windSpeed": 11,
    "windGust": null,
    "visibility": 10,
    "temperatureC": 19,
    "dewPointC": 16,
    "cloudCeiling": 99999,
    "altimeter": "A2986",
    "timestamp": "2026-03-10T06:51:00+00:00",
    "station": "KSTL"
  }
}