{
  "lastUpdated": "2025-11-27T06:54:20.137214+00:00",
  "kcps": {
    "metar": "KCPS 270553Z AUTO 29006KT 10SM CLR 03/M06 A3033 RMK AO2 SLP273 T00281061 10044 20028 400780028 53008 $",
    "windDirection": 290,
    "windSpeed": 6,
    "windGust": null,
    "visibility": 10,
    "temperatureC": 3,
    "dewPointC": -6,
    "cloudCeiling": 99999,
    "altimeter": "A3033",
    "timestamp": "2025-11-27T05:53:00+00:00",
    "station": "KCPS"
  },
  "kstl": {
    "metar": "KSTL 270651Z 29009KT 10SM BKN150 BKN220 02/M06 A3032 RMK AO2 SLP274 T00171056 $",
    "windDirection": 290,
    "windSpeed": 9,
    "windGust": null,
    "visibility": 10,
    "temperatureC": 2,
    "dewPointC": -6,
    "cloudCeiling": 15000,
    "altimeter": "A3032",
    "timestamp": "2025-11-27T06:51:00+00:00",
    "station": "KSTL"
  }
}