{
  "lastUpdated": "2026-01-25T08:39:30.262088+00:00",
  "kcps": {
    "metar": "KCPS 250803Z AUTO 01011KT 1SM -SN BR VV013 M13/M15 A3018 RMK AO2 P0000 T11281150 $",
    "windDirection": 10,
    "windSpeed": 11,
    "windGust": null,
    "visibility": 1,
    "temperatureC": -13,
    "dewPointC": -15,
    "cloudCeiling": 1300,
    "altimeter": "A3018",
    "timestamp": "2026-01-25T08:03:00+00:00",
    "station": "KCPS"
  },
  "kstl": {
    "metar": "KSTL 250800Z 01009KT 1/2SM R30R/6000VP6000FT SN FZFG VV014 M13/M15 A3018 RMK AO2 P0001 T11281150 $",
    "windDirection": 10,
    "windSpeed": 9,
    "windGust": null,
    "visibility": 0.5,
    "temperatureC": -13,
    "dewPointC": -15,
    "cloudCeiling": 1400,
    "altimeter": "A3018",
    "timestamp": "2026-01-25T08:00:00+00:00",
    "station": "KSTL"
  }
}