{
  "lastUpdated": "2026-06-02T19:43:42.882876+00:00",
  "kcps": {
    "metar": "KCPS 021853Z 11007KT 10SM FEW055 27/14 A3023 RMK AO2 SLP233 T02670144 $",
    "windDirection": 110,
    "windSpeed": 7,
    "windGust": null,
    "visibility": 10,
    "temperatureC": 27,
    "dewPointC": 14,
    "cloudCeiling": null,
    "altimeter": "A3023",
    "timestamp": "2026-06-02T18:53:00+00:00",
    "station": "KCPS"
  },
  "kstl": {
    "metar": "KSTL 021851Z 10006KT 10SM FEW050 BKN250 26/12 A3024 RMK AO2 SLP232 T02610117 $",
    "windDirection": 100,
    "windSpeed": 6,
    "windGust": null,
    "visibility": 10,
    "temperatureC": 26,
    "dewPointC": 12,
    "cloudCeiling": 25000,
    "altimeter": "A3024",
    "timestamp": "2026-06-02T18:51:00+00:00",
    "station": "KSTL"
  }
}