{
  "lastUpdated": "2025-12-04T07:34:38.477682+00:00",
  "kcps": {
    "metar": "KCPS 040701Z AUTO 36012KT 9SM BKN016 M01/M04 A3028 RMK AO2 T10111044 $",
    "windDirection": 360,
    "windSpeed": 12,
    "windGust": null,
    "visibility": 9,
    "temperatureC": -1,
    "dewPointC": -4,
    "cloudCeiling": 1600,
    "altimeter": "A3028",
    "timestamp": "2025-12-04T07:01:00+00:00",
    "station": "KCPS"
  },
  "kstl": {
    "metar": "KSTL 040720Z 36013KT 8SM SCT016 SCT120 BKN250 M03/M07 A3029 RMK AO2 T10331067 $",
    "windDirection": 360,
    "windSpeed": 13,
    "windGust": null,
    "visibility": 8,
    "temperatureC": -3,
    "dewPointC": -7,
    "cloudCeiling": 25000,
    "altimeter": "A3029",
    "timestamp": "2025-12-04T07:20:00+00:00",
    "station": "KSTL"
  }
}