{
  "lastUpdated": "2026-02-21T10:52:29.773351+00:00",
  "kcps": {
    "metar": "KCPS 210953Z AUTO 36006KT 10SM FEW090 M01/M06 A3013 RMK AO2 SLP206 T10111061 PNO $",
    "windDirection": 360,
    "windSpeed": 6,
    "windGust": null,
    "visibility": 10,
    "temperatureC": -1,
    "dewPointC": -6,
    "cloudCeiling": null,
    "altimeter": "A3013",
    "timestamp": "2026-02-21T09:53:00+00:00",
    "station": "KCPS"
  },
  "kstl": {
    "metar": "KSTL 210951Z 35006KT 10SM SCT075 BKN130 M02/M07 A3013 RMK AO2 SLP209 T10221067 $",
    "windDirection": 350,
    "windSpeed": 6,
    "windGust": null,
    "visibility": 10,
    "temperatureC": -2,
    "dewPointC": -7,
    "cloudCeiling": 13000,
    "altimeter": "A3013",
    "timestamp": "2026-02-21T09:51:00+00:00",
    "station": "KSTL"
  }
}