{
  "lastUpdated": "2026-03-18T20:08:31.231452+00:00",
  "kcps": {
    "metar": "KCPS 181953Z 23007KT 10SM CLR 19/M01 A2999 RMK AO2 SLP156 T01891006 $",
    "windDirection": 230,
    "windSpeed": 7,
    "windGust": null,
    "visibility": 10,
    "temperatureC": 19,
    "dewPointC": -1,
    "cloudCeiling": 99999,
    "altimeter": "A2999",
    "timestamp": "2026-03-18T19:53:00+00:00",
    "station": "KCPS"
  },
  "kstl": {
    "metar": "KSTL 181951Z 23004KT 10SM R30R/3500VP6000FT FEW140 SCT250 19/M01 A3000 RMK AO2 SLP161 T01891006",
    "windDirection": 230,
    "windSpeed": 4,
    "windGust": null,
    "visibility": 10,
    "temperatureC": 19,
    "dewPointC": -1,
    "cloudCeiling": null,
    "altimeter": "A3000",
    "timestamp": "2026-03-18T19:51:00+00:00",
    "station": "KSTL"
  }
}