{
  "lastUpdated": "2026-01-05T16:40:42.723379+00:00",
  "kcps": {
    "metar": "KCPS 051553Z 19005KT 10SM CLR 08/02 A2993 RMK AO2 SLP135 T00780017 $",
    "windDirection": 190,
    "windSpeed": 5,
    "windGust": null,
    "visibility": 10,
    "temperatureC": 8,
    "dewPointC": 2,
    "cloudCeiling": 99999,
    "altimeter": "A2993",
    "timestamp": "2026-01-05T15:53:00+00:00",
    "station": "KCPS"
  },
  "kstl": {
    "metar": "KSTL 051551Z 22005KT 10SM BKN250 07/02 A2992 RMK AO2 SLP136 T00720017 $",
    "windDirection": 220,
    "windSpeed": 5,
    "windGust": null,
    "visibility": 10,
    "temperatureC": 7,
    "dewPointC": 2,
    "cloudCeiling": 25000,
    "altimeter": "A2992",
    "timestamp": "2026-01-05T15:51:00+00:00",
    "station": "KSTL"
  }
}