{
  "lastUpdated": "2026-01-27T05:42:02.262528+00:00",
  "kcps": {
    "metar": "KCPS 270453Z AUTO 21010G19KT 10SM CLR M09/M18 A3030 RMK AO2 SLP268 T10891178 $",
    "windDirection": 210,
    "windSpeed": 10,
    "windGust": 19,
    "visibility": 10,
    "temperatureC": -9,
    "dewPointC": -18,
    "cloudCeiling": 99999,
    "altimeter": "A3030",
    "timestamp": "2026-01-27T04:53:00+00:00",
    "station": "KCPS"
  },
  "kstl": {
    "metar": "KSTL 270451Z 23011KT 10SM CLR M09/M17 A3027 RMK AO2 SLP274 T10941172 $",
    "windDirection": 230,
    "windSpeed": 11,
    "windGust": null,
    "visibility": 10,
    "temperatureC": -9,
    "dewPointC": -17,
    "cloudCeiling": 99999,
    "altimeter": "A3027",
    "timestamp": "2026-01-27T04:51:00+00:00",
    "station": "KSTL"
  }
}