{
  "lastUpdated": "2026-04-02T08:34:56.023271+00:00",
  "kcps": {
    "metar": "KCPS 020753Z AUTO 15007KT 8SM CLR 15/14 A2983 RMK AO2 SLP099 T01500139 $",
    "windDirection": 150,
    "windSpeed": 7,
    "windGust": null,
    "visibility": 8,
    "temperatureC": 15,
    "dewPointC": 14,
    "cloudCeiling": 99999,
    "altimeter": "A2983",
    "timestamp": "2026-04-02T07:53:00+00:00",
    "station": "KCPS"
  },
  "kstl": {
    "metar": "KSTL 020751Z 11007KT 7SM FEW005 SCT070 BKN200 OVC250 14/13 A2982 RMK AO2 SLP096 T01390133 $",
    "windDirection": 110,
    "windSpeed": 7,
    "windGust": null,
    "visibility": 7,
    "temperatureC": 14,
    "dewPointC": 13,
    "cloudCeiling": 20000,
    "altimeter": "A2982",
    "timestamp": "2026-04-02T07:51:00+00:00",
    "station": "KSTL"
  }
}