{
  "lastUpdated": "2025-11-29T10:21:34.812895+00:00",
  "kcps": {
    "metar": "KCPS 291018Z 08008KT 1 1/4SM -SN BR OVC016 M01/M01 A3028 RMK AO2 P0002 T10061011 $",
    "windDirection": 80,
    "windSpeed": 8,
    "windGust": null,
    "visibility": 0.25,
    "temperatureC": -1,
    "dewPointC": -1,
    "cloudCeiling": 1600,
    "altimeter": "A3028",
    "timestamp": "2025-11-29T10:18:00+00:00",
    "station": "KCPS"
  },
  "kstl": {
    "metar": "KSTL 291016Z 12014KT 3/4SM R30R/3500VP6000FT -SN BR VV006 M01/M01 A3025 RMK AO2 PRESFR P0010 T10061011 $",
    "windDirection": 120,
    "windSpeed": 14,
    "windGust": null,
    "visibility": 0.75,
    "temperatureC": -1,
    "dewPointC": -1,
    "cloudCeiling": 600,
    "altimeter": "A3025",
    "timestamp": "2025-11-29T10:16:00+00:00",
    "station": "KSTL"
  }
}