{
  "lastUpdated": "2025-11-27T16:02:28.277007+00:00",
  "kcps": {
    "metar": "KCPS 271553Z 33011KT 10SM BKN026 00/M06 A3043 RMK AO2 SLP309 T00001061 $",
    "windDirection": 330,
    "windSpeed": 11,
    "windGust": null,
    "visibility": 10,
    "temperatureC": 0,
    "dewPointC": -6,
    "cloudCeiling": 2600,
    "altimeter": "A3043",
    "timestamp": "2025-11-27T15:53:00+00:00",
    "station": "KCPS"
  },
  "kstl": {
    "metar": "KSTL 271551Z 31009KT 10SM BKN024 BKN200 M01/M06 A3043 RMK AO2 SLP315 T10061061 $",
    "windDirection": 310,
    "windSpeed": 9,
    "windGust": null,
    "visibility": 10,
    "temperatureC": -1,
    "dewPointC": -6,
    "cloudCeiling": 2400,
    "altimeter": "A3043",
    "timestamp": "2025-11-27T15:51:00+00:00",
    "station": "KSTL"
  }
}