{
  "lastUpdated": "2026-05-09T08:48:00.631808+00:00",
  "kcps": {
    "metar": "KCPS 090834Z AUTO 25005KT 10SM OVC006 14/13 A2977 RMK AO2 CIG 003V011 T01440133 $",
    "windDirection": 250,
    "windSpeed": 5,
    "windGust": null,
    "visibility": 10,
    "temperatureC": 14,
    "dewPointC": 13,
    "cloudCeiling": 600,
    "altimeter": "A2977",
    "timestamp": "2026-05-09T08:34:00+00:00",
    "station": "KCPS"
  },
  "kstl": {
    "metar": "KSTL 090758Z 24006KT 5SM BR OVC004 13/13 A2977 RMK AO2 T01330133 $",
    "windDirection": 240,
    "windSpeed": 6,
    "windGust": null,
    "visibility": 5,
    "temperatureC": 13,
    "dewPointC": 13,
    "cloudCeiling": 400,
    "altimeter": "A2977",
    "timestamp": "2026-05-09T07:58:00+00:00",
    "station": "KSTL"
  }
}