{
  "lastUpdated": "2026-05-18T22:33:37.993273+00:00",
  "kcps": {
    "metar": "KCPS 182225Z 12005KT 2SM TSRA BR BKN035 OVC075 19/18 A3002 RMK AO2 LTG DSNT ALQDS TSE15B21 LTGIC TS OHD MOV NE P0024 T01890183 $",
    "windDirection": 120,
    "windSpeed": 5,
    "windGust": null,
    "visibility": 2,
    "temperatureC": 19,
    "dewPointC": 18,
    "cloudCeiling": 3500,
    "altimeter": "A3002",
    "timestamp": "2026-05-18T22:25:00+00:00",
    "station": "KCPS"
  },
  "kstl": {
    "metar": "KSTL 182226Z 00000KT 4SM R30R/5000VP6000FT +TSRA BR BKN047 OVC065CB 19/17 A3002 RMK AO2 TSB2156 OCNL LTGICCC NE-SE TS NE-SE MOV NE P0031 T01890172 $",
    "windDirection": 0,
    "windSpeed": 0,
    "windGust": null,
    "visibility": 4,
    "temperatureC": 19,
    "dewPointC": 17,
    "cloudCeiling": 4700,
    "altimeter": "A3002",
    "timestamp": "2026-05-18T22:26:00+00:00",
    "station": "KSTL"
  }
}