{
  "lastUpdated": "2025-11-09T04:35:40.276654+00:00",
  "kcps": {
    "metar": "KCPS 090430Z AUTO 32019G25KT 10SM OVC028 09/03 A2989 RMK AO2 PK WND 28027/0356 T00940033 TSNO $",
    "windDirection": 320,
    "windSpeed": 19,
    "windGust": 25,
    "visibility": 10,
    "temperatureC": 9,
    "dewPointC": 3,
    "cloudCeiling": 2800,
    "altimeter": "A2989",
    "timestamp": "2025-11-09T04:30:00+00:00",
    "station": "KCPS"
  },
  "kstl": {
    "metar": "KSTL 090351Z 29018G30KT 10SM BKN026 09/03 A2988 RMK AO2 PK WND 29032/0253 SLP119 T00940033 $",
    "windDirection": 290,
    "windSpeed": 18,
    "windGust": 30,
    "visibility": 10,
    "temperatureC": 9,
    "dewPointC": 3,
    "cloudCeiling": 2600,
    "altimeter": "A2988",
    "timestamp": "2025-11-09T03:51:00+00:00",
    "station": "KSTL"
  }
}