{
  "lastUpdated": "2025-10-25T02:54:44.029922+00:00",
  "kcps": {
    "metar": "KCPS 250153Z 13003KT 10SM OVC095 13/06 A3022 RMK AO2 SLP235 T01280061 $",
    "windDirection": 130,
    "windSpeed": 3,
    "windGust": null,
    "visibility": 10,
    "temperatureC": 13,
    "dewPointC": 6,
    "cloudCeiling": 9500,
    "altimeter": "A3022",
    "timestamp": "2025-10-25T01:53:00+00:00",
    "station": "KCPS"
  },
  "kstl": {
    "metar": "KSTL 250251Z 06003KT 10SM OVC095 14/04 A3025 RMK AO2 SLP243 T01390044 53004 $",
    "windDirection": 60,
    "windSpeed": 3,
    "windGust": null,
    "visibility": 10,
    "temperatureC": 14,
    "dewPointC": 4,
    "cloudCeiling": 9500,
    "altimeter": "A3025",
    "timestamp": "2025-10-25T02:51:00+00:00",
    "station": "KSTL"
  }
}