{
  "lastUpdated": "2026-02-14T20:02:32.982054+00:00",
  "kcps": {
    "metar": "KCPS 141953Z 13004KT 4SM RA BR BKN026 OVC036 08/06 A2997 RMK AO2 SLP149 P0012 T00780061 $",
    "windDirection": 130,
    "windSpeed": 4,
    "windGust": null,
    "visibility": 4,
    "temperatureC": 8,
    "dewPointC": 6,
    "cloudCeiling": 2600,
    "altimeter": "A2997",
    "timestamp": "2026-02-14T19:53:00+00:00",
    "station": "KCPS"
  },
  "kstl": {
    "metar": "KSTL 141951Z 14007KT 5SM -RA BR FEW015 OVC043 08/08 A2996 RMK AO2 SLP149 P0010 T00830078 $",
    "windDirection": 140,
    "windSpeed": 7,
    "windGust": null,
    "visibility": 5,
    "temperatureC": 8,
    "dewPointC": 8,
    "cloudCeiling": 4300,
    "altimeter": "A2996",
    "timestamp": "2026-02-14T19:51:00+00:00",
    "station": "KSTL"
  }
}