{
  "lastUpdated": "2025-11-19T14:36:39.692427+00:00",
  "kcps": {
    "metar": "KCPS 191353Z 02004KT 5SM BR OVC009 09/08 A3019 RMK AO2 SLP223 T00890078 $",
    "windDirection": 20,
    "windSpeed": 4,
    "windGust": null,
    "visibility": 5,
    "temperatureC": 9,
    "dewPointC": 8,
    "cloudCeiling": 900,
    "altimeter": "A3019",
    "timestamp": "2025-11-19T13:53:00+00:00",
    "station": "KCPS"
  },
  "kstl": {
    "metar": "KSTL 191351Z 05005KT 5SM BR OVC008 09/08 A3019 RMK AO2 SLP223 T00940078 $",
    "windDirection": 50,
    "windSpeed": 5,
    "windGust": null,
    "visibility": 5,
    "temperatureC": 9,
    "dewPointC": 8,
    "cloudCeiling": 800,
    "altimeter": "A3019",
    "timestamp": "2025-11-19T13:51:00+00:00",
    "station": "KSTL"
  }
}