{
  "lastUpdated": "2025-12-19T05:03:25.996837+00:00",
  "kcps": {
    "metar": "KCPS 190453Z AUTO 29015G25KT 10SM OVC038 M01/M08 A2981 RMK AO2 PK WND 29033/0422 SNB01E28 SLP095 P0000 T10111083",
    "windDirection": 290,
    "windSpeed": 15,
    "windGust": 25,
    "visibility": 10,
    "temperatureC": -1,
    "dewPointC": -8,
    "cloudCeiling": 3800,
    "altimeter": "A2981",
    "timestamp": "2025-12-19T04:53:00+00:00",
    "station": "KCPS"
  },
  "kstl": {
    "metar": "KSTL 190451Z 28025G38KT 9SM -SN OVC034 M03/M09 A2980 RMK AO2 PK WND 29038/0440 SNE11B25 SLP095 P0000 T10281089 $",
    "windDirection": 280,
    "windSpeed": 25,
    "windGust": 38,
    "visibility": 9,
    "temperatureC": -3,
    "dewPointC": -9,
    "cloudCeiling": 3400,
    "altimeter": "A2980",
    "timestamp": "2025-12-19T04:51:00+00:00",
    "station": "KSTL"
  }
}