{
  "lastUpdated": "2025-10-23T23:20:47.059771+00:00",
  "kcps": {
    "metar": "KCPS 232253Z 00000KT 10SM CLR 15/01 A3018 RMK AO2 SLP222 T01500011 $",
    "windDirection": 0,
    "windSpeed": 0,
    "windGust": null,
    "visibility": 10,
    "temperatureC": 15,
    "dewPointC": 1,
    "cloudCeiling": 99999,
    "altimeter": "A3018",
    "timestamp": "2025-10-23T22:53:00+00:00",
    "station": "KCPS"
  },
  "kstl": {
    "metar": "KSTL 232251Z 32003KT 10SM SCT250 16/00 A3019 RMK AO2 SLP224 T01560000 $",
    "windDirection": 320,
    "windSpeed": 3,
    "windGust": null,
    "visibility": 10,
    "temperatureC": 16,
    "dewPointC": 0,
    "cloudCeiling": null,
    "altimeter": "A3019",
    "timestamp": "2025-10-23T22:51:00+00:00",
    "station": "KSTL"
  }
}