{
  "lastUpdated": "2026-04-04T14:56:47.040641+00:00",
  "kcps": {
    "metar": "KCPS 041453Z 30007G23KT 10SM SCT013 SCT018 OVC095 13/10 A2998 RMK AO2 RAE53 SLP149 P0004 60009 T01330100 51021 $",
    "windDirection": 300,
    "windSpeed": 7,
    "windGust": 23,
    "visibility": 10,
    "temperatureC": 13,
    "dewPointC": 10,
    "cloudCeiling": 9500,
    "altimeter": "A2998",
    "timestamp": "2026-04-04T14:53:00+00:00",
    "station": "KCPS"
  },
  "kstl": {
    "metar": "KSTL 041451Z 31014G20KT 10SM SCT015 BKN029 OVC045 12/11 A2999 RMK AO2 RAE27 SLP150 P0001 60005 T01220106 53019 $",
    "windDirection": 310,
    "windSpeed": 14,
    "windGust": 20,
    "visibility": 10,
    "temperatureC": 12,
    "dewPointC": 11,
    "cloudCeiling": 2900,
    "altimeter": "A2999",
    "timestamp": "2026-04-04T14:51:00+00:00",
    "station": "KSTL"
  }
}