{
  "lastUpdated": "2026-04-03T17:24:19.755062+00:00",
  "kcps": {
    "metar": "KCPS 031653Z 20010G19KT 10SM FEW036 BKN070 26/18 A2999 RMK AO2 SLP152 T02610178 $",
    "windDirection": 200,
    "windSpeed": 10,
    "windGust": 19,
    "visibility": 10,
    "temperatureC": 26,
    "dewPointC": 18,
    "cloudCeiling": 7000,
    "altimeter": "A2999",
    "timestamp": "2026-04-03T16:53:00+00:00",
    "station": "KCPS"
  },
  "kstl": {
    "metar": "KSTL 031651Z 20013KT 10SM BKN036 BKN240 26/18 A2999 RMK AO2 SLP145 T02610178 $",
    "windDirection": 200,
    "windSpeed": 13,
    "windGust": null,
    "visibility": 10,
    "temperatureC": 26,
    "dewPointC": 18,
    "cloudCeiling": 3600,
    "altimeter": "A2999",
    "timestamp": "2026-04-03T16:51:00+00:00",
    "station": "KSTL"
  }
}