{
  "lastUpdated": "2026-05-13T15:55:07.892046+00:00",
  "kcps": {
    "metar": "KCPS 131453Z 32019G25KT 10SM CLR 21/04 A3005 RMK AO2 SLP172 T02110044 50007 $",
    "windDirection": 320,
    "windSpeed": 19,
    "windGust": 25,
    "visibility": 10,
    "temperatureC": 21,
    "dewPointC": 4,
    "cloudCeiling": 99999,
    "altimeter": "A3005",
    "timestamp": "2026-05-13T14:53:00+00:00",
    "station": "KCPS"
  },
  "kstl": {
    "metar": "KSTL 131551Z 32011G20KT 10SM CLR 21/05 A3007 RMK AO2 SLP173 T02060050 $",
    "windDirection": 320,
    "windSpeed": 11,
    "windGust": 20,
    "visibility": 10,
    "temperatureC": 21,
    "dewPointC": 5,
    "cloudCeiling": 99999,
    "altimeter": "A3007",
    "timestamp": "2026-05-13T15:51:00+00:00",
    "station": "KSTL"
  }
}