{
  "lastUpdated": "2026-02-11T14:21:44.392856+00:00",
  "kcps": {
    "metar": "KCPS 111353Z 34009KT 10SM CLR 01/M03 A3033 RMK AO2 SLP273 T00061033 $",
    "windDirection": 340,
    "windSpeed": 9,
    "windGust": null,
    "visibility": 10,
    "temperatureC": 1,
    "dewPointC": -3,
    "cloudCeiling": 99999,
    "altimeter": "A3033",
    "timestamp": "2026-02-11T13:53:00+00:00",
    "station": "KCPS"
  },
  "kstl": {
    "metar": "KSTL 111351Z 31004KT 10SM BKN250 M01/M03 A3033 RMK AO2 SLP278 T10061033 $",
    "windDirection": 310,
    "windSpeed": 4,
    "windGust": null,
    "visibility": 10,
    "temperatureC": -1,
    "dewPointC": -3,
    "cloudCeiling": 25000,
    "altimeter": "A3033",
    "timestamp": "2026-02-11T13:51:00+00:00",
    "station": "KSTL"
  }
}