{
  "lastUpdated": "2025-11-30T03:17:23.584420+00:00",
  "kcps": {
    "metar": "KCPS 300253Z 26004KT 4SM -RA BR FEW004 BKN010 OVC015 04/04 A2996 RMK AO2 CIG 008V012 SLP150 P0003 60005 T00390039 53019 $",
    "windDirection": 260,
    "windSpeed": 4,
    "windGust": null,
    "visibility": 4,
    "temperatureC": 4,
    "dewPointC": 4,
    "cloudCeiling": 1000,
    "altimeter": "A2996",
    "timestamp": "2025-11-30T02:53:00+00:00",
    "station": "KCPS"
  },
  "kstl": {
    "metar": "KSTL 300310Z 29019G33KT 10SM -RA OVC012 02/00 A3000 RMK AO2 PK WND 27033/0302 PRESRR P0001 T00220000 $",
    "windDirection": 290,
    "windSpeed": 19,
    "windGust": 33,
    "visibility": 10,
    "temperatureC": 2,
    "dewPointC": 0,
    "cloudCeiling": 1200,
    "altimeter": "A3000",
    "timestamp": "2025-11-30T03:10:00+00:00",
    "station": "KSTL"
  }
}