{
  "lastUpdated": "2026-06-10T10:23:43.123755+00:00",
  "kcps": {
    "metar": "KCPS 100953Z AUTO 17004KT 10SM CLR 25/23 A2989 RMK AO2 SLP116 T02500228 $",
    "windDirection": 170,
    "windSpeed": 4,
    "windGust": null,
    "visibility": 10,
    "temperatureC": 25,
    "dewPointC": 23,
    "cloudCeiling": 99999,
    "altimeter": "A2989",
    "timestamp": "2026-06-10T09:53:00+00:00",
    "station": "KCPS"
  },
  "kstl": {
    "metar": "KSTL 100951Z 22008KT 10SM FEW180 FEW250 26/22 A2989 RMK AO2 SLP106 T02560222 $",
    "windDirection": 220,
    "windSpeed": 8,
    "windGust": null,
    "visibility": 10,
    "temperatureC": 26,
    "dewPointC": 22,
    "cloudCeiling": null,
    "altimeter": "A2989",
    "timestamp": "2026-06-10T09:51:00+00:00",
    "station": "KSTL"
  }
}