{
  "lastUpdated": "2026-02-24T10:03:46.245873+00:00",
  "kcps": {
    "metar": "KCPS 240953Z AUTO 18006KT 10SM CLR M04/M11 A3018 RMK AO2 SLP223 T10441106 PNO $",
    "windDirection": 180,
    "windSpeed": 6,
    "windGust": null,
    "visibility": 10,
    "temperatureC": -4,
    "dewPointC": -11,
    "cloudCeiling": 99999,
    "altimeter": "A3018",
    "timestamp": "2026-02-24T09:53:00+00:00",
    "station": "KCPS"
  },
  "kstl": {
    "metar": "KSTL 240951Z 17007KT 10SM BKN210 BKN240 M04/M12 A3016 RMK AO2 SLP225 T10391117 $",
    "windDirection": 170,
    "windSpeed": 7,
    "windGust": null,
    "visibility": 10,
    "temperatureC": -4,
    "dewPointC": -12,
    "cloudCeiling": 21000,
    "altimeter": "A3016",
    "timestamp": "2026-02-24T09:51:00+00:00",
    "station": "KSTL"
  }
}