{
  "lastUpdated": "2025-10-20T19:46:41.508543+00:00",
  "kcps": {
    "metar": "KCPS 201853Z 16012G23KT 10SM CLR 22/04 A2984 RMK AO2 SLP104 T02220044",
    "windDirection": 160,
    "windSpeed": 12,
    "windGust": 23,
    "visibility": 10,
    "temperatureC": 22,
    "dewPointC": 4,
    "cloudCeiling": 99999,
    "altimeter": "A2984",
    "timestamp": "2025-10-20T18:53:00+00:00",
    "station": "KCPS"
  },
  "kstl": {
    "metar": "KSTL 201851Z 16019G29KT 10SM CLR 22/03 A2983 RMK AO2 PK WND 16031/1813 SLP097 T02220033 $",
    "windDirection": 160,
    "windSpeed": 19,
    "windGust": 29,
    "visibility": 10,
    "temperatureC": 22,
    "dewPointC": 3,
    "cloudCeiling": 99999,
    "altimeter": "A2983",
    "timestamp": "2025-10-20T18:51:00+00:00",
    "station": "KSTL"
  }
}