{
  "lastUpdated": "2026-05-31T23:05:46.629368+00:00",
  "kcps": {
    "metar": "KCPS 312253Z 07004KT 10SM FEW040 26/18 A2992 RMK AO2 SLP129 T02560183 $",
    "windDirection": 70,
    "windSpeed": 4,
    "windGust": null,
    "visibility": 10,
    "temperatureC": 26,
    "dewPointC": 18,
    "cloudCeiling": null,
    "altimeter": "A2992",
    "timestamp": "2026-05-31T22:53:00+00:00",
    "station": "KCPS"
  },
  "kstl": {
    "metar": "KSTL 312251Z 09005KT 10SM FEW050 SCT120 BKN210 26/18 A2994 RMK AO2 SLP129 ACC W T02560183 $",
    "windDirection": 90,
    "windSpeed": 5,
    "windGust": null,
    "visibility": 10,
    "temperatureC": 26,
    "dewPointC": 18,
    "cloudCeiling": 21000,
    "altimeter": "A2994",
    "timestamp": "2026-05-31T22:51:00+00:00",
    "station": "KSTL"
  }
}