{
  "lastUpdated": "2026-04-07T21:14:06.485358+00:00",
  "kcps": {
    "metar": "KCPS 072053Z AUTO 08011KT 10SM CLR 13/03 A3031 RMK AO2 SLP265 T01330028 58030 $",
    "windDirection": 80,
    "windSpeed": 11,
    "windGust": null,
    "visibility": 10,
    "temperatureC": 13,
    "dewPointC": 3,
    "cloudCeiling": 99999,
    "altimeter": "A3031",
    "timestamp": "2026-04-07T20:53:00+00:00",
    "station": "KCPS"
  },
  "kstl": {
    "metar": "KSTL 072051Z 08013G17KT 10SM FEW110 FEW250 13/02 A3031 RMK AO2 SLP267 T01330022 58030 $",
    "windDirection": 80,
    "windSpeed": 13,
    "windGust": 17,
    "visibility": 10,
    "temperatureC": 13,
    "dewPointC": 2,
    "cloudCeiling": null,
    "altimeter": "A3031",
    "timestamp": "2026-04-07T20:51:00+00:00",
    "station": "KSTL"
  }
}