{
  "lastUpdated": "2026-04-08T16:13:46.539051+00:00",
  "kcps": {
    "metar": "KCPS 081553Z 17010KT 10SM CLR 16/04 A3023 RMK AO2 SLP235 T01610044 $",
    "windDirection": 170,
    "windSpeed": 10,
    "windGust": null,
    "visibility": 10,
    "temperatureC": 16,
    "dewPointC": 4,
    "cloudCeiling": 99999,
    "altimeter": "A3023",
    "timestamp": "2026-04-08T15:53:00+00:00",
    "station": "KCPS"
  },
  "kstl": {
    "metar": "KSTL 081551Z 16009KT 10SM FEW200 SCT250 17/04 A3022 RMK AO2 SLP232 T01670039 $",
    "windDirection": 160,
    "windSpeed": 9,
    "windGust": null,
    "visibility": 10,
    "temperatureC": 17,
    "dewPointC": 4,
    "cloudCeiling": null,
    "altimeter": "A3022",
    "timestamp": "2026-04-08T15:51:00+00:00",
    "station": "KSTL"
  }
}