{
  "lastUpdated": "2026-02-26T00:48:44.692338+00:00",
  "kcps": {
    "metar": "KCPS 252353Z 11003KT 10SM OVC100 10/M01 A2978 RMK AO2 SLP088 T01001006 10128 20100 53014 $",
    "windDirection": 110,
    "windSpeed": 3,
    "windGust": null,
    "visibility": 10,
    "temperatureC": 10,
    "dewPointC": -1,
    "cloudCeiling": 10000,
    "altimeter": "A2978",
    "timestamp": "2026-02-25T23:53:00+00:00",
    "station": "KCPS"
  },
  "kstl": {
    "metar": "KSTL 252351Z 07006KT 10SM OVC110 10/M01 A2979 RMK AO2 SLP092 T01001011 10122 20100 53012 $",
    "windDirection": 70,
    "windSpeed": 6,
    "windGust": null,
    "visibility": 10,
    "temperatureC": 10,
    "dewPointC": -1,
    "cloudCeiling": 11000,
    "altimeter": "A2979",
    "timestamp": "2026-02-25T23:51:00+00:00",
    "station": "KSTL"
  }
}