{
  "lastUpdated": "2026-02-20T00:09:44.080355+00:00",
  "kcps": {
    "metar": "KCPS 192253Z 13009KT 10SM FEW100 20/14 A2937 RMK AO2 LTG DSNT E SLP943 T02000139 $",
    "windDirection": 130,
    "windSpeed": 9,
    "windGust": null,
    "visibility": 10,
    "temperatureC": 20,
    "dewPointC": 14,
    "cloudCeiling": null,
    "altimeter": "A2937",
    "timestamp": "2026-02-19T22:53:00+00:00",
    "station": "KCPS"
  },
  "kstl": {
    "metar": "KSTL 192351Z 00000KT 10SM BKN110 BKN250 17/14 A2939 RMK AO2 SLP950 60000 T01720139 10200 20139 55010 $",
    "windDirection": 0,
    "windSpeed": 0,
    "windGust": null,
    "visibility": 10,
    "temperatureC": 17,
    "dewPointC": 14,
    "cloudCeiling": 11000,
    "altimeter": "A2939",
    "timestamp": "2026-02-19T23:51:00+00:00",
    "station": "KSTL"
  }
}