{
  "lastUpdated": "2026-02-03T03:36:01.330750+00:00",
  "kcps": {
    "metar": "KCPS 030253Z 13004KT 10SM CLR 01/M04 A3014 RMK AO2 SLP211 T00061044 56005 $",
    "windDirection": 130,
    "windSpeed": 4,
    "windGust": null,
    "visibility": 10,
    "temperatureC": 1,
    "dewPointC": -4,
    "cloudCeiling": 99999,
    "altimeter": "A3014",
    "timestamp": "2026-02-03T02:53:00+00:00",
    "station": "KCPS"
  },
  "kstl": {
    "metar": "KSTL 030251Z 09004KT 10SM FEW180 BKN250 00/M04 A3015 RMK AO2 SLP219 T00001039 55001 $",
    "windDirection": 90,
    "windSpeed": 4,
    "windGust": null,
    "visibility": 10,
    "temperatureC": 0,
    "dewPointC": -4,
    "cloudCeiling": 25000,
    "altimeter": "A3015",
    "timestamp": "2026-02-03T02:51:00+00:00",
    "station": "KSTL"
  }
}