{
  "lastUpdated": "2026-06-12T21:31:11.399479+00:00",
  "kcps": {
    "metar": "KCPS 122053Z 01007KT 10SM CLR 29/13 A2999 RMK AO2 SLP150 T02890133 57007 $",
    "windDirection": 10,
    "windSpeed": 7,
    "windGust": null,
    "visibility": 10.0,
    "temperatureC": 28.9,
    "dewPointC": 13.3,
    "cloudCeiling": null,
    "altimeter": "A2999",
    "timestamp": "2026-06-12T21:00:00.000Z",
    "station": "KCPS"
  },
  "kstl": {
    "metar": "KSTL 122051Z 33007KT 10SM FEW060 FEW250 28/14 A3000 RMK AO2 SLP149 T02830139 57007 $",
    "windDirection": 330,
    "windSpeed": 7,
    "windGust": null,
    "visibility": 10.0,
    "temperatureC": 28.3,
    "dewPointC": 13.9,
    "cloudCeiling": null,
    "altimeter": "A3000",
    "timestamp": "2026-06-12T21:00:00.000Z",
    "station": "KSTL"
  }
}