{
  "lastUpdated": "2026-04-17T19:06:05.399275+00:00",
  "kcps": {
    "metar": "KCPS 171853Z 17015G24KT 10SM FEW049 29/18 A2982 RMK AO2 SLP094 T02940183 $",
    "windDirection": 170,
    "windSpeed": 15,
    "windGust": 24,
    "visibility": 10,
    "temperatureC": 29,
    "dewPointC": 18,
    "cloudCeiling": null,
    "altimeter": "A2982",
    "timestamp": "2026-04-17T18:53:00+00:00",
    "station": "KCPS"
  },
  "kstl": {
    "metar": "KSTL 171851Z 19016G23KT 10SM SCT049 BKN250 29/18 A2982 RMK AO2 SLP086 T02890178 $",
    "windDirection": 190,
    "windSpeed": 16,
    "windGust": 23,
    "visibility": 10,
    "temperatureC": 29,
    "dewPointC": 18,
    "cloudCeiling": 25000,
    "altimeter": "A2982",
    "timestamp": "2026-04-17T18:51:00+00:00",
    "station": "KSTL"
  }
}