{
  "lastUpdated": "2026-03-27T07:38:23.589584+00:00",
  "kcps": {
    "metar": "KCPS 270719Z AUTO 02016G25KT 10SM BKN025 BKN060 OVC075 12/06 A3005 RMK AO2 PK WND 01026/0709 T01170061 $",
    "windDirection": 20,
    "windSpeed": 16,
    "windGust": 25,
    "visibility": 10,
    "temperatureC": 12,
    "dewPointC": 6,
    "cloudCeiling": 2500,
    "altimeter": "A3005",
    "timestamp": "2026-03-27T07:19:00+00:00",
    "station": "KCPS"
  },
  "kstl": {
    "metar": "KSTL 270658Z 03022G31KT 10SM -RA BKN022 OVC039 11/06 A3005 RMK AO2 PK WND 03031/0657 P0000 T01110061 $",
    "windDirection": 30,
    "windSpeed": 22,
    "windGust": 31,
    "visibility": 10,
    "temperatureC": 11,
    "dewPointC": 6,
    "cloudCeiling": 2200,
    "altimeter": "A3005",
    "timestamp": "2026-03-27T06:58:00+00:00",
    "station": "KSTL"
  }
}