{
  "lastUpdated": "2025-11-06T10:02:45.510424+00:00",
  "kcps": {
    "metar": "KCPS 060953Z AUTO 00000KT 6SM BR CLR 02/02 A3023 RMK AO2 SLP238 T00220022 TSNO $",
    "windDirection": 0,
    "windSpeed": 0,
    "windGust": null,
    "visibility": 6,
    "temperatureC": 2,
    "dewPointC": 2,
    "cloudCeiling": 99999,
    "altimeter": "A3023",
    "timestamp": "2025-11-06T09:53:00+00:00",
    "station": "KCPS"
  },
  "kstl": {
    "metar": "KSTL 060951Z 05004KT 10SM CLR 06/01 A3024 RMK AO2 SLP237 T00610006 $",
    "windDirection": 50,
    "windSpeed": 4,
    "windGust": null,
    "visibility": 10,
    "temperatureC": 6,
    "dewPointC": 1,
    "cloudCeiling": 99999,
    "altimeter": "A3024",
    "timestamp": "2025-11-06T09:51:00+00:00",
    "station": "KSTL"
  }
}