{
  "lastUpdated": "2025-11-04T20:22:16.189951+00:00",
  "kcps": {
    "metar": "KCPS 041953Z 18011G16KT 10SM CLR 22/07 A3008 RMK AO2 SLP186 T02220072",
    "windDirection": 180,
    "windSpeed": 11,
    "windGust": 16,
    "visibility": 10,
    "temperatureC": 22,
    "dewPointC": 7,
    "cloudCeiling": 99999,
    "altimeter": "A3008",
    "timestamp": "2025-11-04T19:53:00+00:00",
    "station": "KCPS"
  },
  "kstl": {
    "metar": "KSTL 041951Z 15011G18KT 10SM FEW150 BKN250 22/08 A3007 RMK AO2 SLP183 T02170083",
    "windDirection": 150,
    "windSpeed": 11,
    "windGust": 18,
    "visibility": 10,
    "temperatureC": 22,
    "dewPointC": 8,
    "cloudCeiling": 25000,
    "altimeter": "A3007",
    "timestamp": "2025-11-04T19:51:00+00:00",
    "station": "KSTL"
  }
}