{
  "lastUpdated": "2025-11-21T14:02:33.439731+00:00",
  "kcps": {
    "metar": "KCPS 211350Z 09003KT 10SM BKN006 OVC024 12/12 A2997 RMK AO2 RAE45 P0001 $",
    "windDirection": 90,
    "windSpeed": 3,
    "windGust": null,
    "visibility": 10,
    "temperatureC": 12,
    "dewPointC": 12,
    "cloudCeiling": 600,
    "altimeter": "A2997",
    "timestamp": "2025-11-21T13:50:00+00:00",
    "station": "KCPS"
  },
  "kstl": {
    "metar": "KSTL 211351Z 10008KT 7SM -RA OVC003 12/11 A2997 RMK AO2 SLP147 P0001 T01170111 $",
    "windDirection": 100,
    "windSpeed": 8,
    "windGust": null,
    "visibility": 7,
    "temperatureC": 12,
    "dewPointC": 11,
    "cloudCeiling": 300,
    "altimeter": "A2997",
    "timestamp": "2025-11-21T13:51:00+00:00",
    "station": "KSTL"
  }
}