{
  "lastUpdated": "2026-05-20T13:22:38.822026+00:00",
  "kcps": {
    "metar": "KCPS 201253Z 03007KT 10SM BKN033 OVC080 13/10 A3020 RMK AO2 RAE36 SLP226 T01330100 PNO $",
    "windDirection": 30,
    "windSpeed": 7,
    "windGust": null,
    "visibility": 10,
    "temperatureC": 13,
    "dewPointC": 10,
    "cloudCeiling": 3300,
    "altimeter": "A3020",
    "timestamp": "2026-05-20T12:53:00+00:00",
    "station": "KCPS"
  },
  "kstl": {
    "metar": "KSTL 201251Z 35008G16KT 10SM FEW020 BKN037 OVC100 13/09 A3022 RMK AO2 SLP229 T01330089 $",
    "windDirection": 350,
    "windSpeed": 8,
    "windGust": 16,
    "visibility": 10,
    "temperatureC": 13,
    "dewPointC": 9,
    "cloudCeiling": 3700,
    "altimeter": "A3022",
    "timestamp": "2026-05-20T12:51:00+00:00",
    "station": "KSTL"
  }
}