{
  "lastUpdated": "2025-12-25T10:37:21.936382+00:00",
  "kcps": {
    "metar": "KCPS 251007Z AUTO 00000KT 4SM BR OVC023 13/13 A3004 RMK AO2 T01280128 $",
    "windDirection": 0,
    "windSpeed": 0,
    "windGust": null,
    "visibility": 4,
    "temperatureC": 13,
    "dewPointC": 13,
    "cloudCeiling": 2300,
    "altimeter": "A3004",
    "timestamp": "2025-12-25T10:07:00+00:00",
    "station": "KCPS"
  },
  "kstl": {
    "metar": "KSTL 250951Z 00000KT 8SM OVC020 13/13 A3005 RMK AO2 SLP173 T01330133 $",
    "windDirection": 0,
    "windSpeed": 0,
    "windGust": null,
    "visibility": 8,
    "temperatureC": 13,
    "dewPointC": 13,
    "cloudCeiling": 2000,
    "altimeter": "A3005",
    "timestamp": "2025-12-25T09:51:00+00:00",
    "station": "KSTL"
  }
}