{
  "lastUpdated": "2025-10-31T13:39:05.250266+00:00",
  "kcps": {
    "metar": "KCPS 311253Z 20003KT 10SM CLR 04/03 A3001 RMK AO2 SLP163 T00390028",
    "windDirection": 200,
    "windSpeed": 3,
    "windGust": null,
    "visibility": 10,
    "temperatureC": 4,
    "dewPointC": 3,
    "cloudCeiling": 99999,
    "altimeter": "A3001",
    "timestamp": "2025-10-31T12:53:00+00:00",
    "station": "KCPS"
  },
  "kstl": {
    "metar": "KSTL 311251Z 00000KT 10SM FEW250 05/03 A3001 RMK AO2 SLP164 T00500028 $",
    "windDirection": 0,
    "windSpeed": 0,
    "windGust": null,
    "visibility": 10,
    "temperatureC": 5,
    "dewPointC": 3,
    "cloudCeiling": null,
    "altimeter": "A3001",
    "timestamp": "2025-10-31T12:51:00+00:00",
    "station": "KSTL"
  }
}