{
  "lastUpdated": "2026-05-10T16:16:21.883718+00:00",
  "kcps": {
    "metar": "KCPS 101553Z 01009G18KT 10SM BKN100 18/03 A3011 RMK AO2 SLP193 T01830033 $",
    "windDirection": 10,
    "windSpeed": 9,
    "windGust": 18,
    "visibility": 10,
    "temperatureC": 18,
    "dewPointC": 3,
    "cloudCeiling": 10000,
    "altimeter": "A3011",
    "timestamp": "2026-05-10T15:53:00+00:00",
    "station": "KCPS"
  },
  "kstl": {
    "metar": "KSTL 101551Z 33009KT 10SM BKN130 BKN250 17/07 A3013 RMK AO2 SLP197 T01720067 $",
    "windDirection": 330,
    "windSpeed": 9,
    "windGust": null,
    "visibility": 10,
    "temperatureC": 17,
    "dewPointC": 7,
    "cloudCeiling": 13000,
    "altimeter": "A3013",
    "timestamp": "2026-05-10T15:51:00+00:00",
    "station": "KSTL"
  }
}