{
  "lastUpdated": "2026-01-23T19:22:37.479900+00:00",
  "kcps": {
    "metar": "KCPS 231853Z 01014G22KT 10SM OVC100 M13/M27 A3071 RMK AO2 SLP406 T11281267",
    "windDirection": 10,
    "windSpeed": 14,
    "windGust": 22,
    "visibility": 10,
    "temperatureC": -13,
    "dewPointC": -27,
    "cloudCeiling": 10000,
    "altimeter": "A3071",
    "timestamp": "2026-01-23T18:53:00+00:00",
    "station": "KCPS"
  },
  "kstl": {
    "metar": "KSTL 231851Z 36012KT 10SM BKN095 BKN250 M14/M27 A3070 RMK AO2 SLP413 T11391272 $",
    "windDirection": 360,
    "windSpeed": 12,
    "windGust": null,
    "visibility": 10,
    "temperatureC": -14,
    "dewPointC": -27,
    "cloudCeiling": 9500,
    "altimeter": "A3070",
    "timestamp": "2026-01-23T18:51:00+00:00",
    "station": "KSTL"
  }
}