{
  "lastUpdated": "2025-10-18T21:02:13.674674+00:00",
  "kcps": {
    "metar": "KCPS 182053Z 10005KT 6SM -RA BR FEW075 BKN095 OVC110 19/18 A2968 RMK AO2 LTG DSNT SW SLP048 P0005 60028 T01890178 58020 $",
    "windDirection": 100,
    "windSpeed": 5,
    "windGust": null,
    "visibility": 6,
    "temperatureC": 19,
    "dewPointC": 18,
    "cloudCeiling": 9500,
    "altimeter": "A2968",
    "timestamp": "2025-10-18T20:53:00+00:00",
    "station": "KCPS"
  },
  "kstl": {
    "metar": "KSTL 182051Z 11008KT 9SM -RA FEW060 BKN090 OVC110 19/18 A2967 RMK AO2 TSE16 PRESFR SLP039 P0015 60055 T01890178 58028 $",
    "windDirection": 110,
    "windSpeed": 8,
    "windGust": null,
    "visibility": 9,
    "temperatureC": 19,
    "dewPointC": 18,
    "cloudCeiling": 9000,
    "altimeter": "A2967",
    "timestamp": "2025-10-18T20:51:00+00:00",
    "station": "KSTL"
  }
}