{
  "lastUpdated": "2026-04-10T13:07:05.128973+00:00",
  "kcps": {
    "metar": "KCPS 101253Z 00000KT 10SM CLR 19/09 A3018 RMK AO2 SLP218 T01890094 $",
    "windDirection": 0,
    "windSpeed": 0,
    "windGust": null,
    "visibility": 10,
    "temperatureC": 19,
    "dewPointC": 9,
    "cloudCeiling": 99999,
    "altimeter": "A3018",
    "timestamp": "2026-04-10T12:53:00+00:00",
    "station": "KCPS"
  },
  "kstl": {
    "metar": "KSTL 101251Z 26005KT 10SM FEW080 FEW110 SCT180 BKN250 19/10 A3019 RMK AO2 SLP214 T01890100 $",
    "windDirection": 260,
    "windSpeed": 5,
    "windGust": null,
    "visibility": 10,
    "temperatureC": 19,
    "dewPointC": 10,
    "cloudCeiling": 25000,
    "altimeter": "A3019",
    "timestamp": "2026-04-10T12:51:00+00:00",
    "station": "KSTL"
  }
}