{
  "lastUpdated": "2026-05-27T20:59:30.771627+00:00",
  "kcps": {
    "metar": "KCPS 272053Z 24003KT 10SM BKN090 28/18 A2996 RMK AO2 SLP143 T02780183 58006 $",
    "windDirection": 240,
    "windSpeed": 3,
    "windGust": null,
    "visibility": 10,
    "temperatureC": 28,
    "dewPointC": 18,
    "cloudCeiling": 9000,
    "altimeter": "A2996",
    "timestamp": "2026-05-27T20:53:00+00:00",
    "station": "KCPS"
  },
  "kstl": {
    "metar": "KSTL 272051Z 00000KT 10SM FEW055 SCT075 BKN100 BKN250 29/16 A2997 RMK AO2 SLP139 T02940161 58008 $",
    "windDirection": 0,
    "windSpeed": 0,
    "windGust": null,
    "visibility": 10,
    "temperatureC": 29,
    "dewPointC": 16,
    "cloudCeiling": 10000,
    "altimeter": "A2997",
    "timestamp": "2026-05-27T20:51:00+00:00",
    "station": "KSTL"
  }
}