{
  "lastUpdated": "2026-01-03T06:02:42.734462+00:00",
  "kcps": {
    "metar": "KCPS 030553Z 03006KT 10SM SCT080 SCT100 BKN120 M01/M05 A3001 RMK AO2 SLP166 T10061050 10000 21011 400111011 53010 $",
    "windDirection": 30,
    "windSpeed": 6,
    "windGust": null,
    "visibility": 10,
    "temperatureC": -1,
    "dewPointC": -5,
    "cloudCeiling": 12000,
    "altimeter": "A3001",
    "timestamp": "2026-01-03T05:53:00+00:00",
    "station": "KCPS"
  },
  "kstl": {
    "metar": "KSTL 030556Z 04006KT 10SM SCT020 BKN120 M01/M05 A3000 RMK AO2 T10111050 $",
    "windDirection": 40,
    "windSpeed": 6,
    "windGust": null,
    "visibility": 10,
    "temperatureC": -1,
    "dewPointC": -5,
    "cloudCeiling": 12000,
    "altimeter": "A3000",
    "timestamp": "2026-01-03T05:56:00+00:00",
    "station": "KSTL"
  }
}