{
  "lastUpdated": "2025-12-28T16:49:59.159645+00:00",
  "kcps": {
    "metar": "KCPS 281553Z 20013G22KT 10SM FEW032 22/17 A2962 RMK AO2 SLP027 T02170167 $",
    "windDirection": 200,
    "windSpeed": 13,
    "windGust": 22,
    "visibility": 10,
    "temperatureC": 22,
    "dewPointC": 17,
    "cloudCeiling": null,
    "altimeter": "A2962",
    "timestamp": "2025-12-28T15:53:00+00:00",
    "station": "KCPS"
  },
  "kstl": {
    "metar": "KSTL 281551Z 20015G22KT 10SM FEW034 BKN120 BKN250 21/16 A2961 RMK AO2 SLP020 T02110161 $",
    "windDirection": 200,
    "windSpeed": 15,
    "windGust": 22,
    "visibility": 10,
    "temperatureC": 21,
    "dewPointC": 16,
    "cloudCeiling": 12000,
    "altimeter": "A2961",
    "timestamp": "2025-12-28T15:51:00+00:00",
    "station": "KSTL"
  }
}