{
  "lastUpdated": "2025-11-24T07:02:35.356642+00:00",
  "kcps": {
    "metar": "KCPS 240653Z AUTO 15004KT 2SM BR OVC003 08/08 A3015 RMK AO2 SLP212 T00830078 $",
    "windDirection": 150,
    "windSpeed": 4,
    "windGust": null,
    "visibility": 2,
    "temperatureC": 8,
    "dewPointC": 8,
    "cloudCeiling": 300,
    "altimeter": "A3015",
    "timestamp": "2025-11-24T06:53:00+00:00",
    "station": "KCPS"
  },
  "kstl": {
    "metar": "KSTL 240651Z 14005KT 1/2SM R30R/5000V6000FT FG OVC001 08/08 A3014 RMK AO2 SLP209 T00830078 $",
    "windDirection": 140,
    "windSpeed": 5,
    "windGust": null,
    "visibility": 0.5,
    "temperatureC": 8,
    "dewPointC": 8,
    "cloudCeiling": 100,
    "altimeter": "A3014",
    "timestamp": "2025-11-24T06:51:00+00:00",
    "station": "KSTL"
  }
}