{
  "lastUpdated": "2025-12-01T22:47:20.576892+00:00",
  "kcps": {
    "metar": "KCPS 012153Z 00000KT 1 1/2SM SN BR OVC032 M03/M05 A3017 RMK AO2 SLP222 P0000 T10331050 $",
    "windDirection": 0,
    "windSpeed": 0,
    "windGust": null,
    "visibility": 0.5,
    "temperatureC": -3,
    "dewPointC": -5,
    "cloudCeiling": 3200,
    "altimeter": "A3017",
    "timestamp": "2025-12-01T21:53:00+00:00",
    "station": "KCPS"
  },
  "kstl": {
    "metar": "KSTL 012235Z 12003KT 1 1/4SM -SN BR OVC011 M04/M06 A3015 RMK AO2 P0000 T10391056 $",
    "windDirection": 120,
    "windSpeed": 3,
    "windGust": null,
    "visibility": 0.25,
    "temperatureC": -4,
    "dewPointC": -6,
    "cloudCeiling": 1100,
    "altimeter": "A3015",
    "timestamp": "2025-12-01T22:35:00+00:00",
    "station": "KSTL"
  }
}