{
  "lastUpdated": "2026-05-14T12:32:13.811293+00:00",
  "kcps": {
    "metar": "KCPS 141153Z 00000KT 10SM CLR 09/08 A3012 RMK AO2 SLP199 T00940078 10111 20072 53013 $",
    "windDirection": 0,
    "windSpeed": 0,
    "windGust": null,
    "visibility": 10,
    "temperatureC": 9,
    "dewPointC": 8,
    "cloudCeiling": 99999,
    "altimeter": "A3012",
    "timestamp": "2026-05-14T11:53:00+00:00",
    "station": "KCPS"
  },
  "kstl": {
    "metar": "KSTL 141151Z 11006KT 10SM FEW250 12/07 A3012 RMK AO2 SLP195 T01170072 10144 20094 53010 $",
    "windDirection": 110,
    "windSpeed": 6,
    "windGust": null,
    "visibility": 10,
    "temperatureC": 12,
    "dewPointC": 7,
    "cloudCeiling": null,
    "altimeter": "A3012",
    "timestamp": "2026-05-14T11:51:00+00:00",
    "station": "KSTL"
  }
}