{
  "lastUpdated": "2026-02-02T23:40:08.615903+00:00",
  "kcps": {
    "metar": "KCPS 022253Z 12005KT 10SM CLR 03/M03 A3015 RMK AO2 SLP214 T00331033 $",
    "windDirection": 120,
    "windSpeed": 5,
    "windGust": null,
    "visibility": 10,
    "temperatureC": 3,
    "dewPointC": -3,
    "cloudCeiling": 99999,
    "altimeter": "A3015",
    "timestamp": "2026-02-02T22:53:00+00:00",
    "station": "KCPS"
  },
  "kstl": {
    "metar": "KSTL 022251Z 12006KT 10SM FEW180 OVC250 03/M02 A3015 RMK AO2 SLP220 T00281022 $",
    "windDirection": 120,
    "windSpeed": 6,
    "windGust": null,
    "visibility": 10,
    "temperatureC": 3,
    "dewPointC": -2,
    "cloudCeiling": 25000,
    "altimeter": "A3015",
    "timestamp": "2026-02-02T22:51:00+00:00",
    "station": "KSTL"
  }
}