{
  "lastUpdated": "2025-12-02T11:46:53.708914+00:00",
  "kcps": {
    "metar": "KCPS 021122Z AUTO 34011KT 10SM OVC015 M04/M08 A3010 RMK AO2 T10441078 $",
    "windDirection": 340,
    "windSpeed": 11,
    "windGust": null,
    "visibility": 10,
    "temperatureC": -4,
    "dewPointC": -8,
    "cloudCeiling": 1500,
    "altimeter": "A3010",
    "timestamp": "2025-12-02T11:22:00+00:00",
    "station": "KCPS"
  },
  "kstl": {
    "metar": "KSTL 021107Z 31008KT 9SM -SN OVC014 M05/M07 A3008 RMK AO2 P0000 T10501072 $",
    "windDirection": 310,
    "windSpeed": 8,
    "windGust": null,
    "visibility": 9,
    "temperatureC": -5,
    "dewPointC": -7,
    "cloudCeiling": 1400,
    "altimeter": "A3008",
    "timestamp": "2025-12-02T11:07:00+00:00",
    "station": "KSTL"
  }
}