{
  "lastUpdated": "2026-04-26T05:25:26.492879+00:00",
  "kcps": {
    "metar": "KCPS 260453Z AUTO 00000KT 10SM CLR 16/08 A2990 RMK AO2 SLP124 T01610078 $",
    "windDirection": 0,
    "windSpeed": 0,
    "windGust": null,
    "visibility": 10,
    "temperatureC": 16,
    "dewPointC": 8,
    "cloudCeiling": 99999,
    "altimeter": "A2990",
    "timestamp": "2026-04-26T04:53:00+00:00",
    "station": "KCPS"
  },
  "kstl": {
    "metar": "KSTL 260451Z 09007KT 10SM SCT250 17/08 A2991 RMK AO2 SLP123 T01670083 $",
    "windDirection": 90,
    "windSpeed": 7,
    "windGust": null,
    "visibility": 10,
    "temperatureC": 17,
    "dewPointC": 8,
    "cloudCeiling": null,
    "altimeter": "A2991",
    "timestamp": "2026-04-26T04:51:00+00:00",
    "station": "KSTL"
  }
}