{
  "lastUpdated": "2025-11-23T06:50:05.706850+00:00",
  "kcps": {
    "metar": "KCPS 230643Z 26005KT 9SM BKN009 08/07 A3016 RMK AO2 T00780072",
    "windDirection": 260,
    "windSpeed": 5,
    "windGust": null,
    "visibility": 9,
    "temperatureC": 8,
    "dewPointC": 7,
    "cloudCeiling": 900,
    "altimeter": "A3016",
    "timestamp": "2025-11-23T06:43:00+00:00",
    "station": "KCPS"
  },
  "kstl": {
    "metar": "KSTL 230557Z 26011KT 9SM BKN005 08/07 A3016 RMK AO2 T00780072 $",
    "windDirection": 260,
    "windSpeed": 11,
    "windGust": null,
    "visibility": 9,
    "temperatureC": 8,
    "dewPointC": 7,
    "cloudCeiling": 500,
    "altimeter": "A3016",
    "timestamp": "2025-11-23T05:57:00+00:00",
    "station": "KSTL"
  }
}