{
  "lastUpdated": "2025-12-11T02:34:37.606095+00:00",
  "kcps": {
    "metar": "KCPS 110153Z 32008KT 10SM CLR 00/M06 A3005 RMK AO2 SLP177 T00001056 $",
    "windDirection": 320,
    "windSpeed": 8,
    "windGust": null,
    "visibility": 10,
    "temperatureC": 0,
    "dewPointC": -6,
    "cloudCeiling": 99999,
    "altimeter": "A3005",
    "timestamp": "2025-12-11T01:53:00+00:00",
    "station": "KCPS"
  },
  "kstl": {
    "metar": "KSTL 110151Z 33005KT 10SM FEW027 M01/M05 A3004 RMK AO2 SLP181 T10061050 $",
    "windDirection": 330,
    "windSpeed": 5,
    "windGust": null,
    "visibility": 10,
    "temperatureC": -1,
    "dewPointC": -5,
    "cloudCeiling": null,
    "altimeter": "A3004",
    "timestamp": "2025-12-11T01:51:00+00:00",
    "station": "KSTL"
  }
}