{
  "lastUpdated": "2026-02-12T18:46:33.140196+00:00",
  "kcps": {
    "metar": "KCPS 121753Z 17012KT 10SM CLR 11/M03 A3027 RMK AO2 SLP253 T01111033 10117 21028 58008 $",
    "windDirection": 170,
    "windSpeed": 12,
    "windGust": null,
    "visibility": 10,
    "temperatureC": 11,
    "dewPointC": -3,
    "cloudCeiling": 99999,
    "altimeter": "A3027",
    "timestamp": "2026-02-12T17:53:00+00:00",
    "station": "KCPS"
  },
  "kstl": {
    "metar": "KSTL 121751Z 17010KT 10SM FEW120 FEW250 12/M04 A3027 RMK AO2 SLP256 T01171044 10117 20017 58006 $",
    "windDirection": 170,
    "windSpeed": 10,
    "windGust": null,
    "visibility": 10,
    "temperatureC": 12,
    "dewPointC": -4,
    "cloudCeiling": null,
    "altimeter": "A3027",
    "timestamp": "2026-02-12T17:51:00+00:00",
    "station": "KSTL"
  }
}