{
  "lastUpdated": "2026-01-01T13:04:17.203153+00:00",
  "kcps": {
    "metar": "KCPS 011253Z 00000KT 6SM BR BKN010 M06/M06 A3003 RMK AO2 SLP173 I1000 T10561061 $",
    "windDirection": 0,
    "windSpeed": 0,
    "windGust": null,
    "visibility": 6,
    "temperatureC": -6,
    "dewPointC": -6,
    "cloudCeiling": 1000,
    "altimeter": "A3003",
    "timestamp": "2026-01-01T12:53:00+00:00",
    "station": "KCPS"
  },
  "kstl": {
    "metar": "KSTL 011251Z 03007KT 10SM OVC011 01/M01 A3002 RMK AO2 SLP174 T00111006 $",
    "windDirection": 30,
    "windSpeed": 7,
    "windGust": null,
    "visibility": 10,
    "temperatureC": 1,
    "dewPointC": -1,
    "cloudCeiling": 1100,
    "altimeter": "A3002",
    "timestamp": "2026-01-01T12:51:00+00:00",
    "station": "KSTL"
  }
}