{
  "lastUpdated": "2025-12-18T17:37:16.776052+00:00",
  "kcps": {
    "metar": "KCPS 181700Z 18014G22KT 9SM -RA BKN016 BKN020 OVC080 14/12 A2949 RMK AO2 P0000 T01390117",
    "windDirection": 180,
    "windSpeed": 14,
    "windGust": 22,
    "visibility": 9,
    "temperatureC": 14,
    "dewPointC": 12,
    "cloudCeiling": 1600,
    "altimeter": "A2949",
    "timestamp": "2025-12-18T17:00:00+00:00",
    "station": "KCPS"
  },
  "kstl": {
    "metar": "KSTL 181734Z 29020G32KT 3SM -RA BR SCT013 OVC023 13/11 A2951 RMK AO2 PK WND 29032/1731 WSHFT 1720 PRESRR VIS W-NW 1 1/2 P0001 T01280106 $",
    "windDirection": 290,
    "windSpeed": 20,
    "windGust": 32,
    "visibility": 3,
    "temperatureC": 13,
    "dewPointC": 11,
    "cloudCeiling": 2300,
    "altimeter": "A2951",
    "timestamp": "2025-12-18T17:34:00+00:00",
    "station": "KSTL"
  }
}