{
  "lastUpdated": "2026-01-10T20:35:51.477980+00:00",
  "kcps": {
    "metar": "KCPS 101953Z 28014G20KT 10SM CLR 08/M03 A3013 RMK AO2 SLP204 T00781028 $",
    "windDirection": 280,
    "windSpeed": 14,
    "windGust": 20,
    "visibility": 10,
    "temperatureC": 8,
    "dewPointC": -3,
    "cloudCeiling": 99999,
    "altimeter": "A3013",
    "timestamp": "2026-01-10T19:53:00+00:00",
    "station": "KCPS"
  },
  "kstl": {
    "metar": "KSTL 101951Z 28016G24KT 10SM FEW035 07/M04 A3012 RMK AO2 SLP206 T00721039 $",
    "windDirection": 280,
    "windSpeed": 16,
    "windGust": 24,
    "visibility": 10,
    "temperatureC": 7,
    "dewPointC": -4,
    "cloudCeiling": null,
    "altimeter": "A3012",
    "timestamp": "2026-01-10T19:51:00+00:00",
    "station": "KSTL"
  }
}