{
  "lastUpdated": "2026-04-19T06:31:09.050619+00:00",
  "kcps": {
    "metar": "KCPS 190553Z AUTO 00000KT 10SM CLR 06/02 A3021 RMK AO2 SLP233 T00560017 10133 20056 401720056 51007 $",
    "windDirection": 0,
    "windSpeed": 0,
    "windGust": null,
    "visibility": 10,
    "temperatureC": 6,
    "dewPointC": 2,
    "cloudCeiling": 99999,
    "altimeter": "A3021",
    "timestamp": "2026-04-19T05:53:00+00:00",
    "station": "KCPS"
  },
  "kstl": {
    "metar": "KSTL 190551Z 25004KT 10SM CLR 07/01 A3022 RMK AO2 SLP233 T00720006 10133 20072 401670072 51006 $",
    "windDirection": 250,
    "windSpeed": 4,
    "windGust": null,
    "visibility": 10,
    "temperatureC": 7,
    "dewPointC": 1,
    "cloudCeiling": 99999,
    "altimeter": "A3022",
    "timestamp": "2026-04-19T05:51:00+00:00",
    "station": "KSTL"
  }
}