{
  "lastUpdated": "2025-11-18T18:52:38.176267+00:00",
  "kcps": {
    "metar": "KCPS 181842Z 28004KT 9SM SCT029 SCT035 22/15 A2978 RMK AO2 T02170150",
    "windDirection": 280,
    "windSpeed": 4,
    "windGust": null,
    "visibility": 9,
    "temperatureC": 22,
    "dewPointC": 15,
    "cloudCeiling": null,
    "altimeter": "A2978",
    "timestamp": "2025-11-18T18:42:00+00:00",
    "station": "KCPS"
  },
  "kstl": {
    "metar": "KSTL 181751Z 08005KT 10SM SCT024 BKN050 17/13 A2981 RMK AO2 SLP094 60001 T01670128 10167 20106 58004 $",
    "windDirection": 80,
    "windSpeed": 5,
    "windGust": null,
    "visibility": 10,
    "temperatureC": 17,
    "dewPointC": 13,
    "cloudCeiling": 5000,
    "altimeter": "A2981",
    "timestamp": "2025-11-18T17:51:00+00:00",
    "station": "KSTL"
  }
}