{
  "lastUpdated": "2026-02-14T01:31:31.868892+00:00",
  "kcps": {
    "metar": "KCPS 140053Z 15006KT 10SM CLR 10/M02 A3008 RMK AO2 SLP189 T01001022 $",
    "windDirection": 150,
    "windSpeed": 6,
    "windGust": null,
    "visibility": 10,
    "temperatureC": 10,
    "dewPointC": -2,
    "cloudCeiling": 99999,
    "altimeter": "A3008",
    "timestamp": "2026-02-14T00:53:00+00:00",
    "station": "KCPS"
  },
  "kstl": {
    "metar": "KSTL 140051Z 14009KT 10SM FEW250 12/M02 A3008 RMK AO2 SLP189 T01171017 $",
    "windDirection": 140,
    "windSpeed": 9,
    "windGust": null,
    "visibility": 10,
    "temperatureC": 12,
    "dewPointC": -2,
    "cloudCeiling": null,
    "altimeter": "A3008",
    "timestamp": "2026-02-14T00:51:00+00:00",
    "station": "KSTL"
  }
}