{
  "lastUpdated": "2026-01-10T22:48:07.097762+00:00",
  "kcps": {
    "metar": "KCPS 102053Z 31014KT 10SM CLR 08/M06 A3013 RMK AO2 SLP204 T00831061 56006 $",
    "windDirection": 310,
    "windSpeed": 14,
    "windGust": null,
    "visibility": 10,
    "temperatureC": 8,
    "dewPointC": -6,
    "cloudCeiling": 99999,
    "altimeter": "A3013",
    "timestamp": "2026-01-10T20:53:00+00:00",
    "station": "KCPS"
  },
  "kstl": {
    "metar": "KSTL 102151Z 27011KT 10SM FEW050 FEW250 08/M07 A3012 RMK AO2 SLP203 T00781067 $",
    "windDirection": 270,
    "windSpeed": 11,
    "windGust": null,
    "visibility": 10,
    "temperatureC": 8,
    "dewPointC": -7,
    "cloudCeiling": null,
    "altimeter": "A3012",
    "timestamp": "2026-01-10T21:51:00+00:00",
    "station": "KSTL"
  }
}