{
  "lastUpdated": "2026-05-07T00:01:13.913454+00:00",
  "kcps": {
    "metar": "KCPS 062353Z 33007KT 10SM CLR 14/02 A2999 RMK AO2 SLP154 T01440022 10172 20144 55003 $",
    "windDirection": 330,
    "windSpeed": 7,
    "windGust": null,
    "visibility": 10,
    "temperatureC": 14,
    "dewPointC": 2,
    "cloudCeiling": 99999,
    "altimeter": "A2999",
    "timestamp": "2026-05-06T23:53:00+00:00",
    "station": "KCPS"
  },
  "kstl": {
    "metar": "KSTL 062351Z 34007KT 10SM FEW070 SCT250 14/02 A2999 RMK AO2 SLP157 T01440022 10167 20144 56004 $",
    "windDirection": 340,
    "windSpeed": 7,
    "windGust": null,
    "visibility": 10,
    "temperatureC": 14,
    "dewPointC": 2,
    "cloudCeiling": null,
    "altimeter": "A2999",
    "timestamp": "2026-05-06T23:51:00+00:00",
    "station": "KSTL"
  }
}