{
  "lastUpdated": "2026-05-04T23:04:21.513170+00:00",
  "kcps": {
    "metar": "KCPS 042253Z 17005KT 10SM SCT100 25/16 A2961 RMK AO2 LTG DSNT N SLP022 T02500156 $",
    "windDirection": 170,
    "windSpeed": 5,
    "windGust": null,
    "visibility": 10,
    "temperatureC": 25,
    "dewPointC": 16,
    "cloudCeiling": null,
    "altimeter": "A2961",
    "timestamp": "2026-05-04T22:53:00+00:00",
    "station": "KCPS"
  },
  "kstl": {
    "metar": "KSTL 042251Z 18011G17KT 10SM FEW075 SCT110 SCT250 25/13 A2960 RMK AO2 LTG DSNT N SLP016 T02500133 $",
    "windDirection": 180,
    "windSpeed": 11,
    "windGust": 17,
    "visibility": 10,
    "temperatureC": 25,
    "dewPointC": 13,
    "cloudCeiling": null,
    "altimeter": "A2960",
    "timestamp": "2026-05-04T22:51:00+00:00",
    "station": "KSTL"
  }
}