{
  "lastUpdated": "2026-01-11T15:21:37.987562+00:00",
  "kcps": {
    "metar": "KCPS 111453Z 32011G19KT 10SM SCT029 M02/M09 A3047 RMK AO2 SLP323 T10221089 51025 $",
    "windDirection": 320,
    "windSpeed": 11,
    "windGust": 19,
    "visibility": 10,
    "temperatureC": -2,
    "dewPointC": -9,
    "cloudCeiling": null,
    "altimeter": "A3047",
    "timestamp": "2026-01-11T14:53:00+00:00",
    "station": "KCPS"
  },
  "kstl": {
    "metar": "KSTL 111451Z 32012KT 10SM FEW028 M02/M09 A3046 RMK AO2 SLP326 T10221089 51024 $",
    "windDirection": 320,
    "windSpeed": 12,
    "windGust": null,
    "visibility": 10,
    "temperatureC": -2,
    "dewPointC": -9,
    "cloudCeiling": null,
    "altimeter": "A3046",
    "timestamp": "2026-01-11T14:51:00+00:00",
    "station": "KSTL"
  }
}