{
  "lastUpdated": "2026-05-01T05:55:00.407694+00:00",
  "kcps": {
    "metar": "KCPS 010453Z AUTO 32007KT 10SM BKN060 OVC110 13/09 A3000 RMK AO2 RAB09E20 SLP158 P0000 T01330089 $",
    "windDirection": 320,
    "windSpeed": 7,
    "windGust": null,
    "visibility": 10,
    "temperatureC": 13,
    "dewPointC": 9,
    "cloudCeiling": 6000,
    "altimeter": "A3000",
    "timestamp": "2026-05-01T04:53:00+00:00",
    "station": "KCPS"
  },
  "kstl": {
    "metar": "KSTL 010551Z 32010G17KT 10SM OVC055 12/08 A3002 RMK AO2 SLP164 60002 T01220083 10172 20122 401890056 53009",
    "windDirection": 320,
    "windSpeed": 10,
    "windGust": 17,
    "visibility": 10,
    "temperatureC": 12,
    "dewPointC": 8,
    "cloudCeiling": 5500,
    "altimeter": "A3002",
    "timestamp": "2026-05-01T05:51:00+00:00",
    "station": "KSTL"
  }
}