{
  "lastUpdated": "2026-04-12T19:46:21.958256+00:00",
  "kcps": {
    "metar": "KCPS 121853Z 20012G22KT 10SM CLR 27/12 A2999 RMK AO2 PK WND 21029/1839 SLP151 T02670117 $",
    "windDirection": 200,
    "windSpeed": 12,
    "windGust": 22,
    "visibility": 10,
    "temperatureC": 27,
    "dewPointC": 12,
    "cloudCeiling": 99999,
    "altimeter": "A2999",
    "timestamp": "2026-04-12T18:53:00+00:00",
    "station": "KCPS"
  },
  "kstl": {
    "metar": "KSTL 121851Z 19016G24KT 10SM FEW040 BKN150 OVC250 26/11 A2998 RMK AO2 PK WND 20033/1812 SLP145 T02560111 $",
    "windDirection": 190,
    "windSpeed": 16,
    "windGust": 24,
    "visibility": 10,
    "temperatureC": 26,
    "dewPointC": 11,
    "cloudCeiling": 15000,
    "altimeter": "A2998",
    "timestamp": "2026-04-12T18:51:00+00:00",
    "station": "KSTL"
  }
}