{
  "lastUpdated": "2026-03-27T05:57:49.013716+00:00",
  "kcps": {
    "metar": "KCPS 270553Z AUTO 02021G29KT 10SM OVC022 12/07 A3000 RMK AO2 PK WND 03038/0456 RAB0457E03 SLP157 P0000 60000 T01220072 10317 20122 403390122 51067 $",
    "windDirection": 20,
    "windSpeed": 21,
    "windGust": 29,
    "visibility": 10,
    "temperatureC": 12,
    "dewPointC": 7,
    "cloudCeiling": 2200,
    "altimeter": "A3000",
    "timestamp": "2026-03-27T05:53:00+00:00",
    "station": "KCPS"
  },
  "kstl": {
    "metar": "KSTL 270551Z 04018G29KT 10SM BKN024 OVC030 13/07 A3001 RMK AO2 PK WND 04033/0521 SLP153 T01280072 10317 20122 403390122 51055 $",
    "windDirection": 40,
    "windSpeed": 18,
    "windGust": 29,
    "visibility": 10,
    "temperatureC": 13,
    "dewPointC": 7,
    "cloudCeiling": 2400,
    "altimeter": "A3001",
    "timestamp": "2026-03-27T05:51:00+00:00",
    "station": "KSTL"
  }
}