{
  "lastUpdated": "2026-01-29T21:39:36.292218+00:00",
  "kcps": {
    "metar": "KCPS 292053Z 36007KT 10SM SCT100 M03/M14 A3027 RMK AO2 SLP257 T10281139 56010 $",
    "windDirection": 360,
    "windSpeed": 7,
    "windGust": null,
    "visibility": 10,
    "temperatureC": -3,
    "dewPointC": -14,
    "cloudCeiling": null,
    "altimeter": "A3027",
    "timestamp": "2026-01-29T20:53:00+00:00",
    "station": "KCPS"
  },
  "kstl": {
    "metar": "KSTL 292051Z 36008KT 10SM BKN060 BKN090 BKN250 M04/M12 A3027 RMK AO2 SLP265 T10391117 56012 $",
    "windDirection": 360,
    "windSpeed": 8,
    "windGust": null,
    "visibility": 10,
    "temperatureC": -4,
    "dewPointC": -12,
    "cloudCeiling": 6000,
    "altimeter": "A3027",
    "timestamp": "2026-01-29T20:51:00+00:00",
    "station": "KSTL"
  }
}