{
  "lastUpdated": "2025-12-17T07:05:07.416950+00:00",
  "kcps": {
    "metar": "KCPS 170653Z AUTO 22006KT 10SM CLR 07/M04 A2997 RMK AO2 SLP149 T00671044",
    "windDirection": 220,
    "windSpeed": 6,
    "windGust": null,
    "visibility": 10,
    "temperatureC": 7,
    "dewPointC": -4,
    "cloudCeiling": 99999,
    "altimeter": "A2997",
    "timestamp": "2025-12-17T06:53:00+00:00",
    "station": "KCPS"
  },
  "kstl": {
    "metar": "KSTL 170651Z 24007KT 10SM BKN210 06/M03 A2996 RMK AO2 SLP147 T00561028 $",
    "windDirection": 240,
    "windSpeed": 7,
    "windGust": null,
    "visibility": 10,
    "temperatureC": 6,
    "dewPointC": -3,
    "cloudCeiling": 21000,
    "altimeter": "A2996",
    "timestamp": "2025-12-17T06:51:00+00:00",
    "station": "KSTL"
  }
}