{
  "lastUpdated": "2025-10-25T08:35:50.378152+00:00",
  "kcps": {
    "metar": "KCPS 250753Z AUTO 10004KT 10SM OVC090 12/05 A3024 RMK AO2 RAE04 SLP239 P0000 T01220050 $",
    "windDirection": 100,
    "windSpeed": 4,
    "windGust": null,
    "visibility": 10,
    "temperatureC": 12,
    "dewPointC": 5,
    "cloudCeiling": 9000,
    "altimeter": "A3024",
    "timestamp": "2025-10-25T07:53:00+00:00",
    "station": "KCPS"
  },
  "kstl": {
    "metar": "KSTL 250751Z 12010KT 10SM OVC090 13/03 A3023 RMK AO2 SLP235 T01330033 $",
    "windDirection": 120,
    "windSpeed": 10,
    "windGust": null,
    "visibility": 10,
    "temperatureC": 13,
    "dewPointC": 3,
    "cloudCeiling": 9000,
    "altimeter": "A3023",
    "timestamp": "2025-10-25T07:51:00+00:00",
    "station": "KSTL"
  }
}