{
  "lastUpdated": "2025-12-20T02:31:46.792784+00:00",
  "kcps": {
    "metar": "KCPS 200153Z 14007KT 10SM CLR 00/M08 A2999 RMK AO2 SLP160 T00001078",
    "windDirection": 140,
    "windSpeed": 7,
    "windGust": null,
    "visibility": 10,
    "temperatureC": 0,
    "dewPointC": -8,
    "cloudCeiling": 99999,
    "altimeter": "A2999",
    "timestamp": "2025-12-20T01:53:00+00:00",
    "station": "KCPS"
  },
  "kstl": {
    "metar": "KSTL 200151Z 14011KT 10SM BKN250 02/M09 A2998 RMK AO2 SLP164 T00221094 $",
    "windDirection": 140,
    "windSpeed": 11,
    "windGust": null,
    "visibility": 10,
    "temperatureC": 2,
    "dewPointC": -9,
    "cloudCeiling": 25000,
    "altimeter": "A2998",
    "timestamp": "2025-12-20T01:51:00+00:00",
    "station": "KSTL"
  }
}