{
  "lastUpdated": "2025-11-14T05:21:51.556269+00:00",
  "kcps": {
    "metar": "KCPS 140453Z AUTO 16004KT 10SM CLR 09/04 A3010 RMK AO2 SLP192 T00940039 TSNO",
    "windDirection": 160,
    "windSpeed": 4,
    "windGust": null,
    "visibility": 10,
    "temperatureC": 9,
    "dewPointC": 4,
    "cloudCeiling": 99999,
    "altimeter": "A3010",
    "timestamp": "2025-11-14T04:53:00+00:00",
    "station": "KCPS"
  },
  "kstl": {
    "metar": "KSTL 140451Z 17004KT 10SM CLR 13/04 A3009 RMK AO2 SLP189 T01280039",
    "windDirection": 170,
    "windSpeed": 4,
    "windGust": null,
    "visibility": 10,
    "temperatureC": 13,
    "dewPointC": 4,
    "cloudCeiling": 99999,
    "altimeter": "A3009",
    "timestamp": "2025-11-14T04:51:00+00:00",
    "station": "KSTL"
  }
}