{
  "lastUpdated": "2025-10-16T01:51:09.172906+00:00",
  "kcps": {
    "metar": "KCPS 160053Z 00000KT 10SM CLR 19/16 A3010 RMK AO2 SLP191 T01940156",
    "windDirection": 0,
    "windSpeed": 0,
    "windGust": null,
    "visibility": 10,
    "temperatureC": 19,
    "dewPointC": 16,
    "cloudCeiling": 99999,
    "altimeter": "A3010",
    "timestamp": "2025-10-16T00:53:00+00:00",
    "station": "KCPS"
  },
  "kstl": {
    "metar": "KSTL 160051Z 06003KT 10SM FEW110 25/14 A3011 RMK AO2 SLP189 T02500139",
    "windDirection": 60,
    "windSpeed": 3,
    "windGust": null,
    "visibility": 10,
    "temperatureC": 25,
    "dewPointC": 14,
    "cloudCeiling": null,
    "altimeter": "A3011",
    "timestamp": "2025-10-16T00:51:00+00:00",
    "station": "KSTL"
  }
}