{
  "lastUpdated": "2026-05-18T00:03:56.547028+00:00",
  "kcps": {
    "metar": "KCPS 172353Z 19010G18KT 10SM FEW065 29/18 A2984 RMK AO2 PK WND 20026/2256 SLP100 T02940178 10317 20283 55001 $",
    "windDirection": 190,
    "windSpeed": 10,
    "windGust": 18,
    "visibility": 10,
    "temperatureC": 29,
    "dewPointC": 18,
    "cloudCeiling": null,
    "altimeter": "A2984",
    "timestamp": "2026-05-17T23:53:00+00:00",
    "station": "KCPS"
  },
  "kstl": {
    "metar": "KSTL 172351Z 20014G22KT 10SM BKN060 29/18 A2984 RMK AO2 PK WND 20027/2318 SLP094 T02890178 10306 20278 55000 $",
    "windDirection": 200,
    "windSpeed": 14,
    "windGust": 22,
    "visibility": 10,
    "temperatureC": 29,
    "dewPointC": 18,
    "cloudCeiling": 6000,
    "altimeter": "A2984",
    "timestamp": "2026-05-17T23:51:00+00:00",
    "station": "KSTL"
  }
}