{
  "lastUpdated": "2026-02-20T16:24:09.468799+00:00",
  "kcps": {
    "metar": "KCPS 201553Z 29014G23KT 10SM CLR 02/M06 A2990 RMK AO2 SLP126 T00221061 $",
    "windDirection": 290,
    "windSpeed": 14,
    "windGust": 23,
    "visibility": 10,
    "temperatureC": 2,
    "dewPointC": -6,
    "cloudCeiling": 99999,
    "altimeter": "A2990",
    "timestamp": "2026-02-20T15:53:00+00:00",
    "station": "KCPS"
  },
  "kstl": {
    "metar": "KSTL 201551Z 26018G24KT 10SM FEW030 FEW250 02/M07 A2990 RMK AO2 SLP126 T00171067 $",
    "windDirection": 260,
    "windSpeed": 18,
    "windGust": 24,
    "visibility": 10,
    "temperatureC": 2,
    "dewPointC": -7,
    "cloudCeiling": null,
    "altimeter": "A2990",
    "timestamp": "2026-02-20T15:51:00+00:00",
    "station": "KSTL"
  }
}