{
  "lastUpdated": "2026-05-05T13:11:08.665595+00:00",
  "kcps": {
    "metar": "KCPS 051253Z 34011G24KT 5SM -RA BR OVC036 11/08 A2983 RMK AO2 SLP100 T01060083 PNO $",
    "windDirection": 340,
    "windSpeed": 11,
    "windGust": 24,
    "visibility": 5,
    "temperatureC": 11,
    "dewPointC": 8,
    "cloudCeiling": 3600,
    "altimeter": "A2983",
    "timestamp": "2026-05-05T12:53:00+00:00",
    "station": "KCPS"
  },
  "kstl": {
    "metar": "KSTL 051251Z 01006G16KT 8SM -RA BKN055 OVC070 09/07 A2983 RMK AO2 SLP096 PK WND 35026/1214 TSE09 P0016 T00940067 $",
    "windDirection": 10,
    "windSpeed": 6,
    "windGust": 16,
    "visibility": 8,
    "temperatureC": 9,
    "dewPointC": 7,
    "cloudCeiling": 5500,
    "altimeter": "A2983",
    "timestamp": "2026-05-05T12:51:00+00:00",
    "station": "KSTL"
  }
}