{
  "lastUpdated": "2025-12-01T12:03:05.098896+00:00",
  "kcps": {
    "metar": "KCPS 011153Z AUTO 09004KT 10SM OVC023 M05/M08 A3043 RMK AO2 SLP308 T10501078 11044 21050 56022 $",
    "windDirection": 90,
    "windSpeed": 4,
    "windGust": null,
    "visibility": 10,
    "temperatureC": -5,
    "dewPointC": -8,
    "cloudCeiling": 2300,
    "altimeter": "A3043",
    "timestamp": "2025-12-01T11:53:00+00:00",
    "station": "KCPS"
  },
  "kstl": {
    "metar": "KSTL 011151Z 12007KT 10SM FEW024 BKN110 OVC150 M05/M08 A3041 RMK AO2 SLP313 4/002 T10501078 11050 21050 58021 $",
    "windDirection": 120,
    "windSpeed": 7,
    "windGust": null,
    "visibility": 10,
    "temperatureC": -5,
    "dewPointC": -8,
    "cloudCeiling": 11000,
    "altimeter": "A3041",
    "timestamp": "2025-12-01T11:51:00+00:00",
    "station": "KSTL"
  }
}