{
  "lastUpdated": "2025-11-06T19:02:44.489320+00:00",
  "kcps": {
    "metar": "KCPS 061853Z 16009KT 140V200 10SM CLR 19/00 A3007 RMK AO2 SLP181 T01890000",
    "windDirection": 160,
    "windSpeed": 9,
    "windGust": null,
    "visibility": 10,
    "temperatureC": 19,
    "dewPointC": 0,
    "cloudCeiling": 99999,
    "altimeter": "A3007",
    "timestamp": "2025-11-06T18:53:00+00:00",
    "station": "KCPS"
  },
  "kstl": {
    "metar": "KSTL 061851Z 14013KT 10SM FEW150 FEW250 18/M01 A3006 RMK AO2 SLP178 T01781006 $",
    "windDirection": 140,
    "windSpeed": 13,
    "windGust": null,
    "visibility": 10,
    "temperatureC": 18,
    "dewPointC": -1,
    "cloudCeiling": null,
    "altimeter": "A3006",
    "timestamp": "2025-11-06T18:51:00+00:00",
    "station": "KSTL"
  }
}