{
  "lastUpdated": "2026-01-07T18:02:58.033663+00:00",
  "kcps": {
    "metar": "KCPS 071753Z 22006KT 10SM CLR 16/03 A2995 RMK AO2 SLP143 I6000 T01610028 10161 21022 58007 $",
    "windDirection": 220,
    "windSpeed": 6,
    "windGust": null,
    "visibility": 10,
    "temperatureC": 16,
    "dewPointC": 3,
    "cloudCeiling": 99999,
    "altimeter": "A2995",
    "timestamp": "2026-01-07T17:53:00+00:00",
    "station": "KCPS"
  },
  "kstl": {
    "metar": "KSTL 071751Z 22007KT 10SM SCT250 17/03 A2995 RMK AO2 SLP143 T01670028 10167 20006 58004 $",
    "windDirection": 220,
    "windSpeed": 7,
    "windGust": null,
    "visibility": 10,
    "temperatureC": 17,
    "dewPointC": 3,
    "cloudCeiling": null,
    "altimeter": "A2995",
    "timestamp": "2026-01-07T17:51:00+00:00",
    "station": "KSTL"
  }
}