{
  "lastUpdated": "2026-06-13T01:23:45.311132+00:00",
  "kcps": {
    "metar": "KCPS 130053Z 09005KT 10SM CLR 26/16 A2997 RMK AO2 SLP145 T02610156 $",
    "windDirection": 90,
    "windSpeed": 5,
    "windGust": null,
    "visibility": 10.0,
    "temperatureC": 26.1,
    "dewPointC": 15.6,
    "cloudCeiling": null,
    "altimeter": "A2997",
    "timestamp": "2026-06-13T01:00:00.000Z",
    "station": "KCPS"
  },
  "kstl": {
    "metar": "KSTL 130051Z 04005KT 10SM SCT250 26/13 A2998 RMK AO2 SLP142 T02610133 $",
    "windDirection": 40,
    "windSpeed": 5,
    "windGust": null,
    "visibility": 10.0,
    "temperatureC": 26.1,
    "dewPointC": 13.3,
    "cloudCeiling": null,
    "altimeter": "A2998",
    "timestamp": "2026-06-13T01:00:00.000Z",
    "station": "KSTL"
  }
}