{
  "lastUpdated": "2026-05-18T14:44:51.303220+00:00",
  "kcps": {
    "metar": "KCPS 181353Z 19010G18KT 10SM FEW090 26/21 A2992 RMK AO2 LTG DSNT ALQDS SLP126 T02610211 $",
    "windDirection": 190,
    "windSpeed": 10,
    "windGust": 18,
    "visibility": 10,
    "temperatureC": 26,
    "dewPointC": 21,
    "cloudCeiling": null,
    "altimeter": "A2992",
    "timestamp": "2026-05-18T13:53:00+00:00",
    "station": "KCPS"
  },
  "kstl": {
    "metar": "KSTL 181427Z 02007KT 3/4SM R30R/2000VP6000FT +TSRA BR BKN015 BKN026CB OVC042 19/18 A2998 RMK AO2 RAB04 TSB05 OCNL LTGIC ALQDS TS ALQDS MOV E P0026 T01890178 $",
    "windDirection": 20,
    "windSpeed": 7,
    "windGust": null,
    "visibility": 0.75,
    "temperatureC": 19,
    "dewPointC": 18,
    "cloudCeiling": 1500,
    "altimeter": "A2998",
    "timestamp": "2026-05-18T14:27:00+00:00",
    "station": "KSTL"
  }
}