{
  "lastUpdated": "2025-12-11T07:35:54.129090+00:00",
  "kcps": {
    "metar": "KCPS 110712Z AUTO 24004KT 10SM OVC030 M01/M04 A3007 RMK AO2 T10061044 $",
    "windDirection": 240,
    "windSpeed": 4,
    "windGust": null,
    "visibility": 10,
    "temperatureC": -1,
    "dewPointC": -4,
    "cloudCeiling": 3000,
    "altimeter": "A3007",
    "timestamp": "2025-12-11T07:12:00+00:00",
    "station": "KCPS"
  },
  "kstl": {
    "metar": "KSTL 110651Z 29007KT 10SM OVC027 00/M04 A3007 RMK AO2 SLP192 T00001044 $",
    "windDirection": 290,
    "windSpeed": 7,
    "windGust": null,
    "visibility": 10,
    "temperatureC": 0,
    "dewPointC": -4,
    "cloudCeiling": 2700,
    "altimeter": "A3007",
    "timestamp": "2025-12-11T06:51:00+00:00",
    "station": "KSTL"
  }
}