{
  "lastUpdated": "2026-04-01T23:19:11.439499+00:00",
  "kcps": {
    "metar": "KCPS 012253Z 01008KT 9SM -RA OVC009 13/12 A2997 RMK AO2 RAB44 SLP146 P0000 T01330117 $",
    "windDirection": 10,
    "windSpeed": 8,
    "windGust": null,
    "visibility": 9,
    "temperatureC": 13,
    "dewPointC": 12,
    "cloudCeiling": 900,
    "altimeter": "A2997",
    "timestamp": "2026-04-01T22:53:00+00:00",
    "station": "KCPS"
  },
  "kstl": {
    "metar": "KSTL 012256Z 05006KT 5SM RA BR OVC006 12/11 A2998 RMK AO2 P0003 T01220111 $",
    "windDirection": 50,
    "windSpeed": 6,
    "windGust": null,
    "visibility": 5,
    "temperatureC": 12,
    "dewPointC": 11,
    "cloudCeiling": 600,
    "altimeter": "A2998",
    "timestamp": "2026-04-01T22:56:00+00:00",
    "station": "KSTL"
  }
}