{
  "lastUpdated": "2025-11-20T21:02:43.924835+00:00",
  "kcps": {
    "metar": "KCPS 202053Z 15005KT 4SM BR BKN007 OVC018 12/11 A3003 RMK AO2 SLP170 T01170106 55005",
    "windDirection": 150,
    "windSpeed": 5,
    "windGust": null,
    "visibility": 4,
    "temperatureC": 12,
    "dewPointC": 11,
    "cloudCeiling": 700,
    "altimeter": "A3003",
    "timestamp": "2025-11-20T20:53:00+00:00",
    "station": "KCPS"
  },
  "kstl": {
    "metar": "KSTL 202051Z 10005KT 2SM BR OVC006 12/11 A3003 RMK AO2 SLP171 T01170106 55003 $",
    "windDirection": 100,
    "windSpeed": 5,
    "windGust": null,
    "visibility": 2,
    "temperatureC": 12,
    "dewPointC": 11,
    "cloudCeiling": 600,
    "altimeter": "A3003",
    "timestamp": "2025-11-20T20:51:00+00:00",
    "station": "KSTL"
  }
}