{
  "lastUpdated": "2025-11-25T20:36:14.443742+00:00",
  "kcps": {
    "metar": "KCPS 252017Z 28003KT 9SM BKN013 OVC020 13/12 A2985 RMK AO2 T01330122",
    "windDirection": 280,
    "windSpeed": 3,
    "windGust": null,
    "visibility": 9,
    "temperatureC": 13,
    "dewPointC": 12,
    "cloudCeiling": 1300,
    "altimeter": "A2985",
    "timestamp": "2025-11-25T20:17:00+00:00",
    "station": "KCPS"
  },
  "kstl": {
    "metar": "KSTL 251951Z 28008KT 8SM OVC017 14/11 A2985 RMK AO2 SLP107 T01390106 $",
    "windDirection": 280,
    "windSpeed": 8,
    "windGust": null,
    "visibility": 8,
    "temperatureC": 14,
    "dewPointC": 11,
    "cloudCeiling": 1700,
    "altimeter": "A2985",
    "timestamp": "2025-11-25T19:51:00+00:00",
    "station": "KSTL"
  }
}