{
  "lastUpdated": "2026-02-14T20:51:21.590192+00:00",
  "kcps": {
    "metar": "KCPS 142028Z 11005KT 2 1/2SM +RA BR OVC036 08/07 A2995 RMK AO2 P0011 T00780067 $",
    "windDirection": 110,
    "windSpeed": 5,
    "windGust": null,
    "visibility": 0.5,
    "temperatureC": 8,
    "dewPointC": 7,
    "cloudCeiling": 3600,
    "altimeter": "A2995",
    "timestamp": "2026-02-14T20:28:00+00:00",
    "station": "KCPS"
  },
  "kstl": {
    "metar": "KSTL 142036Z 11010KT 3SM RA BR SCT006 OVC035 08/07 A2995 RMK AO2 P0007 T00780072 $",
    "windDirection": 110,
    "windSpeed": 10,
    "windGust": null,
    "visibility": 3,
    "temperatureC": 8,
    "dewPointC": 7,
    "cloudCeiling": 3500,
    "altimeter": "A2995",
    "timestamp": "2026-02-14T20:36:00+00:00",
    "station": "KSTL"
  }
}