{
  "lastUpdated": "2026-04-27T21:35:00.375798+00:00",
  "kcps": {
    "metar": "KCPS 272055Z 16014G24KT 10SM FEW039 FEW049 28/21 A2959 RMK AO2 LTG DSNT N AND NW T02780211 $",
    "windDirection": 160,
    "windSpeed": 14,
    "windGust": 24,
    "visibility": 10,
    "temperatureC": 28,
    "dewPointC": 21,
    "cloudCeiling": null,
    "altimeter": "A2959",
    "timestamp": "2026-04-27T20:55:00+00:00",
    "station": "KCPS"
  },
  "kstl": {
    "metar": "KSTL 272051Z 00000KT 10SM SCT035 BKN100 BKN250 23/20 A2961 RMK AO2 PRESRR SLP018 CB DSNT NW-N MOV E TCU DSNT NE-SE 60059 T02330200 56031 $",
    "windDirection": 0,
    "windSpeed": 0,
    "windGust": null,
    "visibility": 10,
    "temperatureC": 23,
    "dewPointC": 20,
    "cloudCeiling": 10000,
    "altimeter": "A2961",
    "timestamp": "2026-04-27T20:51:00+00:00",
    "station": "KSTL"
  }
}