{
  "lastUpdated": "2026-05-01T19:42:06.463230+00:00",
  "kcps": {
    "metar": "KCPS 011853Z 32008KT 10SM FEW085 16/00 A3007 RMK AO2 SLP181 T01610000 $",
    "windDirection": 320,
    "windSpeed": 8,
    "windGust": null,
    "visibility": 10,
    "temperatureC": 16,
    "dewPointC": 0,
    "cloudCeiling": null,
    "altimeter": "A3007",
    "timestamp": "2026-05-01T18:53:00+00:00",
    "station": "KCPS"
  },
  "kstl": {
    "metar": "KSTL 011851Z 21006KT 10SM FEW070 16/00 A3007 RMK AO2 SLP183 T01610000",
    "windDirection": 210,
    "windSpeed": 6,
    "windGust": null,
    "visibility": 10,
    "temperatureC": 16,
    "dewPointC": 0,
    "cloudCeiling": null,
    "altimeter": "A3007",
    "timestamp": "2026-05-01T18:51:00+00:00",
    "station": "KSTL"
  }
}