{
  "lastUpdated": "2026-02-20T06:32:34.422188+00:00",
  "kcps": {
    "metar": "KCPS 200553Z 26014G27KT 10SM CLR 09/M02 A2956 RMK AO2 PK WND 28032/0529 SLP010 T00941017 10217 20094 402170061 53031 $",
    "windDirection": 260,
    "windSpeed": 14,
    "windGust": 27,
    "visibility": 10,
    "temperatureC": 9,
    "dewPointC": -2,
    "cloudCeiling": 99999,
    "altimeter": "A2956",
    "timestamp": "2026-02-20T05:53:00+00:00",
    "station": "KCPS"
  },
  "kstl": {
    "metar": "KSTL 200551Z 25019G28KT 10SM CLR 08/M02 A2957 RMK AO2 PK WND 26041/0511 SLP014 T00831022 10200 20083 402000072 53029 $",
    "windDirection": 250,
    "windSpeed": 19,
    "windGust": 28,
    "visibility": 10,
    "temperatureC": 8,
    "dewPointC": -2,
    "cloudCeiling": 99999,
    "altimeter": "A2957",
    "timestamp": "2026-02-20T05:51:00+00:00",
    "station": "KSTL"
  }
}