{
  "lastUpdated": "2026-05-26T22:12:14.665823+00:00",
  "kcps": {
    "metar": "KCPS 262153Z 11006KT 10SM BKN047 BKN060 26/19 A2993 RMK AO2 RAB16E24 SLP133 P0000 T02560189 $",
    "windDirection": 110,
    "windSpeed": 6,
    "windGust": null,
    "visibility": 10,
    "temperatureC": 26,
    "dewPointC": 19,
    "cloudCeiling": 4700,
    "altimeter": "A2993",
    "timestamp": "2026-05-26T21:53:00+00:00",
    "station": "KCPS"
  },
  "kstl": {
    "metar": "KSTL 262151Z 11010KT 10SM SCT065 BKN110 OVC180 27/18 A2994 RMK AO2 SLP129 T02670178 $",
    "windDirection": 110,
    "windSpeed": 10,
    "windGust": null,
    "visibility": 10,
    "temperatureC": 27,
    "dewPointC": 18,
    "cloudCeiling": 11000,
    "altimeter": "A2994",
    "timestamp": "2026-05-26T21:51:00+00:00",
    "station": "KSTL"
  }
}