{
  "lastUpdated": "2025-10-21T15:33:59.346605+00:00",
  "kcps": {
    "metar": "KCPS 211453Z 26010G18KT 230V290 10SM CLR 16/06 A2996 RMK AO2 SLP142 T01560056 50001",
    "windDirection": 260,
    "windSpeed": 10,
    "windGust": 18,
    "visibility": 10,
    "temperatureC": 16,
    "dewPointC": 6,
    "cloudCeiling": 99999,
    "altimeter": "A2996",
    "timestamp": "2025-10-21T14:53:00+00:00",
    "station": "KCPS"
  },
  "kstl": {
    "metar": "KSTL 211451Z 26012KT 10SM FEW100 16/06 A2995 RMK AO2 SLP138 T01560056 53001 $",
    "windDirection": 260,
    "windSpeed": 12,
    "windGust": null,
    "visibility": 10,
    "temperatureC": 16,
    "dewPointC": 6,
    "cloudCeiling": null,
    "altimeter": "A2995",
    "timestamp": "2025-10-21T14:51:00+00:00",
    "station": "KSTL"
  }
}