{
  "lastUpdated": "2025-10-27T00:40:49.248082+00:00",
  "kcps": {
    "metar": "KCPS 270036Z 08008KT 7SM -RA SCT011 BKN016 OVC035 12/11 A3014 RMK AO2 P0001 T01170106 $",
    "windDirection": 80,
    "windSpeed": 8,
    "windGust": null,
    "visibility": 7,
    "temperatureC": 12,
    "dewPointC": 11,
    "cloudCeiling": 1600,
    "altimeter": "A3014",
    "timestamp": "2025-10-27T00:36:00+00:00",
    "station": "KCPS"
  },
  "kstl": {
    "metar": "KSTL 270010Z 10012KT 4SM RA BR SCT009 OVC016 11/10 A3015 RMK AO2 P0003 T01110100 $",
    "windDirection": 100,
    "windSpeed": 12,
    "windGust": null,
    "visibility": 4,
    "temperatureC": 11,
    "dewPointC": 10,
    "cloudCeiling": 1600,
    "altimeter": "A3015",
    "timestamp": "2025-10-27T00:10:00+00:00",
    "station": "KSTL"
  }
}