{
  "lastUpdated": "2025-10-13T06:41:24.456745+00:00",
  "kcps": {
    "metar": "KCPS 130553Z AUTO 00000KT 10SM CLR 13/11 A2994 RMK AO2 SLP135 T01330111 10211 20133 402780083 50009 $",
    "windDirection": 0,
    "windSpeed": 0,
    "windGust": null,
    "visibility": 10,
    "temperatureC": 13,
    "dewPointC": 11,
    "cloudCeiling": 99999,
    "altimeter": "A2994",
    "timestamp": "2025-10-13T05:53:00+00:00",
    "station": "KCPS"
  },
  "kstl": {
    "metar": "KSTL 130551Z 16004KT 10SM SCT200 BKN250 20/12 A2994 RMK AO2 SLP130 T02000122 10233 20200 402720122 51009 $",
    "windDirection": 160,
    "windSpeed": 4,
    "windGust": null,
    "visibility": 10,
    "temperatureC": 20,
    "dewPointC": 12,
    "cloudCeiling": 25000,
    "altimeter": "A2994",
    "timestamp": "2025-10-13T05:51:00+00:00",
    "station": "KSTL"
  }
}