{
  "lastUpdated": "2026-02-01T22:22:21.076760+00:00",
  "kcps": {
    "metar": "KCPS 012153Z 16006KT 10SM OVC055 M03/M10 A3020 RMK AO2 SLP232 T10281100 $",
    "windDirection": 160,
    "windSpeed": 6,
    "windGust": null,
    "visibility": 10,
    "temperatureC": -3,
    "dewPointC": -10,
    "cloudCeiling": 5500,
    "altimeter": "A3020",
    "timestamp": "2026-02-01T21:53:00+00:00",
    "station": "KCPS"
  },
  "kstl": {
    "metar": "KSTL 012151Z 17011KT 10SM OVC048 M03/M11 A3018 RMK AO2 SLP238 T10281111 $",
    "windDirection": 170,
    "windSpeed": 11,
    "windGust": null,
    "visibility": 10,
    "temperatureC": -3,
    "dewPointC": -11,
    "cloudCeiling": 4800,
    "altimeter": "A3018",
    "timestamp": "2026-02-01T21:51:00+00:00",
    "station": "KSTL"
  }
}