{
  "lastUpdated": "2026-02-15T18:04:16.450856+00:00",
  "kcps": {
    "metar": "KCPS 151753Z 36009KT 10SM BKN016 OVC021 09/07 A2998 RMK AO2 SLP154 T00940067 10094 20067 51007 $",
    "windDirection": 360,
    "windSpeed": 9,
    "windGust": null,
    "visibility": 10,
    "temperatureC": 9,
    "dewPointC": 7,
    "cloudCeiling": 1600,
    "altimeter": "A2998",
    "timestamp": "2026-02-15T17:53:00+00:00",
    "station": "KCPS"
  },
  "kstl": {
    "metar": "KSTL 151751Z 36005KT 10SM BKN012 09/06 A3000 RMK AO2 SLP160 T00940061 10094 20067 51009 $",
    "windDirection": 360,
    "windSpeed": 5,
    "windGust": null,
    "visibility": 10,
    "temperatureC": 9,
    "dewPointC": 6,
    "cloudCeiling": 1200,
    "altimeter": "A3000",
    "timestamp": "2026-02-15T17:51:00+00:00",
    "station": "KSTL"
  }
}