{
  "lastUpdated": "2026-02-15T14:52:56.421348+00:00",
  "kcps": {
    "metar": "KCPS 151353Z 02011KT 8SM OVC006 07/06 A2993 RMK AO2 SLP136 T00670061 $",
    "windDirection": 20,
    "windSpeed": 11,
    "windGust": null,
    "visibility": 8,
    "temperatureC": 7,
    "dewPointC": 6,
    "cloudCeiling": 600,
    "altimeter": "A2993",
    "timestamp": "2026-02-15T13:53:00+00:00",
    "station": "KCPS"
  },
  "kstl": {
    "metar": "KSTL 151351Z 01011KT 7SM OVC006 07/06 A2995 RMK AO2 SLP144 T00720056 $",
    "windDirection": 10,
    "windSpeed": 11,
    "windGust": null,
    "visibility": 7,
    "temperatureC": 7,
    "dewPointC": 6,
    "cloudCeiling": 600,
    "altimeter": "A2995",
    "timestamp": "2026-02-15T13:51:00+00:00",
    "station": "KSTL"
  }
}