{
  "lastUpdated": "2026-01-20T13:57:34.301833+00:00",
  "kcps": {
    "metar": "KCPS 201353Z 19003KT 10SM OVC055 M09/M16 A3045 RMK AO2 SLP319 T10891161 $",
    "windDirection": 190,
    "windSpeed": 3,
    "windGust": null,
    "visibility": 10,
    "temperatureC": -9,
    "dewPointC": -16,
    "cloudCeiling": 5500,
    "altimeter": "A3045",
    "timestamp": "2026-01-20T13:53:00+00:00",
    "station": "KCPS"
  },
  "kstl": {
    "metar": "KSTL 201351Z 20007KT 10SM OVC050 M08/M18 A3043 RMK AO2 SLP322 T10781178 $",
    "windDirection": 200,
    "windSpeed": 7,
    "windGust": null,
    "visibility": 10,
    "temperatureC": -8,
    "dewPointC": -18,
    "cloudCeiling": 5000,
    "altimeter": "A3043",
    "timestamp": "2026-01-20T13:51:00+00:00",
    "station": "KSTL"
  }
}