{
  "lastUpdated": "2026-02-16T06:47:28.007403+00:00",
  "kcps": {
    "metar": "KCPS 160553Z AUTO 00000KT 8SM CLR 02/02 A3004 RMK AO2 SLP175 T00220017 10106 20017 401440017 53006 $",
    "windDirection": 0,
    "windSpeed": 0,
    "windGust": null,
    "visibility": 8,
    "temperatureC": 2,
    "dewPointC": 2,
    "cloudCeiling": 99999,
    "altimeter": "A3004",
    "timestamp": "2026-02-16T05:53:00+00:00",
    "station": "KCPS"
  },
  "kstl": {
    "metar": "KSTL 160551Z 25003KT 10SM CLR 07/04 A3004 RMK AO2 SLP175 T00720044 10111 20056 401390056 51004 $",
    "windDirection": 250,
    "windSpeed": 3,
    "windGust": null,
    "visibility": 10,
    "temperatureC": 7,
    "dewPointC": 4,
    "cloudCeiling": 99999,
    "altimeter": "A3004",
    "timestamp": "2026-02-16T05:51:00+00:00",
    "station": "KSTL"
  }
}