{
  "lastUpdated": "2026-03-25T11:06:51.669299+00:00",
  "kcps": {
    "metar": "KCPS 251053Z AUTO 00000KT 10SM CLR 06/00 A3010 RMK AO2 SLP192 T00560000 $",
    "windDirection": 0,
    "windSpeed": 0,
    "windGust": null,
    "visibility": 10,
    "temperatureC": 6,
    "dewPointC": 0,
    "cloudCeiling": 99999,
    "altimeter": "A3010",
    "timestamp": "2026-03-25T10:53:00+00:00",
    "station": "KCPS"
  },
  "kstl": {
    "metar": "KSTL 251051Z 10005KT 10SM BKN250 08/M01 A3010 RMK AO2 SLP191 T00781011",
    "windDirection": 100,
    "windSpeed": 5,
    "windGust": null,
    "visibility": 10,
    "temperatureC": 8,
    "dewPointC": -1,
    "cloudCeiling": 25000,
    "altimeter": "A3010",
    "timestamp": "2026-03-25T10:51:00+00:00",
    "station": "KSTL"
  }
}