{
  "lastUpdated": "2025-12-02T09:04:23.230494+00:00",
  "kcps": {
    "metar": "KCPS 020853Z AUTO 33015KT 10SM OVC014 M04/M07 A3008 RMK AO2 SLP193 60000 T10441072 53002 $",
    "windDirection": 330,
    "windSpeed": 15,
    "windGust": null,
    "visibility": 10,
    "temperatureC": -4,
    "dewPointC": -7,
    "cloudCeiling": 1400,
    "altimeter": "A3008",
    "timestamp": "2025-12-02T08:53:00+00:00",
    "station": "KCPS"
  },
  "kstl": {
    "metar": "KSTL 020851Z 31010KT 9SM -SN OVC009 M06/M07 A3008 RMK AO2 SNB15E43B51 SLP201 P0000 60000 T10561072 53007 $",
    "windDirection": 310,
    "windSpeed": 10,
    "windGust": null,
    "visibility": 9,
    "temperatureC": -6,
    "dewPointC": -7,
    "cloudCeiling": 900,
    "altimeter": "A3008",
    "timestamp": "2025-12-02T08:51:00+00:00",
    "station": "KSTL"
  }
}