{
  "lastUpdated": "2026-01-24T15:34:54.685847+00:00",
  "kcps": {
    "metar": "KCPS 241526Z 04007KT 2 1/2SM -SN OVC029 M16/M22 A3064 RMK AO2 VIS 1 3/4V5 P0000 T11561222 $",
    "windDirection": 40,
    "windSpeed": 7,
    "windGust": null,
    "visibility": 0.5,
    "temperatureC": -16,
    "dewPointC": -22,
    "cloudCeiling": 2900,
    "altimeter": "A3064",
    "timestamp": "2026-01-24T15:26:00+00:00",
    "station": "KCPS"
  },
  "kstl": {
    "metar": "KSTL 241529Z 05009KT 2SM -SN OVC032 M16/M24 A3061 RMK AO2 P0000 T11611239 $",
    "windDirection": 50,
    "windSpeed": 9,
    "windGust": null,
    "visibility": 2,
    "temperatureC": -16,
    "dewPointC": -24,
    "cloudCeiling": 3200,
    "altimeter": "A3061",
    "timestamp": "2026-01-24T15:29:00+00:00",
    "station": "KSTL"
  }
}