{
  "lastUpdated": "2025-11-12T19:32:11.462692+00:00",
  "kcps": {
    "metar": "KCPS 121853Z 10SM CLR 18/M01 A3011 RMK AO2 SLP195 T01831006 $",
    "windDirection": null,
    "windSpeed": null,
    "windGust": null,
    "visibility": 10,
    "temperatureC": 18,
    "dewPointC": -1,
    "cloudCeiling": 99999,
    "altimeter": "A3011",
    "timestamp": "2025-11-12T18:53:00+00:00",
    "station": "KCPS"
  },
  "kstl": {
    "metar": "KSTL 121851Z 30009KT 10SM FEW250 18/01 A3012 RMK AO2 SLP198 T01780006",
    "windDirection": 300,
    "windSpeed": 9,
    "windGust": null,
    "visibility": 10,
    "temperatureC": 18,
    "dewPointC": 1,
    "cloudCeiling": null,
    "altimeter": "A3012",
    "timestamp": "2025-11-12T18:51:00+00:00",
    "station": "KSTL"
  }
}