{
  "lastUpdated": "2026-04-28T18:00:12.477926+00:00",
  "kcps": {
    "metar": "KCPS 281753Z 04007KT 360V070 10SM FEW029 17/10 A2999 RMK AO2 SLP155 T01720100 10178 20139 58016 $",
    "windDirection": 40,
    "windSpeed": 7,
    "windGust": null,
    "visibility": 10,
    "temperatureC": 17,
    "dewPointC": 10,
    "cloudCeiling": null,
    "altimeter": "A2999",
    "timestamp": "2026-04-28T17:53:00+00:00",
    "station": "KCPS"
  },
  "kstl": {
    "metar": "KSTL 281751Z VRB03KT 10SM SCT024 SCT250 16/09 A3000 RMK AO2 SLP156 T01560094 10156 20133 57017 $",
    "windDirection": null,
    "windSpeed": null,
    "windGust": null,
    "visibility": 10,
    "temperatureC": 16,
    "dewPointC": 9,
    "cloudCeiling": null,
    "altimeter": "A3000",
    "timestamp": "2026-04-28T17:51:00+00:00",
    "station": "KSTL"
  }
}