{
  "lastUpdated": "2025-12-27T03:42:57.801753+00:00",
  "kcps": {
    "metar": "KCPS 270253Z 00000KT 8SM CLR 08/08 A2992 RMK AO2 SLP132 T00830083 51014 $",
    "windDirection": 0,
    "windSpeed": 0,
    "windGust": null,
    "visibility": 8,
    "temperatureC": 8,
    "dewPointC": 8,
    "cloudCeiling": 99999,
    "altimeter": "A2992",
    "timestamp": "2025-12-27T02:53:00+00:00",
    "station": "KCPS"
  },
  "kstl": {
    "metar": "KSTL 270251Z 00000KT 10SM SCT250 09/08 A2993 RMK AO2 SLP132 T00890078 51011 $",
    "windDirection": 0,
    "windSpeed": 0,
    "windGust": null,
    "visibility": 10,
    "temperatureC": 9,
    "dewPointC": 8,
    "cloudCeiling": null,
    "altimeter": "A2993",
    "timestamp": "2025-12-27T02:51:00+00:00",
    "station": "KSTL"
  }
}