{
  "lastUpdated": "2026-03-12T09:48:37.570811+00:00",
  "kcps": {
    "metar": "KCPS 120853Z AUTO 29005KT 10SM CLR 02/M03 A3030 RMK AO2 SLP264 T00221033 50005 $",
    "windDirection": 290,
    "windSpeed": 5,
    "windGust": null,
    "visibility": 10,
    "temperatureC": 2,
    "dewPointC": -3,
    "cloudCeiling": 99999,
    "altimeter": "A3030",
    "timestamp": "2026-03-12T08:53:00+00:00",
    "station": "KCPS"
  },
  "kstl": {
    "metar": "KSTL 120851Z 31007KT 10SM CLR 02/M03 A3030 RMK AO2 SLP266 T00171028 50005 $",
    "windDirection": 310,
    "windSpeed": 7,
    "windGust": null,
    "visibility": 10,
    "temperatureC": 2,
    "dewPointC": -3,
    "cloudCeiling": 99999,
    "altimeter": "A3030",
    "timestamp": "2026-03-12T08:51:00+00:00",
    "station": "KSTL"
  }
}