{
  "lastUpdated": "2026-01-02T10:37:27.831078+00:00",
  "kcps": {
    "metar": "KCPS 020953Z AUTO 04003KT 6SM BR OVC007 01/00 A2989 RMK AO2 SLP123 T00110000 $",
    "windDirection": 40,
    "windSpeed": 3,
    "windGust": null,
    "visibility": 6,
    "temperatureC": 1,
    "dewPointC": 0,
    "cloudCeiling": 700,
    "altimeter": "A2989",
    "timestamp": "2026-01-02T09:53:00+00:00",
    "station": "KCPS"
  },
  "kstl": {
    "metar": "KSTL 020951Z 01007KT 7SM OVC008 01/M01 A2989 RMK AO2 SLP130 T00061006 $",
    "windDirection": 10,
    "windSpeed": 7,
    "windGust": null,
    "visibility": 7,
    "temperatureC": 1,
    "dewPointC": -1,
    "cloudCeiling": 800,
    "altimeter": "A2989",
    "timestamp": "2026-01-02T09:51:00+00:00",
    "station": "KSTL"
  }
}