{
  "lastUpdated": "2026-04-08T18:06:54.347099+00:00",
  "kcps": {
    "metar": "KCPS 081753Z 17011G21KT 130V210 10SM CLR 22/06 A3017 RMK AO2 SLP215 T02170061 10217 20061 58022 $",
    "windDirection": 170,
    "windSpeed": 11,
    "windGust": 21,
    "visibility": 10,
    "temperatureC": 22,
    "dewPointC": 6,
    "cloudCeiling": 99999,
    "altimeter": "A3017",
    "timestamp": "2026-04-08T17:53:00+00:00",
    "station": "KCPS"
  },
  "kstl": {
    "metar": "KSTL 081751Z 17016KT 10SM BKN250 21/05 A3016 RMK AO2 SLP210 T02110050 10211 20072 58020 $",
    "windDirection": 170,
    "windSpeed": 16,
    "windGust": null,
    "visibility": 10,
    "temperatureC": 21,
    "dewPointC": 5,
    "cloudCeiling": 25000,
    "altimeter": "A3016",
    "timestamp": "2026-04-08T17:51:00+00:00",
    "station": "KSTL"
  }
}