{
  "lastUpdated": "2025-12-23T18:02:44.068387+00:00",
  "kcps": {
    "metar": "KCPS 231753Z VRB05KT 10SM CLR 19/13 A3013 RMK AO2 SLP202 T01890133 10194 20011 58006 $",
    "windDirection": null,
    "windSpeed": null,
    "windGust": null,
    "visibility": 10,
    "temperatureC": 19,
    "dewPointC": 13,
    "cloudCeiling": 99999,
    "altimeter": "A3013",
    "timestamp": "2025-12-23T17:53:00+00:00",
    "station": "KCPS"
  },
  "kstl": {
    "metar": "KSTL 231751Z 25009KT 10SM SCT025 SCT050 18/13 A3013 RMK AO2 SLP205 T01830133 10183 20050 58004 $",
    "windDirection": 250,
    "windSpeed": 9,
    "windGust": null,
    "visibility": 10,
    "temperatureC": 18,
    "dewPointC": 13,
    "cloudCeiling": null,
    "altimeter": "A3013",
    "timestamp": "2025-12-23T17:51:00+00:00",
    "station": "KSTL"
  }
}