{
  "lastUpdated": "2026-02-01T18:58:07.377368+00:00",
  "kcps": {
    "metar": "KCPS 011853Z 14008KT 10SM FEW049 BKN055 OVC075 M05/M13 A3031 RMK AO2 SLP271 T10501133 $",
    "windDirection": 140,
    "windSpeed": 8,
    "windGust": null,
    "visibility": 10,
    "temperatureC": -5,
    "dewPointC": -13,
    "cloudCeiling": 5500,
    "altimeter": "A3031",
    "timestamp": "2026-02-01T18:53:00+00:00",
    "station": "KCPS"
  },
  "kstl": {
    "metar": "KSTL 011851Z 14008KT 10SM OVC065 M05/M13 A3029 RMK AO2 SLP277 T10501128 $",
    "windDirection": 140,
    "windSpeed": 8,
    "windGust": null,
    "visibility": 10,
    "temperatureC": -5,
    "dewPointC": -13,
    "cloudCeiling": 6500,
    "altimeter": "A3029",
    "timestamp": "2026-02-01T18:51:00+00:00",
    "station": "KSTL"
  }
}