{
  "lastUpdated": "2026-04-15T19:28:40.282287+00:00",
  "kcps": {
    "metar": "KCPS 151853Z 18009G15KT 6SM -RA SCT090 OVC100 20/17 A2991 RMK AO2 RAB1759 SLP125 P0003 T02000172 $",
    "windDirection": 180,
    "windSpeed": 9,
    "windGust": 15,
    "visibility": 6,
    "temperatureC": 20,
    "dewPointC": 17,
    "cloudCeiling": 10000,
    "altimeter": "A2991",
    "timestamp": "2026-04-15T18:53:00+00:00",
    "station": "KCPS"
  },
  "kstl": {
    "metar": "KSTL 151851Z 19016G26KT 10SM -RA FEW045 BKN100 OVC250 21/17 A2988 RMK AO2 PK WND 19027/1834 RAB1759 SLP109 P0001 T02060167",
    "windDirection": 190,
    "windSpeed": 16,
    "windGust": 26,
    "visibility": 10,
    "temperatureC": 21,
    "dewPointC": 17,
    "cloudCeiling": 10000,
    "altimeter": "A2988",
    "timestamp": "2026-04-15T18:51:00+00:00",
    "station": "KSTL"
  }
}