{
  "lastUpdated": "2025-12-02T02:32:21.789499+00:00",
  "kcps": {
    "metar": "KCPS 020105Z 00000KT 3SM -SN BR BKN023 OVC030 M03/M04 A3012 RMK AO2 P0000 T10331044 $",
    "windDirection": 0,
    "windSpeed": 0,
    "windGust": null,
    "visibility": 3,
    "temperatureC": -3,
    "dewPointC": -4,
    "cloudCeiling": 2300,
    "altimeter": "A3012",
    "timestamp": "2025-12-02T01:05:00+00:00",
    "station": "KCPS"
  },
  "kstl": {
    "metar": "KSTL 020229Z 29003KT 3/4SM R30R/P6000FT -SN BR FEW007 OVC015 M04/M04 A3009 RMK AO2 P0001 T10391044",
    "windDirection": 290,
    "windSpeed": 3,
    "windGust": null,
    "visibility": 0.75,
    "temperatureC": -4,
    "dewPointC": -4,
    "cloudCeiling": 1500,
    "altimeter": "A3009",
    "timestamp": "2025-12-02T02:29:00+00:00",
    "station": "KSTL"
  }
}