{
  "lastUpdated": "2026-04-19T07:08:03.412692+00:00",
  "kcps": {
    "metar": "KCPS 190653Z AUTO 00000KT 10SM CLR 04/02 A3022 RMK AO2 SLP235 T00440022 $",
    "windDirection": 0,
    "windSpeed": 0,
    "windGust": null,
    "visibility": 10,
    "temperatureC": 4,
    "dewPointC": 2,
    "cloudCeiling": 99999,
    "altimeter": "A3022",
    "timestamp": "2026-04-19T06:53:00+00:00",
    "station": "KCPS"
  },
  "kstl": {
    "metar": "KSTL 190651Z 25004KT 10SM CLR 07/01 A3022 RMK AO2 SLP235 T00670006 $",
    "windDirection": 250,
    "windSpeed": 4,
    "windGust": null,
    "visibility": 10,
    "temperatureC": 7,
    "dewPointC": 1,
    "cloudCeiling": 99999,
    "altimeter": "A3022",
    "timestamp": "2026-04-19T06:51:00+00:00",
    "station": "KSTL"
  }
}