{
  "lastUpdated": "2025-11-20T18:23:06.136665+00:00",
  "kcps": {
    "metar": "KCPS 201753Z 13003KT 8SM OVC006 11/10 A3005 RMK AO2 SLP175 60004 T01110100 10111 20089 58011",
    "windDirection": 130,
    "windSpeed": 3,
    "windGust": null,
    "visibility": 8,
    "temperatureC": 11,
    "dewPointC": 10,
    "cloudCeiling": 600,
    "altimeter": "A3005",
    "timestamp": "2025-11-20T17:53:00+00:00",
    "station": "KCPS"
  },
  "kstl": {
    "metar": "KSTL 201751Z COR 09005KT 7SM OVC006 11/10 A3004 RMK AO2 SLP175 60000 T01110100 10111 20094 58008 $",
    "windDirection": 90,
    "windSpeed": 5,
    "windGust": null,
    "visibility": 7,
    "temperatureC": 11,
    "dewPointC": 10,
    "cloudCeiling": 600,
    "altimeter": "A3004",
    "timestamp": "2025-11-20T17:51:00+00:00",
    "station": "KSTL"
  }
}