{
  "lastUpdated": "2026-05-04T18:48:13.838674+00:00",
  "kcps": {
    "metar": "KCPS 041836Z 02004KT 10SM VCTS -RA BKN090 19/12 A2971 RMK AO2 LTG DSNT NE AND SW AND W RAB36 TSB15E30 P0000 T01890122 $",
    "windDirection": 20,
    "windSpeed": 4,
    "windGust": null,
    "visibility": 10,
    "temperatureC": 19,
    "dewPointC": 12,
    "cloudCeiling": 9000,
    "altimeter": "A2971",
    "timestamp": "2026-05-04T18:36:00+00:00",
    "station": "KCPS"
  },
  "kstl": {
    "metar": "KSTL 041828Z 19008KT 10SM -RA FEW018 OVC100 19/13 A2969 RMK AO2 P0002 T01890128 $",
    "windDirection": 190,
    "windSpeed": 8,
    "windGust": null,
    "visibility": 10,
    "temperatureC": 19,
    "dewPointC": 13,
    "cloudCeiling": 10000,
    "altimeter": "A2969",
    "timestamp": "2026-05-04T18:28:00+00:00",
    "station": "KSTL"
  }
}