{
  "lastUpdated": "2026-05-17T19:51:26.538650+00:00",
  "kcps": {
    "metar": "KCPS 171853Z 18011G23KT 10SM SCT049 31/18 A2987 RMK AO2 PK WND 17028/1840 SLP109 T03060183 $",
    "windDirection": 180,
    "windSpeed": 11,
    "windGust": 23,
    "visibility": 10,
    "temperatureC": 31,
    "dewPointC": 18,
    "cloudCeiling": null,
    "altimeter": "A2987",
    "timestamp": "2026-05-17T18:53:00+00:00",
    "station": "KCPS"
  },
  "kstl": {
    "metar": "KSTL 171851Z 18016G26KT 10SM FEW045 SCT055 BKN250 29/19 A2986 RMK AO2 PK WND 18028/1800 SLP101 T02940189 $",
    "windDirection": 180,
    "windSpeed": 16,
    "windGust": 26,
    "visibility": 10,
    "temperatureC": 29,
    "dewPointC": 19,
    "cloudCeiling": 25000,
    "altimeter": "A2986",
    "timestamp": "2026-05-17T18:51:00+00:00",
    "station": "KSTL"
  }
}