{
  "lastUpdated": "2026-02-02T05:15:10.818143+00:00",
  "kcps": {
    "metar": "KCPS 020453Z AUTO 20006KT 10SM OVC049 M03/M11 A3019 RMK AO2 SLP230 T10331106 $",
    "windDirection": 200,
    "windSpeed": 6,
    "windGust": null,
    "visibility": 10,
    "temperatureC": -3,
    "dewPointC": -11,
    "cloudCeiling": 4900,
    "altimeter": "A3019",
    "timestamp": "2026-02-02T04:53:00+00:00",
    "station": "KCPS"
  },
  "kstl": {
    "metar": "KSTL 020451Z 22006KT 10SM OVC036 M02/M10 A3018 RMK AO2 SLP235 T10221100 $",
    "windDirection": 220,
    "windSpeed": 6,
    "windGust": null,
    "visibility": 10,
    "temperatureC": -2,
    "dewPointC": -10,
    "cloudCeiling": 3600,
    "altimeter": "A3018",
    "timestamp": "2026-02-02T04:51:00+00:00",
    "station": "KSTL"
  }
}