{
  "lastUpdated": "2025-10-18T17:31:42.883220+00:00",
  "kcps": {
    "metar": "KCPS 181725Z 20003KT 3SM TSRA BR SCT055 BKN090 OVC120 19/18 A2977 RMK AO2 LTG DSNT ALQDS TSE11B25 P0010 T01890183 $",
    "windDirection": 200,
    "windSpeed": 3,
    "windGust": null,
    "visibility": 3,
    "temperatureC": 19,
    "dewPointC": 18,
    "cloudCeiling": 9000,
    "altimeter": "A2977",
    "timestamp": "2025-10-18T17:25:00+00:00",
    "station": "KCPS"
  },
  "kstl": {
    "metar": "KSTL 181720Z 16010KT 10SM -TSRA FEW035CB BKN090 OVC120 19/18 A2976 RMK AO2 TSE1655B19 OCNL LTGICCG SW-NW TS SW-NW MOV NE P0003 T01940178 $",
    "windDirection": 160,
    "windSpeed": 10,
    "windGust": null,
    "visibility": 10,
    "temperatureC": 19,
    "dewPointC": 18,
    "cloudCeiling": 9000,
    "altimeter": "A2976",
    "timestamp": "2025-10-18T17:20:00+00:00",
    "station": "KSTL"
  }
}