{
  "lastUpdated": "2026-01-09T11:02:18.131851+00:00",
  "kcps": {
    "metar": "KCPS 091053Z 28013G21KT 10SM BKN027 OVC036 12/07 A2982 RMK AO2 PK WND 27027/1030 SLP096 T01220072",
    "windDirection": 280,
    "windSpeed": 13,
    "windGust": 21,
    "visibility": 10,
    "temperatureC": 12,
    "dewPointC": 7,
    "cloudCeiling": 2700,
    "altimeter": "A2982",
    "timestamp": "2026-01-09T10:53:00+00:00",
    "station": "KCPS"
  },
  "kstl": {
    "metar": "KSTL 091051Z 27014G26KT 10SM BKN016 BKN024 OVC041 10/07 A2983 RMK AO2 PK WND 27030/1006 SLP099 T01000067 $",
    "windDirection": 270,
    "windSpeed": 14,
    "windGust": 26,
    "visibility": 10,
    "temperatureC": 10,
    "dewPointC": 7,
    "cloudCeiling": 1600,
    "altimeter": "A2983",
    "timestamp": "2026-01-09T10:51:00+00:00",
    "station": "KSTL"
  }
}