{
  "lastUpdated": "2025-11-25T19:02:26.994725+00:00",
  "kcps": {
    "metar": "KCPS 251853Z 32007KT 4SM -RA BR BKN006 OVC018 13/12 A2985 RMK AO2 RAB06E39B52 CIG 003V010 SLP108 P0001 T01280122",
    "windDirection": 320,
    "windSpeed": 7,
    "windGust": null,
    "visibility": 4,
    "temperatureC": 13,
    "dewPointC": 12,
    "cloudCeiling": 600,
    "altimeter": "A2985",
    "timestamp": "2025-11-25T18:53:00+00:00",
    "station": "KCPS"
  },
  "kstl": {
    "metar": "KSTL 251851Z 28010KT 6SM BR BKN012 OVC019 13/11 A2986 RMK AO2 SLP110 T01330111 $",
    "windDirection": 280,
    "windSpeed": 10,
    "windGust": null,
    "visibility": 6,
    "temperatureC": 13,
    "dewPointC": 11,
    "cloudCeiling": 1200,
    "altimeter": "A2986",
    "timestamp": "2025-11-25T18:51:00+00:00",
    "station": "KSTL"
  }
}