{
  "lastUpdated": "2026-05-15T23:32:44.271045+00:00",
  "kcps": {
    "metar": "KCPS 152253Z 20006KT 10SM CLR 27/16 A2982 RMK AO2 SLP096 T02720161 $",
    "windDirection": 200,
    "windSpeed": 6,
    "windGust": null,
    "visibility": 10,
    "temperatureC": 27,
    "dewPointC": 16,
    "cloudCeiling": 99999,
    "altimeter": "A2982",
    "timestamp": "2026-05-15T22:53:00+00:00",
    "station": "KCPS"
  },
  "kstl": {
    "metar": "KSTL 152251Z 18011G18KT 10SM SCT150 BKN250 27/16 A2983 RMK AO2 SLP091 T02670161 $",
    "windDirection": 180,
    "windSpeed": 11,
    "windGust": 18,
    "visibility": 10,
    "temperatureC": 27,
    "dewPointC": 16,
    "cloudCeiling": 25000,
    "altimeter": "A2983",
    "timestamp": "2026-05-15T22:51:00+00:00",
    "station": "KSTL"
  }
}