{
  "lastUpdated": "2025-12-13T19:20:34.393779+00:00",
  "kcps": {
    "metar": "KCPS 131853Z 36010KT 10SM OVC018 M06/M09 A3024 RMK AO2 SLP245 T10561094 $",
    "windDirection": 360,
    "windSpeed": 10,
    "windGust": null,
    "visibility": 10,
    "temperatureC": -6,
    "dewPointC": -9,
    "cloudCeiling": 1800,
    "altimeter": "A3024",
    "timestamp": "2025-12-13T18:53:00+00:00",
    "station": "KCPS"
  },
  "kstl": {
    "metar": "KSTL 131851Z 01010KT 10SM OVC015 M06/M10 A3024 RMK AO2 SLP252 T10611100 $",
    "windDirection": 10,
    "windSpeed": 10,
    "windGust": null,
    "visibility": 10,
    "temperatureC": -6,
    "dewPointC": -10,
    "cloudCeiling": 1500,
    "altimeter": "A3024",
    "timestamp": "2025-12-13T18:51:00+00:00",
    "station": "KSTL"
  }
}