{
  "lastUpdated": "2026-01-23T05:53:03.192719+00:00",
  "kcps": {
    "metar": "KCPS 230353Z 00000KT 10SM CLR M06/M11 A3033 RMK AO2 SLP277 T10611106 $",
    "windDirection": 0,
    "windSpeed": 0,
    "windGust": null,
    "visibility": 10,
    "temperatureC": -6,
    "dewPointC": -11,
    "cloudCeiling": 99999,
    "altimeter": "A3033",
    "timestamp": "2026-01-23T03:53:00+00:00",
    "station": "KCPS"
  },
  "kstl": {
    "metar": "KSTL 230451Z 35011KT 10SM BKN250 M02/M11 A3036 RMK AO2 SLP293 T10171111 $",
    "windDirection": 350,
    "windSpeed": 11,
    "windGust": null,
    "visibility": 10,
    "temperatureC": -2,
    "dewPointC": -11,
    "cloudCeiling": 25000,
    "altimeter": "A3036",
    "timestamp": "2026-01-23T04:51:00+00:00",
    "station": "KSTL"
  }
}