{
  "lastUpdated": "2025-11-10T17:02:19.519005+00:00",
  "kcps": {
    "metar": "KCPS 101653Z 31016G23KT 10SM CLR 02/M08 A3041 RMK AO2 SLP302 T00221078",
    "windDirection": 310,
    "windSpeed": 16,
    "windGust": 23,
    "visibility": 10,
    "temperatureC": 2,
    "dewPointC": -8,
    "cloudCeiling": 99999,
    "altimeter": "A3041",
    "timestamp": "2025-11-10T16:53:00+00:00",
    "station": "KCPS"
  },
  "kstl": {
    "metar": "KSTL 101651Z 30015G25KT 10SM FEW025 01/M08 A3041 RMK AO2 SLP310 T00111078 $",
    "windDirection": 300,
    "windSpeed": 15,
    "windGust": 25,
    "visibility": 10,
    "temperatureC": 1,
    "dewPointC": -8,
    "cloudCeiling": null,
    "altimeter": "A3041",
    "timestamp": "2025-11-10T16:51:00+00:00",
    "station": "KSTL"
  }
}