{
  "lastUpdated": "2026-05-16T01:53:41.609639+00:00",
  "kcps": {
    "metar": "KCPS 160053Z 17009KT 10SM CLR 26/17 A2981 RMK AO2 SLP093 T02560172 $",
    "windDirection": 170,
    "windSpeed": 9,
    "windGust": null,
    "visibility": 10,
    "temperatureC": 26,
    "dewPointC": 17,
    "cloudCeiling": 99999,
    "altimeter": "A2981",
    "timestamp": "2026-05-16T00:53:00+00:00",
    "station": "KCPS"
  },
  "kstl": {
    "metar": "KSTL 160151Z 16007KT 10SM BKN150 OVC250 26/17 A2981 RMK AO2 SLP085 T02560172 $",
    "windDirection": 160,
    "windSpeed": 7,
    "windGust": null,
    "visibility": 10,
    "temperatureC": 26,
    "dewPointC": 17,
    "cloudCeiling": 15000,
    "altimeter": "A2981",
    "timestamp": "2026-05-16T01:51:00+00:00",
    "station": "KSTL"
  }
}