{
  "lastUpdated": "2026-02-17T21:17:17.508777+00:00",
  "kcps": {
    "metar": "KCPS 172053Z 17012G19KT 10SM BKN018 13/09 A2976 RMK AO2 SLP076 T01330094 58034 $",
    "windDirection": 170,
    "windSpeed": 12,
    "windGust": 19,
    "visibility": 10,
    "temperatureC": 13,
    "dewPointC": 9,
    "cloudCeiling": 1800,
    "altimeter": "A2976",
    "timestamp": "2026-02-17T20:53:00+00:00",
    "station": "KCPS"
  },
  "kstl": {
    "metar": "KSTL 172051Z 15015G22KT 10SM BKN180 BKN250 13/09 A2974 RMK AO2 PK WND 15026/2011 SLP071 T01330089 58038 $",
    "windDirection": 150,
    "windSpeed": 15,
    "windGust": 22,
    "visibility": 10,
    "temperatureC": 13,
    "dewPointC": 9,
    "cloudCeiling": 18000,
    "altimeter": "A2974",
    "timestamp": "2026-02-17T20:51:00+00:00",
    "station": "KSTL"
  }
}