{
  "lastUpdated": "2026-01-10T13:38:49.201358+00:00",
  "kcps": {
    "metar": "KCPS 101253Z 32007KT 10SM BKN028 OVC036 06/03 A3003 RMK AO2 SLP172 T00560033 $",
    "windDirection": 320,
    "windSpeed": 7,
    "windGust": null,
    "visibility": 10,
    "temperatureC": 6,
    "dewPointC": 3,
    "cloudCeiling": 2800,
    "altimeter": "A3003",
    "timestamp": "2026-01-10T12:53:00+00:00",
    "station": "KCPS"
  },
  "kstl": {
    "metar": "KSTL 101333Z 32015G24KT 10SM SCT006 BKN012 OVC018 04/02 A3005 RMK AO2 T00440022 $",
    "windDirection": 320,
    "windSpeed": 15,
    "windGust": 24,
    "visibility": 10,
    "temperatureC": 4,
    "dewPointC": 2,
    "cloudCeiling": 1200,
    "altimeter": "A3005",
    "timestamp": "2026-01-10T13:33:00+00:00",
    "station": "KSTL"
  }
}