{
  "lastUpdated": "2025-12-27T06:53:53.776917+00:00",
  "kcps": {
    "metar": "KCPS 270610Z AUTO 09003KT 1SM BR OVC006 06/06 A2994 RMK AO2 T00560056 $",
    "windDirection": 90,
    "windSpeed": 3,
    "windGust": null,
    "visibility": 1,
    "temperatureC": 6,
    "dewPointC": 6,
    "cloudCeiling": 600,
    "altimeter": "A2994",
    "timestamp": "2025-12-27T06:10:00+00:00",
    "station": "KCPS"
  },
  "kstl": {
    "metar": "KSTL 270651Z 09006KT 5SM BR OVC004 09/08 A2994 RMK AO2 SLP136 T00890083 $",
    "windDirection": 90,
    "windSpeed": 6,
    "windGust": null,
    "visibility": 5,
    "temperatureC": 9,
    "dewPointC": 8,
    "cloudCeiling": 400,
    "altimeter": "A2994",
    "timestamp": "2025-12-27T06:51:00+00:00",
    "station": "KSTL"
  }
}