{
  "lastUpdated": "2025-10-18T11:02:08.459665+00:00",
  "kcps": {
    "metar": "KCPS 181053Z AUTO 16004KT 10SM CLR 17/15 A2976 RMK AO2 SLP076 T01720150 PNO $",
    "windDirection": 160,
    "windSpeed": 4,
    "windGust": null,
    "visibility": 10,
    "temperatureC": 17,
    "dewPointC": 15,
    "cloudCeiling": 99999,
    "altimeter": "A2976",
    "timestamp": "2025-10-18T10:53:00+00:00",
    "station": "KCPS"
  },
  "kstl": {
    "metar": "KSTL 181051Z 21008KT 10SM FEW050 SCT250 21/16 A2976 RMK AO2 SLP067 T02110156 $",
    "windDirection": 210,
    "windSpeed": 8,
    "windGust": null,
    "visibility": 10,
    "temperatureC": 21,
    "dewPointC": 16,
    "cloudCeiling": null,
    "altimeter": "A2976",
    "timestamp": "2025-10-18T10:51:00+00:00",
    "station": "KSTL"
  }
}