{
  "lastUpdated": "2026-04-24T10:29:04.460237+00:00",
  "kcps": {
    "metar": "KCPS 240953Z AUTO 00000KT 4SM +RA BR OVC049 16/14 A2974 RMK AO2 RAE29B45 SLP067 P0006 T01610144 $",
    "windDirection": 0,
    "windSpeed": 0,
    "windGust": null,
    "visibility": 4,
    "temperatureC": 16,
    "dewPointC": 14,
    "cloudCeiling": 4900,
    "altimeter": "A2974",
    "timestamp": "2026-04-24T09:53:00+00:00",
    "station": "KCPS"
  },
  "kstl": {
    "metar": "KSTL 240951Z 16006KT 8SM -RA FEW055 OVC095 16/15 A2974 RMK AO2 TSE03 SLP060 P0005 T01610150 $",
    "windDirection": 160,
    "windSpeed": 6,
    "windGust": null,
    "visibility": 8,
    "temperatureC": 16,
    "dewPointC": 15,
    "cloudCeiling": 9500,
    "altimeter": "A2974",
    "timestamp": "2026-04-24T09:51:00+00:00",
    "station": "KSTL"
  }
}