{
  "lastUpdated": "2025-11-07T04:36:13.728034+00:00",
  "kcps": {
    "metar": "KCPS 070353Z AUTO 18003KT 10SM OVC043 14/07 A2986 RMK AO2 SLP109 T01390072 TSNO $",
    "windDirection": 180,
    "windSpeed": 3,
    "windGust": null,
    "visibility": 10,
    "temperatureC": 14,
    "dewPointC": 7,
    "cloudCeiling": 4300,
    "altimeter": "A2986",
    "timestamp": "2025-11-07T03:53:00+00:00",
    "station": "KCPS"
  },
  "kstl": {
    "metar": "KSTL 070351Z 17007KT 10SM OVC039 16/08 A2985 RMK AO2 SLP106 T01560083 $",
    "windDirection": 170,
    "windSpeed": 7,
    "windGust": null,
    "visibility": 10,
    "temperatureC": 16,
    "dewPointC": 8,
    "cloudCeiling": 3900,
    "altimeter": "A2985",
    "timestamp": "2025-11-07T03:51:00+00:00",
    "station": "KSTL"
  }
}