{
  "lastUpdated": "2026-01-08T04:56:44.375200+00:00",
  "kcps": {
    "metar": "KCPS 080453Z AUTO 16006KT 10SM CLR 09/04 A2990 RMK AO2 SLP124 T00890039 $",
    "windDirection": 160,
    "windSpeed": 6,
    "windGust": null,
    "visibility": 10,
    "temperatureC": 9,
    "dewPointC": 4,
    "cloudCeiling": 99999,
    "altimeter": "A2990",
    "timestamp": "2026-01-08T04:53:00+00:00",
    "station": "KCPS"
  },
  "kstl": {
    "metar": "KSTL 080451Z 15008KT 10SM BKN250 11/03 A2989 RMK AO2 SLP121 T01110033 $",
    "windDirection": 150,
    "windSpeed": 8,
    "windGust": null,
    "visibility": 10,
    "temperatureC": 11,
    "dewPointC": 3,
    "cloudCeiling": 25000,
    "altimeter": "A2989",
    "timestamp": "2026-01-08T04:51:00+00:00",
    "station": "KSTL"
  }
}