{
  "lastUpdated": "2026-06-01T19:07:16.729824+00:00",
  "kcps": {
    "metar": "KCPS 011853Z VRB03KT 10SM SCT035 27/20 A2999 RMK AO2 SLP153 T02720200 $",
    "windDirection": null,
    "windSpeed": null,
    "windGust": null,
    "visibility": 10,
    "temperatureC": 27,
    "dewPointC": 20,
    "cloudCeiling": null,
    "altimeter": "A2999",
    "timestamp": "2026-06-01T18:53:00+00:00",
    "station": "KCPS"
  },
  "kstl": {
    "metar": "KSTL 011851Z 19006KT 10SM FEW037 28/17 A3001 RMK AO2 SLP151 T02780172 $",
    "windDirection": 190,
    "windSpeed": 6,
    "windGust": null,
    "visibility": 10,
    "temperatureC": 28,
    "dewPointC": 17,
    "cloudCeiling": null,
    "altimeter": "A3001",
    "timestamp": "2026-06-01T18:51:00+00:00",
    "station": "KSTL"
  }
}