{
  "lastUpdated": "2026-02-20T22:53:38.641224+00:00",
  "kcps": {
    "metar": "KCPS 202153Z 25007KT 220V280 10SM CLR 07/M06 A2994 RMK AO2 SLP142 T00721061 PNO $",
    "windDirection": 250,
    "windSpeed": 7,
    "windGust": null,
    "visibility": 10,
    "temperatureC": 7,
    "dewPointC": -6,
    "cloudCeiling": 99999,
    "altimeter": "A2994",
    "timestamp": "2026-02-20T21:53:00+00:00",
    "station": "KCPS"
  },
  "kstl": {
    "metar": "KSTL 202151Z 31011KT 10SM CLR 07/M06 A2994 RMK AO2 SLP145 T00721061 $",
    "windDirection": 310,
    "windSpeed": 11,
    "windGust": null,
    "visibility": 10,
    "temperatureC": 7,
    "dewPointC": -6,
    "cloudCeiling": 99999,
    "altimeter": "A2994",
    "timestamp": "2026-02-20T21:51:00+00:00",
    "station": "KSTL"
  }
}