{
  "lastUpdated": "2026-03-15T23:05:48.760640+00:00",
  "kcps": {
    "metar": "KCPS 152301Z 28024G38KT 4SM TSRA BR SCT012 BKN017 OVC042 07/06 A2945 RMK AO2 PK WND 30038/2301 LTG DSNT NE-S PRESRR P0002 T00720056 $",
    "windDirection": 280,
    "windSpeed": 24,
    "windGust": 38,
    "visibility": 4,
    "temperatureC": 7,
    "dewPointC": 6,
    "cloudCeiling": 1700,
    "altimeter": "A2945",
    "timestamp": "2026-03-15T23:01:00+00:00",
    "station": "KCPS"
  },
  "kstl": {
    "metar": "KSTL 152251Z 28026G38KT 4SM -TSRA BR SCT013 BKN019CB OVC046 06/04 A2942 RMK AO2 PK WND 29038/2251 WSHFT 2138 SLP962 OCNL LTGICCG S-N CB S-N MOV NE P0051 T00610044 $",
    "windDirection": 280,
    "windSpeed": 26,
    "windGust": 38,
    "visibility": 4,
    "temperatureC": 6,
    "dewPointC": 4,
    "cloudCeiling": 1900,
    "altimeter": "A2942",
    "timestamp": "2026-03-15T22:51:00+00:00",
    "station": "KSTL"
  }
}