{
  "lastUpdated": "2025-11-30T15:46:25.086771+00:00",
  "kcps": {
    "metar": "KCPS 301453Z 30012G24KT 10SM CLR M03/M09 A3035 RMK AO2 PK WND 30027/1418 SLP281 T10331089 51023 $",
    "windDirection": 300,
    "windSpeed": 12,
    "windGust": 24,
    "visibility": 10,
    "temperatureC": -3,
    "dewPointC": -9,
    "cloudCeiling": 99999,
    "altimeter": "A3035",
    "timestamp": "2025-11-30T14:53:00+00:00",
    "station": "KCPS"
  },
  "kstl": {
    "metar": "KSTL 301451Z 29018G27KT 10SM FEW030 SCT250 M04/M10 A3035 RMK AO2 PK WND 28028/1414 SLP288 T10441100 52023 $",
    "windDirection": 290,
    "windSpeed": 18,
    "windGust": 27,
    "visibility": 10,
    "temperatureC": -4,
    "dewPointC": -10,
    "cloudCeiling": null,
    "altimeter": "A3035",
    "timestamp": "2025-11-30T14:51:00+00:00",
    "station": "KSTL"
  }
}