{
  "lastUpdated": "2026-04-04T09:59:01.316488+00:00",
  "kcps": {
    "metar": "KCPS 040953Z AUTO 00000KT 10SM FEW042 OVC100 19/17 A2992 RMK AO2 RAE23B24E45 SLP128 P0001 T01890172 $",
    "windDirection": 0,
    "windSpeed": 0,
    "windGust": null,
    "visibility": 10,
    "temperatureC": 19,
    "dewPointC": 17,
    "cloudCeiling": 10000,
    "altimeter": "A2992",
    "timestamp": "2026-04-04T09:53:00+00:00",
    "station": "KCPS"
  },
  "kstl": {
    "metar": "KSTL 040951Z 23009KT 8SM -RA SCT050 BKN060 OVC080 18/16 A2993 RMK AO2 SLP126 P0003 T01780161 $",
    "windDirection": 230,
    "windSpeed": 9,
    "windGust": null,
    "visibility": 8,
    "temperatureC": 18,
    "dewPointC": 16,
    "cloudCeiling": 6000,
    "altimeter": "A2993",
    "timestamp": "2026-04-04T09:51:00+00:00",
    "station": "KSTL"
  }
}