{
  "lastUpdated": "2026-05-20T05:11:02.132113+00:00",
  "kcps": {
    "metar": "KCPS 200501Z AUTO 35013KT 10SM BKN015 OVC039 17/14 A3013 RMK AO2 T01720144 $",
    "windDirection": 350,
    "windSpeed": 13,
    "windGust": null,
    "visibility": 10,
    "temperatureC": 17,
    "dewPointC": 14,
    "cloudCeiling": 1500,
    "altimeter": "A3013",
    "timestamp": "2026-05-20T05:01:00+00:00",
    "station": "KCPS"
  },
  "kstl": {
    "metar": "KSTL 200451Z 35010G19KT 10SM OVC013 16/13 A3015 RMK AO2 SLP201 T01610133 $",
    "windDirection": 350,
    "windSpeed": 10,
    "windGust": 19,
    "visibility": 10,
    "temperatureC": 16,
    "dewPointC": 13,
    "cloudCeiling": 1300,
    "altimeter": "A3015",
    "timestamp": "2026-05-20T04:51:00+00:00",
    "station": "KSTL"
  }
}