{
  "lastUpdated": "2025-10-16T11:02:22.895295+00:00",
  "kcps": {
    "metar": "KCPS 160953Z AUTO 00000KT 10SM BKN100 15/14 A3010 RMK AO2 SLP191 T01500144",
    "windDirection": 0,
    "windSpeed": 0,
    "windGust": null,
    "visibility": 10,
    "temperatureC": 15,
    "dewPointC": 14,
    "cloudCeiling": 10000,
    "altimeter": "A3010",
    "timestamp": "2025-10-16T09:53:00+00:00",
    "station": "KCPS"
  },
  "kstl": {
    "metar": "KSTL 161051Z 12006KT 10SM FEW100 17/14 A3012 RMK AO2 SLP189 T01720139",
    "windDirection": 120,
    "windSpeed": 6,
    "windGust": null,
    "visibility": 10,
    "temperatureC": 17,
    "dewPointC": 14,
    "cloudCeiling": null,
    "altimeter": "A3012",
    "timestamp": "2025-10-16T10:51:00+00:00",
    "station": "KSTL"
  }
}