{
  "lastUpdated": "2025-12-23T14:49:29.623559+00:00",
  "kcps": {
    "metar": "KCPS 231443Z 25004KT 9SM SCT016 12/12 A3015 RMK AO2 T01220117 $",
    "windDirection": 250,
    "windSpeed": 4,
    "windGust": null,
    "visibility": 9,
    "temperatureC": 12,
    "dewPointC": 12,
    "cloudCeiling": null,
    "altimeter": "A3015",
    "timestamp": "2025-12-23T14:43:00+00:00",
    "station": "KCPS"
  },
  "kstl": {
    "metar": "KSTL 231422Z 23007KT 7SM OVC007 11/10 A3014 RMK AO2 T01110100 $",
    "windDirection": 230,
    "windSpeed": 7,
    "windGust": null,
    "visibility": 7,
    "temperatureC": 11,
    "dewPointC": 10,
    "cloudCeiling": 700,
    "altimeter": "A3014",
    "timestamp": "2025-12-23T14:22:00+00:00",
    "station": "KSTL"
  }
}