{
  "lastUpdated": "2026-04-17T20:48:01.447820+00:00",
  "kcps": {
    "station": "KCPS",
    "metar": null,
    "error": "Failed to fetch METAR"
  },
  "kstl": {
    "metar": "KSTL 172027Z 17014G28KT 10SM TS FEW060CB SCT080 OVC200 28/17 A2976 RMK AO2 PK WND 19028/2024 TSB26 OCNL LTGICCG SW-W TS SW-W MOV NE T02830167 $",
    "windDirection": 170,
    "windSpeed": 14,
    "windGust": 28,
    "visibility": 10,
    "temperatureC": 28,
    "dewPointC": 17,
    "cloudCeiling": 20000,
    "altimeter": "A2976",
    "timestamp": "2026-04-17T20:27:00+00:00",
    "station": "KSTL"
  }
}