{
  "lastUpdated": "2026-04-26T11:48:41.498949+00:00",
  "kcps": {
    "metar": "KCPS 261053Z AUTO VRB03KT 10SM CLR 12/09 A2992 RMK AO2 SLP130 T01170094 $",
    "windDirection": null,
    "windSpeed": null,
    "windGust": null,
    "visibility": 10,
    "temperatureC": 12,
    "dewPointC": 9,
    "cloudCeiling": 99999,
    "altimeter": "A2992",
    "timestamp": "2026-04-26T10:53:00+00:00",
    "station": "KCPS"
  },
  "kstl": {
    "metar": "KSTL 261051Z 09005KT 10SM FEW250 12/09 A2993 RMK AO2 SLP127 T01170089 $",
    "windDirection": 90,
    "windSpeed": 5,
    "windGust": null,
    "visibility": 10,
    "temperatureC": 12,
    "dewPointC": 9,
    "cloudCeiling": null,
    "altimeter": "A2993",
    "timestamp": "2026-04-26T10:51:00+00:00",
    "station": "KSTL"
  }
}