{
  "lastUpdated": "2025-12-07T19:46:28.719535+00:00",
  "kcps": {
    "metar": "KCPS 071940Z 34015KT 4SM BR OVC009 02/00 A3012 RMK AO2 CIG 007V012 T00170000 $",
    "windDirection": 340,
    "windSpeed": 15,
    "windGust": null,
    "visibility": 4,
    "temperatureC": 2,
    "dewPointC": 0,
    "cloudCeiling": 900,
    "altimeter": "A3012",
    "timestamp": "2025-12-07T19:40:00+00:00",
    "station": "KCPS"
  },
  "kstl": {
    "metar": "KSTL 071900Z 36014KT 4SM BR OVC008 01/00 A3011 RMK AO2 T00110000 $",
    "windDirection": 360,
    "windSpeed": 14,
    "windGust": null,
    "visibility": 4,
    "temperatureC": 1,
    "dewPointC": 0,
    "cloudCeiling": 800,
    "altimeter": "A3011",
    "timestamp": "2025-12-07T19:00:00+00:00",
    "station": "KSTL"
  }
}