{
  "lastUpdated": "2026-03-16T14:40:10.790617+00:00",
  "kcps": {
    "metar": "KCPS 161422Z 30016G23KT 9SM OVC032 M05/M11 A2996 RMK AO2 PK WND 29032/1358 SNE22 P0000 T10501106 $",
    "windDirection": 300,
    "windSpeed": 16,
    "windGust": 23,
    "visibility": 9,
    "temperatureC": -5,
    "dewPointC": -11,
    "cloudCeiling": 3200,
    "altimeter": "A2996",
    "timestamp": "2026-03-16T14:22:00+00:00",
    "station": "KCPS"
  },
  "kstl": {
    "metar": "KSTL 161401Z 29020G36KT 8SM -SN BKN024 OVC033 M07/M12 A2995 RMK AO2 PK WND 31036/1353 P0000 T10671117 $",
    "windDirection": 290,
    "windSpeed": 20,
    "windGust": 36,
    "visibility": 8,
    "temperatureC": -7,
    "dewPointC": -12,
    "cloudCeiling": 2400,
    "altimeter": "A2995",
    "timestamp": "2026-03-16T14:01:00+00:00",
    "station": "KSTL"
  }
}