{
  "lastUpdated": "2026-04-06T09:25:28.489475+00:00",
  "kcps": {
    "metar": "KCPS 060853Z AUTO 00000KT 10SM CLR 03/02 A3027 RMK AO2 SLP252 T00330022 58013 $",
    "windDirection": 0,
    "windSpeed": 0,
    "windGust": null,
    "visibility": 10,
    "temperatureC": 3,
    "dewPointC": 2,
    "cloudCeiling": 99999,
    "altimeter": "A3027",
    "timestamp": "2026-04-06T08:53:00+00:00",
    "station": "KCPS"
  },
  "kstl": {
    "metar": "KSTL 060851Z 26005KT 10SM CLR 08/02 A3027 RMK AO2 SLP252 T00780017 58013 $",
    "windDirection": 260,
    "windSpeed": 5,
    "windGust": null,
    "visibility": 10,
    "temperatureC": 8,
    "dewPointC": 2,
    "cloudCeiling": 99999,
    "altimeter": "A3027",
    "timestamp": "2026-04-06T08:51:00+00:00",
    "station": "KSTL"
  }
}