{
  "lastUpdated": "2026-01-24T09:35:02.557144+00:00",
  "kcps": {
    "metar": "KCPS 240853Z AUTO 04011KT 10SM OVC080 M16/M27 A3069 RMK AO2 SLP402 T11561267 56008 $",
    "windDirection": 40,
    "windSpeed": 11,
    "windGust": null,
    "visibility": 10,
    "temperatureC": -16,
    "dewPointC": -27,
    "cloudCeiling": 8000,
    "altimeter": "A3069",
    "timestamp": "2026-01-24T08:53:00+00:00",
    "station": "KCPS"
  },
  "kstl": {
    "metar": "KSTL 240851Z 03009KT 10SM BKN075 OVC090 M16/M27 A3067 RMK AO2 SLP412 T11611272 56008 $",
    "windDirection": 30,
    "windSpeed": 9,
    "windGust": null,
    "visibility": 10,
    "temperatureC": -16,
    "dewPointC": -27,
    "cloudCeiling": 7500,
    "altimeter": "A3067",
    "timestamp": "2026-01-24T08:51:00+00:00",
    "station": "KSTL"
  }
}