{
  "lastUpdated": "2026-06-07T02:38:25.317373+00:00",
  "kcps": {
    "metar": "KCPS 070153Z 00000KT 10SM CLR 27/21 A2989 RMK AO2 SLP119 T02670211 $",
    "windDirection": 0,
    "windSpeed": 0,
    "windGust": null,
    "visibility": 10,
    "temperatureC": 27,
    "dewPointC": 21,
    "cloudCeiling": 99999,
    "altimeter": "A2989",
    "timestamp": "2026-06-07T01:53:00+00:00",
    "station": "KCPS"
  },
  "kstl": {
    "metar": "KSTL 070151Z VRB04KT 10SM BKN200 BKN250 27/20 A2990 RMK AO2 SLP113 T02670200 $",
    "windDirection": null,
    "windSpeed": null,
    "windGust": null,
    "visibility": 10,
    "temperatureC": 27,
    "dewPointC": 20,
    "cloudCeiling": 20000,
    "altimeter": "A2990",
    "timestamp": "2026-06-07T01:51:00+00:00",
    "station": "KSTL"
  }
}