{
  "lastUpdated": "2025-11-15T15:32:36.987254+00:00",
  "kcps": {
    "metar": "KCPS 151453Z 20009G16KT 10SM CLR 19/15 A2973 RMK AO2 SLP067 T01940150 58007 $",
    "windDirection": 200,
    "windSpeed": 9,
    "windGust": 16,
    "visibility": 10,
    "temperatureC": 19,
    "dewPointC": 15,
    "cloudCeiling": 99999,
    "altimeter": "A2973",
    "timestamp": "2025-11-15T14:53:00+00:00",
    "station": "KCPS"
  },
  "kstl": {
    "metar": "KSTL 151451Z 23011KT 10SM BKN250 20/15 A2974 RMK AO2 SLP063 T02000150 57004 $",
    "windDirection": 230,
    "windSpeed": 11,
    "windGust": null,
    "visibility": 10,
    "temperatureC": 20,
    "dewPointC": 15,
    "cloudCeiling": 25000,
    "altimeter": "A2974",
    "timestamp": "2025-11-15T14:51:00+00:00",
    "station": "KSTL"
  }
}